<?xml version="1.0" encoding="UTF-8"?>
<kml xmlns="http://www.opengis.net/kml/2.2">
  <Document>
    <name>AL012025</name>
    <open>0</open>

    <!-- =====  Document header ===== -->
    <description><![CDATA[
      <table>
        <tr><td><b>Title:</b> Tropical Cyclone Best Track for AL012025</td></tr>
      </table>
    ]]></description>

    <!-- =====  Styles (ids must be unique)  ===== -->
	<Style id="pt"> 
		<IconStyle> 
			<scale>1.0</scale> 
			<Icon> 
				<href>ex_nhemi.png</href> 
			</Icon> 
             <hotSpot x="15" y="17" xunits="pixels" yunits="pixels"/>
		</IconStyle> 
		<LabelStyle> 
			<scale>1.0</scale> 
		</LabelStyle> 
	</Style>
	<Style id="cat5"> 
		<IconStyle> 
			<scale>1.0</scale> 
			<Icon> 
				<href>cat5_nhemi.png</href> 
			</Icon> 
             <hotSpot x="15" y="17" xunits="pixels" yunits="pixels"/>
		</IconStyle> 
		<LabelStyle> 
			<scale>1.0</scale> 
		</LabelStyle> 
	</Style>
	<Style id="db"> 
		<IconStyle> 
			<scale>1.0</scale> 
			<Icon> 
				<href>ex_nhemi.png</href> 
			</Icon> 
             <hotSpot x="15" y="17" xunits="pixels" yunits="pixels"/>
		</IconStyle> 
		<LabelStyle> 
			<scale>1.0</scale> 
		</LabelStyle> 
	</Style>
	<Style id="cat3"> 
		<IconStyle> 
			<scale>1.0</scale> 
			<Icon> 
				<href>cat3_nhemi.png</href> 
			</Icon> 
             <hotSpot x="15" y="17" xunits="pixels" yunits="pixels"/>
		</IconStyle> 
		<LabelStyle> 
			<scale>1.0</scale> 
		</LabelStyle> 
	</Style>
	<Style id="ss"> 
		<IconStyle> 
			<scale>1.0</scale> 
			<Icon> 
				<href>ts_nhemi.png</href> 
			</Icon> 
             <hotSpot x="15" y="17" xunits="pixels" yunits="pixels"/>
		</IconStyle> 
		<LabelStyle> 
			<scale>1.0</scale> 
		</LabelStyle> 
	</Style>
	<Style id="lo"> 
		<IconStyle> 
			<scale>1.0</scale> 
			<Icon> 
				<href>ex_nhemi.png</href> 
			</Icon> 
             <hotSpot x="15" y="17" xunits="pixels" yunits="pixels"/>
		</IconStyle> 
		<LabelStyle> 
			<scale>1.0</scale> 
		</LabelStyle> 
	</Style>
	<Style id="cat4"> 
		<IconStyle> 
			<scale>1.0</scale> 
			<Icon> 
				<href>cat4_nhemi.png</href> 
			</Icon> 
             <hotSpot x="15" y="17" xunits="pixels" yunits="pixels"/>
		</IconStyle> 
		<LabelStyle> 
			<scale>1.0</scale> 
		</LabelStyle> 
	</Style>
	<Style id="cat2"> 
		<IconStyle> 
			<scale>1.0</scale> 
			<Icon> 
				<href>cat2_nhemi.png</href> 
			</Icon> 
             <hotSpot x="15" y="17" xunits="pixels" yunits="pixels"/>
		</IconStyle> 
		<LabelStyle> 
			<scale>1.0</scale> 
		</LabelStyle> 
	</Style>
	<Style id="ts"> 
		<IconStyle> 
			<scale>1.0</scale> 
			<Icon> 
				<href>ts_nhemi.png</href> 
			</Icon> 
             <hotSpot x="15" y="17" xunits="pixels" yunits="pixels"/>
		</IconStyle> 
		<LabelStyle> 
			<scale>1.0</scale> 
		</LabelStyle> 
	</Style>
	<Style id="cat1"> 
		<IconStyle> 
			<scale>1.0</scale> 
			<Icon> 
				<href>cat1_nhemi.png</href> 
			</Icon> 
             <hotSpot x="15" y="17" xunits="pixels" yunits="pixels"/>
		</IconStyle> 
		<LabelStyle> 
			<scale>1.0</scale> 
		</LabelStyle> 
	</Style>
	<Style id="ex"> 
		<IconStyle> 
			<scale>1.0</scale> 
			<Icon> 
				<href>ex_nhemi.png</href> 
			</Icon> 
             <hotSpot x="15" y="17" xunits="pixels" yunits="pixels"/>
		</IconStyle> 
		<LabelStyle> 
			<scale>1.0</scale> 
		</LabelStyle> 
	</Style>
	<Style id="tc"> 
		<IconStyle> 
			<scale>1.0</scale> 
			<Icon> 
				<href>ex_nhemi.png</href> 
			</Icon> 
             <hotSpot x="15" y="17" xunits="pixels" yunits="pixels"/>
		</IconStyle> 
		<LabelStyle> 
			<scale>1.0</scale> 
		</LabelStyle> 
	</Style>
	<Style id="wv"> 
		<IconStyle> 
			<scale>1.0</scale> 
			<Icon> 
				<href>ex_nhemi.png</href> 
			</Icon> 
             <hotSpot x="15" y="17" xunits="pixels" yunits="pixels"/>
		</IconStyle> 
		<LabelStyle> 
			<scale>1.0</scale> 
		</LabelStyle> 
	</Style>
	<Style id="td"> 
		<IconStyle> 
			<scale>1.0</scale> 
			<Icon> 
				<href>td_nhemi.png</href> 
			</Icon> 
             <hotSpot x="15" y="17" xunits="pixels" yunits="pixels"/>
		</IconStyle> 
		<LabelStyle> 
			<scale>1.0</scale> 
		</LabelStyle> 
	</Style>
	<Style id="sd"> 
		<IconStyle> 
			<scale>1.0</scale> 
			<Icon> 
				<href>ex_nhemi.png</href> 
			</Icon> 
             <hotSpot x="15" y="17" xunits="pixels" yunits="pixels"/>
		</IconStyle> 
		<LabelStyle> 
			<scale>1.0</scale> 
		</LabelStyle> 
	</Style>

    <Placemark>
      <name>0000 UTC JUN 22</name>
      <styleUrl>#lo</styleUrl>
      <description><![CDATA[
        <table>
          <tr><td>LO ANDREA (AL012025)</td></tr>
          <tr><td><hr></td></tr>
          <tr><td>0000 UTC JUN 22, 2025</td></tr>
          <tr><td>Storm Location:</td></tr>
          <tr><td><b>30.0 N, 57.6 W</b></td></tr>
          <tr><td>Min Sea Level Pressure:</td></tr>
          <tr><td>1017 mb / 30.03 in Hg</td></tr>
          <tr><td>Maximum Intensity:</td></tr>
          <tr><td>20 kt / 23 mph / 37 kph</td></tr>
        </table>
      ]]></description>
      <Point><coordinates>-57.6,30</coordinates></Point>
    </Placemark>
    <Placemark>
      <name>0600 UTC JUN 22</name>
      <styleUrl>#lo</styleUrl>
      <description><![CDATA[
        <table>
          <tr><td>LO ANDREA (AL012025)</td></tr>
          <tr><td><hr></td></tr>
          <tr><td>0600 UTC JUN 22, 2025</td></tr>
          <tr><td>Storm Location:</td></tr>
          <tr><td><b>30.5 N, 57.6 W</b></td></tr>
          <tr><td>Min Sea Level Pressure:</td></tr>
          <tr><td>1017 mb / 30.03 in Hg</td></tr>
          <tr><td>Maximum Intensity:</td></tr>
          <tr><td>20 kt / 23 mph / 37 kph</td></tr>
        </table>
      ]]></description>
      <Point><coordinates>-57.6,30.5</coordinates></Point>
    </Placemark>
    <Placemark>
      <name>1200 UTC JUN 22</name>
      <styleUrl>#lo</styleUrl>
      <description><![CDATA[
        <table>
          <tr><td>LO ANDREA (AL012025)</td></tr>
          <tr><td><hr></td></tr>
          <tr><td>1200 UTC JUN 22, 2025</td></tr>
          <tr><td>Storm Location:</td></tr>
          <tr><td><b>31.0 N, 57.6 W</b></td></tr>
          <tr><td>Min Sea Level Pressure:</td></tr>
          <tr><td>1017 mb / 30.03 in Hg</td></tr>
          <tr><td>Maximum Intensity:</td></tr>
          <tr><td>25 kt / 29 mph / 46 kph</td></tr>
        </table>
      ]]></description>
      <Point><coordinates>-57.6,31</coordinates></Point>
    </Placemark>
    <Placemark>
      <name>1800 UTC JUN 22</name>
      <styleUrl>#lo</styleUrl>
      <description><![CDATA[
        <table>
          <tr><td>LO ANDREA (AL012025)</td></tr>
          <tr><td><hr></td></tr>
          <tr><td>1800 UTC JUN 22, 2025</td></tr>
          <tr><td>Storm Location:</td></tr>
          <tr><td><b>31.5 N, 57.4 W</b></td></tr>
          <tr><td>Min Sea Level Pressure:</td></tr>
          <tr><td>1017 mb / 30.03 in Hg</td></tr>
          <tr><td>Maximum Intensity:</td></tr>
          <tr><td>25 kt / 29 mph / 46 kph</td></tr>
        </table>
      ]]></description>
      <Point><coordinates>-57.4,31.5</coordinates></Point>
    </Placemark>
    <Placemark>
      <name>0000 UTC JUN 23</name>
      <styleUrl>#lo</styleUrl>
      <description><![CDATA[
        <table>
          <tr><td>LO ANDREA (AL012025)</td></tr>
          <tr><td><hr></td></tr>
          <tr><td>0000 UTC JUN 23, 2025</td></tr>
          <tr><td>Storm Location:</td></tr>
          <tr><td><b>32.0 N, 57.0 W</b></td></tr>
          <tr><td>Min Sea Level Pressure:</td></tr>
          <tr><td>1016 mb / 30.00 in Hg</td></tr>
          <tr><td>Maximum Intensity:</td></tr>
          <tr><td>30 kt / 35 mph / 56 kph</td></tr>
        </table>
      ]]></description>
      <Point><coordinates>-57,32</coordinates></Point>
    </Placemark>
    <Placemark>
      <name>0600 UTC JUN 23</name>
      <styleUrl>#td</styleUrl>
      <description><![CDATA[
        <table>
          <tr><td>TD ANDREA (AL012025)</td></tr>
          <tr><td><hr></td></tr>
          <tr><td>0600 UTC JUN 23, 2025</td></tr>
          <tr><td>Storm Location:</td></tr>
          <tr><td><b>32.6 N, 56.3 W</b></td></tr>
          <tr><td>Min Sea Level Pressure:</td></tr>
          <tr><td>1015 mb / 29.97 in Hg</td></tr>
          <tr><td>Maximum Intensity:</td></tr>
          <tr><td>30 kt / 35 mph / 56 kph</td></tr>
        </table>
      ]]></description>
      <Point><coordinates>-56.3,32.6</coordinates></Point>
    </Placemark>
    <Placemark>
      <name>1200 UTC JUN 23</name>
      <styleUrl>#ts</styleUrl>
      <description><![CDATA[
        <table>
          <tr><td>TS ANDREA (AL012025)</td></tr>
          <tr><td><hr></td></tr>
          <tr><td>1200 UTC JUN 23, 2025</td></tr>
          <tr><td>Storm Location:</td></tr>
          <tr><td><b>33.2 N, 55.2 W</b></td></tr>
          <tr><td>Min Sea Level Pressure:</td></tr>
          <tr><td>1014 mb / 29.94 in Hg</td></tr>
          <tr><td>Maximum Intensity:</td></tr>
          <tr><td>35 kt / 40 mph / 65 kph</td></tr>
        </table>
      ]]></description>
      <Point><coordinates>-55.2,33.2</coordinates></Point>
    </Placemark>
    <Placemark>
      <name>1800 UTC JUN 23</name>
      <styleUrl>#ts</styleUrl>
      <description><![CDATA[
        <table>
          <tr><td>TS ANDREA (AL012025)</td></tr>
          <tr><td><hr></td></tr>
          <tr><td>1800 UTC JUN 23, 2025</td></tr>
          <tr><td>Storm Location:</td></tr>
          <tr><td><b>33.9 N, 54.2 W</b></td></tr>
          <tr><td>Min Sea Level Pressure:</td></tr>
          <tr><td>1014 mb / 29.94 in Hg</td></tr>
          <tr><td>Maximum Intensity:</td></tr>
          <tr><td>35 kt / 40 mph / 65 kph</td></tr>
        </table>
      ]]></description>
      <Point><coordinates>-54.2,33.9</coordinates></Point>
    </Placemark>
    <Placemark>
      <name>0000 UTC JUN 24</name>
      <styleUrl>#ts</styleUrl>
      <description><![CDATA[
        <table>
          <tr><td>TS ANDREA (AL012025)</td></tr>
          <tr><td><hr></td></tr>
          <tr><td>0000 UTC JUN 24, 2025</td></tr>
          <tr><td>Storm Location:</td></tr>
          <tr><td><b>34.6 N, 53.0 W</b></td></tr>
          <tr><td>Min Sea Level Pressure:</td></tr>
          <tr><td>1014 mb / 29.94 in Hg</td></tr>
          <tr><td>Maximum Intensity:</td></tr>
          <tr><td>35 kt / 40 mph / 65 kph</td></tr>
        </table>
      ]]></description>
      <Point><coordinates>-53,34.6</coordinates></Point>
    </Placemark>
    <Placemark>
      <name>0600 UTC JUN 24</name>
      <styleUrl>#ts</styleUrl>
      <description><![CDATA[
        <table>
          <tr><td>TS ANDREA (AL012025)</td></tr>
          <tr><td><hr></td></tr>
          <tr><td>0600 UTC JUN 24, 2025</td></tr>
          <tr><td>Storm Location:</td></tr>
          <tr><td><b>35.4 N, 51.5 W</b></td></tr>
          <tr><td>Min Sea Level Pressure:</td></tr>
          <tr><td>1014 mb / 29.94 in Hg</td></tr>
          <tr><td>Maximum Intensity:</td></tr>
          <tr><td>35 kt / 40 mph / 65 kph</td></tr>
        </table>
      ]]></description>
      <Point><coordinates>-51.5,35.4</coordinates></Point>
    </Placemark>
    <Placemark>
      <name>1200 UTC JUN 24</name>
      <styleUrl>#ts</styleUrl>
      <description><![CDATA[
        <table>
          <tr><td>TS ANDREA (AL012025)</td></tr>
          <tr><td><hr></td></tr>
          <tr><td>1200 UTC JUN 24, 2025</td></tr>
          <tr><td>Storm Location:</td></tr>
          <tr><td><b>36.3 N, 49.8 W</b></td></tr>
          <tr><td>Min Sea Level Pressure:</td></tr>
          <tr><td>1014 mb / 29.94 in Hg</td></tr>
          <tr><td>Maximum Intensity:</td></tr>
          <tr><td>35 kt / 40 mph / 65 kph</td></tr>
        </table>
      ]]></description>
      <Point><coordinates>-49.8,36.3</coordinates></Point>
    </Placemark>
    <Placemark>
      <name>1800 UTC JUN 24</name>
      <styleUrl>#lo</styleUrl>
      <description><![CDATA[
        <table>
          <tr><td>LO ANDREA (AL012025)</td></tr>
          <tr><td><hr></td></tr>
          <tr><td>1800 UTC JUN 24, 2025</td></tr>
          <tr><td>Storm Location:</td></tr>
          <tr><td><b>37.3 N, 48.2 W</b></td></tr>
          <tr><td>Min Sea Level Pressure:</td></tr>
          <tr><td>1014 mb / 29.94 in Hg</td></tr>
          <tr><td>Maximum Intensity:</td></tr>
          <tr><td>35 kt / 40 mph / 65 kph</td></tr>
        </table>
      ]]></description>
      <Point><coordinates>-48.2,37.3</coordinates></Point>
    </Placemark>
    <Placemark>
      <name>0000 UTC JUN 25</name>
      <styleUrl>#lo</styleUrl>
      <description><![CDATA[
        <table>
          <tr><td>LO ANDREA (AL012025)</td></tr>
          <tr><td><hr></td></tr>
          <tr><td>0000 UTC JUN 25, 2025</td></tr>
          <tr><td>Storm Location:</td></tr>
          <tr><td><b>38.2 N, 46.6 W</b></td></tr>
          <tr><td>Min Sea Level Pressure:</td></tr>
          <tr><td>1015 mb / 29.97 in Hg</td></tr>
          <tr><td>Maximum Intensity:</td></tr>
          <tr><td>30 kt / 35 mph / 56 kph</td></tr>
        </table>
      ]]></description>
      <Point><coordinates>-46.6,38.2</coordinates></Point>
    </Placemark>
    <Placemark>
      <name>0600 UTC JUN 25</name>
      <styleUrl>#lo</styleUrl>
      <description><![CDATA[
        <table>
          <tr><td>LO ANDREA (AL012025)</td></tr>
          <tr><td><hr></td></tr>
          <tr><td>0600 UTC JUN 25, 2025</td></tr>
          <tr><td>Storm Location:</td></tr>
          <tr><td><b>38.8 N, 44.7 W</b></td></tr>
          <tr><td>Min Sea Level Pressure:</td></tr>
          <tr><td>1015 mb / 29.97 in Hg</td></tr>
          <tr><td>Maximum Intensity:</td></tr>
          <tr><td>30 kt / 35 mph / 56 kph</td></tr>
        </table>
      ]]></description>
      <Point><coordinates>-44.7,38.8</coordinates></Point>
    </Placemark>
    <Placemark>
      <name>1200 UTC JUN 25</name>
      <styleUrl>#lo</styleUrl>
      <description><![CDATA[
        <table>
          <tr><td>LO ANDREA (AL012025)</td></tr>
          <tr><td><hr></td></tr>
          <tr><td>1200 UTC JUN 25, 2025</td></tr>
          <tr><td>Storm Location:</td></tr>
          <tr><td><b>39.3 N, 42.2 W</b></td></tr>
          <tr><td>Min Sea Level Pressure:</td></tr>
          <tr><td>1015 mb / 29.97 in Hg</td></tr>
          <tr><td>Maximum Intensity:</td></tr>
          <tr><td>30 kt / 35 mph / 56 kph</td></tr>
        </table>
      ]]></description>
      <Point><coordinates>-42.2,39.3</coordinates></Point>
    </Placemark>
  </Document>
</kml>
