<?xml version="1.0" encoding="UTF-8"?>
<kml xmlns="http://www.opengis.net/kml/2.2">
  <Document>
    <name>AL042025</name>
    <open>0</open>

    <!-- =====  Document header ===== -->
    <description><![CDATA[
      <table>
        <tr><td><b>Title:</b> Tropical Cyclone Best Track for AL042025</td></tr>
      </table>
    ]]></description>

    <!-- =====  Styles (ids must be unique)  ===== -->
	<Style id="pt"> 
		<IconStyle> 
			<scale>1.0</scale> 
			<Icon> 
				<href>ex_nhemi.png</href> 
			</Icon> 
             <hotSpot x="15" y="17" xunits="pixels" yunits="pixels"/>
		</IconStyle> 
		<LabelStyle> 
			<scale>1.0</scale> 
		</LabelStyle> 
	</Style>
	<Style id="cat5"> 
		<IconStyle> 
			<scale>1.0</scale> 
			<Icon> 
				<href>cat5_nhemi.png</href> 
			</Icon> 
             <hotSpot x="15" y="17" xunits="pixels" yunits="pixels"/>
		</IconStyle> 
		<LabelStyle> 
			<scale>1.0</scale> 
		</LabelStyle> 
	</Style>
	<Style id="db"> 
		<IconStyle> 
			<scale>1.0</scale> 
			<Icon> 
				<href>ex_nhemi.png</href> 
			</Icon> 
             <hotSpot x="15" y="17" xunits="pixels" yunits="pixels"/>
		</IconStyle> 
		<LabelStyle> 
			<scale>1.0</scale> 
		</LabelStyle> 
	</Style>
	<Style id="cat3"> 
		<IconStyle> 
			<scale>1.0</scale> 
			<Icon> 
				<href>cat3_nhemi.png</href> 
			</Icon> 
             <hotSpot x="15" y="17" xunits="pixels" yunits="pixels"/>
		</IconStyle> 
		<LabelStyle> 
			<scale>1.0</scale> 
		</LabelStyle> 
	</Style>
	<Style id="ss"> 
		<IconStyle> 
			<scale>1.0</scale> 
			<Icon> 
				<href>ts_nhemi.png</href> 
			</Icon> 
             <hotSpot x="15" y="17" xunits="pixels" yunits="pixels"/>
		</IconStyle> 
		<LabelStyle> 
			<scale>1.0</scale> 
		</LabelStyle> 
	</Style>
	<Style id="lo"> 
		<IconStyle> 
			<scale>1.0</scale> 
			<Icon> 
				<href>ex_nhemi.png</href> 
			</Icon> 
             <hotSpot x="15" y="17" xunits="pixels" yunits="pixels"/>
		</IconStyle> 
		<LabelStyle> 
			<scale>1.0</scale> 
		</LabelStyle> 
	</Style>
	<Style id="cat4"> 
		<IconStyle> 
			<scale>1.0</scale> 
			<Icon> 
				<href>cat4_nhemi.png</href> 
			</Icon> 
             <hotSpot x="15" y="17" xunits="pixels" yunits="pixels"/>
		</IconStyle> 
		<LabelStyle> 
			<scale>1.0</scale> 
		</LabelStyle> 
	</Style>
	<Style id="cat2"> 
		<IconStyle> 
			<scale>1.0</scale> 
			<Icon> 
				<href>cat2_nhemi.png</href> 
			</Icon> 
             <hotSpot x="15" y="17" xunits="pixels" yunits="pixels"/>
		</IconStyle> 
		<LabelStyle> 
			<scale>1.0</scale> 
		</LabelStyle> 
	</Style>
	<Style id="ts"> 
		<IconStyle> 
			<scale>1.0</scale> 
			<Icon> 
				<href>ts_nhemi.png</href> 
			</Icon> 
             <hotSpot x="15" y="17" xunits="pixels" yunits="pixels"/>
		</IconStyle> 
		<LabelStyle> 
			<scale>1.0</scale> 
		</LabelStyle> 
	</Style>
	<Style id="cat1"> 
		<IconStyle> 
			<scale>1.0</scale> 
			<Icon> 
				<href>cat1_nhemi.png</href> 
			</Icon> 
             <hotSpot x="15" y="17" xunits="pixels" yunits="pixels"/>
		</IconStyle> 
		<LabelStyle> 
			<scale>1.0</scale> 
		</LabelStyle> 
	</Style>
	<Style id="ex"> 
		<IconStyle> 
			<scale>1.0</scale> 
			<Icon> 
				<href>ex_nhemi.png</href> 
			</Icon> 
             <hotSpot x="15" y="17" xunits="pixels" yunits="pixels"/>
		</IconStyle> 
		<LabelStyle> 
			<scale>1.0</scale> 
		</LabelStyle> 
	</Style>
	<Style id="tc"> 
		<IconStyle> 
			<scale>1.0</scale> 
			<Icon> 
				<href>ex_nhemi.png</href> 
			</Icon> 
             <hotSpot x="15" y="17" xunits="pixels" yunits="pixels"/>
		</IconStyle> 
		<LabelStyle> 
			<scale>1.0</scale> 
		</LabelStyle> 
	</Style>
	<Style id="wv"> 
		<IconStyle> 
			<scale>1.0</scale> 
			<Icon> 
				<href>ex_nhemi.png</href> 
			</Icon> 
             <hotSpot x="15" y="17" xunits="pixels" yunits="pixels"/>
		</IconStyle> 
		<LabelStyle> 
			<scale>1.0</scale> 
		</LabelStyle> 
	</Style>
	<Style id="td"> 
		<IconStyle> 
			<scale>1.0</scale> 
			<Icon> 
				<href>td_nhemi.png</href> 
			</Icon> 
             <hotSpot x="15" y="17" xunits="pixels" yunits="pixels"/>
		</IconStyle> 
		<LabelStyle> 
			<scale>1.0</scale> 
		</LabelStyle> 
	</Style>
	<Style id="sd"> 
		<IconStyle> 
			<scale>1.0</scale> 
			<Icon> 
				<href>ex_nhemi.png</href> 
			</Icon> 
             <hotSpot x="15" y="17" xunits="pixels" yunits="pixels"/>
		</IconStyle> 
		<LabelStyle> 
			<scale>1.0</scale> 
		</LabelStyle> 
	</Style>

    <Placemark>
      <name>1800 UTC AUG 2</name>
      <styleUrl>#ex</styleUrl>
      <description><![CDATA[
        <table>
          <tr><td>EX DEXTER (AL042025)</td></tr>
          <tr><td><hr></td></tr>
          <tr><td>1800 UTC AUG 2, 2025</td></tr>
          <tr><td>Storm Location:</td></tr>
          <tr><td><b>33.2 N, 75.6 W</b></td></tr>
          <tr><td>Min Sea Level Pressure:</td></tr>
          <tr><td>1013 mb / 29.91 in Hg</td></tr>
          <tr><td>Maximum Intensity:</td></tr>
          <tr><td>30 kt / 35 mph / 56 kph</td></tr>
        </table>
      ]]></description>
      <Point><coordinates>-75.6,33.2</coordinates></Point>
    </Placemark>
    <Placemark>
      <name>0000 UTC AUG 3</name>
      <styleUrl>#ex</styleUrl>
      <description><![CDATA[
        <table>
          <tr><td>EX DEXTER (AL042025)</td></tr>
          <tr><td><hr></td></tr>
          <tr><td>0000 UTC AUG 3, 2025</td></tr>
          <tr><td>Storm Location:</td></tr>
          <tr><td><b>32.9 N, 74.6 W</b></td></tr>
          <tr><td>Min Sea Level Pressure:</td></tr>
          <tr><td>1011 mb / 29.85 in Hg</td></tr>
          <tr><td>Maximum Intensity:</td></tr>
          <tr><td>35 kt / 40 mph / 65 kph</td></tr>
        </table>
      ]]></description>
      <Point><coordinates>-74.6,32.9</coordinates></Point>
    </Placemark>
    <Placemark>
      <name>0600 UTC AUG 3</name>
      <styleUrl>#ex</styleUrl>
      <description><![CDATA[
        <table>
          <tr><td>EX DEXTER (AL042025)</td></tr>
          <tr><td><hr></td></tr>
          <tr><td>0600 UTC AUG 3, 2025</td></tr>
          <tr><td>Storm Location:</td></tr>
          <tr><td><b>33.1 N, 73.5 W</b></td></tr>
          <tr><td>Min Sea Level Pressure:</td></tr>
          <tr><td>1010 mb / 29.83 in Hg</td></tr>
          <tr><td>Maximum Intensity:</td></tr>
          <tr><td>35 kt / 40 mph / 65 kph</td></tr>
        </table>
      ]]></description>
      <Point><coordinates>-73.5,33.1</coordinates></Point>
    </Placemark>
    <Placemark>
      <name>1200 UTC AUG 3</name>
      <styleUrl>#ex</styleUrl>
      <description><![CDATA[
        <table>
          <tr><td>EX DEXTER (AL042025)</td></tr>
          <tr><td><hr></td></tr>
          <tr><td>1200 UTC AUG 3, 2025</td></tr>
          <tr><td>Storm Location:</td></tr>
          <tr><td><b>33.4 N, 72.2 W</b></td></tr>
          <tr><td>Min Sea Level Pressure:</td></tr>
          <tr><td>1008 mb / 29.77 in Hg</td></tr>
          <tr><td>Maximum Intensity:</td></tr>
          <tr><td>35 kt / 40 mph / 65 kph</td></tr>
        </table>
      ]]></description>
      <Point><coordinates>-72.2,33.4</coordinates></Point>
    </Placemark>
    <Placemark>
      <name>1800 UTC AUG 3</name>
      <styleUrl>#ts</styleUrl>
      <description><![CDATA[
        <table>
          <tr><td>TS DEXTER (AL042025)</td></tr>
          <tr><td><hr></td></tr>
          <tr><td>1800 UTC AUG 3, 2025</td></tr>
          <tr><td>Storm Location:</td></tr>
          <tr><td><b>33.7 N, 71.0 W</b></td></tr>
          <tr><td>Min Sea Level Pressure:</td></tr>
          <tr><td>1007 mb / 29.74 in Hg</td></tr>
          <tr><td>Maximum Intensity:</td></tr>
          <tr><td>35 kt / 40 mph / 65 kph</td></tr>
        </table>
      ]]></description>
      <Point><coordinates>-71,33.7</coordinates></Point>
    </Placemark>
    <Placemark>
      <name>0000 UTC AUG 4</name>
      <styleUrl>#ts</styleUrl>
      <description><![CDATA[
        <table>
          <tr><td>TS DEXTER (AL042025)</td></tr>
          <tr><td><hr></td></tr>
          <tr><td>0000 UTC AUG 4, 2025</td></tr>
          <tr><td>Storm Location:</td></tr>
          <tr><td><b>34.0 N, 69.9 W</b></td></tr>
          <tr><td>Min Sea Level Pressure:</td></tr>
          <tr><td>1003 mb / 29.62 in Hg</td></tr>
          <tr><td>Maximum Intensity:</td></tr>
          <tr><td>40 kt / 46 mph / 74 kph</td></tr>
        </table>
      ]]></description>
      <Point><coordinates>-69.9,34</coordinates></Point>
    </Placemark>
    <Placemark>
      <name>0600 UTC AUG 4</name>
      <styleUrl>#ts</styleUrl>
      <description><![CDATA[
        <table>
          <tr><td>TS DEXTER (AL042025)</td></tr>
          <tr><td><hr></td></tr>
          <tr><td>0600 UTC AUG 4, 2025</td></tr>
          <tr><td>Storm Location:</td></tr>
          <tr><td><b>34.4 N, 68.8 W</b></td></tr>
          <tr><td>Min Sea Level Pressure:</td></tr>
          <tr><td>1003 mb / 29.62 in Hg</td></tr>
          <tr><td>Maximum Intensity:</td></tr>
          <tr><td>40 kt / 46 mph / 74 kph</td></tr>
        </table>
      ]]></description>
      <Point><coordinates>-68.8,34.4</coordinates></Point>
    </Placemark>
    <Placemark>
      <name>1200 UTC AUG 4</name>
      <styleUrl>#ts</styleUrl>
      <description><![CDATA[
        <table>
          <tr><td>TS DEXTER (AL042025)</td></tr>
          <tr><td><hr></td></tr>
          <tr><td>1200 UTC AUG 4, 2025</td></tr>
          <tr><td>Storm Location:</td></tr>
          <tr><td><b>35.0 N, 67.9 W</b></td></tr>
          <tr><td>Min Sea Level Pressure:</td></tr>
          <tr><td>1004 mb / 29.65 in Hg</td></tr>
          <tr><td>Maximum Intensity:</td></tr>
          <tr><td>40 kt / 46 mph / 74 kph</td></tr>
        </table>
      ]]></description>
      <Point><coordinates>-67.9,35</coordinates></Point>
    </Placemark>
    <Placemark>
      <name>1800 UTC AUG 4</name>
      <styleUrl>#ts</styleUrl>
      <description><![CDATA[
        <table>
          <tr><td>TS DEXTER (AL042025)</td></tr>
          <tr><td><hr></td></tr>
          <tr><td>1800 UTC AUG 4, 2025</td></tr>
          <tr><td>Storm Location:</td></tr>
          <tr><td><b>35.7 N, 66.9 W</b></td></tr>
          <tr><td>Min Sea Level Pressure:</td></tr>
          <tr><td>1005 mb / 29.68 in Hg</td></tr>
          <tr><td>Maximum Intensity:</td></tr>
          <tr><td>40 kt / 46 mph / 74 kph</td></tr>
        </table>
      ]]></description>
      <Point><coordinates>-66.9,35.7</coordinates></Point>
    </Placemark>
    <Placemark>
      <name>0000 UTC AUG 5</name>
      <styleUrl>#ts</styleUrl>
      <description><![CDATA[
        <table>
          <tr><td>TS DEXTER (AL042025)</td></tr>
          <tr><td><hr></td></tr>
          <tr><td>0000 UTC AUG 5, 2025</td></tr>
          <tr><td>Storm Location:</td></tr>
          <tr><td><b>36.4 N, 65.9 W</b></td></tr>
          <tr><td>Min Sea Level Pressure:</td></tr>
          <tr><td>1005 mb / 29.68 in Hg</td></tr>
          <tr><td>Maximum Intensity:</td></tr>
          <tr><td>40 kt / 46 mph / 74 kph</td></tr>
        </table>
      ]]></description>
      <Point><coordinates>-65.9,36.4</coordinates></Point>
    </Placemark>
    <Placemark>
      <name>0600 UTC AUG 5</name>
      <styleUrl>#ts</styleUrl>
      <description><![CDATA[
        <table>
          <tr><td>TS DEXTER (AL042025)</td></tr>
          <tr><td><hr></td></tr>
          <tr><td>0600 UTC AUG 5, 2025</td></tr>
          <tr><td>Storm Location:</td></tr>
          <tr><td><b>37.0 N, 64.9 W</b></td></tr>
          <tr><td>Min Sea Level Pressure:</td></tr>
          <tr><td>1008 mb / 29.77 in Hg</td></tr>
          <tr><td>Maximum Intensity:</td></tr>
          <tr><td>35 kt / 40 mph / 65 kph</td></tr>
        </table>
      ]]></description>
      <Point><coordinates>-64.9,37</coordinates></Point>
    </Placemark>
    <Placemark>
      <name>1200 UTC AUG 5</name>
      <styleUrl>#ts</styleUrl>
      <description><![CDATA[
        <table>
          <tr><td>TS DEXTER (AL042025)</td></tr>
          <tr><td><hr></td></tr>
          <tr><td>1200 UTC AUG 5, 2025</td></tr>
          <tr><td>Storm Location:</td></tr>
          <tr><td><b>37.7 N, 63.9 W</b></td></tr>
          <tr><td>Min Sea Level Pressure:</td></tr>
          <tr><td>1009 mb / 29.80 in Hg</td></tr>
          <tr><td>Maximum Intensity:</td></tr>
          <tr><td>35 kt / 40 mph / 65 kph</td></tr>
        </table>
      ]]></description>
      <Point><coordinates>-63.9,37.7</coordinates></Point>
    </Placemark>
    <Placemark>
      <name>1800 UTC AUG 5</name>
      <styleUrl>#ts</styleUrl>
      <description><![CDATA[
        <table>
          <tr><td>TS DEXTER (AL042025)</td></tr>
          <tr><td><hr></td></tr>
          <tr><td>1800 UTC AUG 5, 2025</td></tr>
          <tr><td>Storm Location:</td></tr>
          <tr><td><b>38.2 N, 62.8 W</b></td></tr>
          <tr><td>Min Sea Level Pressure:</td></tr>
          <tr><td>1009 mb / 29.80 in Hg</td></tr>
          <tr><td>Maximum Intensity:</td></tr>
          <tr><td>35 kt / 40 mph / 65 kph</td></tr>
        </table>
      ]]></description>
      <Point><coordinates>-62.8,38.2</coordinates></Point>
    </Placemark>
    <Placemark>
      <name>0000 UTC AUG 6</name>
      <styleUrl>#ts</styleUrl>
      <description><![CDATA[
        <table>
          <tr><td>TS DEXTER (AL042025)</td></tr>
          <tr><td><hr></td></tr>
          <tr><td>0000 UTC AUG 6, 2025</td></tr>
          <tr><td>Storm Location:</td></tr>
          <tr><td><b>38.8 N, 61.8 W</b></td></tr>
          <tr><td>Min Sea Level Pressure:</td></tr>
          <tr><td>1006 mb / 29.71 in Hg</td></tr>
          <tr><td>Maximum Intensity:</td></tr>
          <tr><td>40 kt / 46 mph / 74 kph</td></tr>
        </table>
      ]]></description>
      <Point><coordinates>-61.8,38.8</coordinates></Point>
    </Placemark>
    <Placemark>
      <name>0600 UTC AUG 6</name>
      <styleUrl>#ts</styleUrl>
      <description><![CDATA[
        <table>
          <tr><td>TS DEXTER (AL042025)</td></tr>
          <tr><td><hr></td></tr>
          <tr><td>0600 UTC AUG 6, 2025</td></tr>
          <tr><td>Storm Location:</td></tr>
          <tr><td><b>39.3 N, 60.5 W</b></td></tr>
          <tr><td>Min Sea Level Pressure:</td></tr>
          <tr><td>1003 mb / 29.62 in Hg</td></tr>
          <tr><td>Maximum Intensity:</td></tr>
          <tr><td>45 kt / 52 mph / 83 kph</td></tr>
        </table>
      ]]></description>
      <Point><coordinates>-60.5,39.3</coordinates></Point>
    </Placemark>
    <Placemark>
      <name>1200 UTC AUG 6</name>
      <styleUrl>#ts</styleUrl>
      <description><![CDATA[
        <table>
          <tr><td>TS DEXTER (AL042025)</td></tr>
          <tr><td><hr></td></tr>
          <tr><td>1200 UTC AUG 6, 2025</td></tr>
          <tr><td>Storm Location:</td></tr>
          <tr><td><b>39.6 N, 59.0 W</b></td></tr>
          <tr><td>Min Sea Level Pressure:</td></tr>
          <tr><td>999 mb / 29.50 in Hg</td></tr>
          <tr><td>Maximum Intensity:</td></tr>
          <tr><td>50 kt / 58 mph / 93 kph</td></tr>
        </table>
      ]]></description>
      <Point><coordinates>-59,39.6</coordinates></Point>
    </Placemark>
    <Placemark>
      <name>1800 UTC AUG 6</name>
      <styleUrl>#ts</styleUrl>
      <description><![CDATA[
        <table>
          <tr><td>TS DEXTER (AL042025)</td></tr>
          <tr><td><hr></td></tr>
          <tr><td>1800 UTC AUG 6, 2025</td></tr>
          <tr><td>Storm Location:</td></tr>
          <tr><td><b>39.8 N, 57.2 W</b></td></tr>
          <tr><td>Min Sea Level Pressure:</td></tr>
          <tr><td>999 mb / 29.50 in Hg</td></tr>
          <tr><td>Maximum Intensity:</td></tr>
          <tr><td>50 kt / 58 mph / 93 kph</td></tr>
        </table>
      ]]></description>
      <Point><coordinates>-57.2,39.8</coordinates></Point>
    </Placemark>
    <Placemark>
      <name>0000 UTC AUG 7</name>
      <styleUrl>#ex</styleUrl>
      <description><![CDATA[
        <table>
          <tr><td>EX DEXTER (AL042025)</td></tr>
          <tr><td><hr></td></tr>
          <tr><td>0000 UTC AUG 7, 2025</td></tr>
          <tr><td>Storm Location:</td></tr>
          <tr><td><b>39.9 N, 55.2 W</b></td></tr>
          <tr><td>Min Sea Level Pressure:</td></tr>
          <tr><td>999 mb / 29.50 in Hg</td></tr>
          <tr><td>Maximum Intensity:</td></tr>
          <tr><td>50 kt / 58 mph / 93 kph</td></tr>
        </table>
      ]]></description>
      <Point><coordinates>-55.2,39.9</coordinates></Point>
    </Placemark>
    <Placemark>
      <name>0600 UTC AUG 7</name>
      <styleUrl>#ex</styleUrl>
      <description><![CDATA[
        <table>
          <tr><td>EX DEXTER (AL042025)</td></tr>
          <tr><td><hr></td></tr>
          <tr><td>0600 UTC AUG 7, 2025</td></tr>
          <tr><td>Storm Location:</td></tr>
          <tr><td><b>40.4 N, 53.2 W</b></td></tr>
          <tr><td>Min Sea Level Pressure:</td></tr>
          <tr><td>998 mb / 29.47 in Hg</td></tr>
          <tr><td>Maximum Intensity:</td></tr>
          <tr><td>55 kt / 63 mph / 102 kph</td></tr>
        </table>
      ]]></description>
      <Point><coordinates>-53.2,40.4</coordinates></Point>
    </Placemark>
    <Placemark>
      <name>1200 UTC AUG 7</name>
      <styleUrl>#ex</styleUrl>
      <description><![CDATA[
        <table>
          <tr><td>EX DEXTER (AL042025)</td></tr>
          <tr><td><hr></td></tr>
          <tr><td>1200 UTC AUG 7, 2025</td></tr>
          <tr><td>Storm Location:</td></tr>
          <tr><td><b>40.9 N, 51.3 W</b></td></tr>
          <tr><td>Min Sea Level Pressure:</td></tr>
          <tr><td>997 mb / 29.44 in Hg</td></tr>
          <tr><td>Maximum Intensity:</td></tr>
          <tr><td>60 kt / 69 mph / 111 kph</td></tr>
        </table>
      ]]></description>
      <Point><coordinates>-51.3,40.9</coordinates></Point>
    </Placemark>
    <Placemark>
      <name>1800 UTC AUG 7</name>
      <styleUrl>#ex</styleUrl>
      <description><![CDATA[
        <table>
          <tr><td>EX DEXTER (AL042025)</td></tr>
          <tr><td><hr></td></tr>
          <tr><td>1800 UTC AUG 7, 2025</td></tr>
          <tr><td>Storm Location:</td></tr>
          <tr><td><b>41.4 N, 48.9 W</b></td></tr>
          <tr><td>Min Sea Level Pressure:</td></tr>
          <tr><td>996 mb / 29.41 in Hg</td></tr>
          <tr><td>Maximum Intensity:</td></tr>
          <tr><td>60 kt / 69 mph / 111 kph</td></tr>
        </table>
      ]]></description>
      <Point><coordinates>-48.9,41.4</coordinates></Point>
    </Placemark>
    <Placemark>
      <name>0000 UTC AUG 8</name>
      <styleUrl>#ex</styleUrl>
      <description><![CDATA[
        <table>
          <tr><td>EX DEXTER (AL042025)</td></tr>
          <tr><td><hr></td></tr>
          <tr><td>0000 UTC AUG 8, 2025</td></tr>
          <tr><td>Storm Location:</td></tr>
          <tr><td><b>42.3 N, 46.5 W</b></td></tr>
          <tr><td>Min Sea Level Pressure:</td></tr>
          <tr><td>994 mb / 29.35 in Hg</td></tr>
          <tr><td>Maximum Intensity:</td></tr>
          <tr><td>65 kt / 75 mph / 120 kph</td></tr>
        </table>
      ]]></description>
      <Point><coordinates>-46.5,42.3</coordinates></Point>
    </Placemark>
    <Placemark>
      <name>0600 UTC AUG 8</name>
      <styleUrl>#ex</styleUrl>
      <description><![CDATA[
        <table>
          <tr><td>EX DEXTER (AL042025)</td></tr>
          <tr><td><hr></td></tr>
          <tr><td>0600 UTC AUG 8, 2025</td></tr>
          <tr><td>Storm Location:</td></tr>
          <tr><td><b>43.6 N, 45.0 W</b></td></tr>
          <tr><td>Min Sea Level Pressure:</td></tr>
          <tr><td>989 mb / 29.21 in Hg</td></tr>
          <tr><td>Maximum Intensity:</td></tr>
          <tr><td>70 kt / 81 mph / 130 kph</td></tr>
        </table>
      ]]></description>
      <Point><coordinates>-45,43.6</coordinates></Point>
    </Placemark>
    <Placemark>
      <name>1200 UTC AUG 8</name>
      <styleUrl>#ex</styleUrl>
      <description><![CDATA[
        <table>
          <tr><td>EX DEXTER (AL042025)</td></tr>
          <tr><td><hr></td></tr>
          <tr><td>1200 UTC AUG 8, 2025</td></tr>
          <tr><td>Storm Location:</td></tr>
          <tr><td><b>44.7 N, 43.5 W</b></td></tr>
          <tr><td>Min Sea Level Pressure:</td></tr>
          <tr><td>988 mb / 29.18 in Hg</td></tr>
          <tr><td>Maximum Intensity:</td></tr>
          <tr><td>70 kt / 81 mph / 130 kph</td></tr>
        </table>
      ]]></description>
      <Point><coordinates>-43.5,44.7</coordinates></Point>
    </Placemark>
    <Placemark>
      <name>1800 UTC AUG 8</name>
      <styleUrl>#ex</styleUrl>
      <description><![CDATA[
        <table>
          <tr><td>EX DEXTER (AL042025)</td></tr>
          <tr><td><hr></td></tr>
          <tr><td>1800 UTC AUG 8, 2025</td></tr>
          <tr><td>Storm Location:</td></tr>
          <tr><td><b>45.2 N, 41.6 W</b></td></tr>
          <tr><td>Min Sea Level Pressure:</td></tr>
          <tr><td>991 mb / 29.26 in Hg</td></tr>
          <tr><td>Maximum Intensity:</td></tr>
          <tr><td>60 kt / 69 mph / 111 kph</td></tr>
        </table>
      ]]></description>
      <Point><coordinates>-41.6,45.2</coordinates></Point>
    </Placemark>
    <Placemark>
      <name>0000 UTC AUG 9</name>
      <styleUrl>#ex</styleUrl>
      <description><![CDATA[
        <table>
          <tr><td>EX DEXTER (AL042025)</td></tr>
          <tr><td><hr></td></tr>
          <tr><td>0000 UTC AUG 9, 2025</td></tr>
          <tr><td>Storm Location:</td></tr>
          <tr><td><b>45.4 N, 39.2 W</b></td></tr>
          <tr><td>Min Sea Level Pressure:</td></tr>
          <tr><td>994 mb / 29.35 in Hg</td></tr>
          <tr><td>Maximum Intensity:</td></tr>
          <tr><td>50 kt / 58 mph / 93 kph</td></tr>
        </table>
      ]]></description>
      <Point><coordinates>-39.2,45.4</coordinates></Point>
    </Placemark>
    <Placemark>
      <name>0600 UTC AUG 9</name>
      <styleUrl>#ex</styleUrl>
      <description><![CDATA[
        <table>
          <tr><td>EX DEXTER (AL042025)</td></tr>
          <tr><td><hr></td></tr>
          <tr><td>0600 UTC AUG 9, 2025</td></tr>
          <tr><td>Storm Location:</td></tr>
          <tr><td><b>45.7 N, 36.7 W</b></td></tr>
          <tr><td>Min Sea Level Pressure:</td></tr>
          <tr><td>997 mb / 29.44 in Hg</td></tr>
          <tr><td>Maximum Intensity:</td></tr>
          <tr><td>45 kt / 52 mph / 83 kph</td></tr>
        </table>
      ]]></description>
      <Point><coordinates>-36.7,45.7</coordinates></Point>
    </Placemark>
    <Placemark>
      <name>1200 UTC AUG 9</name>
      <styleUrl>#ex</styleUrl>
      <description><![CDATA[
        <table>
          <tr><td>EX DEXTER (AL042025)</td></tr>
          <tr><td><hr></td></tr>
          <tr><td>1200 UTC AUG 9, 2025</td></tr>
          <tr><td>Storm Location:</td></tr>
          <tr><td><b>45.9 N, 34.1 W</b></td></tr>
          <tr><td>Min Sea Level Pressure:</td></tr>
          <tr><td>1000 mb / 29.53 in Hg</td></tr>
          <tr><td>Maximum Intensity:</td></tr>
          <tr><td>40 kt / 46 mph / 74 kph</td></tr>
        </table>
      ]]></description>
      <Point><coordinates>-34.1,45.9</coordinates></Point>
    </Placemark>
    <Placemark>
      <name>1800 UTC AUG 9</name>
      <styleUrl>#ex</styleUrl>
      <description><![CDATA[
        <table>
          <tr><td>EX DEXTER (AL042025)</td></tr>
          <tr><td><hr></td></tr>
          <tr><td>1800 UTC AUG 9, 2025</td></tr>
          <tr><td>Storm Location:</td></tr>
          <tr><td><b>46.4 N, 31.5 W</b></td></tr>
          <tr><td>Min Sea Level Pressure:</td></tr>
          <tr><td>1002 mb / 29.59 in Hg</td></tr>
          <tr><td>Maximum Intensity:</td></tr>
          <tr><td>35 kt / 40 mph / 65 kph</td></tr>
        </table>
      ]]></description>
      <Point><coordinates>-31.5,46.4</coordinates></Point>
    </Placemark>
    <Placemark>
      <name>0000 UTC AUG 10</name>
      <styleUrl>#ex</styleUrl>
      <description><![CDATA[
        <table>
          <tr><td>EX DEXTER (AL042025)</td></tr>
          <tr><td><hr></td></tr>
          <tr><td>0000 UTC AUG 10, 2025</td></tr>
          <tr><td>Storm Location:</td></tr>
          <tr><td><b>46.9 N, 29.4 W</b></td></tr>
          <tr><td>Min Sea Level Pressure:</td></tr>
          <tr><td>1004 mb / 29.65 in Hg</td></tr>
          <tr><td>Maximum Intensity:</td></tr>
          <tr><td>30 kt / 35 mph / 56 kph</td></tr>
        </table>
      ]]></description>
      <Point><coordinates>-29.4,46.9</coordinates></Point>
    </Placemark>
    <Placemark>
      <name>0600 UTC AUG 10</name>
      <styleUrl>#ex</styleUrl>
      <description><![CDATA[
        <table>
          <tr><td>EX DEXTER (AL042025)</td></tr>
          <tr><td><hr></td></tr>
          <tr><td>0600 UTC AUG 10, 2025</td></tr>
          <tr><td>Storm Location:</td></tr>
          <tr><td><b>47.3 N, 27.5 W</b></td></tr>
          <tr><td>Min Sea Level Pressure:</td></tr>
          <tr><td>1005 mb / 29.68 in Hg</td></tr>
          <tr><td>Maximum Intensity:</td></tr>
          <tr><td>30 kt / 35 mph / 56 kph</td></tr>
        </table>
      ]]></description>
      <Point><coordinates>-27.5,47.3</coordinates></Point>
    </Placemark>
    <Placemark>
      <name>1200 UTC AUG 10</name>
      <styleUrl>#ex</styleUrl>
      <description><![CDATA[
        <table>
          <tr><td>EX DEXTER (AL042025)</td></tr>
          <tr><td><hr></td></tr>
          <tr><td>1200 UTC AUG 10, 2025</td></tr>
          <tr><td>Storm Location:</td></tr>
          <tr><td><b>47.6 N, 25.9 W</b></td></tr>
          <tr><td>Min Sea Level Pressure:</td></tr>
          <tr><td>1007 mb / 29.74 in Hg</td></tr>
          <tr><td>Maximum Intensity:</td></tr>
          <tr><td>30 kt / 35 mph / 56 kph</td></tr>
        </table>
      ]]></description>
      <Point><coordinates>-25.9,47.6</coordinates></Point>
    </Placemark>
    <Placemark>
      <name>1800 UTC AUG 10</name>
      <styleUrl>#ex</styleUrl>
      <description><![CDATA[
        <table>
          <tr><td>EX DEXTER (AL042025)</td></tr>
          <tr><td><hr></td></tr>
          <tr><td>1800 UTC AUG 10, 2025</td></tr>
          <tr><td>Storm Location:</td></tr>
          <tr><td><b>47.9 N, 24.5 W</b></td></tr>
          <tr><td>Min Sea Level Pressure:</td></tr>
          <tr><td>1008 mb / 29.77 in Hg</td></tr>
          <tr><td>Maximum Intensity:</td></tr>
          <tr><td>30 kt / 35 mph / 56 kph</td></tr>
        </table>
      ]]></description>
      <Point><coordinates>-24.5,47.9</coordinates></Point>
    </Placemark>
    <Placemark>
      <name>0000 UTC AUG 11</name>
      <styleUrl>#ex</styleUrl>
      <description><![CDATA[
        <table>
          <tr><td>EX DEXTER (AL042025)</td></tr>
          <tr><td><hr></td></tr>
          <tr><td>0000 UTC AUG 11, 2025</td></tr>
          <tr><td>Storm Location:</td></tr>
          <tr><td><b>48.1 N, 23.1 W</b></td></tr>
          <tr><td>Min Sea Level Pressure:</td></tr>
          <tr><td>1008 mb / 29.77 in Hg</td></tr>
          <tr><td>Maximum Intensity:</td></tr>
          <tr><td>30 kt / 35 mph / 56 kph</td></tr>
        </table>
      ]]></description>
      <Point><coordinates>-23.1,48.1</coordinates></Point>
    </Placemark>
    <Placemark>
      <name>0600 UTC AUG 11</name>
      <styleUrl>#ex</styleUrl>
      <description><![CDATA[
        <table>
          <tr><td>EX DEXTER (AL042025)</td></tr>
          <tr><td><hr></td></tr>
          <tr><td>0600 UTC AUG 11, 2025</td></tr>
          <tr><td>Storm Location:</td></tr>
          <tr><td><b>48.3 N, 21.8 W</b></td></tr>
          <tr><td>Min Sea Level Pressure:</td></tr>
          <tr><td>1008 mb / 29.77 in Hg</td></tr>
          <tr><td>Maximum Intensity:</td></tr>
          <tr><td>30 kt / 35 mph / 56 kph</td></tr>
        </table>
      ]]></description>
      <Point><coordinates>-21.8,48.3</coordinates></Point>
    </Placemark>
    <Placemark>
      <name>1200 UTC AUG 11</name>
      <styleUrl>#ex</styleUrl>
      <description><![CDATA[
        <table>
          <tr><td>EX DEXTER (AL042025)</td></tr>
          <tr><td><hr></td></tr>
          <tr><td>1200 UTC AUG 11, 2025</td></tr>
          <tr><td>Storm Location:</td></tr>
          <tr><td><b>48.5 N, 20.5 W</b></td></tr>
          <tr><td>Min Sea Level Pressure:</td></tr>
          <tr><td>1009 mb / 29.80 in Hg</td></tr>
          <tr><td>Maximum Intensity:</td></tr>
          <tr><td>25 kt / 29 mph / 46 kph</td></tr>
        </table>
      ]]></description>
      <Point><coordinates>-20.5,48.5</coordinates></Point>
    </Placemark>
    <Placemark>
      <name>1800 UTC AUG 11</name>
      <styleUrl>#ex</styleUrl>
      <description><![CDATA[
        <table>
          <tr><td>EX DEXTER (AL042025)</td></tr>
          <tr><td><hr></td></tr>
          <tr><td>1800 UTC AUG 11, 2025</td></tr>
          <tr><td>Storm Location:</td></tr>
          <tr><td><b>48.6 N, 19.3 W</b></td></tr>
          <tr><td>Min Sea Level Pressure:</td></tr>
          <tr><td>1009 mb / 29.80 in Hg</td></tr>
          <tr><td>Maximum Intensity:</td></tr>
          <tr><td>25 kt / 29 mph / 46 kph</td></tr>
        </table>
      ]]></description>
      <Point><coordinates>-19.3,48.6</coordinates></Point>
    </Placemark>
    <Placemark>
      <name>0000 UTC AUG 12</name>
      <styleUrl>#ex</styleUrl>
      <description><![CDATA[
        <table>
          <tr><td>EX DEXTER (AL042025)</td></tr>
          <tr><td><hr></td></tr>
          <tr><td>0000 UTC AUG 12, 2025</td></tr>
          <tr><td>Storm Location:</td></tr>
          <tr><td><b>48.7 N, 18.1 W</b></td></tr>
          <tr><td>Min Sea Level Pressure:</td></tr>
          <tr><td>1009 mb / 29.80 in Hg</td></tr>
          <tr><td>Maximum Intensity:</td></tr>
          <tr><td>25 kt / 29 mph / 46 kph</td></tr>
        </table>
      ]]></description>
      <Point><coordinates>-18.1,48.7</coordinates></Point>
    </Placemark>
    <Placemark>
      <name>0600 UTC AUG 12</name>
      <styleUrl>#ex</styleUrl>
      <description><![CDATA[
        <table>
          <tr><td>EX DEXTER (AL042025)</td></tr>
          <tr><td><hr></td></tr>
          <tr><td>0600 UTC AUG 12, 2025</td></tr>
          <tr><td>Storm Location:</td></tr>
          <tr><td><b>48.6 N, 17.0 W</b></td></tr>
          <tr><td>Min Sea Level Pressure:</td></tr>
          <tr><td>1008 mb / 29.77 in Hg</td></tr>
          <tr><td>Maximum Intensity:</td></tr>
          <tr><td>25 kt / 29 mph / 46 kph</td></tr>
        </table>
      ]]></description>
      <Point><coordinates>-17,48.6</coordinates></Point>
    </Placemark>
    <Placemark>
      <name>1200 UTC AUG 12</name>
      <styleUrl>#ex</styleUrl>
      <description><![CDATA[
        <table>
          <tr><td>EX DEXTER (AL042025)</td></tr>
          <tr><td><hr></td></tr>
          <tr><td>1200 UTC AUG 12, 2025</td></tr>
          <tr><td>Storm Location:</td></tr>
          <tr><td><b>48.5 N, 16.0 W</b></td></tr>
          <tr><td>Min Sea Level Pressure:</td></tr>
          <tr><td>1008 mb / 29.77 in Hg</td></tr>
          <tr><td>Maximum Intensity:</td></tr>
          <tr><td>25 kt / 29 mph / 46 kph</td></tr>
        </table>
      ]]></description>
      <Point><coordinates>-16,48.5</coordinates></Point>
    </Placemark>
    <Placemark>
      <name>1800 UTC AUG 12</name>
      <styleUrl>#ex</styleUrl>
      <description><![CDATA[
        <table>
          <tr><td>EX DEXTER (AL042025)</td></tr>
          <tr><td><hr></td></tr>
          <tr><td>1800 UTC AUG 12, 2025</td></tr>
          <tr><td>Storm Location:</td></tr>
          <tr><td><b>48.7 N, 14.8 W</b></td></tr>
          <tr><td>Min Sea Level Pressure:</td></tr>
          <tr><td>1008 mb / 29.77 in Hg</td></tr>
          <tr><td>Maximum Intensity:</td></tr>
          <tr><td>25 kt / 29 mph / 46 kph</td></tr>
        </table>
      ]]></description>
      <Point><coordinates>-14.8,48.7</coordinates></Point>
    </Placemark>
    <Placemark>
      <name>0000 UTC AUG 13</name>
      <styleUrl>#ex</styleUrl>
      <description><![CDATA[
        <table>
          <tr><td>EX DEXTER (AL042025)</td></tr>
          <tr><td><hr></td></tr>
          <tr><td>0000 UTC AUG 13, 2025</td></tr>
          <tr><td>Storm Location:</td></tr>
          <tr><td><b>49.0 N, 13.6 W</b></td></tr>
          <tr><td>Min Sea Level Pressure:</td></tr>
          <tr><td>1008 mb / 29.77 in Hg</td></tr>
          <tr><td>Maximum Intensity:</td></tr>
          <tr><td>25 kt / 29 mph / 46 kph</td></tr>
        </table>
      ]]></description>
      <Point><coordinates>-13.6,49</coordinates></Point>
    </Placemark>
    <Placemark>
      <name>0600 UTC AUG 13</name>
      <styleUrl>#ex</styleUrl>
      <description><![CDATA[
        <table>
          <tr><td>EX DEXTER (AL042025)</td></tr>
          <tr><td><hr></td></tr>
          <tr><td>0600 UTC AUG 13, 2025</td></tr>
          <tr><td>Storm Location:</td></tr>
          <tr><td><b>49.4 N, 12.2 W</b></td></tr>
          <tr><td>Min Sea Level Pressure:</td></tr>
          <tr><td>1008 mb / 29.77 in Hg</td></tr>
          <tr><td>Maximum Intensity:</td></tr>
          <tr><td>25 kt / 29 mph / 46 kph</td></tr>
        </table>
      ]]></description>
      <Point><coordinates>-12.2,49.4</coordinates></Point>
    </Placemark>
  </Document>
</kml>
