<?xml version="1.0" encoding="UTF-8"?>
<kml xmlns="http://www.opengis.net/kml/2.2">
  <Document>
    <name>AL052025</name>
    <open>0</open>

    <!-- =====  Document header ===== -->
    <description><![CDATA[
      <table>
        <tr><td><b>Title:</b> Tropical Cyclone Best Track for AL052025</td></tr>
      </table>
    ]]></description>

    <!-- =====  Styles (ids must be unique)  ===== -->
	<Style id="pt"> 
		<IconStyle> 
			<scale>1.0</scale> 
			<Icon> 
				<href>ex_nhemi.png</href> 
			</Icon> 
             <hotSpot x="15" y="17" xunits="pixels" yunits="pixels"/>
		</IconStyle> 
		<LabelStyle> 
			<scale>1.0</scale> 
		</LabelStyle> 
	</Style>
	<Style id="cat5"> 
		<IconStyle> 
			<scale>1.0</scale> 
			<Icon> 
				<href>cat5_nhemi.png</href> 
			</Icon> 
             <hotSpot x="15" y="17" xunits="pixels" yunits="pixels"/>
		</IconStyle> 
		<LabelStyle> 
			<scale>1.0</scale> 
		</LabelStyle> 
	</Style>
	<Style id="db"> 
		<IconStyle> 
			<scale>1.0</scale> 
			<Icon> 
				<href>ex_nhemi.png</href> 
			</Icon> 
             <hotSpot x="15" y="17" xunits="pixels" yunits="pixels"/>
		</IconStyle> 
		<LabelStyle> 
			<scale>1.0</scale> 
		</LabelStyle> 
	</Style>
	<Style id="cat3"> 
		<IconStyle> 
			<scale>1.0</scale> 
			<Icon> 
				<href>cat3_nhemi.png</href> 
			</Icon> 
             <hotSpot x="15" y="17" xunits="pixels" yunits="pixels"/>
		</IconStyle> 
		<LabelStyle> 
			<scale>1.0</scale> 
		</LabelStyle> 
	</Style>
	<Style id="ss"> 
		<IconStyle> 
			<scale>1.0</scale> 
			<Icon> 
				<href>ts_nhemi.png</href> 
			</Icon> 
             <hotSpot x="15" y="17" xunits="pixels" yunits="pixels"/>
		</IconStyle> 
		<LabelStyle> 
			<scale>1.0</scale> 
		</LabelStyle> 
	</Style>
	<Style id="lo"> 
		<IconStyle> 
			<scale>1.0</scale> 
			<Icon> 
				<href>ex_nhemi.png</href> 
			</Icon> 
             <hotSpot x="15" y="17" xunits="pixels" yunits="pixels"/>
		</IconStyle> 
		<LabelStyle> 
			<scale>1.0</scale> 
		</LabelStyle> 
	</Style>
	<Style id="cat4"> 
		<IconStyle> 
			<scale>1.0</scale> 
			<Icon> 
				<href>cat4_nhemi.png</href> 
			</Icon> 
             <hotSpot x="15" y="17" xunits="pixels" yunits="pixels"/>
		</IconStyle> 
		<LabelStyle> 
			<scale>1.0</scale> 
		</LabelStyle> 
	</Style>
	<Style id="cat2"> 
		<IconStyle> 
			<scale>1.0</scale> 
			<Icon> 
				<href>cat2_nhemi.png</href> 
			</Icon> 
             <hotSpot x="15" y="17" xunits="pixels" yunits="pixels"/>
		</IconStyle> 
		<LabelStyle> 
			<scale>1.0</scale> 
		</LabelStyle> 
	</Style>
	<Style id="ts"> 
		<IconStyle> 
			<scale>1.0</scale> 
			<Icon> 
				<href>ts_nhemi.png</href> 
			</Icon> 
             <hotSpot x="15" y="17" xunits="pixels" yunits="pixels"/>
		</IconStyle> 
		<LabelStyle> 
			<scale>1.0</scale> 
		</LabelStyle> 
	</Style>
	<Style id="cat1"> 
		<IconStyle> 
			<scale>1.0</scale> 
			<Icon> 
				<href>cat1_nhemi.png</href> 
			</Icon> 
             <hotSpot x="15" y="17" xunits="pixels" yunits="pixels"/>
		</IconStyle> 
		<LabelStyle> 
			<scale>1.0</scale> 
		</LabelStyle> 
	</Style>
	<Style id="ex"> 
		<IconStyle> 
			<scale>1.0</scale> 
			<Icon> 
				<href>ex_nhemi.png</href> 
			</Icon> 
             <hotSpot x="15" y="17" xunits="pixels" yunits="pixels"/>
		</IconStyle> 
		<LabelStyle> 
			<scale>1.0</scale> 
		</LabelStyle> 
	</Style>
	<Style id="tc"> 
		<IconStyle> 
			<scale>1.0</scale> 
			<Icon> 
				<href>ex_nhemi.png</href> 
			</Icon> 
             <hotSpot x="15" y="17" xunits="pixels" yunits="pixels"/>
		</IconStyle> 
		<LabelStyle> 
			<scale>1.0</scale> 
		</LabelStyle> 
	</Style>
	<Style id="wv"> 
		<IconStyle> 
			<scale>1.0</scale> 
			<Icon> 
				<href>ex_nhemi.png</href> 
			</Icon> 
             <hotSpot x="15" y="17" xunits="pixels" yunits="pixels"/>
		</IconStyle> 
		<LabelStyle> 
			<scale>1.0</scale> 
		</LabelStyle> 
	</Style>
	<Style id="td"> 
		<IconStyle> 
			<scale>1.0</scale> 
			<Icon> 
				<href>td_nhemi.png</href> 
			</Icon> 
             <hotSpot x="15" y="17" xunits="pixels" yunits="pixels"/>
		</IconStyle> 
		<LabelStyle> 
			<scale>1.0</scale> 
		</LabelStyle> 
	</Style>
	<Style id="sd"> 
		<IconStyle> 
			<scale>1.0</scale> 
			<Icon> 
				<href>ex_nhemi.png</href> 
			</Icon> 
             <hotSpot x="15" y="17" xunits="pixels" yunits="pixels"/>
		</IconStyle> 
		<LabelStyle> 
			<scale>1.0</scale> 
		</LabelStyle> 
	</Style>

    <Placemark>
      <name>0000 UTC AUG 11</name>
      <styleUrl>#td</styleUrl>
      <description><![CDATA[
        <table>
          <tr><td>TD ERIN (AL052025)</td></tr>
          <tr><td><hr></td></tr>
          <tr><td>0000 UTC AUG 11, 2025</td></tr>
          <tr><td>Storm Location:</td></tr>
          <tr><td><b>16.5 N, 23.1 W</b></td></tr>
          <tr><td>Min Sea Level Pressure:</td></tr>
          <tr><td>1007 mb / 29.74 in Hg</td></tr>
          <tr><td>Maximum Intensity:</td></tr>
          <tr><td>30 kt / 35 mph / 56 kph</td></tr>
        </table>
      ]]></description>
      <Point><coordinates>-23.1,16.5</coordinates></Point>
    </Placemark>
    <Placemark>
      <name>0600 UTC AUG 11</name>
      <styleUrl>#ts</styleUrl>
      <description><![CDATA[
        <table>
          <tr><td>TS ERIN (AL052025)</td></tr>
          <tr><td><hr></td></tr>
          <tr><td>0600 UTC AUG 11, 2025</td></tr>
          <tr><td>Storm Location:</td></tr>
          <tr><td><b>17.2 N, 25.2 W</b></td></tr>
          <tr><td>Min Sea Level Pressure:</td></tr>
          <tr><td>1006 mb / 29.71 in Hg</td></tr>
          <tr><td>Maximum Intensity:</td></tr>
          <tr><td>35 kt / 40 mph / 65 kph</td></tr>
        </table>
      ]]></description>
      <Point><coordinates>-25.2,17.2</coordinates></Point>
    </Placemark>
    <Placemark>
      <name>1200 UTC AUG 11</name>
      <styleUrl>#ts</styleUrl>
      <description><![CDATA[
        <table>
          <tr><td>TS ERIN (AL052025)</td></tr>
          <tr><td><hr></td></tr>
          <tr><td>1200 UTC AUG 11, 2025</td></tr>
          <tr><td>Storm Location:</td></tr>
          <tr><td><b>17.3 N, 27.3 W</b></td></tr>
          <tr><td>Min Sea Level Pressure:</td></tr>
          <tr><td>1004 mb / 29.65 in Hg</td></tr>
          <tr><td>Maximum Intensity:</td></tr>
          <tr><td>40 kt / 46 mph / 74 kph</td></tr>
        </table>
      ]]></description>
      <Point><coordinates>-27.3,17.3</coordinates></Point>
    </Placemark>
    <Placemark>
      <name>1800 UTC AUG 11</name>
      <styleUrl>#ts</styleUrl>
      <description><![CDATA[
        <table>
          <tr><td>TS ERIN (AL052025)</td></tr>
          <tr><td><hr></td></tr>
          <tr><td>1800 UTC AUG 11, 2025</td></tr>
          <tr><td>Storm Location:</td></tr>
          <tr><td><b>17.4 N, 29.3 W</b></td></tr>
          <tr><td>Min Sea Level Pressure:</td></tr>
          <tr><td>1004 mb / 29.65 in Hg</td></tr>
          <tr><td>Maximum Intensity:</td></tr>
          <tr><td>40 kt / 46 mph / 74 kph</td></tr>
        </table>
      ]]></description>
      <Point><coordinates>-29.3,17.4</coordinates></Point>
    </Placemark>
    <Placemark>
      <name>0000 UTC AUG 12</name>
      <styleUrl>#ts</styleUrl>
      <description><![CDATA[
        <table>
          <tr><td>TS ERIN (AL052025)</td></tr>
          <tr><td><hr></td></tr>
          <tr><td>0000 UTC AUG 12, 2025</td></tr>
          <tr><td>Storm Location:</td></tr>
          <tr><td><b>17.5 N, 31.3 W</b></td></tr>
          <tr><td>Min Sea Level Pressure:</td></tr>
          <tr><td>1004 mb / 29.65 in Hg</td></tr>
          <tr><td>Maximum Intensity:</td></tr>
          <tr><td>40 kt / 46 mph / 74 kph</td></tr>
        </table>
      ]]></description>
      <Point><coordinates>-31.3,17.5</coordinates></Point>
    </Placemark>
    <Placemark>
      <name>0600 UTC AUG 12</name>
      <styleUrl>#ts</styleUrl>
      <description><![CDATA[
        <table>
          <tr><td>TS ERIN (AL052025)</td></tr>
          <tr><td><hr></td></tr>
          <tr><td>0600 UTC AUG 12, 2025</td></tr>
          <tr><td>Storm Location:</td></tr>
          <tr><td><b>17.5 N, 33.3 W</b></td></tr>
          <tr><td>Min Sea Level Pressure:</td></tr>
          <tr><td>1004 mb / 29.65 in Hg</td></tr>
          <tr><td>Maximum Intensity:</td></tr>
          <tr><td>40 kt / 46 mph / 74 kph</td></tr>
        </table>
      ]]></description>
      <Point><coordinates>-33.3,17.5</coordinates></Point>
    </Placemark>
    <Placemark>
      <name>1200 UTC AUG 12</name>
      <styleUrl>#ts</styleUrl>
      <description><![CDATA[
        <table>
          <tr><td>TS ERIN (AL052025)</td></tr>
          <tr><td><hr></td></tr>
          <tr><td>1200 UTC AUG 12, 2025</td></tr>
          <tr><td>Storm Location:</td></tr>
          <tr><td><b>17.3 N, 35.4 W</b></td></tr>
          <tr><td>Min Sea Level Pressure:</td></tr>
          <tr><td>1004 mb / 29.65 in Hg</td></tr>
          <tr><td>Maximum Intensity:</td></tr>
          <tr><td>40 kt / 46 mph / 74 kph</td></tr>
        </table>
      ]]></description>
      <Point><coordinates>-35.4,17.3</coordinates></Point>
    </Placemark>
    <Placemark>
      <name>1800 UTC AUG 12</name>
      <styleUrl>#ts</styleUrl>
      <description><![CDATA[
        <table>
          <tr><td>TS ERIN (AL052025)</td></tr>
          <tr><td><hr></td></tr>
          <tr><td>1800 UTC AUG 12, 2025</td></tr>
          <tr><td>Storm Location:</td></tr>
          <tr><td><b>17.1 N, 37.4 W</b></td></tr>
          <tr><td>Min Sea Level Pressure:</td></tr>
          <tr><td>1004 mb / 29.65 in Hg</td></tr>
          <tr><td>Maximum Intensity:</td></tr>
          <tr><td>40 kt / 46 mph / 74 kph</td></tr>
        </table>
      ]]></description>
      <Point><coordinates>-37.4,17.1</coordinates></Point>
    </Placemark>
    <Placemark>
      <name>0000 UTC AUG 13</name>
      <styleUrl>#ts</styleUrl>
      <description><![CDATA[
        <table>
          <tr><td>TS ERIN (AL052025)</td></tr>
          <tr><td><hr></td></tr>
          <tr><td>0000 UTC AUG 13, 2025</td></tr>
          <tr><td>Storm Location:</td></tr>
          <tr><td><b>16.8 N, 39.3 W</b></td></tr>
          <tr><td>Min Sea Level Pressure:</td></tr>
          <tr><td>1004 mb / 29.65 in Hg</td></tr>
          <tr><td>Maximum Intensity:</td></tr>
          <tr><td>40 kt / 46 mph / 74 kph</td></tr>
        </table>
      ]]></description>
      <Point><coordinates>-39.3,16.8</coordinates></Point>
    </Placemark>
    <Placemark>
      <name>0600 UTC AUG 13</name>
      <styleUrl>#ts</styleUrl>
      <description><![CDATA[
        <table>
          <tr><td>TS ERIN (AL052025)</td></tr>
          <tr><td><hr></td></tr>
          <tr><td>0600 UTC AUG 13, 2025</td></tr>
          <tr><td>Storm Location:</td></tr>
          <tr><td><b>16.6 N, 41.0 W</b></td></tr>
          <tr><td>Min Sea Level Pressure:</td></tr>
          <tr><td>1004 mb / 29.65 in Hg</td></tr>
          <tr><td>Maximum Intensity:</td></tr>
          <tr><td>40 kt / 46 mph / 74 kph</td></tr>
        </table>
      ]]></description>
      <Point><coordinates>-41,16.6</coordinates></Point>
    </Placemark>
    <Placemark>
      <name>1200 UTC AUG 13</name>
      <styleUrl>#ts</styleUrl>
      <description><![CDATA[
        <table>
          <tr><td>TS ERIN (AL052025)</td></tr>
          <tr><td><hr></td></tr>
          <tr><td>1200 UTC AUG 13, 2025</td></tr>
          <tr><td>Storm Location:</td></tr>
          <tr><td><b>16.4 N, 42.7 W</b></td></tr>
          <tr><td>Min Sea Level Pressure:</td></tr>
          <tr><td>1002 mb / 29.59 in Hg</td></tr>
          <tr><td>Maximum Intensity:</td></tr>
          <tr><td>45 kt / 52 mph / 83 kph</td></tr>
        </table>
      ]]></description>
      <Point><coordinates>-42.7,16.4</coordinates></Point>
    </Placemark>
    <Placemark>
      <name>1800 UTC AUG 13</name>
      <styleUrl>#ts</styleUrl>
      <description><![CDATA[
        <table>
          <tr><td>TS ERIN (AL052025)</td></tr>
          <tr><td><hr></td></tr>
          <tr><td>1800 UTC AUG 13, 2025</td></tr>
          <tr><td>Storm Location:</td></tr>
          <tr><td><b>16.3 N, 44.3 W</b></td></tr>
          <tr><td>Min Sea Level Pressure:</td></tr>
          <tr><td>1002 mb / 29.59 in Hg</td></tr>
          <tr><td>Maximum Intensity:</td></tr>
          <tr><td>45 kt / 52 mph / 83 kph</td></tr>
        </table>
      ]]></description>
      <Point><coordinates>-44.3,16.3</coordinates></Point>
    </Placemark>
    <Placemark>
      <name>0000 UTC AUG 14</name>
      <styleUrl>#ts</styleUrl>
      <description><![CDATA[
        <table>
          <tr><td>TS ERIN (AL052025)</td></tr>
          <tr><td><hr></td></tr>
          <tr><td>0000 UTC AUG 14, 2025</td></tr>
          <tr><td>Storm Location:</td></tr>
          <tr><td><b>16.3 N, 45.9 W</b></td></tr>
          <tr><td>Min Sea Level Pressure:</td></tr>
          <tr><td>1002 mb / 29.59 in Hg</td></tr>
          <tr><td>Maximum Intensity:</td></tr>
          <tr><td>45 kt / 52 mph / 83 kph</td></tr>
        </table>
      ]]></description>
      <Point><coordinates>-45.9,16.3</coordinates></Point>
    </Placemark>
    <Placemark>
      <name>0600 UTC AUG 14</name>
      <styleUrl>#ts</styleUrl>
      <description><![CDATA[
        <table>
          <tr><td>TS ERIN (AL052025)</td></tr>
          <tr><td><hr></td></tr>
          <tr><td>0600 UTC AUG 14, 2025</td></tr>
          <tr><td>Storm Location:</td></tr>
          <tr><td><b>16.3 N, 47.5 W</b></td></tr>
          <tr><td>Min Sea Level Pressure:</td></tr>
          <tr><td>1002 mb / 29.59 in Hg</td></tr>
          <tr><td>Maximum Intensity:</td></tr>
          <tr><td>45 kt / 52 mph / 83 kph</td></tr>
        </table>
      ]]></description>
      <Point><coordinates>-47.5,16.3</coordinates></Point>
    </Placemark>
    <Placemark>
      <name>1200 UTC AUG 14</name>
      <styleUrl>#ts</styleUrl>
      <description><![CDATA[
        <table>
          <tr><td>TS ERIN (AL052025)</td></tr>
          <tr><td><hr></td></tr>
          <tr><td>1200 UTC AUG 14, 2025</td></tr>
          <tr><td>Storm Location:</td></tr>
          <tr><td><b>16.3 N, 48.9 W</b></td></tr>
          <tr><td>Min Sea Level Pressure:</td></tr>
          <tr><td>999 mb / 29.50 in Hg</td></tr>
          <tr><td>Maximum Intensity:</td></tr>
          <tr><td>50 kt / 58 mph / 93 kph</td></tr>
        </table>
      ]]></description>
      <Point><coordinates>-48.9,16.3</coordinates></Point>
    </Placemark>
    <Placemark>
      <name>1800 UTC AUG 14</name>
      <styleUrl>#ts</styleUrl>
      <description><![CDATA[
        <table>
          <tr><td>TS ERIN (AL052025)</td></tr>
          <tr><td><hr></td></tr>
          <tr><td>1800 UTC AUG 14, 2025</td></tr>
          <tr><td>Storm Location:</td></tr>
          <tr><td><b>16.6 N, 50.4 W</b></td></tr>
          <tr><td>Min Sea Level Pressure:</td></tr>
          <tr><td>998 mb / 29.47 in Hg</td></tr>
          <tr><td>Maximum Intensity:</td></tr>
          <tr><td>55 kt / 63 mph / 102 kph</td></tr>
        </table>
      ]]></description>
      <Point><coordinates>-50.4,16.6</coordinates></Point>
    </Placemark>
    <Placemark>
      <name>0000 UTC AUG 15</name>
      <styleUrl>#ts</styleUrl>
      <description><![CDATA[
        <table>
          <tr><td>TS ERIN (AL052025)</td></tr>
          <tr><td><hr></td></tr>
          <tr><td>0000 UTC AUG 15, 2025</td></tr>
          <tr><td>Storm Location:</td></tr>
          <tr><td><b>16.9 N, 51.9 W</b></td></tr>
          <tr><td>Min Sea Level Pressure:</td></tr>
          <tr><td>997 mb / 29.44 in Hg</td></tr>
          <tr><td>Maximum Intensity:</td></tr>
          <tr><td>60 kt / 69 mph / 111 kph</td></tr>
        </table>
      ]]></description>
      <Point><coordinates>-51.9,16.9</coordinates></Point>
    </Placemark>
    <Placemark>
      <name>0600 UTC AUG 15</name>
      <styleUrl>#ts</styleUrl>
      <description><![CDATA[
        <table>
          <tr><td>TS ERIN (AL052025)</td></tr>
          <tr><td><hr></td></tr>
          <tr><td>0600 UTC AUG 15, 2025</td></tr>
          <tr><td>Storm Location:</td></tr>
          <tr><td><b>17.4 N, 53.5 W</b></td></tr>
          <tr><td>Min Sea Level Pressure:</td></tr>
          <tr><td>997 mb / 29.44 in Hg</td></tr>
          <tr><td>Maximum Intensity:</td></tr>
          <tr><td>60 kt / 69 mph / 111 kph</td></tr>
        </table>
      ]]></description>
      <Point><coordinates>-53.5,17.4</coordinates></Point>
    </Placemark>
    <Placemark>
      <name>1200 UTC AUG 15</name>
      <styleUrl>#cat1</styleUrl>
      <description><![CDATA[
        <table>
          <tr><td>HU ERIN (AL052025)</td></tr>
          <tr><td><hr></td></tr>
          <tr><td>1200 UTC AUG 15, 2025</td></tr>
          <tr><td>Storm Location:</td></tr>
          <tr><td><b>18.0 N, 55.2 W</b></td></tr>
          <tr><td>Min Sea Level Pressure:</td></tr>
          <tr><td>996 mb / 29.41 in Hg</td></tr>
          <tr><td>Maximum Intensity:</td></tr>
          <tr><td>65 kt / 75 mph / 120 kph</td></tr>
        </table>
      ]]></description>
      <Point><coordinates>-55.2,18</coordinates></Point>
    </Placemark>
    <Placemark>
      <name>1800 UTC AUG 15</name>
      <styleUrl>#cat1</styleUrl>
      <description><![CDATA[
        <table>
          <tr><td>HU ERIN (AL052025)</td></tr>
          <tr><td><hr></td></tr>
          <tr><td>1800 UTC AUG 15, 2025</td></tr>
          <tr><td>Storm Location:</td></tr>
          <tr><td><b>18.7 N, 56.8 W</b></td></tr>
          <tr><td>Min Sea Level Pressure:</td></tr>
          <tr><td>993 mb / 29.32 in Hg</td></tr>
          <tr><td>Maximum Intensity:</td></tr>
          <tr><td>65 kt / 75 mph / 120 kph</td></tr>
        </table>
      ]]></description>
      <Point><coordinates>-56.8,18.7</coordinates></Point>
    </Placemark>
    <Placemark>
      <name>0000 UTC AUG 16</name>
      <styleUrl>#cat1</styleUrl>
      <description><![CDATA[
        <table>
          <tr><td>HU ERIN (AL052025)</td></tr>
          <tr><td><hr></td></tr>
          <tr><td>0000 UTC AUG 16, 2025</td></tr>
          <tr><td>Storm Location:</td></tr>
          <tr><td><b>19.4 N, 58.5 W</b></td></tr>
          <tr><td>Min Sea Level Pressure:</td></tr>
          <tr><td>981 mb / 28.97 in Hg</td></tr>
          <tr><td>Maximum Intensity:</td></tr>
          <tr><td>75 kt / 86 mph / 139 kph</td></tr>
        </table>
      ]]></description>
      <Point><coordinates>-58.5,19.4</coordinates></Point>
    </Placemark>
    <Placemark>
      <name>0600 UTC AUG 16</name>
      <styleUrl>#cat2</styleUrl>
      <description><![CDATA[
        <table>
          <tr><td>HU ERIN (AL052025)</td></tr>
          <tr><td><hr></td></tr>
          <tr><td>0600 UTC AUG 16, 2025</td></tr>
          <tr><td>Storm Location:</td></tr>
          <tr><td><b>19.6 N, 60.4 W</b></td></tr>
          <tr><td>Min Sea Level Pressure:</td></tr>
          <tr><td>967 mb / 28.56 in Hg</td></tr>
          <tr><td>Maximum Intensity:</td></tr>
          <tr><td>95 kt / 109 mph / 176 kph</td></tr>
        </table>
      ]]></description>
      <Point><coordinates>-60.4,19.6</coordinates></Point>
    </Placemark>
    <Placemark>
      <name>1200 UTC AUG 16</name>
      <styleUrl>#cat4</styleUrl>
      <description><![CDATA[
        <table>
          <tr><td>HU ERIN (AL052025)</td></tr>
          <tr><td><hr></td></tr>
          <tr><td>1200 UTC AUG 16, 2025</td></tr>
          <tr><td>Storm Location:</td></tr>
          <tr><td><b>19.6 N, 62.1 W</b></td></tr>
          <tr><td>Min Sea Level Pressure:</td></tr>
          <tr><td>934 mb / 27.58 in Hg</td></tr>
          <tr><td>Maximum Intensity:</td></tr>
          <tr><td>130 kt / 150 mph / 241 kph</td></tr>
        </table>
      ]]></description>
      <Point><coordinates>-62.1,19.6</coordinates></Point>
    </Placemark>
    <Placemark>
      <name>1800 UTC AUG 16</name>
      <styleUrl>#cat5</styleUrl>
      <description><![CDATA[
        <table>
          <tr><td>HU ERIN (AL052025)</td></tr>
          <tr><td><hr></td></tr>
          <tr><td>1800 UTC AUG 16, 2025</td></tr>
          <tr><td>Storm Location:</td></tr>
          <tr><td><b>19.8 N, 63.4 W</b></td></tr>
          <tr><td>Min Sea Level Pressure:</td></tr>
          <tr><td>913 mb / 26.96 in Hg</td></tr>
          <tr><td>Maximum Intensity:</td></tr>
          <tr><td>140 kt / 161 mph / 259 kph</td></tr>
        </table>
      ]]></description>
      <Point><coordinates>-63.4,19.8</coordinates></Point>
    </Placemark>
    <Placemark>
      <name>0000 UTC AUG 17</name>
      <styleUrl>#cat4</styleUrl>
      <description><![CDATA[
        <table>
          <tr><td>HU ERIN (AL052025)</td></tr>
          <tr><td><hr></td></tr>
          <tr><td>0000 UTC AUG 17, 2025</td></tr>
          <tr><td>Storm Location:</td></tr>
          <tr><td><b>20.0 N, 64.6 W</b></td></tr>
          <tr><td>Min Sea Level Pressure:</td></tr>
          <tr><td>934 mb / 27.58 in Hg</td></tr>
          <tr><td>Maximum Intensity:</td></tr>
          <tr><td>125 kt / 144 mph / 232 kph</td></tr>
        </table>
      ]]></description>
      <Point><coordinates>-64.6,20</coordinates></Point>
    </Placemark>
    <Placemark>
      <name>0600 UTC AUG 17</name>
      <styleUrl>#cat3</styleUrl>
      <description><![CDATA[
        <table>
          <tr><td>HU ERIN (AL052025)</td></tr>
          <tr><td><hr></td></tr>
          <tr><td>0600 UTC AUG 17, 2025</td></tr>
          <tr><td>Storm Location:</td></tr>
          <tr><td><b>20.3 N, 65.8 W</b></td></tr>
          <tr><td>Min Sea Level Pressure:</td></tr>
          <tr><td>940 mb / 27.76 in Hg</td></tr>
          <tr><td>Maximum Intensity:</td></tr>
          <tr><td>110 kt / 127 mph / 204 kph</td></tr>
        </table>
      ]]></description>
      <Point><coordinates>-65.8,20.3</coordinates></Point>
    </Placemark>
    <Placemark>
      <name>1200 UTC AUG 17</name>
      <styleUrl>#cat3</styleUrl>
      <description><![CDATA[
        <table>
          <tr><td>HU ERIN (AL052025)</td></tr>
          <tr><td><hr></td></tr>
          <tr><td>1200 UTC AUG 17, 2025</td></tr>
          <tr><td>Storm Location:</td></tr>
          <tr><td><b>20.7 N, 67.0 W</b></td></tr>
          <tr><td>Min Sea Level Pressure:</td></tr>
          <tr><td>940 mb / 27.76 in Hg</td></tr>
          <tr><td>Maximum Intensity:</td></tr>
          <tr><td>110 kt / 127 mph / 204 kph</td></tr>
        </table>
      ]]></description>
      <Point><coordinates>-67,20.7</coordinates></Point>
    </Placemark>
    <Placemark>
      <name>1800 UTC AUG 17</name>
      <styleUrl>#cat3</styleUrl>
      <description><![CDATA[
        <table>
          <tr><td>HU ERIN (AL052025)</td></tr>
          <tr><td><hr></td></tr>
          <tr><td>1800 UTC AUG 17, 2025</td></tr>
          <tr><td>Storm Location:</td></tr>
          <tr><td><b>21.5 N, 68.0 W</b></td></tr>
          <tr><td>Min Sea Level Pressure:</td></tr>
          <tr><td>946 mb / 27.94 in Hg</td></tr>
          <tr><td>Maximum Intensity:</td></tr>
          <tr><td>110 kt / 127 mph / 204 kph</td></tr>
        </table>
      ]]></description>
      <Point><coordinates>-68,21.5</coordinates></Point>
    </Placemark>
    <Placemark>
      <name>0000 UTC AUG 18</name>
      <styleUrl>#cat3</styleUrl>
      <description><![CDATA[
        <table>
          <tr><td>HU ERIN (AL052025)</td></tr>
          <tr><td><hr></td></tr>
          <tr><td>0000 UTC AUG 18, 2025</td></tr>
          <tr><td>Storm Location:</td></tr>
          <tr><td><b>22.0 N, 68.9 W</b></td></tr>
          <tr><td>Min Sea Level Pressure:</td></tr>
          <tr><td>946 mb / 27.94 in Hg</td></tr>
          <tr><td>Maximum Intensity:</td></tr>
          <tr><td>110 kt / 127 mph / 204 kph</td></tr>
        </table>
      ]]></description>
      <Point><coordinates>-68.9,22</coordinates></Point>
    </Placemark>
    <Placemark>
      <name>0600 UTC AUG 18</name>
      <styleUrl>#cat4</styleUrl>
      <description><![CDATA[
        <table>
          <tr><td>HU ERIN (AL052025)</td></tr>
          <tr><td><hr></td></tr>
          <tr><td>0600 UTC AUG 18, 2025</td></tr>
          <tr><td>Storm Location:</td></tr>
          <tr><td><b>22.5 N, 69.7 W</b></td></tr>
          <tr><td>Min Sea Level Pressure:</td></tr>
          <tr><td>945 mb / 27.91 in Hg</td></tr>
          <tr><td>Maximum Intensity:</td></tr>
          <tr><td>115 kt / 132 mph / 213 kph</td></tr>
        </table>
      ]]></description>
      <Point><coordinates>-69.7,22.5</coordinates></Point>
    </Placemark>
    <Placemark>
      <name>1200 UTC AUG 18</name>
      <styleUrl>#cat4</styleUrl>
      <description><![CDATA[
        <table>
          <tr><td>HU ERIN (AL052025)</td></tr>
          <tr><td><hr></td></tr>
          <tr><td>1200 UTC AUG 18, 2025</td></tr>
          <tr><td>Storm Location:</td></tr>
          <tr><td><b>22.9 N, 70.5 W</b></td></tr>
          <tr><td>Min Sea Level Pressure:</td></tr>
          <tr><td>935 mb / 27.61 in Hg</td></tr>
          <tr><td>Maximum Intensity:</td></tr>
          <tr><td>120 kt / 138 mph / 222 kph</td></tr>
        </table>
      ]]></description>
      <Point><coordinates>-70.5,22.9</coordinates></Point>
    </Placemark>
    <Placemark>
      <name>1800 UTC AUG 18</name>
      <styleUrl>#cat4</styleUrl>
      <description><![CDATA[
        <table>
          <tr><td>HU ERIN (AL052025)</td></tr>
          <tr><td><hr></td></tr>
          <tr><td>1800 UTC AUG 18, 2025</td></tr>
          <tr><td>Storm Location:</td></tr>
          <tr><td><b>23.5 N, 71.0 W</b></td></tr>
          <tr><td>Min Sea Level Pressure:</td></tr>
          <tr><td>937 mb / 27.67 in Hg</td></tr>
          <tr><td>Maximum Intensity:</td></tr>
          <tr><td>115 kt / 132 mph / 213 kph</td></tr>
        </table>
      ]]></description>
      <Point><coordinates>-71,23.5</coordinates></Point>
    </Placemark>
    <Placemark>
      <name>0000 UTC AUG 19</name>
      <styleUrl>#cat3</styleUrl>
      <description><![CDATA[
        <table>
          <tr><td>HU ERIN (AL052025)</td></tr>
          <tr><td><hr></td></tr>
          <tr><td>0000 UTC AUG 19, 2025</td></tr>
          <tr><td>Storm Location:</td></tr>
          <tr><td><b>24.0 N, 71.4 W</b></td></tr>
          <tr><td>Min Sea Level Pressure:</td></tr>
          <tr><td>947 mb / 27.97 in Hg</td></tr>
          <tr><td>Maximum Intensity:</td></tr>
          <tr><td>100 kt / 115 mph / 185 kph</td></tr>
        </table>
      ]]></description>
      <Point><coordinates>-71.4,24</coordinates></Point>
    </Placemark>
    <Placemark>
      <name>0600 UTC AUG 19</name>
      <styleUrl>#cat2</styleUrl>
      <description><![CDATA[
        <table>
          <tr><td>HU ERIN (AL052025)</td></tr>
          <tr><td><hr></td></tr>
          <tr><td>0600 UTC AUG 19, 2025</td></tr>
          <tr><td>Storm Location:</td></tr>
          <tr><td><b>24.5 N, 71.8 W</b></td></tr>
          <tr><td>Min Sea Level Pressure:</td></tr>
          <tr><td>955 mb / 28.20 in Hg</td></tr>
          <tr><td>Maximum Intensity:</td></tr>
          <tr><td>90 kt / 104 mph / 167 kph</td></tr>
        </table>
      ]]></description>
      <Point><coordinates>-71.8,24.5</coordinates></Point>
    </Placemark>
    <Placemark>
      <name>1200 UTC AUG 19</name>
      <styleUrl>#cat2</styleUrl>
      <description><![CDATA[
        <table>
          <tr><td>HU ERIN (AL052025)</td></tr>
          <tr><td><hr></td></tr>
          <tr><td>1200 UTC AUG 19, 2025</td></tr>
          <tr><td>Storm Location:</td></tr>
          <tr><td><b>25.2 N, 72.1 W</b></td></tr>
          <tr><td>Min Sea Level Pressure:</td></tr>
          <tr><td>958 mb / 28.29 in Hg</td></tr>
          <tr><td>Maximum Intensity:</td></tr>
          <tr><td>85 kt / 98 mph / 157 kph</td></tr>
        </table>
      ]]></description>
      <Point><coordinates>-72.1,25.2</coordinates></Point>
    </Placemark>
    <Placemark>
      <name>1800 UTC AUG 19</name>
      <styleUrl>#cat2</styleUrl>
      <description><![CDATA[
        <table>
          <tr><td>HU ERIN (AL052025)</td></tr>
          <tr><td><hr></td></tr>
          <tr><td>1800 UTC AUG 19, 2025</td></tr>
          <tr><td>Storm Location:</td></tr>
          <tr><td><b>26.1 N, 72.5 W</b></td></tr>
          <tr><td>Min Sea Level Pressure:</td></tr>
          <tr><td>958 mb / 28.29 in Hg</td></tr>
          <tr><td>Maximum Intensity:</td></tr>
          <tr><td>85 kt / 98 mph / 157 kph</td></tr>
        </table>
      ]]></description>
      <Point><coordinates>-72.5,26.1</coordinates></Point>
    </Placemark>
    <Placemark>
      <name>0000 UTC AUG 20</name>
      <styleUrl>#cat2</styleUrl>
      <description><![CDATA[
        <table>
          <tr><td>HU ERIN (AL052025)</td></tr>
          <tr><td><hr></td></tr>
          <tr><td>0000 UTC AUG 20, 2025</td></tr>
          <tr><td>Storm Location:</td></tr>
          <tr><td><b>27.2 N, 72.8 W</b></td></tr>
          <tr><td>Min Sea Level Pressure:</td></tr>
          <tr><td>959 mb / 28.32 in Hg</td></tr>
          <tr><td>Maximum Intensity:</td></tr>
          <tr><td>85 kt / 98 mph / 157 kph</td></tr>
        </table>
      ]]></description>
      <Point><coordinates>-72.8,27.2</coordinates></Point>
    </Placemark>
    <Placemark>
      <name>0600 UTC AUG 20</name>
      <styleUrl>#cat2</styleUrl>
      <description><![CDATA[
        <table>
          <tr><td>HU ERIN (AL052025)</td></tr>
          <tr><td><hr></td></tr>
          <tr><td>0600 UTC AUG 20, 2025</td></tr>
          <tr><td>Storm Location:</td></tr>
          <tr><td><b>28.3 N, 73.2 W</b></td></tr>
          <tr><td>Min Sea Level Pressure:</td></tr>
          <tr><td>954 mb / 28.17 in Hg</td></tr>
          <tr><td>Maximum Intensity:</td></tr>
          <tr><td>90 kt / 104 mph / 167 kph</td></tr>
        </table>
      ]]></description>
      <Point><coordinates>-73.2,28.3</coordinates></Point>
    </Placemark>
    <Placemark>
      <name>1200 UTC AUG 20</name>
      <styleUrl>#cat2</styleUrl>
      <description><![CDATA[
        <table>
          <tr><td>HU ERIN (AL052025)</td></tr>
          <tr><td><hr></td></tr>
          <tr><td>1200 UTC AUG 20, 2025</td></tr>
          <tr><td>Storm Location:</td></tr>
          <tr><td><b>29.5 N, 73.7 W</b></td></tr>
          <tr><td>Min Sea Level Pressure:</td></tr>
          <tr><td>943 mb / 27.85 in Hg</td></tr>
          <tr><td>Maximum Intensity:</td></tr>
          <tr><td>95 kt / 109 mph / 176 kph</td></tr>
        </table>
      ]]></description>
      <Point><coordinates>-73.7,29.5</coordinates></Point>
    </Placemark>
    <Placemark>
      <name>1800 UTC AUG 20</name>
      <styleUrl>#cat2</styleUrl>
      <description><![CDATA[
        <table>
          <tr><td>HU ERIN (AL052025)</td></tr>
          <tr><td><hr></td></tr>
          <tr><td>1800 UTC AUG 20, 2025</td></tr>
          <tr><td>Storm Location:</td></tr>
          <tr><td><b>30.7 N, 73.6 W</b></td></tr>
          <tr><td>Min Sea Level Pressure:</td></tr>
          <tr><td>942 mb / 27.82 in Hg</td></tr>
          <tr><td>Maximum Intensity:</td></tr>
          <tr><td>95 kt / 109 mph / 176 kph</td></tr>
        </table>
      ]]></description>
      <Point><coordinates>-73.6,30.7</coordinates></Point>
    </Placemark>
    <Placemark>
      <name>0000 UTC AUG 21</name>
      <styleUrl>#cat2</styleUrl>
      <description><![CDATA[
        <table>
          <tr><td>HU ERIN (AL052025)</td></tr>
          <tr><td><hr></td></tr>
          <tr><td>0000 UTC AUG 21, 2025</td></tr>
          <tr><td>Storm Location:</td></tr>
          <tr><td><b>32.1 N, 73.3 W</b></td></tr>
          <tr><td>Min Sea Level Pressure:</td></tr>
          <tr><td>941 mb / 27.79 in Hg</td></tr>
          <tr><td>Maximum Intensity:</td></tr>
          <tr><td>95 kt / 109 mph / 176 kph</td></tr>
        </table>
      ]]></description>
      <Point><coordinates>-73.3,32.1</coordinates></Point>
    </Placemark>
    <Placemark>
      <name>0600 UTC AUG 21</name>
      <styleUrl>#cat2</styleUrl>
      <description><![CDATA[
        <table>
          <tr><td>HU ERIN (AL052025)</td></tr>
          <tr><td><hr></td></tr>
          <tr><td>0600 UTC AUG 21, 2025</td></tr>
          <tr><td>Storm Location:</td></tr>
          <tr><td><b>33.6 N, 72.6 W</b></td></tr>
          <tr><td>Min Sea Level Pressure:</td></tr>
          <tr><td>945 mb / 27.91 in Hg</td></tr>
          <tr><td>Maximum Intensity:</td></tr>
          <tr><td>90 kt / 104 mph / 167 kph</td></tr>
        </table>
      ]]></description>
      <Point><coordinates>-72.6,33.6</coordinates></Point>
    </Placemark>
    <Placemark>
      <name>1200 UTC AUG 21</name>
      <styleUrl>#cat2</styleUrl>
      <description><![CDATA[
        <table>
          <tr><td>HU ERIN (AL052025)</td></tr>
          <tr><td><hr></td></tr>
          <tr><td>1200 UTC AUG 21, 2025</td></tr>
          <tr><td>Storm Location:</td></tr>
          <tr><td><b>34.9 N, 71.7 W</b></td></tr>
          <tr><td>Min Sea Level Pressure:</td></tr>
          <tr><td>949 mb / 28.02 in Hg</td></tr>
          <tr><td>Maximum Intensity:</td></tr>
          <tr><td>90 kt / 104 mph / 167 kph</td></tr>
        </table>
      ]]></description>
      <Point><coordinates>-71.7,34.9</coordinates></Point>
    </Placemark>
    <Placemark>
      <name>1800 UTC AUG 21</name>
      <styleUrl>#cat2</styleUrl>
      <description><![CDATA[
        <table>
          <tr><td>HU ERIN (AL052025)</td></tr>
          <tr><td><hr></td></tr>
          <tr><td>1800 UTC AUG 21, 2025</td></tr>
          <tr><td>Storm Location:</td></tr>
          <tr><td><b>35.9 N, 70.1 W</b></td></tr>
          <tr><td>Min Sea Level Pressure:</td></tr>
          <tr><td>952 mb / 28.11 in Hg</td></tr>
          <tr><td>Maximum Intensity:</td></tr>
          <tr><td>85 kt / 98 mph / 157 kph</td></tr>
        </table>
      ]]></description>
      <Point><coordinates>-70.1,35.9</coordinates></Point>
    </Placemark>
    <Placemark>
      <name>0000 UTC AUG 22</name>
      <styleUrl>#cat2</styleUrl>
      <description><![CDATA[
        <table>
          <tr><td>HU ERIN (AL052025)</td></tr>
          <tr><td><hr></td></tr>
          <tr><td>0000 UTC AUG 22, 2025</td></tr>
          <tr><td>Storm Location:</td></tr>
          <tr><td><b>36.9 N, 68.4 W</b></td></tr>
          <tr><td>Min Sea Level Pressure:</td></tr>
          <tr><td>954 mb / 28.17 in Hg</td></tr>
          <tr><td>Maximum Intensity:</td></tr>
          <tr><td>85 kt / 98 mph / 157 kph</td></tr>
        </table>
      ]]></description>
      <Point><coordinates>-68.4,36.9</coordinates></Point>
    </Placemark>
    <Placemark>
      <name>0600 UTC AUG 22</name>
      <styleUrl>#cat1</styleUrl>
      <description><![CDATA[
        <table>
          <tr><td>HU ERIN (AL052025)</td></tr>
          <tr><td><hr></td></tr>
          <tr><td>0600 UTC AUG 22, 2025</td></tr>
          <tr><td>Storm Location:</td></tr>
          <tr><td><b>37.9 N, 66.5 W</b></td></tr>
          <tr><td>Min Sea Level Pressure:</td></tr>
          <tr><td>956 mb / 28.23 in Hg</td></tr>
          <tr><td>Maximum Intensity:</td></tr>
          <tr><td>80 kt / 92 mph / 148 kph</td></tr>
        </table>
      ]]></description>
      <Point><coordinates>-66.5,37.9</coordinates></Point>
    </Placemark>
    <Placemark>
      <name>1200 UTC AUG 22</name>
      <styleUrl>#cat1</styleUrl>
      <description><![CDATA[
        <table>
          <tr><td>HU ERIN (AL052025)</td></tr>
          <tr><td><hr></td></tr>
          <tr><td>1200 UTC AUG 22, 2025</td></tr>
          <tr><td>Storm Location:</td></tr>
          <tr><td><b>38.5 N, 64.6 W</b></td></tr>
          <tr><td>Min Sea Level Pressure:</td></tr>
          <tr><td>956 mb / 28.23 in Hg</td></tr>
          <tr><td>Maximum Intensity:</td></tr>
          <tr><td>80 kt / 92 mph / 148 kph</td></tr>
        </table>
      ]]></description>
      <Point><coordinates>-64.6,38.5</coordinates></Point>
    </Placemark>
    <Placemark>
      <name>1800 UTC AUG 22</name>
      <styleUrl>#ex</styleUrl>
      <description><![CDATA[
        <table>
          <tr><td>EX ERIN (AL052025)</td></tr>
          <tr><td><hr></td></tr>
          <tr><td>1800 UTC AUG 22, 2025</td></tr>
          <tr><td>Storm Location:</td></tr>
          <tr><td><b>39.4 N, 61.4 W</b></td></tr>
          <tr><td>Min Sea Level Pressure:</td></tr>
          <tr><td>957 mb / 28.26 in Hg</td></tr>
          <tr><td>Maximum Intensity:</td></tr>
          <tr><td>80 kt / 92 mph / 148 kph</td></tr>
        </table>
      ]]></description>
      <Point><coordinates>-61.4,39.4</coordinates></Point>
    </Placemark>
    <Placemark>
      <name>0000 UTC AUG 23</name>
      <styleUrl>#ex</styleUrl>
      <description><![CDATA[
        <table>
          <tr><td>EX ERIN (AL052025)</td></tr>
          <tr><td><hr></td></tr>
          <tr><td>0000 UTC AUG 23, 2025</td></tr>
          <tr><td>Storm Location:</td></tr>
          <tr><td><b>40.4 N, 58.1 W</b></td></tr>
          <tr><td>Min Sea Level Pressure:</td></tr>
          <tr><td>957 mb / 28.26 in Hg</td></tr>
          <tr><td>Maximum Intensity:</td></tr>
          <tr><td>80 kt / 92 mph / 148 kph</td></tr>
        </table>
      ]]></description>
      <Point><coordinates>-58.1,40.4</coordinates></Point>
    </Placemark>
    <Placemark>
      <name>0600 UTC AUG 23</name>
      <styleUrl>#ex</styleUrl>
      <description><![CDATA[
        <table>
          <tr><td>EX ERIN (AL052025)</td></tr>
          <tr><td><hr></td></tr>
          <tr><td>0600 UTC AUG 23, 2025</td></tr>
          <tr><td>Storm Location:</td></tr>
          <tr><td><b>41.3 N, 54.7 W</b></td></tr>
          <tr><td>Min Sea Level Pressure:</td></tr>
          <tr><td>962 mb / 28.41 in Hg</td></tr>
          <tr><td>Maximum Intensity:</td></tr>
          <tr><td>75 kt / 86 mph / 139 kph</td></tr>
        </table>
      ]]></description>
      <Point><coordinates>-54.7,41.3</coordinates></Point>
    </Placemark>
    <Placemark>
      <name>1200 UTC AUG 23</name>
      <styleUrl>#ex</styleUrl>
      <description><![CDATA[
        <table>
          <tr><td>EX ERIN (AL052025)</td></tr>
          <tr><td><hr></td></tr>
          <tr><td>1200 UTC AUG 23, 2025</td></tr>
          <tr><td>Storm Location:</td></tr>
          <tr><td><b>42.0 N, 50.5 W</b></td></tr>
          <tr><td>Min Sea Level Pressure:</td></tr>
          <tr><td>962 mb / 28.41 in Hg</td></tr>
          <tr><td>Maximum Intensity:</td></tr>
          <tr><td>75 kt / 86 mph / 139 kph</td></tr>
        </table>
      ]]></description>
      <Point><coordinates>-50.5,42</coordinates></Point>
    </Placemark>
    <Placemark>
      <name>1800 UTC AUG 23</name>
      <styleUrl>#ex</styleUrl>
      <description><![CDATA[
        <table>
          <tr><td>EX ERIN (AL052025)</td></tr>
          <tr><td><hr></td></tr>
          <tr><td>1800 UTC AUG 23, 2025</td></tr>
          <tr><td>Storm Location:</td></tr>
          <tr><td><b>43.0 N, 45.0 W</b></td></tr>
          <tr><td>Min Sea Level Pressure:</td></tr>
          <tr><td>962 mb / 28.41 in Hg</td></tr>
          <tr><td>Maximum Intensity:</td></tr>
          <tr><td>70 kt / 81 mph / 130 kph</td></tr>
        </table>
      ]]></description>
      <Point><coordinates>-45,43</coordinates></Point>
    </Placemark>
    <Placemark>
      <name>0000 UTC AUG 24</name>
      <styleUrl>#ex</styleUrl>
      <description><![CDATA[
        <table>
          <tr><td>EX ERIN (AL052025)</td></tr>
          <tr><td><hr></td></tr>
          <tr><td>0000 UTC AUG 24, 2025</td></tr>
          <tr><td>Storm Location:</td></tr>
          <tr><td><b>45.5 N, 40.5 W</b></td></tr>
          <tr><td>Min Sea Level Pressure:</td></tr>
          <tr><td>961 mb / 28.38 in Hg</td></tr>
          <tr><td>Maximum Intensity:</td></tr>
          <tr><td>70 kt / 81 mph / 130 kph</td></tr>
        </table>
      ]]></description>
      <Point><coordinates>-40.5,45.5</coordinates></Point>
    </Placemark>
    <Placemark>
      <name>0600 UTC AUG 24</name>
      <styleUrl>#ex</styleUrl>
      <description><![CDATA[
        <table>
          <tr><td>EX ERIN (AL052025)</td></tr>
          <tr><td><hr></td></tr>
          <tr><td>0600 UTC AUG 24, 2025</td></tr>
          <tr><td>Storm Location:</td></tr>
          <tr><td><b>48.0 N, 35.3 W</b></td></tr>
          <tr><td>Min Sea Level Pressure:</td></tr>
          <tr><td>960 mb / 28.35 in Hg</td></tr>
          <tr><td>Maximum Intensity:</td></tr>
          <tr><td>70 kt / 81 mph / 130 kph</td></tr>
        </table>
      ]]></description>
      <Point><coordinates>-35.3,48</coordinates></Point>
    </Placemark>
    <Placemark>
      <name>1200 UTC AUG 24</name>
      <styleUrl>#ex</styleUrl>
      <description><![CDATA[
        <table>
          <tr><td>EX ERIN (AL052025)</td></tr>
          <tr><td><hr></td></tr>
          <tr><td>1200 UTC AUG 24, 2025</td></tr>
          <tr><td>Storm Location:</td></tr>
          <tr><td><b>50.8 N, 30.9 W</b></td></tr>
          <tr><td>Min Sea Level Pressure:</td></tr>
          <tr><td>952 mb / 28.11 in Hg</td></tr>
          <tr><td>Maximum Intensity:</td></tr>
          <tr><td>80 kt / 92 mph / 148 kph</td></tr>
        </table>
      ]]></description>
      <Point><coordinates>-30.9,50.8</coordinates></Point>
    </Placemark>
    <Placemark>
      <name>1800 UTC AUG 24</name>
      <styleUrl>#ex</styleUrl>
      <description><![CDATA[
        <table>
          <tr><td>EX ERIN (AL052025)</td></tr>
          <tr><td><hr></td></tr>
          <tr><td>1800 UTC AUG 24, 2025</td></tr>
          <tr><td>Storm Location:</td></tr>
          <tr><td><b>52.6 N, 28.2 W</b></td></tr>
          <tr><td>Min Sea Level Pressure:</td></tr>
          <tr><td>952 mb / 28.11 in Hg</td></tr>
          <tr><td>Maximum Intensity:</td></tr>
          <tr><td>80 kt / 92 mph / 148 kph</td></tr>
        </table>
      ]]></description>
      <Point><coordinates>-28.2,52.6</coordinates></Point>
    </Placemark>
    <Placemark>
      <name>0000 UTC AUG 25</name>
      <styleUrl>#ex</styleUrl>
      <description><![CDATA[
        <table>
          <tr><td>EX ERIN (AL052025)</td></tr>
          <tr><td><hr></td></tr>
          <tr><td>0000 UTC AUG 25, 2025</td></tr>
          <tr><td>Storm Location:</td></tr>
          <tr><td><b>53.7 N, 26.4 W</b></td></tr>
          <tr><td>Min Sea Level Pressure:</td></tr>
          <tr><td>954 mb / 28.17 in Hg</td></tr>
          <tr><td>Maximum Intensity:</td></tr>
          <tr><td>70 kt / 81 mph / 130 kph</td></tr>
        </table>
      ]]></description>
      <Point><coordinates>-26.4,53.7</coordinates></Point>
    </Placemark>
    <Placemark>
      <name>0600 UTC AUG 25</name>
      <styleUrl>#ex</styleUrl>
      <description><![CDATA[
        <table>
          <tr><td>EX ERIN (AL052025)</td></tr>
          <tr><td><hr></td></tr>
          <tr><td>0600 UTC AUG 25, 2025</td></tr>
          <tr><td>Storm Location:</td></tr>
          <tr><td><b>54.9 N, 23.9 W</b></td></tr>
          <tr><td>Min Sea Level Pressure:</td></tr>
          <tr><td>955 mb / 28.20 in Hg</td></tr>
          <tr><td>Maximum Intensity:</td></tr>
          <tr><td>60 kt / 69 mph / 111 kph</td></tr>
        </table>
      ]]></description>
      <Point><coordinates>-23.9,54.9</coordinates></Point>
    </Placemark>
    <Placemark>
      <name>1200 UTC AUG 25</name>
      <styleUrl>#ex</styleUrl>
      <description><![CDATA[
        <table>
          <tr><td>EX ERIN (AL052025)</td></tr>
          <tr><td><hr></td></tr>
          <tr><td>1200 UTC AUG 25, 2025</td></tr>
          <tr><td>Storm Location:</td></tr>
          <tr><td><b>56.1 N, 22.1 W</b></td></tr>
          <tr><td>Min Sea Level Pressure:</td></tr>
          <tr><td>957 mb / 28.26 in Hg</td></tr>
          <tr><td>Maximum Intensity:</td></tr>
          <tr><td>55 kt / 63 mph / 102 kph</td></tr>
        </table>
      ]]></description>
      <Point><coordinates>-22.1,56.1</coordinates></Point>
    </Placemark>
    <Placemark>
      <name>1800 UTC AUG 25</name>
      <styleUrl>#ex</styleUrl>
      <description><![CDATA[
        <table>
          <tr><td>EX ERIN (AL052025)</td></tr>
          <tr><td><hr></td></tr>
          <tr><td>1800 UTC AUG 25, 2025</td></tr>
          <tr><td>Storm Location:</td></tr>
          <tr><td><b>57.3 N, 21.3 W</b></td></tr>
          <tr><td>Min Sea Level Pressure:</td></tr>
          <tr><td>958 mb / 28.29 in Hg</td></tr>
          <tr><td>Maximum Intensity:</td></tr>
          <tr><td>50 kt / 58 mph / 93 kph</td></tr>
        </table>
      ]]></description>
      <Point><coordinates>-21.3,57.3</coordinates></Point>
    </Placemark>
    <Placemark>
      <name>0000 UTC AUG 26</name>
      <styleUrl>#ex</styleUrl>
      <description><![CDATA[
        <table>
          <tr><td>EX ERIN (AL052025)</td></tr>
          <tr><td><hr></td></tr>
          <tr><td>0000 UTC AUG 26, 2025</td></tr>
          <tr><td>Storm Location:</td></tr>
          <tr><td><b>58.3 N, 20.9 W</b></td></tr>
          <tr><td>Min Sea Level Pressure:</td></tr>
          <tr><td>961 mb / 28.38 in Hg</td></tr>
          <tr><td>Maximum Intensity:</td></tr>
          <tr><td>45 kt / 52 mph / 83 kph</td></tr>
        </table>
      ]]></description>
      <Point><coordinates>-20.9,58.3</coordinates></Point>
    </Placemark>
    <Placemark>
      <name>0600 UTC AUG 26</name>
      <styleUrl>#ex</styleUrl>
      <description><![CDATA[
        <table>
          <tr><td>EX ERIN (AL052025)</td></tr>
          <tr><td><hr></td></tr>
          <tr><td>0600 UTC AUG 26, 2025</td></tr>
          <tr><td>Storm Location:</td></tr>
          <tr><td><b>59.3 N, 20.6 W</b></td></tr>
          <tr><td>Min Sea Level Pressure:</td></tr>
          <tr><td>962 mb / 28.41 in Hg</td></tr>
          <tr><td>Maximum Intensity:</td></tr>
          <tr><td>45 kt / 52 mph / 83 kph</td></tr>
        </table>
      ]]></description>
      <Point><coordinates>-20.6,59.3</coordinates></Point>
    </Placemark>
    <Placemark>
      <name>1200 UTC AUG 26</name>
      <styleUrl>#ex</styleUrl>
      <description><![CDATA[
        <table>
          <tr><td>EX ERIN (AL052025)</td></tr>
          <tr><td><hr></td></tr>
          <tr><td>1200 UTC AUG 26, 2025</td></tr>
          <tr><td>Storm Location:</td></tr>
          <tr><td><b>59.9 N, 21.6 W</b></td></tr>
          <tr><td>Min Sea Level Pressure:</td></tr>
          <tr><td>963 mb / 28.44 in Hg</td></tr>
          <tr><td>Maximum Intensity:</td></tr>
          <tr><td>45 kt / 52 mph / 83 kph</td></tr>
        </table>
      ]]></description>
      <Point><coordinates>-21.6,59.9</coordinates></Point>
    </Placemark>
    <Placemark>
      <name>1800 UTC AUG 26</name>
      <styleUrl>#ex</styleUrl>
      <description><![CDATA[
        <table>
          <tr><td>EX ERIN (AL052025)</td></tr>
          <tr><td><hr></td></tr>
          <tr><td>1800 UTC AUG 26, 2025</td></tr>
          <tr><td>Storm Location:</td></tr>
          <tr><td><b>60.3 N, 22.5 W</b></td></tr>
          <tr><td>Min Sea Level Pressure:</td></tr>
          <tr><td>963 mb / 28.44 in Hg</td></tr>
          <tr><td>Maximum Intensity:</td></tr>
          <tr><td>45 kt / 52 mph / 83 kph</td></tr>
        </table>
      ]]></description>
      <Point><coordinates>-22.5,60.3</coordinates></Point>
    </Placemark>
    <Placemark>
      <name>0000 UTC AUG 27</name>
      <styleUrl>#ex</styleUrl>
      <description><![CDATA[
        <table>
          <tr><td>EX ERIN (AL052025)</td></tr>
          <tr><td><hr></td></tr>
          <tr><td>0000 UTC AUG 27, 2025</td></tr>
          <tr><td>Storm Location:</td></tr>
          <tr><td><b>60.0 N, 23.3 W</b></td></tr>
          <tr><td>Min Sea Level Pressure:</td></tr>
          <tr><td>968 mb / 28.59 in Hg</td></tr>
          <tr><td>Maximum Intensity:</td></tr>
          <tr><td>45 kt / 52 mph / 83 kph</td></tr>
        </table>
      ]]></description>
      <Point><coordinates>-23.3,60</coordinates></Point>
    </Placemark>
    <Placemark>
      <name>0600 UTC AUG 27</name>
      <styleUrl>#ex</styleUrl>
      <description><![CDATA[
        <table>
          <tr><td>EX ERIN (AL052025)</td></tr>
          <tr><td><hr></td></tr>
          <tr><td>0600 UTC AUG 27, 2025</td></tr>
          <tr><td>Storm Location:</td></tr>
          <tr><td><b>59.3 N, 22.7 W</b></td></tr>
          <tr><td>Min Sea Level Pressure:</td></tr>
          <tr><td>975 mb / 28.79 in Hg</td></tr>
          <tr><td>Maximum Intensity:</td></tr>
          <tr><td>40 kt / 46 mph / 74 kph</td></tr>
        </table>
      ]]></description>
      <Point><coordinates>-22.7,59.3</coordinates></Point>
    </Placemark>
    <Placemark>
      <name>1200 UTC AUG 27</name>
      <styleUrl>#ex</styleUrl>
      <description><![CDATA[
        <table>
          <tr><td>EX ERIN (AL052025)</td></tr>
          <tr><td><hr></td></tr>
          <tr><td>1200 UTC AUG 27, 2025</td></tr>
          <tr><td>Storm Location:</td></tr>
          <tr><td><b>58.6 N, 20.9 W</b></td></tr>
          <tr><td>Min Sea Level Pressure:</td></tr>
          <tr><td>980 mb / 28.94 in Hg</td></tr>
          <tr><td>Maximum Intensity:</td></tr>
          <tr><td>40 kt / 46 mph / 74 kph</td></tr>
        </table>
      ]]></description>
      <Point><coordinates>-20.9,58.6</coordinates></Point>
    </Placemark>
    <Placemark>
      <name>1800 UTC AUG 27</name>
      <styleUrl>#ex</styleUrl>
      <description><![CDATA[
        <table>
          <tr><td>EX ERIN (AL052025)</td></tr>
          <tr><td><hr></td></tr>
          <tr><td>1800 UTC AUG 27, 2025</td></tr>
          <tr><td>Storm Location:</td></tr>
          <tr><td><b>58.0 N, 19.0 W</b></td></tr>
          <tr><td>Min Sea Level Pressure:</td></tr>
          <tr><td>985 mb / 29.09 in Hg</td></tr>
          <tr><td>Maximum Intensity:</td></tr>
          <tr><td>40 kt / 46 mph / 74 kph</td></tr>
        </table>
      ]]></description>
      <Point><coordinates>-19,58</coordinates></Point>
    </Placemark>
  </Document>
</kml>
