<?xml version="1.0" encoding="UTF-8"?>
<kml xmlns="http://www.opengis.net/kml/2.2">
  <Document>
    <name>AL062025</name>
    <open>0</open>

    <!-- =====  Document header ===== -->
    <description><![CDATA[
      <table>
        <tr><td><b>Title:</b> Tropical Cyclone Best Track for AL062025</td></tr>
      </table>
    ]]></description>

    <!-- =====  Styles (ids must be unique)  ===== -->
	<Style id="pt"> 
		<IconStyle> 
			<scale>1.0</scale> 
			<Icon> 
				<href>ex_nhemi.png</href> 
			</Icon> 
             <hotSpot x="15" y="17" xunits="pixels" yunits="pixels"/>
		</IconStyle> 
		<LabelStyle> 
			<scale>1.0</scale> 
		</LabelStyle> 
	</Style>
	<Style id="cat5"> 
		<IconStyle> 
			<scale>1.0</scale> 
			<Icon> 
				<href>cat5_nhemi.png</href> 
			</Icon> 
             <hotSpot x="15" y="17" xunits="pixels" yunits="pixels"/>
		</IconStyle> 
		<LabelStyle> 
			<scale>1.0</scale> 
		</LabelStyle> 
	</Style>
	<Style id="db"> 
		<IconStyle> 
			<scale>1.0</scale> 
			<Icon> 
				<href>ex_nhemi.png</href> 
			</Icon> 
             <hotSpot x="15" y="17" xunits="pixels" yunits="pixels"/>
		</IconStyle> 
		<LabelStyle> 
			<scale>1.0</scale> 
		</LabelStyle> 
	</Style>
	<Style id="cat3"> 
		<IconStyle> 
			<scale>1.0</scale> 
			<Icon> 
				<href>cat3_nhemi.png</href> 
			</Icon> 
             <hotSpot x="15" y="17" xunits="pixels" yunits="pixels"/>
		</IconStyle> 
		<LabelStyle> 
			<scale>1.0</scale> 
		</LabelStyle> 
	</Style>
	<Style id="ss"> 
		<IconStyle> 
			<scale>1.0</scale> 
			<Icon> 
				<href>ts_nhemi.png</href> 
			</Icon> 
             <hotSpot x="15" y="17" xunits="pixels" yunits="pixels"/>
		</IconStyle> 
		<LabelStyle> 
			<scale>1.0</scale> 
		</LabelStyle> 
	</Style>
	<Style id="lo"> 
		<IconStyle> 
			<scale>1.0</scale> 
			<Icon> 
				<href>ex_nhemi.png</href> 
			</Icon> 
             <hotSpot x="15" y="17" xunits="pixels" yunits="pixels"/>
		</IconStyle> 
		<LabelStyle> 
			<scale>1.0</scale> 
		</LabelStyle> 
	</Style>
	<Style id="cat4"> 
		<IconStyle> 
			<scale>1.0</scale> 
			<Icon> 
				<href>cat4_nhemi.png</href> 
			</Icon> 
             <hotSpot x="15" y="17" xunits="pixels" yunits="pixels"/>
		</IconStyle> 
		<LabelStyle> 
			<scale>1.0</scale> 
		</LabelStyle> 
	</Style>
	<Style id="cat2"> 
		<IconStyle> 
			<scale>1.0</scale> 
			<Icon> 
				<href>cat2_nhemi.png</href> 
			</Icon> 
             <hotSpot x="15" y="17" xunits="pixels" yunits="pixels"/>
		</IconStyle> 
		<LabelStyle> 
			<scale>1.0</scale> 
		</LabelStyle> 
	</Style>
	<Style id="ts"> 
		<IconStyle> 
			<scale>1.0</scale> 
			<Icon> 
				<href>ts_nhemi.png</href> 
			</Icon> 
             <hotSpot x="15" y="17" xunits="pixels" yunits="pixels"/>
		</IconStyle> 
		<LabelStyle> 
			<scale>1.0</scale> 
		</LabelStyle> 
	</Style>
	<Style id="cat1"> 
		<IconStyle> 
			<scale>1.0</scale> 
			<Icon> 
				<href>cat1_nhemi.png</href> 
			</Icon> 
             <hotSpot x="15" y="17" xunits="pixels" yunits="pixels"/>
		</IconStyle> 
		<LabelStyle> 
			<scale>1.0</scale> 
		</LabelStyle> 
	</Style>
	<Style id="ex"> 
		<IconStyle> 
			<scale>1.0</scale> 
			<Icon> 
				<href>ex_nhemi.png</href> 
			</Icon> 
             <hotSpot x="15" y="17" xunits="pixels" yunits="pixels"/>
		</IconStyle> 
		<LabelStyle> 
			<scale>1.0</scale> 
		</LabelStyle> 
	</Style>
	<Style id="tc"> 
		<IconStyle> 
			<scale>1.0</scale> 
			<Icon> 
				<href>ex_nhemi.png</href> 
			</Icon> 
             <hotSpot x="15" y="17" xunits="pixels" yunits="pixels"/>
		</IconStyle> 
		<LabelStyle> 
			<scale>1.0</scale> 
		</LabelStyle> 
	</Style>
	<Style id="wv"> 
		<IconStyle> 
			<scale>1.0</scale> 
			<Icon> 
				<href>ex_nhemi.png</href> 
			</Icon> 
             <hotSpot x="15" y="17" xunits="pixels" yunits="pixels"/>
		</IconStyle> 
		<LabelStyle> 
			<scale>1.0</scale> 
		</LabelStyle> 
	</Style>
	<Style id="td"> 
		<IconStyle> 
			<scale>1.0</scale> 
			<Icon> 
				<href>td_nhemi.png</href> 
			</Icon> 
             <hotSpot x="15" y="17" xunits="pixels" yunits="pixels"/>
		</IconStyle> 
		<LabelStyle> 
			<scale>1.0</scale> 
		</LabelStyle> 
	</Style>
	<Style id="sd"> 
		<IconStyle> 
			<scale>1.0</scale> 
			<Icon> 
				<href>ex_nhemi.png</href> 
			</Icon> 
             <hotSpot x="15" y="17" xunits="pixels" yunits="pixels"/>
		</IconStyle> 
		<LabelStyle> 
			<scale>1.0</scale> 
		</LabelStyle> 
	</Style>

    <Placemark>
      <name>1800 UTC AUG 23</name>
      <styleUrl>#ts</styleUrl>
      <description><![CDATA[
        <table>
          <tr><td>TS FERNAND (AL062025)</td></tr>
          <tr><td><hr></td></tr>
          <tr><td>1800 UTC AUG 23, 2025</td></tr>
          <tr><td>Storm Location:</td></tr>
          <tr><td><b>26.6 N, 61.7 W</b></td></tr>
          <tr><td>Min Sea Level Pressure:</td></tr>
          <tr><td>1010 mb / 29.83 in Hg</td></tr>
          <tr><td>Maximum Intensity:</td></tr>
          <tr><td>35 kt / 40 mph / 65 kph</td></tr>
        </table>
      ]]></description>
      <Point><coordinates>-61.7,26.6</coordinates></Point>
    </Placemark>
    <Placemark>
      <name>0000 UTC AUG 24</name>
      <styleUrl>#ts</styleUrl>
      <description><![CDATA[
        <table>
          <tr><td>TS FERNAND (AL062025)</td></tr>
          <tr><td><hr></td></tr>
          <tr><td>0000 UTC AUG 24, 2025</td></tr>
          <tr><td>Storm Location:</td></tr>
          <tr><td><b>28.0 N, 61.3 W</b></td></tr>
          <tr><td>Min Sea Level Pressure:</td></tr>
          <tr><td>1009 mb / 29.80 in Hg</td></tr>
          <tr><td>Maximum Intensity:</td></tr>
          <tr><td>35 kt / 40 mph / 65 kph</td></tr>
        </table>
      ]]></description>
      <Point><coordinates>-61.3,28</coordinates></Point>
    </Placemark>
    <Placemark>
      <name>0600 UTC AUG 24</name>
      <styleUrl>#ts</styleUrl>
      <description><![CDATA[
        <table>
          <tr><td>TS FERNAND (AL062025)</td></tr>
          <tr><td><hr></td></tr>
          <tr><td>0600 UTC AUG 24, 2025</td></tr>
          <tr><td>Storm Location:</td></tr>
          <tr><td><b>29.2 N, 60.9 W</b></td></tr>
          <tr><td>Min Sea Level Pressure:</td></tr>
          <tr><td>1009 mb / 29.80 in Hg</td></tr>
          <tr><td>Maximum Intensity:</td></tr>
          <tr><td>35 kt / 40 mph / 65 kph</td></tr>
        </table>
      ]]></description>
      <Point><coordinates>-60.9,29.2</coordinates></Point>
    </Placemark>
    <Placemark>
      <name>1200 UTC AUG 24</name>
      <styleUrl>#ts</styleUrl>
      <description><![CDATA[
        <table>
          <tr><td>TS FERNAND (AL062025)</td></tr>
          <tr><td><hr></td></tr>
          <tr><td>1200 UTC AUG 24, 2025</td></tr>
          <tr><td>Storm Location:</td></tr>
          <tr><td><b>30.3 N, 60.4 W</b></td></tr>
          <tr><td>Min Sea Level Pressure:</td></tr>
          <tr><td>1009 mb / 29.80 in Hg</td></tr>
          <tr><td>Maximum Intensity:</td></tr>
          <tr><td>35 kt / 40 mph / 65 kph</td></tr>
        </table>
      ]]></description>
      <Point><coordinates>-60.4,30.3</coordinates></Point>
    </Placemark>
    <Placemark>
      <name>1800 UTC AUG 24</name>
      <styleUrl>#ts</styleUrl>
      <description><![CDATA[
        <table>
          <tr><td>TS FERNAND (AL062025)</td></tr>
          <tr><td><hr></td></tr>
          <tr><td>1800 UTC AUG 24, 2025</td></tr>
          <tr><td>Storm Location:</td></tr>
          <tr><td><b>31.3 N, 60.0 W</b></td></tr>
          <tr><td>Min Sea Level Pressure:</td></tr>
          <tr><td>1006 mb / 29.71 in Hg</td></tr>
          <tr><td>Maximum Intensity:</td></tr>
          <tr><td>40 kt / 46 mph / 74 kph</td></tr>
        </table>
      ]]></description>
      <Point><coordinates>-60,31.3</coordinates></Point>
    </Placemark>
    <Placemark>
      <name>0000 UTC AUG 25</name>
      <styleUrl>#ts</styleUrl>
      <description><![CDATA[
        <table>
          <tr><td>TS FERNAND (AL062025)</td></tr>
          <tr><td><hr></td></tr>
          <tr><td>0000 UTC AUG 25, 2025</td></tr>
          <tr><td>Storm Location:</td></tr>
          <tr><td><b>32.1 N, 59.6 W</b></td></tr>
          <tr><td>Min Sea Level Pressure:</td></tr>
          <tr><td>1005 mb / 29.68 in Hg</td></tr>
          <tr><td>Maximum Intensity:</td></tr>
          <tr><td>45 kt / 52 mph / 83 kph</td></tr>
        </table>
      ]]></description>
      <Point><coordinates>-59.6,32.1</coordinates></Point>
    </Placemark>
    <Placemark>
      <name>0600 UTC AUG 25</name>
      <styleUrl>#ts</styleUrl>
      <description><![CDATA[
        <table>
          <tr><td>TS FERNAND (AL062025)</td></tr>
          <tr><td><hr></td></tr>
          <tr><td>0600 UTC AUG 25, 2025</td></tr>
          <tr><td>Storm Location:</td></tr>
          <tr><td><b>33.0 N, 59.0 W</b></td></tr>
          <tr><td>Min Sea Level Pressure:</td></tr>
          <tr><td>1004 mb / 29.65 in Hg</td></tr>
          <tr><td>Maximum Intensity:</td></tr>
          <tr><td>45 kt / 52 mph / 83 kph</td></tr>
        </table>
      ]]></description>
      <Point><coordinates>-59,33</coordinates></Point>
    </Placemark>
    <Placemark>
      <name>1200 UTC AUG 25</name>
      <styleUrl>#ts</styleUrl>
      <description><![CDATA[
        <table>
          <tr><td>TS FERNAND (AL062025)</td></tr>
          <tr><td><hr></td></tr>
          <tr><td>1200 UTC AUG 25, 2025</td></tr>
          <tr><td>Storm Location:</td></tr>
          <tr><td><b>33.8 N, 58.4 W</b></td></tr>
          <tr><td>Min Sea Level Pressure:</td></tr>
          <tr><td>999 mb / 29.50 in Hg</td></tr>
          <tr><td>Maximum Intensity:</td></tr>
          <tr><td>50 kt / 58 mph / 93 kph</td></tr>
        </table>
      ]]></description>
      <Point><coordinates>-58.4,33.8</coordinates></Point>
    </Placemark>
    <Placemark>
      <name>1800 UTC AUG 25</name>
      <styleUrl>#ts</styleUrl>
      <description><![CDATA[
        <table>
          <tr><td>TS FERNAND (AL062025)</td></tr>
          <tr><td><hr></td></tr>
          <tr><td>1800 UTC AUG 25, 2025</td></tr>
          <tr><td>Storm Location:</td></tr>
          <tr><td><b>34.8 N, 57.6 W</b></td></tr>
          <tr><td>Min Sea Level Pressure:</td></tr>
          <tr><td>999 mb / 29.50 in Hg</td></tr>
          <tr><td>Maximum Intensity:</td></tr>
          <tr><td>50 kt / 58 mph / 93 kph</td></tr>
        </table>
      ]]></description>
      <Point><coordinates>-57.6,34.8</coordinates></Point>
    </Placemark>
    <Placemark>
      <name>0000 UTC AUG 26</name>
      <styleUrl>#ts</styleUrl>
      <description><![CDATA[
        <table>
          <tr><td>TS FERNAND (AL062025)</td></tr>
          <tr><td><hr></td></tr>
          <tr><td>0000 UTC AUG 26, 2025</td></tr>
          <tr><td>Storm Location:</td></tr>
          <tr><td><b>35.6 N, 56.8 W</b></td></tr>
          <tr><td>Min Sea Level Pressure:</td></tr>
          <tr><td>1002 mb / 29.59 in Hg</td></tr>
          <tr><td>Maximum Intensity:</td></tr>
          <tr><td>45 kt / 52 mph / 83 kph</td></tr>
        </table>
      ]]></description>
      <Point><coordinates>-56.8,35.6</coordinates></Point>
    </Placemark>
    <Placemark>
      <name>0600 UTC AUG 26</name>
      <styleUrl>#ts</styleUrl>
      <description><![CDATA[
        <table>
          <tr><td>TS FERNAND (AL062025)</td></tr>
          <tr><td><hr></td></tr>
          <tr><td>0600 UTC AUG 26, 2025</td></tr>
          <tr><td>Storm Location:</td></tr>
          <tr><td><b>36.4 N, 55.9 W</b></td></tr>
          <tr><td>Min Sea Level Pressure:</td></tr>
          <tr><td>1005 mb / 29.68 in Hg</td></tr>
          <tr><td>Maximum Intensity:</td></tr>
          <tr><td>40 kt / 46 mph / 74 kph</td></tr>
        </table>
      ]]></description>
      <Point><coordinates>-55.9,36.4</coordinates></Point>
    </Placemark>
    <Placemark>
      <name>1200 UTC AUG 26</name>
      <styleUrl>#ts</styleUrl>
      <description><![CDATA[
        <table>
          <tr><td>TS FERNAND (AL062025)</td></tr>
          <tr><td><hr></td></tr>
          <tr><td>1200 UTC AUG 26, 2025</td></tr>
          <tr><td>Storm Location:</td></tr>
          <tr><td><b>37.3 N, 55.1 W</b></td></tr>
          <tr><td>Min Sea Level Pressure:</td></tr>
          <tr><td>1006 mb / 29.71 in Hg</td></tr>
          <tr><td>Maximum Intensity:</td></tr>
          <tr><td>35 kt / 40 mph / 65 kph</td></tr>
        </table>
      ]]></description>
      <Point><coordinates>-55.1,37.3</coordinates></Point>
    </Placemark>
    <Placemark>
      <name>1800 UTC AUG 26</name>
      <styleUrl>#ts</styleUrl>
      <description><![CDATA[
        <table>
          <tr><td>TS FERNAND (AL062025)</td></tr>
          <tr><td><hr></td></tr>
          <tr><td>1800 UTC AUG 26, 2025</td></tr>
          <tr><td>Storm Location:</td></tr>
          <tr><td><b>37.8 N, 54.0 W</b></td></tr>
          <tr><td>Min Sea Level Pressure:</td></tr>
          <tr><td>1004 mb / 29.65 in Hg</td></tr>
          <tr><td>Maximum Intensity:</td></tr>
          <tr><td>35 kt / 40 mph / 65 kph</td></tr>
        </table>
      ]]></description>
      <Point><coordinates>-54,37.8</coordinates></Point>
    </Placemark>
    <Placemark>
      <name>0000 UTC AUG 27</name>
      <styleUrl>#ts</styleUrl>
      <description><![CDATA[
        <table>
          <tr><td>TS FERNAND (AL062025)</td></tr>
          <tr><td><hr></td></tr>
          <tr><td>0000 UTC AUG 27, 2025</td></tr>
          <tr><td>Storm Location:</td></tr>
          <tr><td><b>38.2 N, 52.7 W</b></td></tr>
          <tr><td>Min Sea Level Pressure:</td></tr>
          <tr><td>1002 mb / 29.59 in Hg</td></tr>
          <tr><td>Maximum Intensity:</td></tr>
          <tr><td>40 kt / 46 mph / 74 kph</td></tr>
        </table>
      ]]></description>
      <Point><coordinates>-52.7,38.2</coordinates></Point>
    </Placemark>
    <Placemark>
      <name>0600 UTC AUG 27</name>
      <styleUrl>#ts</styleUrl>
      <description><![CDATA[
        <table>
          <tr><td>TS FERNAND (AL062025)</td></tr>
          <tr><td><hr></td></tr>
          <tr><td>0600 UTC AUG 27, 2025</td></tr>
          <tr><td>Storm Location:</td></tr>
          <tr><td><b>38.3 N, 51.4 W</b></td></tr>
          <tr><td>Min Sea Level Pressure:</td></tr>
          <tr><td>1000 mb / 29.53 in Hg</td></tr>
          <tr><td>Maximum Intensity:</td></tr>
          <tr><td>45 kt / 52 mph / 83 kph</td></tr>
        </table>
      ]]></description>
      <Point><coordinates>-51.4,38.3</coordinates></Point>
    </Placemark>
    <Placemark>
      <name>1200 UTC AUG 27</name>
      <styleUrl>#ts</styleUrl>
      <description><![CDATA[
        <table>
          <tr><td>TS FERNAND (AL062025)</td></tr>
          <tr><td><hr></td></tr>
          <tr><td>1200 UTC AUG 27, 2025</td></tr>
          <tr><td>Storm Location:</td></tr>
          <tr><td><b>38.2 N, 50.3 W</b></td></tr>
          <tr><td>Min Sea Level Pressure:</td></tr>
          <tr><td>1000 mb / 29.53 in Hg</td></tr>
          <tr><td>Maximum Intensity:</td></tr>
          <tr><td>45 kt / 52 mph / 83 kph</td></tr>
        </table>
      ]]></description>
      <Point><coordinates>-50.3,38.2</coordinates></Point>
    </Placemark>
    <Placemark>
      <name>1800 UTC AUG 27</name>
      <styleUrl>#lo</styleUrl>
      <description><![CDATA[
        <table>
          <tr><td>LO FERNAND (AL062025)</td></tr>
          <tr><td><hr></td></tr>
          <tr><td>1800 UTC AUG 27, 2025</td></tr>
          <tr><td>Storm Location:</td></tr>
          <tr><td><b>38.9 N, 48.4 W</b></td></tr>
          <tr><td>Min Sea Level Pressure:</td></tr>
          <tr><td>1000 mb / 29.53 in Hg</td></tr>
          <tr><td>Maximum Intensity:</td></tr>
          <tr><td>45 kt / 52 mph / 83 kph</td></tr>
        </table>
      ]]></description>
      <Point><coordinates>-48.4,38.9</coordinates></Point>
    </Placemark>
    <Placemark>
      <name>0000 UTC AUG 28</name>
      <styleUrl>#lo</styleUrl>
      <description><![CDATA[
        <table>
          <tr><td>LO FERNAND (AL062025)</td></tr>
          <tr><td><hr></td></tr>
          <tr><td>0000 UTC AUG 28, 2025</td></tr>
          <tr><td>Storm Location:</td></tr>
          <tr><td><b>39.7 N, 46.3 W</b></td></tr>
          <tr><td>Min Sea Level Pressure:</td></tr>
          <tr><td>1002 mb / 29.59 in Hg</td></tr>
          <tr><td>Maximum Intensity:</td></tr>
          <tr><td>45 kt / 52 mph / 83 kph</td></tr>
        </table>
      ]]></description>
      <Point><coordinates>-46.3,39.7</coordinates></Point>
    </Placemark>
    <Placemark>
      <name>0600 UTC AUG 28</name>
      <styleUrl>#lo</styleUrl>
      <description><![CDATA[
        <table>
          <tr><td>LO FERNAND (AL062025)</td></tr>
          <tr><td><hr></td></tr>
          <tr><td>0600 UTC AUG 28, 2025</td></tr>
          <tr><td>Storm Location:</td></tr>
          <tr><td><b>40.6 N, 44.2 W</b></td></tr>
          <tr><td>Min Sea Level Pressure:</td></tr>
          <tr><td>1006 mb / 29.71 in Hg</td></tr>
          <tr><td>Maximum Intensity:</td></tr>
          <tr><td>40 kt / 46 mph / 74 kph</td></tr>
        </table>
      ]]></description>
      <Point><coordinates>-44.2,40.6</coordinates></Point>
    </Placemark>
    <Placemark>
      <name>1200 UTC AUG 28</name>
      <styleUrl>#lo</styleUrl>
      <description><![CDATA[
        <table>
          <tr><td>LO FERNAND (AL062025)</td></tr>
          <tr><td><hr></td></tr>
          <tr><td>1200 UTC AUG 28, 2025</td></tr>
          <tr><td>Storm Location:</td></tr>
          <tr><td><b>41.8 N, 42.0 W</b></td></tr>
          <tr><td>Min Sea Level Pressure:</td></tr>
          <tr><td>1007 mb / 29.74 in Hg</td></tr>
          <tr><td>Maximum Intensity:</td></tr>
          <tr><td>35 kt / 40 mph / 65 kph</td></tr>
        </table>
      ]]></description>
      <Point><coordinates>-42,41.8</coordinates></Point>
    </Placemark>
    <Placemark>
      <name>1800 UTC AUG 28</name>
      <styleUrl>#lo</styleUrl>
      <description><![CDATA[
        <table>
          <tr><td>LO FERNAND (AL062025)</td></tr>
          <tr><td><hr></td></tr>
          <tr><td>1800 UTC AUG 28, 2025</td></tr>
          <tr><td>Storm Location:</td></tr>
          <tr><td><b>43.0 N, 39.1 W</b></td></tr>
          <tr><td>Min Sea Level Pressure:</td></tr>
          <tr><td>1008 mb / 29.77 in Hg</td></tr>
          <tr><td>Maximum Intensity:</td></tr>
          <tr><td>35 kt / 40 mph / 65 kph</td></tr>
        </table>
      ]]></description>
      <Point><coordinates>-39.1,43</coordinates></Point>
    </Placemark>
  </Document>
</kml>
