<?xml version="1.0" encoding="UTF-8"?>
<kml xmlns="http://www.opengis.net/kml/2.2">
  <Document>
    <name>AL072025</name>
    <open>0</open>

    <!-- =====  Document header ===== -->
    <description><![CDATA[
      <table>
        <tr><td><b>Title:</b> Tropical Cyclone Best Track for AL072025</td></tr>
      </table>
    ]]></description>

    <!-- =====  Styles (ids must be unique)  ===== -->
	<Style id="pt"> 
		<IconStyle> 
			<scale>1.0</scale> 
			<Icon> 
				<href>ex_nhemi.png</href> 
			</Icon> 
             <hotSpot x="15" y="17" xunits="pixels" yunits="pixels"/>
		</IconStyle> 
		<LabelStyle> 
			<scale>1.0</scale> 
		</LabelStyle> 
	</Style>
	<Style id="cat5"> 
		<IconStyle> 
			<scale>1.0</scale> 
			<Icon> 
				<href>cat5_nhemi.png</href> 
			</Icon> 
             <hotSpot x="15" y="17" xunits="pixels" yunits="pixels"/>
		</IconStyle> 
		<LabelStyle> 
			<scale>1.0</scale> 
		</LabelStyle> 
	</Style>
	<Style id="db"> 
		<IconStyle> 
			<scale>1.0</scale> 
			<Icon> 
				<href>ex_nhemi.png</href> 
			</Icon> 
             <hotSpot x="15" y="17" xunits="pixels" yunits="pixels"/>
		</IconStyle> 
		<LabelStyle> 
			<scale>1.0</scale> 
		</LabelStyle> 
	</Style>
	<Style id="cat3"> 
		<IconStyle> 
			<scale>1.0</scale> 
			<Icon> 
				<href>cat3_nhemi.png</href> 
			</Icon> 
             <hotSpot x="15" y="17" xunits="pixels" yunits="pixels"/>
		</IconStyle> 
		<LabelStyle> 
			<scale>1.0</scale> 
		</LabelStyle> 
	</Style>
	<Style id="ss"> 
		<IconStyle> 
			<scale>1.0</scale> 
			<Icon> 
				<href>ts_nhemi.png</href> 
			</Icon> 
             <hotSpot x="15" y="17" xunits="pixels" yunits="pixels"/>
		</IconStyle> 
		<LabelStyle> 
			<scale>1.0</scale> 
		</LabelStyle> 
	</Style>
	<Style id="lo"> 
		<IconStyle> 
			<scale>1.0</scale> 
			<Icon> 
				<href>ex_nhemi.png</href> 
			</Icon> 
             <hotSpot x="15" y="17" xunits="pixels" yunits="pixels"/>
		</IconStyle> 
		<LabelStyle> 
			<scale>1.0</scale> 
		</LabelStyle> 
	</Style>
	<Style id="cat4"> 
		<IconStyle> 
			<scale>1.0</scale> 
			<Icon> 
				<href>cat4_nhemi.png</href> 
			</Icon> 
             <hotSpot x="15" y="17" xunits="pixels" yunits="pixels"/>
		</IconStyle> 
		<LabelStyle> 
			<scale>1.0</scale> 
		</LabelStyle> 
	</Style>
	<Style id="cat2"> 
		<IconStyle> 
			<scale>1.0</scale> 
			<Icon> 
				<href>cat2_nhemi.png</href> 
			</Icon> 
             <hotSpot x="15" y="17" xunits="pixels" yunits="pixels"/>
		</IconStyle> 
		<LabelStyle> 
			<scale>1.0</scale> 
		</LabelStyle> 
	</Style>
	<Style id="ts"> 
		<IconStyle> 
			<scale>1.0</scale> 
			<Icon> 
				<href>ts_nhemi.png</href> 
			</Icon> 
             <hotSpot x="15" y="17" xunits="pixels" yunits="pixels"/>
		</IconStyle> 
		<LabelStyle> 
			<scale>1.0</scale> 
		</LabelStyle> 
	</Style>
	<Style id="cat1"> 
		<IconStyle> 
			<scale>1.0</scale> 
			<Icon> 
				<href>cat1_nhemi.png</href> 
			</Icon> 
             <hotSpot x="15" y="17" xunits="pixels" yunits="pixels"/>
		</IconStyle> 
		<LabelStyle> 
			<scale>1.0</scale> 
		</LabelStyle> 
	</Style>
	<Style id="ex"> 
		<IconStyle> 
			<scale>1.0</scale> 
			<Icon> 
				<href>ex_nhemi.png</href> 
			</Icon> 
             <hotSpot x="15" y="17" xunits="pixels" yunits="pixels"/>
		</IconStyle> 
		<LabelStyle> 
			<scale>1.0</scale> 
		</LabelStyle> 
	</Style>
	<Style id="tc"> 
		<IconStyle> 
			<scale>1.0</scale> 
			<Icon> 
				<href>ex_nhemi.png</href> 
			</Icon> 
             <hotSpot x="15" y="17" xunits="pixels" yunits="pixels"/>
		</IconStyle> 
		<LabelStyle> 
			<scale>1.0</scale> 
		</LabelStyle> 
	</Style>
	<Style id="wv"> 
		<IconStyle> 
			<scale>1.0</scale> 
			<Icon> 
				<href>ex_nhemi.png</href> 
			</Icon> 
             <hotSpot x="15" y="17" xunits="pixels" yunits="pixels"/>
		</IconStyle> 
		<LabelStyle> 
			<scale>1.0</scale> 
		</LabelStyle> 
	</Style>
	<Style id="td"> 
		<IconStyle> 
			<scale>1.0</scale> 
			<Icon> 
				<href>td_nhemi.png</href> 
			</Icon> 
             <hotSpot x="15" y="17" xunits="pixels" yunits="pixels"/>
		</IconStyle> 
		<LabelStyle> 
			<scale>1.0</scale> 
		</LabelStyle> 
	</Style>
	<Style id="sd"> 
		<IconStyle> 
			<scale>1.0</scale> 
			<Icon> 
				<href>ex_nhemi.png</href> 
			</Icon> 
             <hotSpot x="15" y="17" xunits="pixels" yunits="pixels"/>
		</IconStyle> 
		<LabelStyle> 
			<scale>1.0</scale> 
		</LabelStyle> 
	</Style>

    <Placemark>
      <name>1800 UTC SEP 17</name>
      <styleUrl>#ts</styleUrl>
      <description><![CDATA[
        <table>
          <tr><td>TS GABRIELLE (AL072025)</td></tr>
          <tr><td><hr></td></tr>
          <tr><td>1800 UTC SEP 17, 2025</td></tr>
          <tr><td>Storm Location:</td></tr>
          <tr><td><b>19.0 N, 47.7 W</b></td></tr>
          <tr><td>Min Sea Level Pressure:</td></tr>
          <tr><td>1005 mb / 29.68 in Hg</td></tr>
          <tr><td>Maximum Intensity:</td></tr>
          <tr><td>45 kt / 52 mph / 83 kph</td></tr>
        </table>
      ]]></description>
      <Point><coordinates>-47.7,19</coordinates></Point>
    </Placemark>
    <Placemark>
      <name>0000 UTC SEP 18</name>
      <styleUrl>#ts</styleUrl>
      <description><![CDATA[
        <table>
          <tr><td>TS GABRIELLE (AL072025)</td></tr>
          <tr><td><hr></td></tr>
          <tr><td>0000 UTC SEP 18, 2025</td></tr>
          <tr><td>Storm Location:</td></tr>
          <tr><td><b>19.3 N, 48.9 W</b></td></tr>
          <tr><td>Min Sea Level Pressure:</td></tr>
          <tr><td>1004 mb / 29.65 in Hg</td></tr>
          <tr><td>Maximum Intensity:</td></tr>
          <tr><td>45 kt / 52 mph / 83 kph</td></tr>
        </table>
      ]]></description>
      <Point><coordinates>-48.9,19.3</coordinates></Point>
    </Placemark>
    <Placemark>
      <name>0600 UTC SEP 18</name>
      <styleUrl>#ts</styleUrl>
      <description><![CDATA[
        <table>
          <tr><td>TS GABRIELLE (AL072025)</td></tr>
          <tr><td><hr></td></tr>
          <tr><td>0600 UTC SEP 18, 2025</td></tr>
          <tr><td>Storm Location:</td></tr>
          <tr><td><b>19.6 N, 50.0 W</b></td></tr>
          <tr><td>Min Sea Level Pressure:</td></tr>
          <tr><td>1004 mb / 29.65 in Hg</td></tr>
          <tr><td>Maximum Intensity:</td></tr>
          <tr><td>45 kt / 52 mph / 83 kph</td></tr>
        </table>
      ]]></description>
      <Point><coordinates>-50,19.6</coordinates></Point>
    </Placemark>
    <Placemark>
      <name>1200 UTC SEP 18</name>
      <styleUrl>#ts</styleUrl>
      <description><![CDATA[
        <table>
          <tr><td>TS GABRIELLE (AL072025)</td></tr>
          <tr><td><hr></td></tr>
          <tr><td>1200 UTC SEP 18, 2025</td></tr>
          <tr><td>Storm Location:</td></tr>
          <tr><td><b>20.0 N, 51.2 W</b></td></tr>
          <tr><td>Min Sea Level Pressure:</td></tr>
          <tr><td>1004 mb / 29.65 in Hg</td></tr>
          <tr><td>Maximum Intensity:</td></tr>
          <tr><td>45 kt / 52 mph / 83 kph</td></tr>
        </table>
      ]]></description>
      <Point><coordinates>-51.2,20</coordinates></Point>
    </Placemark>
    <Placemark>
      <name>1800 UTC SEP 18</name>
      <styleUrl>#ts</styleUrl>
      <description><![CDATA[
        <table>
          <tr><td>TS GABRIELLE (AL072025)</td></tr>
          <tr><td><hr></td></tr>
          <tr><td>1800 UTC SEP 18, 2025</td></tr>
          <tr><td>Storm Location:</td></tr>
          <tr><td><b>20.5 N, 52.2 W</b></td></tr>
          <tr><td>Min Sea Level Pressure:</td></tr>
          <tr><td>1004 mb / 29.65 in Hg</td></tr>
          <tr><td>Maximum Intensity:</td></tr>
          <tr><td>45 kt / 52 mph / 83 kph</td></tr>
        </table>
      ]]></description>
      <Point><coordinates>-52.2,20.5</coordinates></Point>
    </Placemark>
    <Placemark>
      <name>0000 UTC SEP 19</name>
      <styleUrl>#ts</styleUrl>
      <description><![CDATA[
        <table>
          <tr><td>TS GABRIELLE (AL072025)</td></tr>
          <tr><td><hr></td></tr>
          <tr><td>0000 UTC SEP 19, 2025</td></tr>
          <tr><td>Storm Location:</td></tr>
          <tr><td><b>21.0 N, 53.1 W</b></td></tr>
          <tr><td>Min Sea Level Pressure:</td></tr>
          <tr><td>1004 mb / 29.65 in Hg</td></tr>
          <tr><td>Maximum Intensity:</td></tr>
          <tr><td>45 kt / 52 mph / 83 kph</td></tr>
        </table>
      ]]></description>
      <Point><coordinates>-53.1,21</coordinates></Point>
    </Placemark>
    <Placemark>
      <name>0600 UTC SEP 19</name>
      <styleUrl>#ts</styleUrl>
      <description><![CDATA[
        <table>
          <tr><td>TS GABRIELLE (AL072025)</td></tr>
          <tr><td><hr></td></tr>
          <tr><td>0600 UTC SEP 19, 2025</td></tr>
          <tr><td>Storm Location:</td></tr>
          <tr><td><b>21.4 N, 54.1 W</b></td></tr>
          <tr><td>Min Sea Level Pressure:</td></tr>
          <tr><td>1004 mb / 29.65 in Hg</td></tr>
          <tr><td>Maximum Intensity:</td></tr>
          <tr><td>45 kt / 52 mph / 83 kph</td></tr>
        </table>
      ]]></description>
      <Point><coordinates>-54.1,21.4</coordinates></Point>
    </Placemark>
    <Placemark>
      <name>1200 UTC SEP 19</name>
      <styleUrl>#ts</styleUrl>
      <description><![CDATA[
        <table>
          <tr><td>TS GABRIELLE (AL072025)</td></tr>
          <tr><td><hr></td></tr>
          <tr><td>1200 UTC SEP 19, 2025</td></tr>
          <tr><td>Storm Location:</td></tr>
          <tr><td><b>21.7 N, 55.1 W</b></td></tr>
          <tr><td>Min Sea Level Pressure:</td></tr>
          <tr><td>1004 mb / 29.65 in Hg</td></tr>
          <tr><td>Maximum Intensity:</td></tr>
          <tr><td>45 kt / 52 mph / 83 kph</td></tr>
        </table>
      ]]></description>
      <Point><coordinates>-55.1,21.7</coordinates></Point>
    </Placemark>
    <Placemark>
      <name>1800 UTC SEP 19</name>
      <styleUrl>#ts</styleUrl>
      <description><![CDATA[
        <table>
          <tr><td>TS GABRIELLE (AL072025)</td></tr>
          <tr><td><hr></td></tr>
          <tr><td>1800 UTC SEP 19, 2025</td></tr>
          <tr><td>Storm Location:</td></tr>
          <tr><td><b>22.1 N, 56.1 W</b></td></tr>
          <tr><td>Min Sea Level Pressure:</td></tr>
          <tr><td>1004 mb / 29.65 in Hg</td></tr>
          <tr><td>Maximum Intensity:</td></tr>
          <tr><td>45 kt / 52 mph / 83 kph</td></tr>
        </table>
      ]]></description>
      <Point><coordinates>-56.1,22.1</coordinates></Point>
    </Placemark>
    <Placemark>
      <name>0000 UTC SEP 20</name>
      <styleUrl>#ts</styleUrl>
      <description><![CDATA[
        <table>
          <tr><td>TS GABRIELLE (AL072025)</td></tr>
          <tr><td><hr></td></tr>
          <tr><td>0000 UTC SEP 20, 2025</td></tr>
          <tr><td>Storm Location:</td></tr>
          <tr><td><b>22.9 N, 57.0 W</b></td></tr>
          <tr><td>Min Sea Level Pressure:</td></tr>
          <tr><td>1004 mb / 29.65 in Hg</td></tr>
          <tr><td>Maximum Intensity:</td></tr>
          <tr><td>45 kt / 52 mph / 83 kph</td></tr>
        </table>
      ]]></description>
      <Point><coordinates>-57,22.9</coordinates></Point>
    </Placemark>
    <Placemark>
      <name>0600 UTC SEP 20</name>
      <styleUrl>#ts</styleUrl>
      <description><![CDATA[
        <table>
          <tr><td>TS GABRIELLE (AL072025)</td></tr>
          <tr><td><hr></td></tr>
          <tr><td>0600 UTC SEP 20, 2025</td></tr>
          <tr><td>Storm Location:</td></tr>
          <tr><td><b>23.9 N, 57.7 W</b></td></tr>
          <tr><td>Min Sea Level Pressure:</td></tr>
          <tr><td>1004 mb / 29.65 in Hg</td></tr>
          <tr><td>Maximum Intensity:</td></tr>
          <tr><td>45 kt / 52 mph / 83 kph</td></tr>
        </table>
      ]]></description>
      <Point><coordinates>-57.7,23.9</coordinates></Point>
    </Placemark>
    <Placemark>
      <name>1200 UTC SEP 20</name>
      <styleUrl>#ts</styleUrl>
      <description><![CDATA[
        <table>
          <tr><td>TS GABRIELLE (AL072025)</td></tr>
          <tr><td><hr></td></tr>
          <tr><td>1200 UTC SEP 20, 2025</td></tr>
          <tr><td>Storm Location:</td></tr>
          <tr><td><b>24.6 N, 58.3 W</b></td></tr>
          <tr><td>Min Sea Level Pressure:</td></tr>
          <tr><td>1001 mb / 29.56 in Hg</td></tr>
          <tr><td>Maximum Intensity:</td></tr>
          <tr><td>50 kt / 58 mph / 93 kph</td></tr>
        </table>
      ]]></description>
      <Point><coordinates>-58.3,24.6</coordinates></Point>
    </Placemark>
    <Placemark>
      <name>1800 UTC SEP 20</name>
      <styleUrl>#ts</styleUrl>
      <description><![CDATA[
        <table>
          <tr><td>TS GABRIELLE (AL072025)</td></tr>
          <tr><td><hr></td></tr>
          <tr><td>1800 UTC SEP 20, 2025</td></tr>
          <tr><td>Storm Location:</td></tr>
          <tr><td><b>25.2 N, 58.6 W</b></td></tr>
          <tr><td>Min Sea Level Pressure:</td></tr>
          <tr><td>996 mb / 29.41 in Hg</td></tr>
          <tr><td>Maximum Intensity:</td></tr>
          <tr><td>55 kt / 63 mph / 102 kph</td></tr>
        </table>
      ]]></description>
      <Point><coordinates>-58.6,25.2</coordinates></Point>
    </Placemark>
    <Placemark>
      <name>0000 UTC SEP 21</name>
      <styleUrl>#ts</styleUrl>
      <description><![CDATA[
        <table>
          <tr><td>TS GABRIELLE (AL072025)</td></tr>
          <tr><td><hr></td></tr>
          <tr><td>0000 UTC SEP 21, 2025</td></tr>
          <tr><td>Storm Location:</td></tr>
          <tr><td><b>25.9 N, 59.0 W</b></td></tr>
          <tr><td>Min Sea Level Pressure:</td></tr>
          <tr><td>996 mb / 29.41 in Hg</td></tr>
          <tr><td>Maximum Intensity:</td></tr>
          <tr><td>55 kt / 63 mph / 102 kph</td></tr>
        </table>
      ]]></description>
      <Point><coordinates>-59,25.9</coordinates></Point>
    </Placemark>
    <Placemark>
      <name>0600 UTC SEP 21</name>
      <styleUrl>#ts</styleUrl>
      <description><![CDATA[
        <table>
          <tr><td>TS GABRIELLE (AL072025)</td></tr>
          <tr><td><hr></td></tr>
          <tr><td>0600 UTC SEP 21, 2025</td></tr>
          <tr><td>Storm Location:</td></tr>
          <tr><td><b>26.6 N, 59.8 W</b></td></tr>
          <tr><td>Min Sea Level Pressure:</td></tr>
          <tr><td>995 mb / 29.38 in Hg</td></tr>
          <tr><td>Maximum Intensity:</td></tr>
          <tr><td>55 kt / 63 mph / 102 kph</td></tr>
        </table>
      ]]></description>
      <Point><coordinates>-59.8,26.6</coordinates></Point>
    </Placemark>
    <Placemark>
      <name>1200 UTC SEP 21</name>
      <styleUrl>#ts</styleUrl>
      <description><![CDATA[
        <table>
          <tr><td>TS GABRIELLE (AL072025)</td></tr>
          <tr><td><hr></td></tr>
          <tr><td>1200 UTC SEP 21, 2025</td></tr>
          <tr><td>Storm Location:</td></tr>
          <tr><td><b>27.3 N, 60.7 W</b></td></tr>
          <tr><td>Min Sea Level Pressure:</td></tr>
          <tr><td>995 mb / 29.38 in Hg</td></tr>
          <tr><td>Maximum Intensity:</td></tr>
          <tr><td>60 kt / 69 mph / 111 kph</td></tr>
        </table>
      ]]></description>
      <Point><coordinates>-60.7,27.3</coordinates></Point>
    </Placemark>
    <Placemark>
      <name>1800 UTC SEP 21</name>
      <styleUrl>#cat1</styleUrl>
      <description><![CDATA[
        <table>
          <tr><td>HU GABRIELLE (AL072025)</td></tr>
          <tr><td><hr></td></tr>
          <tr><td>1800 UTC SEP 21, 2025</td></tr>
          <tr><td>Storm Location:</td></tr>
          <tr><td><b>28.1 N, 61.5 W</b></td></tr>
          <tr><td>Min Sea Level Pressure:</td></tr>
          <tr><td>993 mb / 29.32 in Hg</td></tr>
          <tr><td>Maximum Intensity:</td></tr>
          <tr><td>65 kt / 75 mph / 120 kph</td></tr>
        </table>
      ]]></description>
      <Point><coordinates>-61.5,28.1</coordinates></Point>
    </Placemark>
    <Placemark>
      <name>0000 UTC SEP 22</name>
      <styleUrl>#cat1</styleUrl>
      <description><![CDATA[
        <table>
          <tr><td>HU GABRIELLE (AL072025)</td></tr>
          <tr><td><hr></td></tr>
          <tr><td>0000 UTC SEP 22, 2025</td></tr>
          <tr><td>Storm Location:</td></tr>
          <tr><td><b>28.9 N, 62.1 W</b></td></tr>
          <tr><td>Min Sea Level Pressure:</td></tr>
          <tr><td>985 mb / 29.09 in Hg</td></tr>
          <tr><td>Maximum Intensity:</td></tr>
          <tr><td>70 kt / 81 mph / 130 kph</td></tr>
        </table>
      ]]></description>
      <Point><coordinates>-62.1,28.9</coordinates></Point>
    </Placemark>
    <Placemark>
      <name>0600 UTC SEP 22</name>
      <styleUrl>#cat1</styleUrl>
      <description><![CDATA[
        <table>
          <tr><td>HU GABRIELLE (AL072025)</td></tr>
          <tr><td><hr></td></tr>
          <tr><td>0600 UTC SEP 22, 2025</td></tr>
          <tr><td>Storm Location:</td></tr>
          <tr><td><b>29.6 N, 62.5 W</b></td></tr>
          <tr><td>Min Sea Level Pressure:</td></tr>
          <tr><td>977 mb / 28.85 in Hg</td></tr>
          <tr><td>Maximum Intensity:</td></tr>
          <tr><td>80 kt / 92 mph / 148 kph</td></tr>
        </table>
      ]]></description>
      <Point><coordinates>-62.5,29.6</coordinates></Point>
    </Placemark>
    <Placemark>
      <name>1200 UTC SEP 22</name>
      <styleUrl>#cat3</styleUrl>
      <description><![CDATA[
        <table>
          <tr><td>HU GABRIELLE (AL072025)</td></tr>
          <tr><td><hr></td></tr>
          <tr><td>1200 UTC SEP 22, 2025</td></tr>
          <tr><td>Storm Location:</td></tr>
          <tr><td><b>30.4 N, 62.5 W</b></td></tr>
          <tr><td>Min Sea Level Pressure:</td></tr>
          <tr><td>958 mb / 28.29 in Hg</td></tr>
          <tr><td>Maximum Intensity:</td></tr>
          <tr><td>100 kt / 115 mph / 185 kph</td></tr>
        </table>
      ]]></description>
      <Point><coordinates>-62.5,30.4</coordinates></Point>
    </Placemark>
    <Placemark>
      <name>1800 UTC SEP 22</name>
      <styleUrl>#cat4</styleUrl>
      <description><![CDATA[
        <table>
          <tr><td>HU GABRIELLE (AL072025)</td></tr>
          <tr><td><hr></td></tr>
          <tr><td>1800 UTC SEP 22, 2025</td></tr>
          <tr><td>Storm Location:</td></tr>
          <tr><td><b>31.3 N, 62.1 W</b></td></tr>
          <tr><td>Min Sea Level Pressure:</td></tr>
          <tr><td>951 mb / 28.08 in Hg</td></tr>
          <tr><td>Maximum Intensity:</td></tr>
          <tr><td>115 kt / 132 mph / 213 kph</td></tr>
        </table>
      ]]></description>
      <Point><coordinates>-62.1,31.3</coordinates></Point>
    </Placemark>
    <Placemark>
      <name>0000 UTC SEP 23</name>
      <styleUrl>#cat4</styleUrl>
      <description><![CDATA[
        <table>
          <tr><td>HU GABRIELLE (AL072025)</td></tr>
          <tr><td><hr></td></tr>
          <tr><td>0000 UTC SEP 23, 2025</td></tr>
          <tr><td>Storm Location:</td></tr>
          <tr><td><b>32.1 N, 61.4 W</b></td></tr>
          <tr><td>Min Sea Level Pressure:</td></tr>
          <tr><td>944 mb / 27.88 in Hg</td></tr>
          <tr><td>Maximum Intensity:</td></tr>
          <tr><td>120 kt / 138 mph / 222 kph</td></tr>
        </table>
      ]]></description>
      <Point><coordinates>-61.4,32.1</coordinates></Point>
    </Placemark>
    <Placemark>
      <name>0600 UTC SEP 23</name>
      <styleUrl>#cat4</styleUrl>
      <description><![CDATA[
        <table>
          <tr><td>HU GABRIELLE (AL072025)</td></tr>
          <tr><td><hr></td></tr>
          <tr><td>0600 UTC SEP 23, 2025</td></tr>
          <tr><td>Storm Location:</td></tr>
          <tr><td><b>32.8 N, 60.4 W</b></td></tr>
          <tr><td>Min Sea Level Pressure:</td></tr>
          <tr><td>945 mb / 27.91 in Hg</td></tr>
          <tr><td>Maximum Intensity:</td></tr>
          <tr><td>120 kt / 138 mph / 222 kph</td></tr>
        </table>
      ]]></description>
      <Point><coordinates>-60.4,32.8</coordinates></Point>
    </Placemark>
    <Placemark>
      <name>1200 UTC SEP 23</name>
      <styleUrl>#cat4</styleUrl>
      <description><![CDATA[
        <table>
          <tr><td>HU GABRIELLE (AL072025)</td></tr>
          <tr><td><hr></td></tr>
          <tr><td>1200 UTC SEP 23, 2025</td></tr>
          <tr><td>Storm Location:</td></tr>
          <tr><td><b>33.5 N, 59.2 W</b></td></tr>
          <tr><td>Min Sea Level Pressure:</td></tr>
          <tr><td>946 mb / 27.94 in Hg</td></tr>
          <tr><td>Maximum Intensity:</td></tr>
          <tr><td>120 kt / 138 mph / 222 kph</td></tr>
        </table>
      ]]></description>
      <Point><coordinates>-59.2,33.5</coordinates></Point>
    </Placemark>
    <Placemark>
      <name>1800 UTC SEP 23</name>
      <styleUrl>#cat4</styleUrl>
      <description><![CDATA[
        <table>
          <tr><td>HU GABRIELLE (AL072025)</td></tr>
          <tr><td><hr></td></tr>
          <tr><td>1800 UTC SEP 23, 2025</td></tr>
          <tr><td>Storm Location:</td></tr>
          <tr><td><b>34.3 N, 57.4 W</b></td></tr>
          <tr><td>Min Sea Level Pressure:</td></tr>
          <tr><td>947 mb / 27.97 in Hg</td></tr>
          <tr><td>Maximum Intensity:</td></tr>
          <tr><td>115 kt / 132 mph / 213 kph</td></tr>
        </table>
      ]]></description>
      <Point><coordinates>-57.4,34.3</coordinates></Point>
    </Placemark>
    <Placemark>
      <name>0000 UTC SEP 24</name>
      <styleUrl>#cat3</styleUrl>
      <description><![CDATA[
        <table>
          <tr><td>HU GABRIELLE (AL072025)</td></tr>
          <tr><td><hr></td></tr>
          <tr><td>0000 UTC SEP 24, 2025</td></tr>
          <tr><td>Storm Location:</td></tr>
          <tr><td><b>34.9 N, 55.2 W</b></td></tr>
          <tr><td>Min Sea Level Pressure:</td></tr>
          <tr><td>953 mb / 28.14 in Hg</td></tr>
          <tr><td>Maximum Intensity:</td></tr>
          <tr><td>110 kt / 127 mph / 204 kph</td></tr>
        </table>
      ]]></description>
      <Point><coordinates>-55.2,34.9</coordinates></Point>
    </Placemark>
    <Placemark>
      <name>0600 UTC SEP 24</name>
      <styleUrl>#cat3</styleUrl>
      <description><![CDATA[
        <table>
          <tr><td>HU GABRIELLE (AL072025)</td></tr>
          <tr><td><hr></td></tr>
          <tr><td>0600 UTC SEP 24, 2025</td></tr>
          <tr><td>Storm Location:</td></tr>
          <tr><td><b>35.4 N, 52.8 W</b></td></tr>
          <tr><td>Min Sea Level Pressure:</td></tr>
          <tr><td>958 mb / 28.29 in Hg</td></tr>
          <tr><td>Maximum Intensity:</td></tr>
          <tr><td>100 kt / 115 mph / 185 kph</td></tr>
        </table>
      ]]></description>
      <Point><coordinates>-52.8,35.4</coordinates></Point>
    </Placemark>
    <Placemark>
      <name>1200 UTC SEP 24</name>
      <styleUrl>#cat2</styleUrl>
      <description><![CDATA[
        <table>
          <tr><td>HU GABRIELLE (AL072025)</td></tr>
          <tr><td><hr></td></tr>
          <tr><td>1200 UTC SEP 24, 2025</td></tr>
          <tr><td>Storm Location:</td></tr>
          <tr><td><b>35.8 N, 50.2 W</b></td></tr>
          <tr><td>Min Sea Level Pressure:</td></tr>
          <tr><td>965 mb / 28.50 in Hg</td></tr>
          <tr><td>Maximum Intensity:</td></tr>
          <tr><td>90 kt / 104 mph / 167 kph</td></tr>
        </table>
      ]]></description>
      <Point><coordinates>-50.2,35.8</coordinates></Point>
    </Placemark>
    <Placemark>
      <name>1800 UTC SEP 24</name>
      <styleUrl>#cat2</styleUrl>
      <description><![CDATA[
        <table>
          <tr><td>HU GABRIELLE (AL072025)</td></tr>
          <tr><td><hr></td></tr>
          <tr><td>1800 UTC SEP 24, 2025</td></tr>
          <tr><td>Storm Location:</td></tr>
          <tr><td><b>35.9 N, 47.2 W</b></td></tr>
          <tr><td>Min Sea Level Pressure:</td></tr>
          <tr><td>970 mb / 28.64 in Hg</td></tr>
          <tr><td>Maximum Intensity:</td></tr>
          <tr><td>85 kt / 98 mph / 157 kph</td></tr>
        </table>
      ]]></description>
      <Point><coordinates>-47.2,35.9</coordinates></Point>
    </Placemark>
    <Placemark>
      <name>0000 UTC SEP 25</name>
      <styleUrl>#cat1</styleUrl>
      <description><![CDATA[
        <table>
          <tr><td>HU GABRIELLE (AL072025)</td></tr>
          <tr><td><hr></td></tr>
          <tr><td>0000 UTC SEP 25, 2025</td></tr>
          <tr><td>Storm Location:</td></tr>
          <tr><td><b>35.9 N, 44.0 W</b></td></tr>
          <tr><td>Min Sea Level Pressure:</td></tr>
          <tr><td>974 mb / 28.76 in Hg</td></tr>
          <tr><td>Maximum Intensity:</td></tr>
          <tr><td>75 kt / 86 mph / 139 kph</td></tr>
        </table>
      ]]></description>
      <Point><coordinates>-44,35.9</coordinates></Point>
    </Placemark>
    <Placemark>
      <name>0600 UTC SEP 25</name>
      <styleUrl>#cat1</styleUrl>
      <description><![CDATA[
        <table>
          <tr><td>HU GABRIELLE (AL072025)</td></tr>
          <tr><td><hr></td></tr>
          <tr><td>0600 UTC SEP 25, 2025</td></tr>
          <tr><td>Storm Location:</td></tr>
          <tr><td><b>36.1 N, 40.2 W</b></td></tr>
          <tr><td>Min Sea Level Pressure:</td></tr>
          <tr><td>976 mb / 28.82 in Hg</td></tr>
          <tr><td>Maximum Intensity:</td></tr>
          <tr><td>70 kt / 81 mph / 130 kph</td></tr>
        </table>
      ]]></description>
      <Point><coordinates>-40.2,36.1</coordinates></Point>
    </Placemark>
    <Placemark>
      <name>1200 UTC SEP 25</name>
      <styleUrl>#cat1</styleUrl>
      <description><![CDATA[
        <table>
          <tr><td>HU GABRIELLE (AL072025)</td></tr>
          <tr><td><hr></td></tr>
          <tr><td>1200 UTC SEP 25, 2025</td></tr>
          <tr><td>Storm Location:</td></tr>
          <tr><td><b>36.4 N, 36.7 W</b></td></tr>
          <tr><td>Min Sea Level Pressure:</td></tr>
          <tr><td>979 mb / 28.91 in Hg</td></tr>
          <tr><td>Maximum Intensity:</td></tr>
          <tr><td>65 kt / 75 mph / 120 kph</td></tr>
        </table>
      ]]></description>
      <Point><coordinates>-36.7,36.4</coordinates></Point>
    </Placemark>
    <Placemark>
      <name>1800 UTC SEP 25</name>
      <styleUrl>#ex</styleUrl>
      <description><![CDATA[
        <table>
          <tr><td>EX GABRIELLE (AL072025)</td></tr>
          <tr><td><hr></td></tr>
          <tr><td>1800 UTC SEP 25, 2025</td></tr>
          <tr><td>Storm Location:</td></tr>
          <tr><td><b>36.8 N, 33.6 W</b></td></tr>
          <tr><td>Min Sea Level Pressure:</td></tr>
          <tr><td>982 mb / 29.00 in Hg</td></tr>
          <tr><td>Maximum Intensity:</td></tr>
          <tr><td>60 kt / 69 mph / 111 kph</td></tr>
        </table>
      ]]></description>
      <Point><coordinates>-33.6,36.8</coordinates></Point>
    </Placemark>
    <Placemark>
      <name>0000 UTC SEP 26</name>
      <styleUrl>#ex</styleUrl>
      <description><![CDATA[
        <table>
          <tr><td>EX GABRIELLE (AL072025)</td></tr>
          <tr><td><hr></td></tr>
          <tr><td>0000 UTC SEP 26, 2025</td></tr>
          <tr><td>Storm Location:</td></tr>
          <tr><td><b>37.6 N, 30.6 W</b></td></tr>
          <tr><td>Min Sea Level Pressure:</td></tr>
          <tr><td>983 mb / 29.03 in Hg</td></tr>
          <tr><td>Maximum Intensity:</td></tr>
          <tr><td>55 kt / 63 mph / 102 kph</td></tr>
        </table>
      ]]></description>
      <Point><coordinates>-30.6,37.6</coordinates></Point>
    </Placemark>
    <Placemark>
      <name>0600 UTC SEP 26</name>
      <styleUrl>#ex</styleUrl>
      <description><![CDATA[
        <table>
          <tr><td>EX GABRIELLE (AL072025)</td></tr>
          <tr><td><hr></td></tr>
          <tr><td>0600 UTC SEP 26, 2025</td></tr>
          <tr><td>Storm Location:</td></tr>
          <tr><td><b>38.6 N, 27.5 W</b></td></tr>
          <tr><td>Min Sea Level Pressure:</td></tr>
          <tr><td>984 mb / 29.06 in Hg</td></tr>
          <tr><td>Maximum Intensity:</td></tr>
          <tr><td>55 kt / 63 mph / 102 kph</td></tr>
        </table>
      ]]></description>
      <Point><coordinates>-27.5,38.6</coordinates></Point>
    </Placemark>
    <Placemark>
      <name>1200 UTC SEP 26</name>
      <styleUrl>#ex</styleUrl>
      <description><![CDATA[
        <table>
          <tr><td>EX GABRIELLE (AL072025)</td></tr>
          <tr><td><hr></td></tr>
          <tr><td>1200 UTC SEP 26, 2025</td></tr>
          <tr><td>Storm Location:</td></tr>
          <tr><td><b>39.6 N, 24.2 W</b></td></tr>
          <tr><td>Min Sea Level Pressure:</td></tr>
          <tr><td>986 mb / 29.12 in Hg</td></tr>
          <tr><td>Maximum Intensity:</td></tr>
          <tr><td>55 kt / 63 mph / 102 kph</td></tr>
        </table>
      ]]></description>
      <Point><coordinates>-24.2,39.6</coordinates></Point>
    </Placemark>
    <Placemark>
      <name>1800 UTC SEP 26</name>
      <styleUrl>#ex</styleUrl>
      <description><![CDATA[
        <table>
          <tr><td>EX GABRIELLE (AL072025)</td></tr>
          <tr><td><hr></td></tr>
          <tr><td>1800 UTC SEP 26, 2025</td></tr>
          <tr><td>Storm Location:</td></tr>
          <tr><td><b>40.4 N, 21.4 W</b></td></tr>
          <tr><td>Min Sea Level Pressure:</td></tr>
          <tr><td>985 mb / 29.09 in Hg</td></tr>
          <tr><td>Maximum Intensity:</td></tr>
          <tr><td>60 kt / 69 mph / 111 kph</td></tr>
        </table>
      ]]></description>
      <Point><coordinates>-21.4,40.4</coordinates></Point>
    </Placemark>
    <Placemark>
      <name>0000 UTC SEP 27</name>
      <styleUrl>#ex</styleUrl>
      <description><![CDATA[
        <table>
          <tr><td>EX GABRIELLE (AL072025)</td></tr>
          <tr><td><hr></td></tr>
          <tr><td>0000 UTC SEP 27, 2025</td></tr>
          <tr><td>Storm Location:</td></tr>
          <tr><td><b>41.0 N, 18.5 W</b></td></tr>
          <tr><td>Min Sea Level Pressure:</td></tr>
          <tr><td>984 mb / 29.06 in Hg</td></tr>
          <tr><td>Maximum Intensity:</td></tr>
          <tr><td>65 kt / 75 mph / 120 kph</td></tr>
        </table>
      ]]></description>
      <Point><coordinates>-18.5,41</coordinates></Point>
    </Placemark>
    <Placemark>
      <name>0600 UTC SEP 27</name>
      <styleUrl>#ex</styleUrl>
      <description><![CDATA[
        <table>
          <tr><td>EX GABRIELLE (AL072025)</td></tr>
          <tr><td><hr></td></tr>
          <tr><td>0600 UTC SEP 27, 2025</td></tr>
          <tr><td>Storm Location:</td></tr>
          <tr><td><b>41.4 N, 15.7 W</b></td></tr>
          <tr><td>Min Sea Level Pressure:</td></tr>
          <tr><td>988 mb / 29.18 in Hg</td></tr>
          <tr><td>Maximum Intensity:</td></tr>
          <tr><td>60 kt / 69 mph / 111 kph</td></tr>
        </table>
      ]]></description>
      <Point><coordinates>-15.7,41.4</coordinates></Point>
    </Placemark>
    <Placemark>
      <name>1200 UTC SEP 27</name>
      <styleUrl>#ex</styleUrl>
      <description><![CDATA[
        <table>
          <tr><td>EX GABRIELLE (AL072025)</td></tr>
          <tr><td><hr></td></tr>
          <tr><td>1200 UTC SEP 27, 2025</td></tr>
          <tr><td>Storm Location:</td></tr>
          <tr><td><b>41.8 N, 13.1 W</b></td></tr>
          <tr><td>Min Sea Level Pressure:</td></tr>
          <tr><td>992 mb / 29.29 in Hg</td></tr>
          <tr><td>Maximum Intensity:</td></tr>
          <tr><td>50 kt / 58 mph / 93 kph</td></tr>
        </table>
      ]]></description>
      <Point><coordinates>-13.1,41.8</coordinates></Point>
    </Placemark>
    <Placemark>
      <name>1800 UTC SEP 27</name>
      <styleUrl>#ex</styleUrl>
      <description><![CDATA[
        <table>
          <tr><td>EX GABRIELLE (AL072025)</td></tr>
          <tr><td><hr></td></tr>
          <tr><td>1800 UTC SEP 27, 2025</td></tr>
          <tr><td>Storm Location:</td></tr>
          <tr><td><b>41.4 N, 11.2 W</b></td></tr>
          <tr><td>Min Sea Level Pressure:</td></tr>
          <tr><td>993 mb / 29.32 in Hg</td></tr>
          <tr><td>Maximum Intensity:</td></tr>
          <tr><td>50 kt / 58 mph / 93 kph</td></tr>
        </table>
      ]]></description>
      <Point><coordinates>-11.2,41.4</coordinates></Point>
    </Placemark>
    <Placemark>
      <name>0000 UTC SEP 28</name>
      <styleUrl>#ex</styleUrl>
      <description><![CDATA[
        <table>
          <tr><td>EX GABRIELLE (AL072025)</td></tr>
          <tr><td><hr></td></tr>
          <tr><td>0000 UTC SEP 28, 2025</td></tr>
          <tr><td>Storm Location:</td></tr>
          <tr><td><b>41.0 N, 9.5 W</b></td></tr>
          <tr><td>Min Sea Level Pressure:</td></tr>
          <tr><td>994 mb / 29.35 in Hg</td></tr>
          <tr><td>Maximum Intensity:</td></tr>
          <tr><td>45 kt / 52 mph / 83 kph</td></tr>
        </table>
      ]]></description>
      <Point><coordinates>-9.5,41</coordinates></Point>
    </Placemark>
    <Placemark>
      <name>0600 UTC SEP 28</name>
      <styleUrl>#ex</styleUrl>
      <description><![CDATA[
        <table>
          <tr><td>EX GABRIELLE (AL072025)</td></tr>
          <tr><td><hr></td></tr>
          <tr><td>0600 UTC SEP 28, 2025</td></tr>
          <tr><td>Storm Location:</td></tr>
          <tr><td><b>40.4 N, 8.1 W</b></td></tr>
          <tr><td>Min Sea Level Pressure:</td></tr>
          <tr><td>1005 mb / 29.68 in Hg</td></tr>
          <tr><td>Maximum Intensity:</td></tr>
          <tr><td>40 kt / 46 mph / 74 kph</td></tr>
        </table>
      ]]></description>
      <Point><coordinates>-8.1,40.4</coordinates></Point>
    </Placemark>
    <Placemark>
      <name>1200 UTC SEP 28</name>
      <styleUrl>#ex</styleUrl>
      <description><![CDATA[
        <table>
          <tr><td>EX GABRIELLE (AL072025)</td></tr>
          <tr><td><hr></td></tr>
          <tr><td>1200 UTC SEP 28, 2025</td></tr>
          <tr><td>Storm Location:</td></tr>
          <tr><td><b>39.5 N, 7.4 W</b></td></tr>
          <tr><td>Min Sea Level Pressure:</td></tr>
          <tr><td>1010 mb / 29.83 in Hg</td></tr>
          <tr><td>Maximum Intensity:</td></tr>
          <tr><td>35 kt / 40 mph / 65 kph</td></tr>
        </table>
      ]]></description>
      <Point><coordinates>-7.4,39.5</coordinates></Point>
    </Placemark>
    <Placemark>
      <name>1800 UTC SEP 28</name>
      <styleUrl>#ex</styleUrl>
      <description><![CDATA[
        <table>
          <tr><td>EX GABRIELLE (AL072025)</td></tr>
          <tr><td><hr></td></tr>
          <tr><td>1800 UTC SEP 28, 2025</td></tr>
          <tr><td>Storm Location:</td></tr>
          <tr><td><b>38.5 N, 6.5 W</b></td></tr>
          <tr><td>Min Sea Level Pressure:</td></tr>
          <tr><td>1012 mb / 29.88 in Hg</td></tr>
          <tr><td>Maximum Intensity:</td></tr>
          <tr><td>25 kt / 29 mph / 46 kph</td></tr>
        </table>
      ]]></description>
      <Point><coordinates>-6.5,38.5</coordinates></Point>
    </Placemark>
  </Document>
</kml>
