<?xml version="1.0" encoding="UTF-8"?>
<kml xmlns="http://www.opengis.net/kml/2.2">
  <Document>
    <name>AL082025</name>
    <open>0</open>

    <!-- =====  Document header ===== -->
    <description><![CDATA[
      <table>
        <tr><td><b>Title:</b> Tropical Cyclone Best Track for AL082025</td></tr>
      </table>
    ]]></description>

    <!-- =====  Styles (ids must be unique)  ===== -->
	<Style id="pt"> 
		<IconStyle> 
			<scale>1.0</scale> 
			<Icon> 
				<href>ex_nhemi.png</href> 
			</Icon> 
             <hotSpot x="15" y="17" xunits="pixels" yunits="pixels"/>
		</IconStyle> 
		<LabelStyle> 
			<scale>1.0</scale> 
		</LabelStyle> 
	</Style>
	<Style id="cat5"> 
		<IconStyle> 
			<scale>1.0</scale> 
			<Icon> 
				<href>cat5_nhemi.png</href> 
			</Icon> 
             <hotSpot x="15" y="17" xunits="pixels" yunits="pixels"/>
		</IconStyle> 
		<LabelStyle> 
			<scale>1.0</scale> 
		</LabelStyle> 
	</Style>
	<Style id="db"> 
		<IconStyle> 
			<scale>1.0</scale> 
			<Icon> 
				<href>ex_nhemi.png</href> 
			</Icon> 
             <hotSpot x="15" y="17" xunits="pixels" yunits="pixels"/>
		</IconStyle> 
		<LabelStyle> 
			<scale>1.0</scale> 
		</LabelStyle> 
	</Style>
	<Style id="cat3"> 
		<IconStyle> 
			<scale>1.0</scale> 
			<Icon> 
				<href>cat3_nhemi.png</href> 
			</Icon> 
             <hotSpot x="15" y="17" xunits="pixels" yunits="pixels"/>
		</IconStyle> 
		<LabelStyle> 
			<scale>1.0</scale> 
		</LabelStyle> 
	</Style>
	<Style id="ss"> 
		<IconStyle> 
			<scale>1.0</scale> 
			<Icon> 
				<href>ts_nhemi.png</href> 
			</Icon> 
             <hotSpot x="15" y="17" xunits="pixels" yunits="pixels"/>
		</IconStyle> 
		<LabelStyle> 
			<scale>1.0</scale> 
		</LabelStyle> 
	</Style>
	<Style id="lo"> 
		<IconStyle> 
			<scale>1.0</scale> 
			<Icon> 
				<href>ex_nhemi.png</href> 
			</Icon> 
             <hotSpot x="15" y="17" xunits="pixels" yunits="pixels"/>
		</IconStyle> 
		<LabelStyle> 
			<scale>1.0</scale> 
		</LabelStyle> 
	</Style>
	<Style id="cat4"> 
		<IconStyle> 
			<scale>1.0</scale> 
			<Icon> 
				<href>cat4_nhemi.png</href> 
			</Icon> 
             <hotSpot x="15" y="17" xunits="pixels" yunits="pixels"/>
		</IconStyle> 
		<LabelStyle> 
			<scale>1.0</scale> 
		</LabelStyle> 
	</Style>
	<Style id="cat2"> 
		<IconStyle> 
			<scale>1.0</scale> 
			<Icon> 
				<href>cat2_nhemi.png</href> 
			</Icon> 
             <hotSpot x="15" y="17" xunits="pixels" yunits="pixels"/>
		</IconStyle> 
		<LabelStyle> 
			<scale>1.0</scale> 
		</LabelStyle> 
	</Style>
	<Style id="ts"> 
		<IconStyle> 
			<scale>1.0</scale> 
			<Icon> 
				<href>ts_nhemi.png</href> 
			</Icon> 
             <hotSpot x="15" y="17" xunits="pixels" yunits="pixels"/>
		</IconStyle> 
		<LabelStyle> 
			<scale>1.0</scale> 
		</LabelStyle> 
	</Style>
	<Style id="cat1"> 
		<IconStyle> 
			<scale>1.0</scale> 
			<Icon> 
				<href>cat1_nhemi.png</href> 
			</Icon> 
             <hotSpot x="15" y="17" xunits="pixels" yunits="pixels"/>
		</IconStyle> 
		<LabelStyle> 
			<scale>1.0</scale> 
		</LabelStyle> 
	</Style>
	<Style id="ex"> 
		<IconStyle> 
			<scale>1.0</scale> 
			<Icon> 
				<href>ex_nhemi.png</href> 
			</Icon> 
             <hotSpot x="15" y="17" xunits="pixels" yunits="pixels"/>
		</IconStyle> 
		<LabelStyle> 
			<scale>1.0</scale> 
		</LabelStyle> 
	</Style>
	<Style id="tc"> 
		<IconStyle> 
			<scale>1.0</scale> 
			<Icon> 
				<href>ex_nhemi.png</href> 
			</Icon> 
             <hotSpot x="15" y="17" xunits="pixels" yunits="pixels"/>
		</IconStyle> 
		<LabelStyle> 
			<scale>1.0</scale> 
		</LabelStyle> 
	</Style>
	<Style id="wv"> 
		<IconStyle> 
			<scale>1.0</scale> 
			<Icon> 
				<href>ex_nhemi.png</href> 
			</Icon> 
             <hotSpot x="15" y="17" xunits="pixels" yunits="pixels"/>
		</IconStyle> 
		<LabelStyle> 
			<scale>1.0</scale> 
		</LabelStyle> 
	</Style>
	<Style id="td"> 
		<IconStyle> 
			<scale>1.0</scale> 
			<Icon> 
				<href>td_nhemi.png</href> 
			</Icon> 
             <hotSpot x="15" y="17" xunits="pixels" yunits="pixels"/>
		</IconStyle> 
		<LabelStyle> 
			<scale>1.0</scale> 
		</LabelStyle> 
	</Style>
	<Style id="sd"> 
		<IconStyle> 
			<scale>1.0</scale> 
			<Icon> 
				<href>ex_nhemi.png</href> 
			</Icon> 
             <hotSpot x="15" y="17" xunits="pixels" yunits="pixels"/>
		</IconStyle> 
		<LabelStyle> 
			<scale>1.0</scale> 
		</LabelStyle> 
	</Style>

    <Placemark>
      <name>1200 UTC SEP 24</name>
      <styleUrl>#ts</styleUrl>
      <description><![CDATA[
        <table>
          <tr><td>TS HUMBERTO (AL082025)</td></tr>
          <tr><td><hr></td></tr>
          <tr><td>1200 UTC SEP 24, 2025</td></tr>
          <tr><td>Storm Location:</td></tr>
          <tr><td><b>19.1 N, 53.6 W</b></td></tr>
          <tr><td>Min Sea Level Pressure:</td></tr>
          <tr><td>1008 mb / 29.77 in Hg</td></tr>
          <tr><td>Maximum Intensity:</td></tr>
          <tr><td>35 kt / 40 mph / 65 kph</td></tr>
        </table>
      ]]></description>
      <Point><coordinates>-53.6,19.1</coordinates></Point>
    </Placemark>
    <Placemark>
      <name>1800 UTC SEP 24</name>
      <styleUrl>#ts</styleUrl>
      <description><![CDATA[
        <table>
          <tr><td>TS HUMBERTO (AL082025)</td></tr>
          <tr><td><hr></td></tr>
          <tr><td>1800 UTC SEP 24, 2025</td></tr>
          <tr><td>Storm Location:</td></tr>
          <tr><td><b>19.8 N, 54.5 W</b></td></tr>
          <tr><td>Min Sea Level Pressure:</td></tr>
          <tr><td>1008 mb / 29.77 in Hg</td></tr>
          <tr><td>Maximum Intensity:</td></tr>
          <tr><td>35 kt / 40 mph / 65 kph</td></tr>
        </table>
      ]]></description>
      <Point><coordinates>-54.5,19.8</coordinates></Point>
    </Placemark>
    <Placemark>
      <name>0000 UTC SEP 25</name>
      <styleUrl>#ts</styleUrl>
      <description><![CDATA[
        <table>
          <tr><td>TS HUMBERTO (AL082025)</td></tr>
          <tr><td><hr></td></tr>
          <tr><td>0000 UTC SEP 25, 2025</td></tr>
          <tr><td>Storm Location:</td></tr>
          <tr><td><b>20.4 N, 55.4 W</b></td></tr>
          <tr><td>Min Sea Level Pressure:</td></tr>
          <tr><td>1007 mb / 29.74 in Hg</td></tr>
          <tr><td>Maximum Intensity:</td></tr>
          <tr><td>40 kt / 46 mph / 74 kph</td></tr>
        </table>
      ]]></description>
      <Point><coordinates>-55.4,20.4</coordinates></Point>
    </Placemark>
    <Placemark>
      <name>0600 UTC SEP 25</name>
      <styleUrl>#ts</styleUrl>
      <description><![CDATA[
        <table>
          <tr><td>TS HUMBERTO (AL082025)</td></tr>
          <tr><td><hr></td></tr>
          <tr><td>0600 UTC SEP 25, 2025</td></tr>
          <tr><td>Storm Location:</td></tr>
          <tr><td><b>20.9 N, 56.2 W</b></td></tr>
          <tr><td>Min Sea Level Pressure:</td></tr>
          <tr><td>1006 mb / 29.71 in Hg</td></tr>
          <tr><td>Maximum Intensity:</td></tr>
          <tr><td>45 kt / 52 mph / 83 kph</td></tr>
        </table>
      ]]></description>
      <Point><coordinates>-56.2,20.9</coordinates></Point>
    </Placemark>
    <Placemark>
      <name>1200 UTC SEP 25</name>
      <styleUrl>#ts</styleUrl>
      <description><![CDATA[
        <table>
          <tr><td>TS HUMBERTO (AL082025)</td></tr>
          <tr><td><hr></td></tr>
          <tr><td>1200 UTC SEP 25, 2025</td></tr>
          <tr><td>Storm Location:</td></tr>
          <tr><td><b>21.3 N, 56.5 W</b></td></tr>
          <tr><td>Min Sea Level Pressure:</td></tr>
          <tr><td>1002 mb / 29.59 in Hg</td></tr>
          <tr><td>Maximum Intensity:</td></tr>
          <tr><td>50 kt / 58 mph / 93 kph</td></tr>
        </table>
      ]]></description>
      <Point><coordinates>-56.5,21.3</coordinates></Point>
    </Placemark>
    <Placemark>
      <name>1800 UTC SEP 25</name>
      <styleUrl>#ts</styleUrl>
      <description><![CDATA[
        <table>
          <tr><td>TS HUMBERTO (AL082025)</td></tr>
          <tr><td><hr></td></tr>
          <tr><td>1800 UTC SEP 25, 2025</td></tr>
          <tr><td>Storm Location:</td></tr>
          <tr><td><b>21.5 N, 56.7 W</b></td></tr>
          <tr><td>Min Sea Level Pressure:</td></tr>
          <tr><td>998 mb / 29.47 in Hg</td></tr>
          <tr><td>Maximum Intensity:</td></tr>
          <tr><td>55 kt / 63 mph / 102 kph</td></tr>
        </table>
      ]]></description>
      <Point><coordinates>-56.7,21.5</coordinates></Point>
    </Placemark>
    <Placemark>
      <name>0000 UTC SEP 26</name>
      <styleUrl>#ts</styleUrl>
      <description><![CDATA[
        <table>
          <tr><td>TS HUMBERTO (AL082025)</td></tr>
          <tr><td><hr></td></tr>
          <tr><td>0000 UTC SEP 26, 2025</td></tr>
          <tr><td>Storm Location:</td></tr>
          <tr><td><b>21.7 N, 56.9 W</b></td></tr>
          <tr><td>Min Sea Level Pressure:</td></tr>
          <tr><td>993 mb / 29.32 in Hg</td></tr>
          <tr><td>Maximum Intensity:</td></tr>
          <tr><td>60 kt / 69 mph / 111 kph</td></tr>
        </table>
      ]]></description>
      <Point><coordinates>-56.9,21.7</coordinates></Point>
    </Placemark>
    <Placemark>
      <name>0600 UTC SEP 26</name>
      <styleUrl>#cat1</styleUrl>
      <description><![CDATA[
        <table>
          <tr><td>HU HUMBERTO (AL082025)</td></tr>
          <tr><td><hr></td></tr>
          <tr><td>0600 UTC SEP 26, 2025</td></tr>
          <tr><td>Storm Location:</td></tr>
          <tr><td><b>21.9 N, 57.0 W</b></td></tr>
          <tr><td>Min Sea Level Pressure:</td></tr>
          <tr><td>984 mb / 29.06 in Hg</td></tr>
          <tr><td>Maximum Intensity:</td></tr>
          <tr><td>70 kt / 81 mph / 130 kph</td></tr>
        </table>
      ]]></description>
      <Point><coordinates>-57,21.9</coordinates></Point>
    </Placemark>
    <Placemark>
      <name>1200 UTC SEP 26</name>
      <styleUrl>#cat1</styleUrl>
      <description><![CDATA[
        <table>
          <tr><td>HU HUMBERTO (AL082025)</td></tr>
          <tr><td><hr></td></tr>
          <tr><td>1200 UTC SEP 26, 2025</td></tr>
          <tr><td>Storm Location:</td></tr>
          <tr><td><b>22.1 N, 57.4 W</b></td></tr>
          <tr><td>Min Sea Level Pressure:</td></tr>
          <tr><td>978 mb / 28.88 in Hg</td></tr>
          <tr><td>Maximum Intensity:</td></tr>
          <tr><td>80 kt / 92 mph / 148 kph</td></tr>
        </table>
      ]]></description>
      <Point><coordinates>-57.4,22.1</coordinates></Point>
    </Placemark>
    <Placemark>
      <name>1800 UTC SEP 26</name>
      <styleUrl>#cat2</styleUrl>
      <description><![CDATA[
        <table>
          <tr><td>HU HUMBERTO (AL082025)</td></tr>
          <tr><td><hr></td></tr>
          <tr><td>1800 UTC SEP 26, 2025</td></tr>
          <tr><td>Storm Location:</td></tr>
          <tr><td><b>22.2 N, 57.8 W</b></td></tr>
          <tr><td>Min Sea Level Pressure:</td></tr>
          <tr><td>966 mb / 28.53 in Hg</td></tr>
          <tr><td>Maximum Intensity:</td></tr>
          <tr><td>95 kt / 109 mph / 176 kph</td></tr>
        </table>
      ]]></description>
      <Point><coordinates>-57.8,22.2</coordinates></Point>
    </Placemark>
    <Placemark>
      <name>0000 UTC SEP 27</name>
      <styleUrl>#cat4</styleUrl>
      <description><![CDATA[
        <table>
          <tr><td>HU HUMBERTO (AL082025)</td></tr>
          <tr><td><hr></td></tr>
          <tr><td>0000 UTC SEP 27, 2025</td></tr>
          <tr><td>Storm Location:</td></tr>
          <tr><td><b>22.1 N, 58.4 W</b></td></tr>
          <tr><td>Min Sea Level Pressure:</td></tr>
          <tr><td>949 mb / 28.02 in Hg</td></tr>
          <tr><td>Maximum Intensity:</td></tr>
          <tr><td>115 kt / 132 mph / 213 kph</td></tr>
        </table>
      ]]></description>
      <Point><coordinates>-58.4,22.1</coordinates></Point>
    </Placemark>
    <Placemark>
      <name>0600 UTC SEP 27</name>
      <styleUrl>#cat4</styleUrl>
      <description><![CDATA[
        <table>
          <tr><td>HU HUMBERTO (AL082025)</td></tr>
          <tr><td><hr></td></tr>
          <tr><td>0600 UTC SEP 27, 2025</td></tr>
          <tr><td>Storm Location:</td></tr>
          <tr><td><b>22.2 N, 58.9 W</b></td></tr>
          <tr><td>Min Sea Level Pressure:</td></tr>
          <tr><td>938 mb / 27.70 in Hg</td></tr>
          <tr><td>Maximum Intensity:</td></tr>
          <tr><td>125 kt / 144 mph / 232 kph</td></tr>
        </table>
      ]]></description>
      <Point><coordinates>-58.9,22.2</coordinates></Point>
    </Placemark>
    <Placemark>
      <name>1200 UTC SEP 27</name>
      <styleUrl>#cat4</styleUrl>
      <description><![CDATA[
        <table>
          <tr><td>HU HUMBERTO (AL082025)</td></tr>
          <tr><td><hr></td></tr>
          <tr><td>1200 UTC SEP 27, 2025</td></tr>
          <tr><td>Storm Location:</td></tr>
          <tr><td><b>22.5 N, 59.7 W</b></td></tr>
          <tr><td>Min Sea Level Pressure:</td></tr>
          <tr><td>932 mb / 27.52 in Hg</td></tr>
          <tr><td>Maximum Intensity:</td></tr>
          <tr><td>130 kt / 150 mph / 241 kph</td></tr>
        </table>
      ]]></description>
      <Point><coordinates>-59.7,22.5</coordinates></Point>
    </Placemark>
    <Placemark>
      <name>1800 UTC SEP 27</name>
      <styleUrl>#cat5</styleUrl>
      <description><![CDATA[
        <table>
          <tr><td>HU HUMBERTO (AL082025)</td></tr>
          <tr><td><hr></td></tr>
          <tr><td>1800 UTC SEP 27, 2025</td></tr>
          <tr><td>Storm Location:</td></tr>
          <tr><td><b>22.7 N, 60.7 W</b></td></tr>
          <tr><td>Min Sea Level Pressure:</td></tr>
          <tr><td>919 mb / 27.14 in Hg</td></tr>
          <tr><td>Maximum Intensity:</td></tr>
          <tr><td>140 kt / 161 mph / 259 kph</td></tr>
        </table>
      ]]></description>
      <Point><coordinates>-60.7,22.7</coordinates></Point>
    </Placemark>
    <Placemark>
      <name>0000 UTC SEP 28</name>
      <styleUrl>#cat5</styleUrl>
      <description><![CDATA[
        <table>
          <tr><td>HU HUMBERTO (AL082025)</td></tr>
          <tr><td><hr></td></tr>
          <tr><td>0000 UTC SEP 28, 2025</td></tr>
          <tr><td>Storm Location:</td></tr>
          <tr><td><b>23.1 N, 61.6 W</b></td></tr>
          <tr><td>Min Sea Level Pressure:</td></tr>
          <tr><td>918 mb / 27.11 in Hg</td></tr>
          <tr><td>Maximum Intensity:</td></tr>
          <tr><td>140 kt / 161 mph / 259 kph</td></tr>
        </table>
      ]]></description>
      <Point><coordinates>-61.6,23.1</coordinates></Point>
    </Placemark>
    <Placemark>
      <name>0600 UTC SEP 28</name>
      <styleUrl>#cat4</styleUrl>
      <description><![CDATA[
        <table>
          <tr><td>HU HUMBERTO (AL082025)</td></tr>
          <tr><td><hr></td></tr>
          <tr><td>0600 UTC SEP 28, 2025</td></tr>
          <tr><td>Storm Location:</td></tr>
          <tr><td><b>23.7 N, 62.7 W</b></td></tr>
          <tr><td>Min Sea Level Pressure:</td></tr>
          <tr><td>921 mb / 27.20 in Hg</td></tr>
          <tr><td>Maximum Intensity:</td></tr>
          <tr><td>135 kt / 155 mph / 250 kph</td></tr>
        </table>
      ]]></description>
      <Point><coordinates>-62.7,23.7</coordinates></Point>
    </Placemark>
    <Placemark>
      <name>1200 UTC SEP 28</name>
      <styleUrl>#cat4</styleUrl>
      <description><![CDATA[
        <table>
          <tr><td>HU HUMBERTO (AL082025)</td></tr>
          <tr><td><hr></td></tr>
          <tr><td>1200 UTC SEP 28, 2025</td></tr>
          <tr><td>Storm Location:</td></tr>
          <tr><td><b>24.2 N, 63.8 W</b></td></tr>
          <tr><td>Min Sea Level Pressure:</td></tr>
          <tr><td>926 mb / 27.34 in Hg</td></tr>
          <tr><td>Maximum Intensity:</td></tr>
          <tr><td>125 kt / 144 mph / 232 kph</td></tr>
        </table>
      ]]></description>
      <Point><coordinates>-63.8,24.2</coordinates></Point>
    </Placemark>
    <Placemark>
      <name>1800 UTC SEP 28</name>
      <styleUrl>#cat4</styleUrl>
      <description><![CDATA[
        <table>
          <tr><td>HU HUMBERTO (AL082025)</td></tr>
          <tr><td><hr></td></tr>
          <tr><td>1800 UTC SEP 28, 2025</td></tr>
          <tr><td>Storm Location:</td></tr>
          <tr><td><b>25.1 N, 64.8 W</b></td></tr>
          <tr><td>Min Sea Level Pressure:</td></tr>
          <tr><td>926 mb / 27.34 in Hg</td></tr>
          <tr><td>Maximum Intensity:</td></tr>
          <tr><td>125 kt / 144 mph / 232 kph</td></tr>
        </table>
      ]]></description>
      <Point><coordinates>-64.8,25.1</coordinates></Point>
    </Placemark>
    <Placemark>
      <name>0000 UTC SEP 29</name>
      <styleUrl>#cat4</styleUrl>
      <description><![CDATA[
        <table>
          <tr><td>HU HUMBERTO (AL082025)</td></tr>
          <tr><td><hr></td></tr>
          <tr><td>0000 UTC SEP 29, 2025</td></tr>
          <tr><td>Storm Location:</td></tr>
          <tr><td><b>25.8 N, 65.8 W</b></td></tr>
          <tr><td>Min Sea Level Pressure:</td></tr>
          <tr><td>928 mb / 27.40 in Hg</td></tr>
          <tr><td>Maximum Intensity:</td></tr>
          <tr><td>120 kt / 138 mph / 222 kph</td></tr>
        </table>
      ]]></description>
      <Point><coordinates>-65.8,25.8</coordinates></Point>
    </Placemark>
    <Placemark>
      <name>0600 UTC SEP 29</name>
      <styleUrl>#cat4</styleUrl>
      <description><![CDATA[
        <table>
          <tr><td>HU HUMBERTO (AL082025)</td></tr>
          <tr><td><hr></td></tr>
          <tr><td>0600 UTC SEP 29, 2025</td></tr>
          <tr><td>Storm Location:</td></tr>
          <tr><td><b>26.7 N, 66.6 W</b></td></tr>
          <tr><td>Min Sea Level Pressure:</td></tr>
          <tr><td>933 mb / 27.55 in Hg</td></tr>
          <tr><td>Maximum Intensity:</td></tr>
          <tr><td>120 kt / 138 mph / 222 kph</td></tr>
        </table>
      ]]></description>
      <Point><coordinates>-66.6,26.7</coordinates></Point>
    </Placemark>
    <Placemark>
      <name>1200 UTC SEP 29</name>
      <styleUrl>#cat4</styleUrl>
      <description><![CDATA[
        <table>
          <tr><td>HU HUMBERTO (AL082025)</td></tr>
          <tr><td><hr></td></tr>
          <tr><td>1200 UTC SEP 29, 2025</td></tr>
          <tr><td>Storm Location:</td></tr>
          <tr><td><b>27.5 N, 67.3 W</b></td></tr>
          <tr><td>Min Sea Level Pressure:</td></tr>
          <tr><td>938 mb / 27.70 in Hg</td></tr>
          <tr><td>Maximum Intensity:</td></tr>
          <tr><td>125 kt / 144 mph / 232 kph</td></tr>
        </table>
      ]]></description>
      <Point><coordinates>-67.3,27.5</coordinates></Point>
    </Placemark>
    <Placemark>
      <name>1800 UTC SEP 29</name>
      <styleUrl>#cat4</styleUrl>
      <description><![CDATA[
        <table>
          <tr><td>HU HUMBERTO (AL082025)</td></tr>
          <tr><td><hr></td></tr>
          <tr><td>1800 UTC SEP 29, 2025</td></tr>
          <tr><td>Storm Location:</td></tr>
          <tr><td><b>28.5 N, 67.9 W</b></td></tr>
          <tr><td>Min Sea Level Pressure:</td></tr>
          <tr><td>948 mb / 27.99 in Hg</td></tr>
          <tr><td>Maximum Intensity:</td></tr>
          <tr><td>115 kt / 132 mph / 213 kph</td></tr>
        </table>
      ]]></description>
      <Point><coordinates>-67.9,28.5</coordinates></Point>
    </Placemark>
    <Placemark>
      <name>0000 UTC SEP 30</name>
      <styleUrl>#cat3</styleUrl>
      <description><![CDATA[
        <table>
          <tr><td>HU HUMBERTO (AL082025)</td></tr>
          <tr><td><hr></td></tr>
          <tr><td>0000 UTC SEP 30, 2025</td></tr>
          <tr><td>Storm Location:</td></tr>
          <tr><td><b>29.5 N, 68.6 W</b></td></tr>
          <tr><td>Min Sea Level Pressure:</td></tr>
          <tr><td>961 mb / 28.38 in Hg</td></tr>
          <tr><td>Maximum Intensity:</td></tr>
          <tr><td>100 kt / 115 mph / 185 kph</td></tr>
        </table>
      ]]></description>
      <Point><coordinates>-68.6,29.5</coordinates></Point>
    </Placemark>
    <Placemark>
      <name>0600 UTC SEP 30</name>
      <styleUrl>#cat2</styleUrl>
      <description><![CDATA[
        <table>
          <tr><td>HU HUMBERTO (AL082025)</td></tr>
          <tr><td><hr></td></tr>
          <tr><td>0600 UTC SEP 30, 2025</td></tr>
          <tr><td>Storm Location:</td></tr>
          <tr><td><b>31.0 N, 69.4 W</b></td></tr>
          <tr><td>Min Sea Level Pressure:</td></tr>
          <tr><td>967 mb / 28.56 in Hg</td></tr>
          <tr><td>Maximum Intensity:</td></tr>
          <tr><td>90 kt / 104 mph / 167 kph</td></tr>
        </table>
      ]]></description>
      <Point><coordinates>-69.4,31</coordinates></Point>
    </Placemark>
    <Placemark>
      <name>1200 UTC SEP 30</name>
      <styleUrl>#cat1</styleUrl>
      <description><![CDATA[
        <table>
          <tr><td>HU HUMBERTO (AL082025)</td></tr>
          <tr><td><hr></td></tr>
          <tr><td>1200 UTC SEP 30, 2025</td></tr>
          <tr><td>Storm Location:</td></tr>
          <tr><td><b>32.5 N, 69.8 W</b></td></tr>
          <tr><td>Min Sea Level Pressure:</td></tr>
          <tr><td>977 mb / 28.85 in Hg</td></tr>
          <tr><td>Maximum Intensity:</td></tr>
          <tr><td>70 kt / 81 mph / 130 kph</td></tr>
        </table>
      ]]></description>
      <Point><coordinates>-69.8,32.5</coordinates></Point>
    </Placemark>
    <Placemark>
      <name>1800 UTC SEP 30</name>
      <styleUrl>#cat1</styleUrl>
      <description><![CDATA[
        <table>
          <tr><td>HU HUMBERTO (AL082025)</td></tr>
          <tr><td><hr></td></tr>
          <tr><td>1800 UTC SEP 30, 2025</td></tr>
          <tr><td>Storm Location:</td></tr>
          <tr><td><b>33.5 N, 69.9 W</b></td></tr>
          <tr><td>Min Sea Level Pressure:</td></tr>
          <tr><td>979 mb / 28.91 in Hg</td></tr>
          <tr><td>Maximum Intensity:</td></tr>
          <tr><td>70 kt / 81 mph / 130 kph</td></tr>
        </table>
      ]]></description>
      <Point><coordinates>-69.9,33.5</coordinates></Point>
    </Placemark>
    <Placemark>
      <name>0000 UTC OCT 1</name>
      <styleUrl>#cat1</styleUrl>
      <description><![CDATA[
        <table>
          <tr><td>HU HUMBERTO (AL082025)</td></tr>
          <tr><td><hr></td></tr>
          <tr><td>0000 UTC OCT 1, 2025</td></tr>
          <tr><td>Storm Location:</td></tr>
          <tr><td><b>34.6 N, 69.0 W</b></td></tr>
          <tr><td>Min Sea Level Pressure:</td></tr>
          <tr><td>979 mb / 28.91 in Hg</td></tr>
          <tr><td>Maximum Intensity:</td></tr>
          <tr><td>70 kt / 81 mph / 130 kph</td></tr>
        </table>
      ]]></description>
      <Point><coordinates>-69,34.6</coordinates></Point>
    </Placemark>
    <Placemark>
      <name>0600 UTC OCT 1</name>
      <styleUrl>#cat1</styleUrl>
      <description><![CDATA[
        <table>
          <tr><td>HU HUMBERTO (AL082025)</td></tr>
          <tr><td><hr></td></tr>
          <tr><td>0600 UTC OCT 1, 2025</td></tr>
          <tr><td>Storm Location:</td></tr>
          <tr><td><b>35.7 N, 67.5 W</b></td></tr>
          <tr><td>Min Sea Level Pressure:</td></tr>
          <tr><td>979 mb / 28.91 in Hg</td></tr>
          <tr><td>Maximum Intensity:</td></tr>
          <tr><td>70 kt / 81 mph / 130 kph</td></tr>
        </table>
      ]]></description>
      <Point><coordinates>-67.5,35.7</coordinates></Point>
    </Placemark>
    <Placemark>
      <name>1200 UTC OCT 1</name>
      <styleUrl>#ex</styleUrl>
      <description><![CDATA[
        <table>
          <tr><td>EX HUMBERTO (AL082025)</td></tr>
          <tr><td><hr></td></tr>
          <tr><td>1200 UTC OCT 1, 2025</td></tr>
          <tr><td>Storm Location:</td></tr>
          <tr><td><b>36.1 N, 65.5 W</b></td></tr>
          <tr><td>Min Sea Level Pressure:</td></tr>
          <tr><td>981 mb / 28.97 in Hg</td></tr>
          <tr><td>Maximum Intensity:</td></tr>
          <tr><td>65 kt / 75 mph / 120 kph</td></tr>
        </table>
      ]]></description>
      <Point><coordinates>-65.5,36.1</coordinates></Point>
    </Placemark>
  </Document>
</kml>
