<?xml version="1.0" encoding="UTF-8"?>
<kml xmlns="http://www.opengis.net/kml/2.2">
  <Document>
    <name>AL092025</name>
    <open>0</open>

    <!-- =====  Document header ===== -->
    <description><![CDATA[
      <table>
        <tr><td><b>Title:</b> Tropical Cyclone Best Track for AL092025</td></tr>
      </table>
    ]]></description>

    <!-- =====  Styles (ids must be unique)  ===== -->
	<Style id="pt"> 
		<IconStyle> 
			<scale>1.0</scale> 
			<Icon> 
				<href>ex_nhemi.png</href> 
			</Icon> 
             <hotSpot x="15" y="17" xunits="pixels" yunits="pixels"/>
		</IconStyle> 
		<LabelStyle> 
			<scale>1.0</scale> 
		</LabelStyle> 
	</Style>
	<Style id="cat5"> 
		<IconStyle> 
			<scale>1.0</scale> 
			<Icon> 
				<href>cat5_nhemi.png</href> 
			</Icon> 
             <hotSpot x="15" y="17" xunits="pixels" yunits="pixels"/>
		</IconStyle> 
		<LabelStyle> 
			<scale>1.0</scale> 
		</LabelStyle> 
	</Style>
	<Style id="db"> 
		<IconStyle> 
			<scale>1.0</scale> 
			<Icon> 
				<href>ex_nhemi.png</href> 
			</Icon> 
             <hotSpot x="15" y="17" xunits="pixels" yunits="pixels"/>
		</IconStyle> 
		<LabelStyle> 
			<scale>1.0</scale> 
		</LabelStyle> 
	</Style>
	<Style id="cat3"> 
		<IconStyle> 
			<scale>1.0</scale> 
			<Icon> 
				<href>cat3_nhemi.png</href> 
			</Icon> 
             <hotSpot x="15" y="17" xunits="pixels" yunits="pixels"/>
		</IconStyle> 
		<LabelStyle> 
			<scale>1.0</scale> 
		</LabelStyle> 
	</Style>
	<Style id="ss"> 
		<IconStyle> 
			<scale>1.0</scale> 
			<Icon> 
				<href>ts_nhemi.png</href> 
			</Icon> 
             <hotSpot x="15" y="17" xunits="pixels" yunits="pixels"/>
		</IconStyle> 
		<LabelStyle> 
			<scale>1.0</scale> 
		</LabelStyle> 
	</Style>
	<Style id="lo"> 
		<IconStyle> 
			<scale>1.0</scale> 
			<Icon> 
				<href>ex_nhemi.png</href> 
			</Icon> 
             <hotSpot x="15" y="17" xunits="pixels" yunits="pixels"/>
		</IconStyle> 
		<LabelStyle> 
			<scale>1.0</scale> 
		</LabelStyle> 
	</Style>
	<Style id="cat4"> 
		<IconStyle> 
			<scale>1.0</scale> 
			<Icon> 
				<href>cat4_nhemi.png</href> 
			</Icon> 
             <hotSpot x="15" y="17" xunits="pixels" yunits="pixels"/>
		</IconStyle> 
		<LabelStyle> 
			<scale>1.0</scale> 
		</LabelStyle> 
	</Style>
	<Style id="cat2"> 
		<IconStyle> 
			<scale>1.0</scale> 
			<Icon> 
				<href>cat2_nhemi.png</href> 
			</Icon> 
             <hotSpot x="15" y="17" xunits="pixels" yunits="pixels"/>
		</IconStyle> 
		<LabelStyle> 
			<scale>1.0</scale> 
		</LabelStyle> 
	</Style>
	<Style id="ts"> 
		<IconStyle> 
			<scale>1.0</scale> 
			<Icon> 
				<href>ts_nhemi.png</href> 
			</Icon> 
             <hotSpot x="15" y="17" xunits="pixels" yunits="pixels"/>
		</IconStyle> 
		<LabelStyle> 
			<scale>1.0</scale> 
		</LabelStyle> 
	</Style>
	<Style id="cat1"> 
		<IconStyle> 
			<scale>1.0</scale> 
			<Icon> 
				<href>cat1_nhemi.png</href> 
			</Icon> 
             <hotSpot x="15" y="17" xunits="pixels" yunits="pixels"/>
		</IconStyle> 
		<LabelStyle> 
			<scale>1.0</scale> 
		</LabelStyle> 
	</Style>
	<Style id="ex"> 
		<IconStyle> 
			<scale>1.0</scale> 
			<Icon> 
				<href>ex_nhemi.png</href> 
			</Icon> 
             <hotSpot x="15" y="17" xunits="pixels" yunits="pixels"/>
		</IconStyle> 
		<LabelStyle> 
			<scale>1.0</scale> 
		</LabelStyle> 
	</Style>
	<Style id="tc"> 
		<IconStyle> 
			<scale>1.0</scale> 
			<Icon> 
				<href>ex_nhemi.png</href> 
			</Icon> 
             <hotSpot x="15" y="17" xunits="pixels" yunits="pixels"/>
		</IconStyle> 
		<LabelStyle> 
			<scale>1.0</scale> 
		</LabelStyle> 
	</Style>
	<Style id="wv"> 
		<IconStyle> 
			<scale>1.0</scale> 
			<Icon> 
				<href>ex_nhemi.png</href> 
			</Icon> 
             <hotSpot x="15" y="17" xunits="pixels" yunits="pixels"/>
		</IconStyle> 
		<LabelStyle> 
			<scale>1.0</scale> 
		</LabelStyle> 
	</Style>
	<Style id="td"> 
		<IconStyle> 
			<scale>1.0</scale> 
			<Icon> 
				<href>td_nhemi.png</href> 
			</Icon> 
             <hotSpot x="15" y="17" xunits="pixels" yunits="pixels"/>
		</IconStyle> 
		<LabelStyle> 
			<scale>1.0</scale> 
		</LabelStyle> 
	</Style>
	<Style id="sd"> 
		<IconStyle> 
			<scale>1.0</scale> 
			<Icon> 
				<href>ex_nhemi.png</href> 
			</Icon> 
             <hotSpot x="15" y="17" xunits="pixels" yunits="pixels"/>
		</IconStyle> 
		<LabelStyle> 
			<scale>1.0</scale> 
		</LabelStyle> 
	</Style>

    <Placemark>
      <name>1800 UTC SEP 26</name>
      <styleUrl>#db</styleUrl>
      <description><![CDATA[
        <table>
          <tr><td>DB IMELDA (AL092025)</td></tr>
          <tr><td><hr></td></tr>
          <tr><td>1800 UTC SEP 26, 2025</td></tr>
          <tr><td>Storm Location:</td></tr>
          <tr><td><b>20.9 N, 74.9 W</b></td></tr>
          <tr><td>Min Sea Level Pressure:</td></tr>
          <tr><td>1008 mb / 29.77 in Hg</td></tr>
          <tr><td>Maximum Intensity:</td></tr>
          <tr><td>30 kt / 35 mph / 56 kph</td></tr>
        </table>
      ]]></description>
      <Point><coordinates>-74.9,20.9</coordinates></Point>
    </Placemark>
    <Placemark>
      <name>0000 UTC SEP 27</name>
      <styleUrl>#db</styleUrl>
      <description><![CDATA[
        <table>
          <tr><td>DB IMELDA (AL092025)</td></tr>
          <tr><td><hr></td></tr>
          <tr><td>0000 UTC SEP 27, 2025</td></tr>
          <tr><td>Storm Location:</td></tr>
          <tr><td><b>21.3 N, 75.5 W</b></td></tr>
          <tr><td>Min Sea Level Pressure:</td></tr>
          <tr><td>1006 mb / 29.71 in Hg</td></tr>
          <tr><td>Maximum Intensity:</td></tr>
          <tr><td>30 kt / 35 mph / 56 kph</td></tr>
        </table>
      ]]></description>
      <Point><coordinates>-75.5,21.3</coordinates></Point>
    </Placemark>
    <Placemark>
      <name>0600 UTC SEP 27</name>
      <styleUrl>#db</styleUrl>
      <description><![CDATA[
        <table>
          <tr><td>DB IMELDA (AL092025)</td></tr>
          <tr><td><hr></td></tr>
          <tr><td>0600 UTC SEP 27, 2025</td></tr>
          <tr><td>Storm Location:</td></tr>
          <tr><td><b>21.6 N, 75.8 W</b></td></tr>
          <tr><td>Min Sea Level Pressure:</td></tr>
          <tr><td>1006 mb / 29.71 in Hg</td></tr>
          <tr><td>Maximum Intensity:</td></tr>
          <tr><td>30 kt / 35 mph / 56 kph</td></tr>
        </table>
      ]]></description>
      <Point><coordinates>-75.8,21.6</coordinates></Point>
    </Placemark>
    <Placemark>
      <name>1200 UTC SEP 27</name>
      <styleUrl>#db</styleUrl>
      <description><![CDATA[
        <table>
          <tr><td>DB IMELDA (AL092025)</td></tr>
          <tr><td><hr></td></tr>
          <tr><td>1200 UTC SEP 27, 2025</td></tr>
          <tr><td>Storm Location:</td></tr>
          <tr><td><b>21.9 N, 76.1 W</b></td></tr>
          <tr><td>Min Sea Level Pressure:</td></tr>
          <tr><td>1005 mb / 29.68 in Hg</td></tr>
          <tr><td>Maximum Intensity:</td></tr>
          <tr><td>30 kt / 35 mph / 56 kph</td></tr>
        </table>
      ]]></description>
      <Point><coordinates>-76.1,21.9</coordinates></Point>
    </Placemark>
    <Placemark>
      <name>1800 UTC SEP 27</name>
      <styleUrl>#db</styleUrl>
      <description><![CDATA[
        <table>
          <tr><td>DB IMELDA (AL092025)</td></tr>
          <tr><td><hr></td></tr>
          <tr><td>1800 UTC SEP 27, 2025</td></tr>
          <tr><td>Storm Location:</td></tr>
          <tr><td><b>22.1 N, 76.4 W</b></td></tr>
          <tr><td>Min Sea Level Pressure:</td></tr>
          <tr><td>1005 mb / 29.68 in Hg</td></tr>
          <tr><td>Maximum Intensity:</td></tr>
          <tr><td>30 kt / 35 mph / 56 kph</td></tr>
        </table>
      ]]></description>
      <Point><coordinates>-76.4,22.1</coordinates></Point>
    </Placemark>
    <Placemark>
      <name>0000 UTC SEP 28</name>
      <styleUrl>#td</styleUrl>
      <description><![CDATA[
        <table>
          <tr><td>TD IMELDA (AL092025)</td></tr>
          <tr><td><hr></td></tr>
          <tr><td>0000 UTC SEP 28, 2025</td></tr>
          <tr><td>Storm Location:</td></tr>
          <tr><td><b>22.4 N, 76.7 W</b></td></tr>
          <tr><td>Min Sea Level Pressure:</td></tr>
          <tr><td>1004 mb / 29.65 in Hg</td></tr>
          <tr><td>Maximum Intensity:</td></tr>
          <tr><td>30 kt / 35 mph / 56 kph</td></tr>
        </table>
      ]]></description>
      <Point><coordinates>-76.7,22.4</coordinates></Point>
    </Placemark>
    <Placemark>
      <name>0600 UTC SEP 28</name>
      <styleUrl>#td</styleUrl>
      <description><![CDATA[
        <table>
          <tr><td>TD IMELDA (AL092025)</td></tr>
          <tr><td><hr></td></tr>
          <tr><td>0600 UTC SEP 28, 2025</td></tr>
          <tr><td>Storm Location:</td></tr>
          <tr><td><b>22.7 N, 77.1 W</b></td></tr>
          <tr><td>Min Sea Level Pressure:</td></tr>
          <tr><td>1003 mb / 29.62 in Hg</td></tr>
          <tr><td>Maximum Intensity:</td></tr>
          <tr><td>30 kt / 35 mph / 56 kph</td></tr>
        </table>
      ]]></description>
      <Point><coordinates>-77.1,22.7</coordinates></Point>
    </Placemark>
    <Placemark>
      <name>1200 UTC SEP 28</name>
      <styleUrl>#td</styleUrl>
      <description><![CDATA[
        <table>
          <tr><td>TD IMELDA (AL092025)</td></tr>
          <tr><td><hr></td></tr>
          <tr><td>1200 UTC SEP 28, 2025</td></tr>
          <tr><td>Storm Location:</td></tr>
          <tr><td><b>23.1 N, 77.4 W</b></td></tr>
          <tr><td>Min Sea Level Pressure:</td></tr>
          <tr><td>1001 mb / 29.56 in Hg</td></tr>
          <tr><td>Maximum Intensity:</td></tr>
          <tr><td>30 kt / 35 mph / 56 kph</td></tr>
        </table>
      ]]></description>
      <Point><coordinates>-77.4,23.1</coordinates></Point>
    </Placemark>
    <Placemark>
      <name>1800 UTC SEP 28</name>
      <styleUrl>#ts</styleUrl>
      <description><![CDATA[
        <table>
          <tr><td>TS IMELDA (AL092025)</td></tr>
          <tr><td><hr></td></tr>
          <tr><td>1800 UTC SEP 28, 2025</td></tr>
          <tr><td>Storm Location:</td></tr>
          <tr><td><b>23.8 N, 77.3 W</b></td></tr>
          <tr><td>Min Sea Level Pressure:</td></tr>
          <tr><td>998 mb / 29.47 in Hg</td></tr>
          <tr><td>Maximum Intensity:</td></tr>
          <tr><td>35 kt / 40 mph / 65 kph</td></tr>
        </table>
      ]]></description>
      <Point><coordinates>-77.3,23.8</coordinates></Point>
    </Placemark>
    <Placemark>
      <name>0000 UTC SEP 29</name>
      <styleUrl>#ts</styleUrl>
      <description><![CDATA[
        <table>
          <tr><td>TS IMELDA (AL092025)</td></tr>
          <tr><td><hr></td></tr>
          <tr><td>0000 UTC SEP 29, 2025</td></tr>
          <tr><td>Storm Location:</td></tr>
          <tr><td><b>24.6 N, 77.1 W</b></td></tr>
          <tr><td>Min Sea Level Pressure:</td></tr>
          <tr><td>997 mb / 29.44 in Hg</td></tr>
          <tr><td>Maximum Intensity:</td></tr>
          <tr><td>35 kt / 40 mph / 65 kph</td></tr>
        </table>
      ]]></description>
      <Point><coordinates>-77.1,24.6</coordinates></Point>
    </Placemark>
    <Placemark>
      <name>0600 UTC SEP 29</name>
      <styleUrl>#ts</styleUrl>
      <description><![CDATA[
        <table>
          <tr><td>TS IMELDA (AL092025)</td></tr>
          <tr><td><hr></td></tr>
          <tr><td>0600 UTC SEP 29, 2025</td></tr>
          <tr><td>Storm Location:</td></tr>
          <tr><td><b>25.3 N, 77.1 W</b></td></tr>
          <tr><td>Min Sea Level Pressure:</td></tr>
          <tr><td>995 mb / 29.38 in Hg</td></tr>
          <tr><td>Maximum Intensity:</td></tr>
          <tr><td>40 kt / 46 mph / 74 kph</td></tr>
        </table>
      ]]></description>
      <Point><coordinates>-77.1,25.3</coordinates></Point>
    </Placemark>
    <Placemark>
      <name>1200 UTC SEP 29</name>
      <styleUrl>#ts</styleUrl>
      <description><![CDATA[
        <table>
          <tr><td>TS IMELDA (AL092025)</td></tr>
          <tr><td><hr></td></tr>
          <tr><td>1200 UTC SEP 29, 2025</td></tr>
          <tr><td>Storm Location:</td></tr>
          <tr><td><b>26.4 N, 77.1 W</b></td></tr>
          <tr><td>Min Sea Level Pressure:</td></tr>
          <tr><td>989 mb / 29.21 in Hg</td></tr>
          <tr><td>Maximum Intensity:</td></tr>
          <tr><td>45 kt / 52 mph / 83 kph</td></tr>
        </table>
      ]]></description>
      <Point><coordinates>-77.1,26.4</coordinates></Point>
    </Placemark>
    <Placemark>
      <name>1800 UTC SEP 29</name>
      <styleUrl>#ts</styleUrl>
      <description><![CDATA[
        <table>
          <tr><td>TS IMELDA (AL092025)</td></tr>
          <tr><td><hr></td></tr>
          <tr><td>1800 UTC SEP 29, 2025</td></tr>
          <tr><td>Storm Location:</td></tr>
          <tr><td><b>27.3 N, 77.3 W</b></td></tr>
          <tr><td>Min Sea Level Pressure:</td></tr>
          <tr><td>987 mb / 29.15 in Hg</td></tr>
          <tr><td>Maximum Intensity:</td></tr>
          <tr><td>50 kt / 58 mph / 93 kph</td></tr>
        </table>
      ]]></description>
      <Point><coordinates>-77.3,27.3</coordinates></Point>
    </Placemark>
    <Placemark>
      <name>0000 UTC SEP 30</name>
      <styleUrl>#ts</styleUrl>
      <description><![CDATA[
        <table>
          <tr><td>TS IMELDA (AL092025)</td></tr>
          <tr><td><hr></td></tr>
          <tr><td>0000 UTC SEP 30, 2025</td></tr>
          <tr><td>Storm Location:</td></tr>
          <tr><td><b>28.0 N, 77.3 W</b></td></tr>
          <tr><td>Min Sea Level Pressure:</td></tr>
          <tr><td>985 mb / 29.09 in Hg</td></tr>
          <tr><td>Maximum Intensity:</td></tr>
          <tr><td>55 kt / 63 mph / 102 kph</td></tr>
        </table>
      ]]></description>
      <Point><coordinates>-77.3,28</coordinates></Point>
    </Placemark>
    <Placemark>
      <name>0600 UTC SEP 30</name>
      <styleUrl>#ts</styleUrl>
      <description><![CDATA[
        <table>
          <tr><td>TS IMELDA (AL092025)</td></tr>
          <tr><td><hr></td></tr>
          <tr><td>0600 UTC SEP 30, 2025</td></tr>
          <tr><td>Storm Location:</td></tr>
          <tr><td><b>28.6 N, 77.2 W</b></td></tr>
          <tr><td>Min Sea Level Pressure:</td></tr>
          <tr><td>983 mb / 29.03 in Hg</td></tr>
          <tr><td>Maximum Intensity:</td></tr>
          <tr><td>55 kt / 63 mph / 102 kph</td></tr>
        </table>
      ]]></description>
      <Point><coordinates>-77.2,28.6</coordinates></Point>
    </Placemark>
    <Placemark>
      <name>1200 UTC SEP 30</name>
      <styleUrl>#cat1</styleUrl>
      <description><![CDATA[
        <table>
          <tr><td>HU IMELDA (AL092025)</td></tr>
          <tr><td><hr></td></tr>
          <tr><td>1200 UTC SEP 30, 2025</td></tr>
          <tr><td>Storm Location:</td></tr>
          <tr><td><b>28.9 N, 76.9 W</b></td></tr>
          <tr><td>Min Sea Level Pressure:</td></tr>
          <tr><td>981 mb / 28.97 in Hg</td></tr>
          <tr><td>Maximum Intensity:</td></tr>
          <tr><td>65 kt / 75 mph / 120 kph</td></tr>
        </table>
      ]]></description>
      <Point><coordinates>-76.9,28.9</coordinates></Point>
    </Placemark>
    <Placemark>
      <name>1800 UTC SEP 30</name>
      <styleUrl>#cat1</styleUrl>
      <description><![CDATA[
        <table>
          <tr><td>HU IMELDA (AL092025)</td></tr>
          <tr><td><hr></td></tr>
          <tr><td>1800 UTC SEP 30, 2025</td></tr>
          <tr><td>Storm Location:</td></tr>
          <tr><td><b>29.2 N, 76.0 W</b></td></tr>
          <tr><td>Min Sea Level Pressure:</td></tr>
          <tr><td>979 mb / 28.91 in Hg</td></tr>
          <tr><td>Maximum Intensity:</td></tr>
          <tr><td>70 kt / 81 mph / 130 kph</td></tr>
        </table>
      ]]></description>
      <Point><coordinates>-76,29.2</coordinates></Point>
    </Placemark>
    <Placemark>
      <name>0000 UTC OCT 1</name>
      <styleUrl>#cat1</styleUrl>
      <description><![CDATA[
        <table>
          <tr><td>HU IMELDA (AL092025)</td></tr>
          <tr><td><hr></td></tr>
          <tr><td>0000 UTC OCT 1, 2025</td></tr>
          <tr><td>Storm Location:</td></tr>
          <tr><td><b>29.4 N, 74.8 W</b></td></tr>
          <tr><td>Min Sea Level Pressure:</td></tr>
          <tr><td>977 mb / 28.85 in Hg</td></tr>
          <tr><td>Maximum Intensity:</td></tr>
          <tr><td>70 kt / 81 mph / 130 kph</td></tr>
        </table>
      ]]></description>
      <Point><coordinates>-74.8,29.4</coordinates></Point>
    </Placemark>
    <Placemark>
      <name>0600 UTC OCT 1</name>
      <styleUrl>#cat1</styleUrl>
      <description><![CDATA[
        <table>
          <tr><td>HU IMELDA (AL092025)</td></tr>
          <tr><td><hr></td></tr>
          <tr><td>0600 UTC OCT 1, 2025</td></tr>
          <tr><td>Storm Location:</td></tr>
          <tr><td><b>29.9 N, 73.1 W</b></td></tr>
          <tr><td>Min Sea Level Pressure:</td></tr>
          <tr><td>973 mb / 28.73 in Hg</td></tr>
          <tr><td>Maximum Intensity:</td></tr>
          <tr><td>75 kt / 86 mph / 139 kph</td></tr>
        </table>
      ]]></description>
      <Point><coordinates>-73.1,29.9</coordinates></Point>
    </Placemark>
    <Placemark>
      <name>1200 UTC OCT 1</name>
      <styleUrl>#cat1</styleUrl>
      <description><![CDATA[
        <table>
          <tr><td>HU IMELDA (AL092025)</td></tr>
          <tr><td><hr></td></tr>
          <tr><td>1200 UTC OCT 1, 2025</td></tr>
          <tr><td>Storm Location:</td></tr>
          <tr><td><b>30.7 N, 71.4 W</b></td></tr>
          <tr><td>Min Sea Level Pressure:</td></tr>
          <tr><td>968 mb / 28.59 in Hg</td></tr>
          <tr><td>Maximum Intensity:</td></tr>
          <tr><td>80 kt / 92 mph / 148 kph</td></tr>
        </table>
      ]]></description>
      <Point><coordinates>-71.4,30.7</coordinates></Point>
    </Placemark>
    <Placemark>
      <name>1800 UTC OCT 1</name>
      <styleUrl>#cat1</styleUrl>
      <description><![CDATA[
        <table>
          <tr><td>HU IMELDA (AL092025)</td></tr>
          <tr><td><hr></td></tr>
          <tr><td>1800 UTC OCT 1, 2025</td></tr>
          <tr><td>Storm Location:</td></tr>
          <tr><td><b>31.2 N, 69.2 W</b></td></tr>
          <tr><td>Min Sea Level Pressure:</td></tr>
          <tr><td>966 mb / 28.53 in Hg</td></tr>
          <tr><td>Maximum Intensity:</td></tr>
          <tr><td>80 kt / 92 mph / 148 kph</td></tr>
        </table>
      ]]></description>
      <Point><coordinates>-69.2,31.2</coordinates></Point>
    </Placemark>
    <Placemark>
      <name>0000 UTC OCT 2</name>
      <styleUrl>#cat1</styleUrl>
      <description><![CDATA[
        <table>
          <tr><td>HU IMELDA (AL092025)</td></tr>
          <tr><td><hr></td></tr>
          <tr><td>0000 UTC OCT 2, 2025</td></tr>
          <tr><td>Storm Location:</td></tr>
          <tr><td><b>31.8 N, 66.4 W</b></td></tr>
          <tr><td>Min Sea Level Pressure:</td></tr>
          <tr><td>971 mb / 28.67 in Hg</td></tr>
          <tr><td>Maximum Intensity:</td></tr>
          <tr><td>80 kt / 92 mph / 148 kph</td></tr>
        </table>
      ]]></description>
      <Point><coordinates>-66.4,31.8</coordinates></Point>
    </Placemark>
    <Placemark>
      <name>0600 UTC OCT 2</name>
      <styleUrl>#cat1</styleUrl>
      <description><![CDATA[
        <table>
          <tr><td>HU IMELDA (AL092025)</td></tr>
          <tr><td><hr></td></tr>
          <tr><td>0600 UTC OCT 2, 2025</td></tr>
          <tr><td>Storm Location:</td></tr>
          <tr><td><b>32.6 N, 63.2 W</b></td></tr>
          <tr><td>Min Sea Level Pressure:</td></tr>
          <tr><td>974 mb / 28.76 in Hg</td></tr>
          <tr><td>Maximum Intensity:</td></tr>
          <tr><td>80 kt / 92 mph / 148 kph</td></tr>
        </table>
      ]]></description>
      <Point><coordinates>-63.2,32.6</coordinates></Point>
    </Placemark>
    <Placemark>
      <name>1200 UTC OCT 2</name>
      <styleUrl>#ex</styleUrl>
      <description><![CDATA[
        <table>
          <tr><td>EX IMELDA (AL092025)</td></tr>
          <tr><td><hr></td></tr>
          <tr><td>1200 UTC OCT 2, 2025</td></tr>
          <tr><td>Storm Location:</td></tr>
          <tr><td><b>33.0 N, 60.8 W</b></td></tr>
          <tr><td>Min Sea Level Pressure:</td></tr>
          <tr><td>977 mb / 28.85 in Hg</td></tr>
          <tr><td>Maximum Intensity:</td></tr>
          <tr><td>70 kt / 81 mph / 130 kph</td></tr>
        </table>
      ]]></description>
      <Point><coordinates>-60.8,33</coordinates></Point>
    </Placemark>
    <Placemark>
      <name>1800 UTC OCT 2</name>
      <styleUrl>#ex</styleUrl>
      <description><![CDATA[
        <table>
          <tr><td>EX IMELDA (AL092025)</td></tr>
          <tr><td><hr></td></tr>
          <tr><td>1800 UTC OCT 2, 2025</td></tr>
          <tr><td>Storm Location:</td></tr>
          <tr><td><b>33.5 N, 57.5 W</b></td></tr>
          <tr><td>Min Sea Level Pressure:</td></tr>
          <tr><td>986 mb / 29.12 in Hg</td></tr>
          <tr><td>Maximum Intensity:</td></tr>
          <tr><td>60 kt / 69 mph / 111 kph</td></tr>
        </table>
      ]]></description>
      <Point><coordinates>-57.5,33.5</coordinates></Point>
    </Placemark>
    <Placemark>
      <name>0000 UTC OCT 3</name>
      <styleUrl>#ex</styleUrl>
      <description><![CDATA[
        <table>
          <tr><td>EX IMELDA (AL092025)</td></tr>
          <tr><td><hr></td></tr>
          <tr><td>0000 UTC OCT 3, 2025</td></tr>
          <tr><td>Storm Location:</td></tr>
          <tr><td><b>34.5 N, 53.4 W</b></td></tr>
          <tr><td>Min Sea Level Pressure:</td></tr>
          <tr><td>990 mb / 29.23 in Hg</td></tr>
          <tr><td>Maximum Intensity:</td></tr>
          <tr><td>55 kt / 63 mph / 102 kph</td></tr>
        </table>
      ]]></description>
      <Point><coordinates>-53.4,34.5</coordinates></Point>
    </Placemark>
    <Placemark>
      <name>0600 UTC OCT 3</name>
      <styleUrl>#ex</styleUrl>
      <description><![CDATA[
        <table>
          <tr><td>EX IMELDA (AL092025)</td></tr>
          <tr><td><hr></td></tr>
          <tr><td>0600 UTC OCT 3, 2025</td></tr>
          <tr><td>Storm Location:</td></tr>
          <tr><td><b>35.7 N, 51.1 W</b></td></tr>
          <tr><td>Min Sea Level Pressure:</td></tr>
          <tr><td>990 mb / 29.23 in Hg</td></tr>
          <tr><td>Maximum Intensity:</td></tr>
          <tr><td>55 kt / 63 mph / 102 kph</td></tr>
        </table>
      ]]></description>
      <Point><coordinates>-51.1,35.7</coordinates></Point>
    </Placemark>
    <Placemark>
      <name>1200 UTC OCT 3</name>
      <styleUrl>#ex</styleUrl>
      <description><![CDATA[
        <table>
          <tr><td>EX IMELDA (AL092025)</td></tr>
          <tr><td><hr></td></tr>
          <tr><td>1200 UTC OCT 3, 2025</td></tr>
          <tr><td>Storm Location:</td></tr>
          <tr><td><b>37.3 N, 49.3 W</b></td></tr>
          <tr><td>Min Sea Level Pressure:</td></tr>
          <tr><td>986 mb / 29.12 in Hg</td></tr>
          <tr><td>Maximum Intensity:</td></tr>
          <tr><td>55 kt / 63 mph / 102 kph</td></tr>
        </table>
      ]]></description>
      <Point><coordinates>-49.3,37.3</coordinates></Point>
    </Placemark>
    <Placemark>
      <name>1800 UTC OCT 3</name>
      <styleUrl>#ex</styleUrl>
      <description><![CDATA[
        <table>
          <tr><td>EX IMELDA (AL092025)</td></tr>
          <tr><td><hr></td></tr>
          <tr><td>1800 UTC OCT 3, 2025</td></tr>
          <tr><td>Storm Location:</td></tr>
          <tr><td><b>38.9 N, 49.1 W</b></td></tr>
          <tr><td>Min Sea Level Pressure:</td></tr>
          <tr><td>979 mb / 28.91 in Hg</td></tr>
          <tr><td>Maximum Intensity:</td></tr>
          <tr><td>60 kt / 69 mph / 111 kph</td></tr>
        </table>
      ]]></description>
      <Point><coordinates>-49.1,38.9</coordinates></Point>
    </Placemark>
    <Placemark>
      <name>0000 UTC OCT 4</name>
      <styleUrl>#ex</styleUrl>
      <description><![CDATA[
        <table>
          <tr><td>EX IMELDA (AL092025)</td></tr>
          <tr><td><hr></td></tr>
          <tr><td>0000 UTC OCT 4, 2025</td></tr>
          <tr><td>Storm Location:</td></tr>
          <tr><td><b>39.7 N, 49.0 W</b></td></tr>
          <tr><td>Min Sea Level Pressure:</td></tr>
          <tr><td>978 mb / 28.88 in Hg</td></tr>
          <tr><td>Maximum Intensity:</td></tr>
          <tr><td>65 kt / 75 mph / 120 kph</td></tr>
        </table>
      ]]></description>
      <Point><coordinates>-49,39.7</coordinates></Point>
    </Placemark>
    <Placemark>
      <name>0600 UTC OCT 4</name>
      <styleUrl>#ex</styleUrl>
      <description><![CDATA[
        <table>
          <tr><td>EX IMELDA (AL092025)</td></tr>
          <tr><td><hr></td></tr>
          <tr><td>0600 UTC OCT 4, 2025</td></tr>
          <tr><td>Storm Location:</td></tr>
          <tr><td><b>40.8 N, 48.5 W</b></td></tr>
          <tr><td>Min Sea Level Pressure:</td></tr>
          <tr><td>979 mb / 28.91 in Hg</td></tr>
          <tr><td>Maximum Intensity:</td></tr>
          <tr><td>60 kt / 69 mph / 111 kph</td></tr>
        </table>
      ]]></description>
      <Point><coordinates>-48.5,40.8</coordinates></Point>
    </Placemark>
    <Placemark>
      <name>1200 UTC OCT 4</name>
      <styleUrl>#ex</styleUrl>
      <description><![CDATA[
        <table>
          <tr><td>EX IMELDA (AL092025)</td></tr>
          <tr><td><hr></td></tr>
          <tr><td>1200 UTC OCT 4, 2025</td></tr>
          <tr><td>Storm Location:</td></tr>
          <tr><td><b>42.0 N, 47.5 W</b></td></tr>
          <tr><td>Min Sea Level Pressure:</td></tr>
          <tr><td>981 mb / 28.97 in Hg</td></tr>
          <tr><td>Maximum Intensity:</td></tr>
          <tr><td>55 kt / 63 mph / 102 kph</td></tr>
        </table>
      ]]></description>
      <Point><coordinates>-47.5,42</coordinates></Point>
    </Placemark>
    <Placemark>
      <name>1800 UTC OCT 4</name>
      <styleUrl>#ex</styleUrl>
      <description><![CDATA[
        <table>
          <tr><td>EX IMELDA (AL092025)</td></tr>
          <tr><td><hr></td></tr>
          <tr><td>1800 UTC OCT 4, 2025</td></tr>
          <tr><td>Storm Location:</td></tr>
          <tr><td><b>43.5 N, 45.8 W</b></td></tr>
          <tr><td>Min Sea Level Pressure:</td></tr>
          <tr><td>983 mb / 29.03 in Hg</td></tr>
          <tr><td>Maximum Intensity:</td></tr>
          <tr><td>50 kt / 58 mph / 93 kph</td></tr>
        </table>
      ]]></description>
      <Point><coordinates>-45.8,43.5</coordinates></Point>
    </Placemark>
    <Placemark>
      <name>0000 UTC OCT 5</name>
      <styleUrl>#ex</styleUrl>
      <description><![CDATA[
        <table>
          <tr><td>EX IMELDA (AL092025)</td></tr>
          <tr><td><hr></td></tr>
          <tr><td>0000 UTC OCT 5, 2025</td></tr>
          <tr><td>Storm Location:</td></tr>
          <tr><td><b>45.3 N, 44.0 W</b></td></tr>
          <tr><td>Min Sea Level Pressure:</td></tr>
          <tr><td>984 mb / 29.06 in Hg</td></tr>
          <tr><td>Maximum Intensity:</td></tr>
          <tr><td>45 kt / 52 mph / 83 kph</td></tr>
        </table>
      ]]></description>
      <Point><coordinates>-44,45.3</coordinates></Point>
    </Placemark>
    <Placemark>
      <name>0600 UTC OCT 5</name>
      <styleUrl>#ex</styleUrl>
      <description><![CDATA[
        <table>
          <tr><td>EX IMELDA (AL092025)</td></tr>
          <tr><td><hr></td></tr>
          <tr><td>0600 UTC OCT 5, 2025</td></tr>
          <tr><td>Storm Location:</td></tr>
          <tr><td><b>46.9 N, 41.9 W</b></td></tr>
          <tr><td>Min Sea Level Pressure:</td></tr>
          <tr><td>984 mb / 29.06 in Hg</td></tr>
          <tr><td>Maximum Intensity:</td></tr>
          <tr><td>45 kt / 52 mph / 83 kph</td></tr>
        </table>
      ]]></description>
      <Point><coordinates>-41.9,46.9</coordinates></Point>
    </Placemark>
    <Placemark>
      <name>1200 UTC OCT 5</name>
      <styleUrl>#ex</styleUrl>
      <description><![CDATA[
        <table>
          <tr><td>EX IMELDA (AL092025)</td></tr>
          <tr><td><hr></td></tr>
          <tr><td>1200 UTC OCT 5, 2025</td></tr>
          <tr><td>Storm Location:</td></tr>
          <tr><td><b>48.6 N, 39.6 W</b></td></tr>
          <tr><td>Min Sea Level Pressure:</td></tr>
          <tr><td>983 mb / 29.03 in Hg</td></tr>
          <tr><td>Maximum Intensity:</td></tr>
          <tr><td>50 kt / 58 mph / 93 kph</td></tr>
        </table>
      ]]></description>
      <Point><coordinates>-39.6,48.6</coordinates></Point>
    </Placemark>
    <Placemark>
      <name>1800 UTC OCT 5</name>
      <styleUrl>#ex</styleUrl>
      <description><![CDATA[
        <table>
          <tr><td>EX IMELDA (AL092025)</td></tr>
          <tr><td><hr></td></tr>
          <tr><td>1800 UTC OCT 5, 2025</td></tr>
          <tr><td>Storm Location:</td></tr>
          <tr><td><b>49.5 N, 36.5 W</b></td></tr>
          <tr><td>Min Sea Level Pressure:</td></tr>
          <tr><td>984 mb / 29.06 in Hg</td></tr>
          <tr><td>Maximum Intensity:</td></tr>
          <tr><td>50 kt / 58 mph / 93 kph</td></tr>
        </table>
      ]]></description>
      <Point><coordinates>-36.5,49.5</coordinates></Point>
    </Placemark>
    <Placemark>
      <name>0000 UTC OCT 6</name>
      <styleUrl>#ex</styleUrl>
      <description><![CDATA[
        <table>
          <tr><td>EX IMELDA (AL092025)</td></tr>
          <tr><td><hr></td></tr>
          <tr><td>0000 UTC OCT 6, 2025</td></tr>
          <tr><td>Storm Location:</td></tr>
          <tr><td><b>50.3 N, 33.0 W</b></td></tr>
          <tr><td>Min Sea Level Pressure:</td></tr>
          <tr><td>988 mb / 29.18 in Hg</td></tr>
          <tr><td>Maximum Intensity:</td></tr>
          <tr><td>45 kt / 52 mph / 83 kph</td></tr>
        </table>
      ]]></description>
      <Point><coordinates>-33,50.3</coordinates></Point>
    </Placemark>
  </Document>
</kml>
