<?xml version="1.0" encoding="UTF-8"?>
<kml xmlns="http://www.opengis.net/kml/2.2">
  <Document>
    <name>AL102025</name>
    <open>0</open>

    <!-- =====  Document header ===== -->
    <description><![CDATA[
      <table>
        <tr><td><b>Title:</b> Tropical Cyclone Best Track for AL102025</td></tr>
      </table>
    ]]></description>

    <!-- =====  Styles (ids must be unique)  ===== -->
	<Style id="pt"> 
		<IconStyle> 
			<scale>1.0</scale> 
			<Icon> 
				<href>ex_nhemi.png</href> 
			</Icon> 
             <hotSpot x="15" y="17" xunits="pixels" yunits="pixels"/>
		</IconStyle> 
		<LabelStyle> 
			<scale>1.0</scale> 
		</LabelStyle> 
	</Style>
	<Style id="cat5"> 
		<IconStyle> 
			<scale>1.0</scale> 
			<Icon> 
				<href>cat5_nhemi.png</href> 
			</Icon> 
             <hotSpot x="15" y="17" xunits="pixels" yunits="pixels"/>
		</IconStyle> 
		<LabelStyle> 
			<scale>1.0</scale> 
		</LabelStyle> 
	</Style>
	<Style id="db"> 
		<IconStyle> 
			<scale>1.0</scale> 
			<Icon> 
				<href>ex_nhemi.png</href> 
			</Icon> 
             <hotSpot x="15" y="17" xunits="pixels" yunits="pixels"/>
		</IconStyle> 
		<LabelStyle> 
			<scale>1.0</scale> 
		</LabelStyle> 
	</Style>
	<Style id="cat3"> 
		<IconStyle> 
			<scale>1.0</scale> 
			<Icon> 
				<href>cat3_nhemi.png</href> 
			</Icon> 
             <hotSpot x="15" y="17" xunits="pixels" yunits="pixels"/>
		</IconStyle> 
		<LabelStyle> 
			<scale>1.0</scale> 
		</LabelStyle> 
	</Style>
	<Style id="ss"> 
		<IconStyle> 
			<scale>1.0</scale> 
			<Icon> 
				<href>ts_nhemi.png</href> 
			</Icon> 
             <hotSpot x="15" y="17" xunits="pixels" yunits="pixels"/>
		</IconStyle> 
		<LabelStyle> 
			<scale>1.0</scale> 
		</LabelStyle> 
	</Style>
	<Style id="lo"> 
		<IconStyle> 
			<scale>1.0</scale> 
			<Icon> 
				<href>ex_nhemi.png</href> 
			</Icon> 
             <hotSpot x="15" y="17" xunits="pixels" yunits="pixels"/>
		</IconStyle> 
		<LabelStyle> 
			<scale>1.0</scale> 
		</LabelStyle> 
	</Style>
	<Style id="cat4"> 
		<IconStyle> 
			<scale>1.0</scale> 
			<Icon> 
				<href>cat4_nhemi.png</href> 
			</Icon> 
             <hotSpot x="15" y="17" xunits="pixels" yunits="pixels"/>
		</IconStyle> 
		<LabelStyle> 
			<scale>1.0</scale> 
		</LabelStyle> 
	</Style>
	<Style id="cat2"> 
		<IconStyle> 
			<scale>1.0</scale> 
			<Icon> 
				<href>cat2_nhemi.png</href> 
			</Icon> 
             <hotSpot x="15" y="17" xunits="pixels" yunits="pixels"/>
		</IconStyle> 
		<LabelStyle> 
			<scale>1.0</scale> 
		</LabelStyle> 
	</Style>
	<Style id="ts"> 
		<IconStyle> 
			<scale>1.0</scale> 
			<Icon> 
				<href>ts_nhemi.png</href> 
			</Icon> 
             <hotSpot x="15" y="17" xunits="pixels" yunits="pixels"/>
		</IconStyle> 
		<LabelStyle> 
			<scale>1.0</scale> 
		</LabelStyle> 
	</Style>
	<Style id="cat1"> 
		<IconStyle> 
			<scale>1.0</scale> 
			<Icon> 
				<href>cat1_nhemi.png</href> 
			</Icon> 
             <hotSpot x="15" y="17" xunits="pixels" yunits="pixels"/>
		</IconStyle> 
		<LabelStyle> 
			<scale>1.0</scale> 
		</LabelStyle> 
	</Style>
	<Style id="ex"> 
		<IconStyle> 
			<scale>1.0</scale> 
			<Icon> 
				<href>ex_nhemi.png</href> 
			</Icon> 
             <hotSpot x="15" y="17" xunits="pixels" yunits="pixels"/>
		</IconStyle> 
		<LabelStyle> 
			<scale>1.0</scale> 
		</LabelStyle> 
	</Style>
	<Style id="tc"> 
		<IconStyle> 
			<scale>1.0</scale> 
			<Icon> 
				<href>ex_nhemi.png</href> 
			</Icon> 
             <hotSpot x="15" y="17" xunits="pixels" yunits="pixels"/>
		</IconStyle> 
		<LabelStyle> 
			<scale>1.0</scale> 
		</LabelStyle> 
	</Style>
	<Style id="wv"> 
		<IconStyle> 
			<scale>1.0</scale> 
			<Icon> 
				<href>ex_nhemi.png</href> 
			</Icon> 
             <hotSpot x="15" y="17" xunits="pixels" yunits="pixels"/>
		</IconStyle> 
		<LabelStyle> 
			<scale>1.0</scale> 
		</LabelStyle> 
	</Style>
	<Style id="td"> 
		<IconStyle> 
			<scale>1.0</scale> 
			<Icon> 
				<href>td_nhemi.png</href> 
			</Icon> 
             <hotSpot x="15" y="17" xunits="pixels" yunits="pixels"/>
		</IconStyle> 
		<LabelStyle> 
			<scale>1.0</scale> 
		</LabelStyle> 
	</Style>
	<Style id="sd"> 
		<IconStyle> 
			<scale>1.0</scale> 
			<Icon> 
				<href>ex_nhemi.png</href> 
			</Icon> 
             <hotSpot x="15" y="17" xunits="pixels" yunits="pixels"/>
		</IconStyle> 
		<LabelStyle> 
			<scale>1.0</scale> 
		</LabelStyle> 
	</Style>

    <Placemark>
      <name>0600 UTC OCT 7</name>
      <styleUrl>#ts</styleUrl>
      <description><![CDATA[
        <table>
          <tr><td>TS JERRY (AL102025)</td></tr>
          <tr><td><hr></td></tr>
          <tr><td>0600 UTC OCT 7, 2025</td></tr>
          <tr><td>Storm Location:</td></tr>
          <tr><td><b>11.0 N, 41.3 W</b></td></tr>
          <tr><td>Min Sea Level Pressure:</td></tr>
          <tr><td>1007 mb / 29.74 in Hg</td></tr>
          <tr><td>Maximum Intensity:</td></tr>
          <tr><td>35 kt / 40 mph / 65 kph</td></tr>
        </table>
      ]]></description>
      <Point><coordinates>-41.3,11</coordinates></Point>
    </Placemark>
    <Placemark>
      <name>1200 UTC OCT 7</name>
      <styleUrl>#ts</styleUrl>
      <description><![CDATA[
        <table>
          <tr><td>TS JERRY (AL102025)</td></tr>
          <tr><td><hr></td></tr>
          <tr><td>1200 UTC OCT 7, 2025</td></tr>
          <tr><td>Storm Location:</td></tr>
          <tr><td><b>11.4 N, 43.6 W</b></td></tr>
          <tr><td>Min Sea Level Pressure:</td></tr>
          <tr><td>1006 mb / 29.71 in Hg</td></tr>
          <tr><td>Maximum Intensity:</td></tr>
          <tr><td>40 kt / 46 mph / 74 kph</td></tr>
        </table>
      ]]></description>
      <Point><coordinates>-43.6,11.4</coordinates></Point>
    </Placemark>
    <Placemark>
      <name>1800 UTC OCT 7</name>
      <styleUrl>#ts</styleUrl>
      <description><![CDATA[
        <table>
          <tr><td>TS JERRY (AL102025)</td></tr>
          <tr><td><hr></td></tr>
          <tr><td>1800 UTC OCT 7, 2025</td></tr>
          <tr><td>Storm Location:</td></tr>
          <tr><td><b>11.9 N, 45.7 W</b></td></tr>
          <tr><td>Min Sea Level Pressure:</td></tr>
          <tr><td>1005 mb / 29.68 in Hg</td></tr>
          <tr><td>Maximum Intensity:</td></tr>
          <tr><td>40 kt / 46 mph / 74 kph</td></tr>
        </table>
      ]]></description>
      <Point><coordinates>-45.7,11.9</coordinates></Point>
    </Placemark>
    <Placemark>
      <name>0000 UTC OCT 8</name>
      <styleUrl>#ts</styleUrl>
      <description><![CDATA[
        <table>
          <tr><td>TS JERRY (AL102025)</td></tr>
          <tr><td><hr></td></tr>
          <tr><td>0000 UTC OCT 8, 2025</td></tr>
          <tr><td>Storm Location:</td></tr>
          <tr><td><b>12.4 N, 47.9 W</b></td></tr>
          <tr><td>Min Sea Level Pressure:</td></tr>
          <tr><td>1004 mb / 29.65 in Hg</td></tr>
          <tr><td>Maximum Intensity:</td></tr>
          <tr><td>45 kt / 52 mph / 83 kph</td></tr>
        </table>
      ]]></description>
      <Point><coordinates>-47.9,12.4</coordinates></Point>
    </Placemark>
    <Placemark>
      <name>0600 UTC OCT 8</name>
      <styleUrl>#ts</styleUrl>
      <description><![CDATA[
        <table>
          <tr><td>TS JERRY (AL102025)</td></tr>
          <tr><td><hr></td></tr>
          <tr><td>0600 UTC OCT 8, 2025</td></tr>
          <tr><td>Storm Location:</td></tr>
          <tr><td><b>12.9 N, 49.9 W</b></td></tr>
          <tr><td>Min Sea Level Pressure:</td></tr>
          <tr><td>1003 mb / 29.62 in Hg</td></tr>
          <tr><td>Maximum Intensity:</td></tr>
          <tr><td>45 kt / 52 mph / 83 kph</td></tr>
        </table>
      ]]></description>
      <Point><coordinates>-49.9,12.9</coordinates></Point>
    </Placemark>
    <Placemark>
      <name>1200 UTC OCT 8</name>
      <styleUrl>#ts</styleUrl>
      <description><![CDATA[
        <table>
          <tr><td>TS JERRY (AL102025)</td></tr>
          <tr><td><hr></td></tr>
          <tr><td>1200 UTC OCT 8, 2025</td></tr>
          <tr><td>Storm Location:</td></tr>
          <tr><td><b>13.6 N, 51.9 W</b></td></tr>
          <tr><td>Min Sea Level Pressure:</td></tr>
          <tr><td>1002 mb / 29.59 in Hg</td></tr>
          <tr><td>Maximum Intensity:</td></tr>
          <tr><td>55 kt / 63 mph / 102 kph</td></tr>
        </table>
      ]]></description>
      <Point><coordinates>-51.9,13.6</coordinates></Point>
    </Placemark>
    <Placemark>
      <name>1800 UTC OCT 8</name>
      <styleUrl>#ts</styleUrl>
      <description><![CDATA[
        <table>
          <tr><td>TS JERRY (AL102025)</td></tr>
          <tr><td><hr></td></tr>
          <tr><td>1800 UTC OCT 8, 2025</td></tr>
          <tr><td>Storm Location:</td></tr>
          <tr><td><b>14.3 N, 53.8 W</b></td></tr>
          <tr><td>Min Sea Level Pressure:</td></tr>
          <tr><td>1000 mb / 29.53 in Hg</td></tr>
          <tr><td>Maximum Intensity:</td></tr>
          <tr><td>55 kt / 63 mph / 102 kph</td></tr>
        </table>
      ]]></description>
      <Point><coordinates>-53.8,14.3</coordinates></Point>
    </Placemark>
    <Placemark>
      <name>0000 UTC OCT 9</name>
      <styleUrl>#ts</styleUrl>
      <description><![CDATA[
        <table>
          <tr><td>TS JERRY (AL102025)</td></tr>
          <tr><td><hr></td></tr>
          <tr><td>0000 UTC OCT 9, 2025</td></tr>
          <tr><td>Storm Location:</td></tr>
          <tr><td><b>15.0 N, 55.5 W</b></td></tr>
          <tr><td>Min Sea Level Pressure:</td></tr>
          <tr><td>1000 mb / 29.53 in Hg</td></tr>
          <tr><td>Maximum Intensity:</td></tr>
          <tr><td>55 kt / 63 mph / 102 kph</td></tr>
        </table>
      ]]></description>
      <Point><coordinates>-55.5,15</coordinates></Point>
    </Placemark>
    <Placemark>
      <name>0600 UTC OCT 9</name>
      <styleUrl>#ts</styleUrl>
      <description><![CDATA[
        <table>
          <tr><td>TS JERRY (AL102025)</td></tr>
          <tr><td><hr></td></tr>
          <tr><td>0600 UTC OCT 9, 2025</td></tr>
          <tr><td>Storm Location:</td></tr>
          <tr><td><b>15.4 N, 57.2 W</b></td></tr>
          <tr><td>Min Sea Level Pressure:</td></tr>
          <tr><td>1001 mb / 29.56 in Hg</td></tr>
          <tr><td>Maximum Intensity:</td></tr>
          <tr><td>55 kt / 63 mph / 102 kph</td></tr>
        </table>
      ]]></description>
      <Point><coordinates>-57.2,15.4</coordinates></Point>
    </Placemark>
    <Placemark>
      <name>1200 UTC OCT 9</name>
      <styleUrl>#ts</styleUrl>
      <description><![CDATA[
        <table>
          <tr><td>TS JERRY (AL102025)</td></tr>
          <tr><td><hr></td></tr>
          <tr><td>1200 UTC OCT 9, 2025</td></tr>
          <tr><td>Storm Location:</td></tr>
          <tr><td><b>16.0 N, 58.6 W</b></td></tr>
          <tr><td>Min Sea Level Pressure:</td></tr>
          <tr><td>1002 mb / 29.59 in Hg</td></tr>
          <tr><td>Maximum Intensity:</td></tr>
          <tr><td>50 kt / 58 mph / 93 kph</td></tr>
        </table>
      ]]></description>
      <Point><coordinates>-58.6,16</coordinates></Point>
    </Placemark>
    <Placemark>
      <name>1800 UTC OCT 9</name>
      <styleUrl>#ts</styleUrl>
      <description><![CDATA[
        <table>
          <tr><td>TS JERRY (AL102025)</td></tr>
          <tr><td><hr></td></tr>
          <tr><td>1800 UTC OCT 9, 2025</td></tr>
          <tr><td>Storm Location:</td></tr>
          <tr><td><b>16.7 N, 60.0 W</b></td></tr>
          <tr><td>Min Sea Level Pressure:</td></tr>
          <tr><td>1004 mb / 29.65 in Hg</td></tr>
          <tr><td>Maximum Intensity:</td></tr>
          <tr><td>50 kt / 58 mph / 93 kph</td></tr>
        </table>
      ]]></description>
      <Point><coordinates>-60,16.7</coordinates></Point>
    </Placemark>
    <Placemark>
      <name>0000 UTC OCT 10</name>
      <styleUrl>#ts</styleUrl>
      <description><![CDATA[
        <table>
          <tr><td>TS JERRY (AL102025)</td></tr>
          <tr><td><hr></td></tr>
          <tr><td>0000 UTC OCT 10, 2025</td></tr>
          <tr><td>Storm Location:</td></tr>
          <tr><td><b>17.6 N, 61.1 W</b></td></tr>
          <tr><td>Min Sea Level Pressure:</td></tr>
          <tr><td>1006 mb / 29.71 in Hg</td></tr>
          <tr><td>Maximum Intensity:</td></tr>
          <tr><td>50 kt / 58 mph / 93 kph</td></tr>
        </table>
      ]]></description>
      <Point><coordinates>-61.1,17.6</coordinates></Point>
    </Placemark>
    <Placemark>
      <name>0600 UTC OCT 10</name>
      <styleUrl>#ts</styleUrl>
      <description><![CDATA[
        <table>
          <tr><td>TS JERRY (AL102025)</td></tr>
          <tr><td><hr></td></tr>
          <tr><td>0600 UTC OCT 10, 2025</td></tr>
          <tr><td>Storm Location:</td></tr>
          <tr><td><b>18.6 N, 62.2 W</b></td></tr>
          <tr><td>Min Sea Level Pressure:</td></tr>
          <tr><td>1006 mb / 29.71 in Hg</td></tr>
          <tr><td>Maximum Intensity:</td></tr>
          <tr><td>50 kt / 58 mph / 93 kph</td></tr>
        </table>
      ]]></description>
      <Point><coordinates>-62.2,18.6</coordinates></Point>
    </Placemark>
    <Placemark>
      <name>1200 UTC OCT 10</name>
      <styleUrl>#ts</styleUrl>
      <description><![CDATA[
        <table>
          <tr><td>TS JERRY (AL102025)</td></tr>
          <tr><td><hr></td></tr>
          <tr><td>1200 UTC OCT 10, 2025</td></tr>
          <tr><td>Storm Location:</td></tr>
          <tr><td><b>19.7 N, 63.1 W</b></td></tr>
          <tr><td>Min Sea Level Pressure:</td></tr>
          <tr><td>1006 mb / 29.71 in Hg</td></tr>
          <tr><td>Maximum Intensity:</td></tr>
          <tr><td>50 kt / 58 mph / 93 kph</td></tr>
        </table>
      ]]></description>
      <Point><coordinates>-63.1,19.7</coordinates></Point>
    </Placemark>
    <Placemark>
      <name>1800 UTC OCT 10</name>
      <styleUrl>#ts</styleUrl>
      <description><![CDATA[
        <table>
          <tr><td>TS JERRY (AL102025)</td></tr>
          <tr><td><hr></td></tr>
          <tr><td>1800 UTC OCT 10, 2025</td></tr>
          <tr><td>Storm Location:</td></tr>
          <tr><td><b>20.9 N, 63.6 W</b></td></tr>
          <tr><td>Min Sea Level Pressure:</td></tr>
          <tr><td>1006 mb / 29.71 in Hg</td></tr>
          <tr><td>Maximum Intensity:</td></tr>
          <tr><td>50 kt / 58 mph / 93 kph</td></tr>
        </table>
      ]]></description>
      <Point><coordinates>-63.6,20.9</coordinates></Point>
    </Placemark>
    <Placemark>
      <name>0000 UTC OCT 11</name>
      <styleUrl>#ts</styleUrl>
      <description><![CDATA[
        <table>
          <tr><td>TS JERRY (AL102025)</td></tr>
          <tr><td><hr></td></tr>
          <tr><td>0000 UTC OCT 11, 2025</td></tr>
          <tr><td>Storm Location:</td></tr>
          <tr><td><b>22.4 N, 63.7 W</b></td></tr>
          <tr><td>Min Sea Level Pressure:</td></tr>
          <tr><td>1006 mb / 29.71 in Hg</td></tr>
          <tr><td>Maximum Intensity:</td></tr>
          <tr><td>50 kt / 58 mph / 93 kph</td></tr>
        </table>
      ]]></description>
      <Point><coordinates>-63.7,22.4</coordinates></Point>
    </Placemark>
    <Placemark>
      <name>0600 UTC OCT 11</name>
      <styleUrl>#ts</styleUrl>
      <description><![CDATA[
        <table>
          <tr><td>TS JERRY (AL102025)</td></tr>
          <tr><td><hr></td></tr>
          <tr><td>0600 UTC OCT 11, 2025</td></tr>
          <tr><td>Storm Location:</td></tr>
          <tr><td><b>23.9 N, 63.7 W</b></td></tr>
          <tr><td>Min Sea Level Pressure:</td></tr>
          <tr><td>1006 mb / 29.71 in Hg</td></tr>
          <tr><td>Maximum Intensity:</td></tr>
          <tr><td>45 kt / 52 mph / 83 kph</td></tr>
        </table>
      ]]></description>
      <Point><coordinates>-63.7,23.9</coordinates></Point>
    </Placemark>
    <Placemark>
      <name>1200 UTC OCT 11</name>
      <styleUrl>#ts</styleUrl>
      <description><![CDATA[
        <table>
          <tr><td>TS JERRY (AL102025)</td></tr>
          <tr><td><hr></td></tr>
          <tr><td>1200 UTC OCT 11, 2025</td></tr>
          <tr><td>Storm Location:</td></tr>
          <tr><td><b>25.2 N, 63.3 W</b></td></tr>
          <tr><td>Min Sea Level Pressure:</td></tr>
          <tr><td>1006 mb / 29.71 in Hg</td></tr>
          <tr><td>Maximum Intensity:</td></tr>
          <tr><td>45 kt / 52 mph / 83 kph</td></tr>
        </table>
      ]]></description>
      <Point><coordinates>-63.3,25.2</coordinates></Point>
    </Placemark>
  </Document>
</kml>
