<?xml version="1.0" encoding="UTF-8"?>
<kml xmlns="http://www.opengis.net/kml/2.2">
  <Document>
    <name>AL112025</name>
    <open>0</open>

    <!-- =====  Document header ===== -->
    <description><![CDATA[
      <table>
        <tr><td><b>Title:</b> Tropical Cyclone Best Track for AL112025</td></tr>
      </table>
    ]]></description>

    <!-- =====  Styles (ids must be unique)  ===== -->
	<Style id="pt"> 
		<IconStyle> 
			<scale>1.0</scale> 
			<Icon> 
				<href>ex_nhemi.png</href> 
			</Icon> 
             <hotSpot x="15" y="17" xunits="pixels" yunits="pixels"/>
		</IconStyle> 
		<LabelStyle> 
			<scale>1.0</scale> 
		</LabelStyle> 
	</Style>
	<Style id="cat5"> 
		<IconStyle> 
			<scale>1.0</scale> 
			<Icon> 
				<href>cat5_nhemi.png</href> 
			</Icon> 
             <hotSpot x="15" y="17" xunits="pixels" yunits="pixels"/>
		</IconStyle> 
		<LabelStyle> 
			<scale>1.0</scale> 
		</LabelStyle> 
	</Style>
	<Style id="db"> 
		<IconStyle> 
			<scale>1.0</scale> 
			<Icon> 
				<href>ex_nhemi.png</href> 
			</Icon> 
             <hotSpot x="15" y="17" xunits="pixels" yunits="pixels"/>
		</IconStyle> 
		<LabelStyle> 
			<scale>1.0</scale> 
		</LabelStyle> 
	</Style>
	<Style id="cat3"> 
		<IconStyle> 
			<scale>1.0</scale> 
			<Icon> 
				<href>cat3_nhemi.png</href> 
			</Icon> 
             <hotSpot x="15" y="17" xunits="pixels" yunits="pixels"/>
		</IconStyle> 
		<LabelStyle> 
			<scale>1.0</scale> 
		</LabelStyle> 
	</Style>
	<Style id="ss"> 
		<IconStyle> 
			<scale>1.0</scale> 
			<Icon> 
				<href>ts_nhemi.png</href> 
			</Icon> 
             <hotSpot x="15" y="17" xunits="pixels" yunits="pixels"/>
		</IconStyle> 
		<LabelStyle> 
			<scale>1.0</scale> 
		</LabelStyle> 
	</Style>
	<Style id="lo"> 
		<IconStyle> 
			<scale>1.0</scale> 
			<Icon> 
				<href>ex_nhemi.png</href> 
			</Icon> 
             <hotSpot x="15" y="17" xunits="pixels" yunits="pixels"/>
		</IconStyle> 
		<LabelStyle> 
			<scale>1.0</scale> 
		</LabelStyle> 
	</Style>
	<Style id="cat4"> 
		<IconStyle> 
			<scale>1.0</scale> 
			<Icon> 
				<href>cat4_nhemi.png</href> 
			</Icon> 
             <hotSpot x="15" y="17" xunits="pixels" yunits="pixels"/>
		</IconStyle> 
		<LabelStyle> 
			<scale>1.0</scale> 
		</LabelStyle> 
	</Style>
	<Style id="cat2"> 
		<IconStyle> 
			<scale>1.0</scale> 
			<Icon> 
				<href>cat2_nhemi.png</href> 
			</Icon> 
             <hotSpot x="15" y="17" xunits="pixels" yunits="pixels"/>
		</IconStyle> 
		<LabelStyle> 
			<scale>1.0</scale> 
		</LabelStyle> 
	</Style>
	<Style id="ts"> 
		<IconStyle> 
			<scale>1.0</scale> 
			<Icon> 
				<href>ts_nhemi.png</href> 
			</Icon> 
             <hotSpot x="15" y="17" xunits="pixels" yunits="pixels"/>
		</IconStyle> 
		<LabelStyle> 
			<scale>1.0</scale> 
		</LabelStyle> 
	</Style>
	<Style id="cat1"> 
		<IconStyle> 
			<scale>1.0</scale> 
			<Icon> 
				<href>cat1_nhemi.png</href> 
			</Icon> 
             <hotSpot x="15" y="17" xunits="pixels" yunits="pixels"/>
		</IconStyle> 
		<LabelStyle> 
			<scale>1.0</scale> 
		</LabelStyle> 
	</Style>
	<Style id="ex"> 
		<IconStyle> 
			<scale>1.0</scale> 
			<Icon> 
				<href>ex_nhemi.png</href> 
			</Icon> 
             <hotSpot x="15" y="17" xunits="pixels" yunits="pixels"/>
		</IconStyle> 
		<LabelStyle> 
			<scale>1.0</scale> 
		</LabelStyle> 
	</Style>
	<Style id="tc"> 
		<IconStyle> 
			<scale>1.0</scale> 
			<Icon> 
				<href>ex_nhemi.png</href> 
			</Icon> 
             <hotSpot x="15" y="17" xunits="pixels" yunits="pixels"/>
		</IconStyle> 
		<LabelStyle> 
			<scale>1.0</scale> 
		</LabelStyle> 
	</Style>
	<Style id="wv"> 
		<IconStyle> 
			<scale>1.0</scale> 
			<Icon> 
				<href>ex_nhemi.png</href> 
			</Icon> 
             <hotSpot x="15" y="17" xunits="pixels" yunits="pixels"/>
		</IconStyle> 
		<LabelStyle> 
			<scale>1.0</scale> 
		</LabelStyle> 
	</Style>
	<Style id="td"> 
		<IconStyle> 
			<scale>1.0</scale> 
			<Icon> 
				<href>td_nhemi.png</href> 
			</Icon> 
             <hotSpot x="15" y="17" xunits="pixels" yunits="pixels"/>
		</IconStyle> 
		<LabelStyle> 
			<scale>1.0</scale> 
		</LabelStyle> 
	</Style>
	<Style id="sd"> 
		<IconStyle> 
			<scale>1.0</scale> 
			<Icon> 
				<href>ex_nhemi.png</href> 
			</Icon> 
             <hotSpot x="15" y="17" xunits="pixels" yunits="pixels"/>
		</IconStyle> 
		<LabelStyle> 
			<scale>1.0</scale> 
		</LabelStyle> 
	</Style>

    <Placemark>
      <name>0000 UTC OCT 8</name>
      <styleUrl>#ex</styleUrl>
      <description><![CDATA[
        <table>
          <tr><td>EX KAREN (AL112025)</td></tr>
          <tr><td><hr></td></tr>
          <tr><td>0000 UTC OCT 8, 2025</td></tr>
          <tr><td>Storm Location:</td></tr>
          <tr><td><b>38.0 N, 35.9 W</b></td></tr>
          <tr><td>Min Sea Level Pressure:</td></tr>
          <tr><td>1014 mb / 29.94 in Hg</td></tr>
          <tr><td>Maximum Intensity:</td></tr>
          <tr><td>45 kt / 52 mph / 83 kph</td></tr>
        </table>
      ]]></description>
      <Point><coordinates>-35.9,38</coordinates></Point>
    </Placemark>
    <Placemark>
      <name>0600 UTC OCT 8</name>
      <styleUrl>#ex</styleUrl>
      <description><![CDATA[
        <table>
          <tr><td>EX KAREN (AL112025)</td></tr>
          <tr><td><hr></td></tr>
          <tr><td>0600 UTC OCT 8, 2025</td></tr>
          <tr><td>Storm Location:</td></tr>
          <tr><td><b>39.9 N, 36.0 W</b></td></tr>
          <tr><td>Min Sea Level Pressure:</td></tr>
          <tr><td>1006 mb / 29.71 in Hg</td></tr>
          <tr><td>Maximum Intensity:</td></tr>
          <tr><td>45 kt / 52 mph / 83 kph</td></tr>
        </table>
      ]]></description>
      <Point><coordinates>-36,39.9</coordinates></Point>
    </Placemark>
    <Placemark>
      <name>1200 UTC OCT 8</name>
      <styleUrl>#ex</styleUrl>
      <description><![CDATA[
        <table>
          <tr><td>EX KAREN (AL112025)</td></tr>
          <tr><td><hr></td></tr>
          <tr><td>1200 UTC OCT 8, 2025</td></tr>
          <tr><td>Storm Location:</td></tr>
          <tr><td><b>41.2 N, 36.7 W</b></td></tr>
          <tr><td>Min Sea Level Pressure:</td></tr>
          <tr><td>1000 mb / 29.53 in Hg</td></tr>
          <tr><td>Maximum Intensity:</td></tr>
          <tr><td>50 kt / 58 mph / 93 kph</td></tr>
        </table>
      ]]></description>
      <Point><coordinates>-36.7,41.2</coordinates></Point>
    </Placemark>
    <Placemark>
      <name>1800 UTC OCT 8</name>
      <styleUrl>#ex</styleUrl>
      <description><![CDATA[
        <table>
          <tr><td>EX KAREN (AL112025)</td></tr>
          <tr><td><hr></td></tr>
          <tr><td>1800 UTC OCT 8, 2025</td></tr>
          <tr><td>Storm Location:</td></tr>
          <tr><td><b>41.4 N, 36.9 W</b></td></tr>
          <tr><td>Min Sea Level Pressure:</td></tr>
          <tr><td>996 mb / 29.41 in Hg</td></tr>
          <tr><td>Maximum Intensity:</td></tr>
          <tr><td>50 kt / 58 mph / 93 kph</td></tr>
        </table>
      ]]></description>
      <Point><coordinates>-36.9,41.4</coordinates></Point>
    </Placemark>
    <Placemark>
      <name>0000 UTC OCT 9</name>
      <styleUrl>#ex</styleUrl>
      <description><![CDATA[
        <table>
          <tr><td>EX KAREN (AL112025)</td></tr>
          <tr><td><hr></td></tr>
          <tr><td>0000 UTC OCT 9, 2025</td></tr>
          <tr><td>Storm Location:</td></tr>
          <tr><td><b>41.9 N, 35.7 W</b></td></tr>
          <tr><td>Min Sea Level Pressure:</td></tr>
          <tr><td>997 mb / 29.44 in Hg</td></tr>
          <tr><td>Maximum Intensity:</td></tr>
          <tr><td>45 kt / 52 mph / 83 kph</td></tr>
        </table>
      ]]></description>
      <Point><coordinates>-35.7,41.9</coordinates></Point>
    </Placemark>
    <Placemark>
      <name>0600 UTC OCT 9</name>
      <styleUrl>#ex</styleUrl>
      <description><![CDATA[
        <table>
          <tr><td>EX KAREN (AL112025)</td></tr>
          <tr><td><hr></td></tr>
          <tr><td>0600 UTC OCT 9, 2025</td></tr>
          <tr><td>Storm Location:</td></tr>
          <tr><td><b>42.8 N, 35.1 W</b></td></tr>
          <tr><td>Min Sea Level Pressure:</td></tr>
          <tr><td>997 mb / 29.44 in Hg</td></tr>
          <tr><td>Maximum Intensity:</td></tr>
          <tr><td>45 kt / 52 mph / 83 kph</td></tr>
        </table>
      ]]></description>
      <Point><coordinates>-35.1,42.8</coordinates></Point>
    </Placemark>
    <Placemark>
      <name>1200 UTC OCT 9</name>
      <styleUrl>#ss</styleUrl>
      <description><![CDATA[
        <table>
          <tr><td>SS KAREN (AL112025)</td></tr>
          <tr><td><hr></td></tr>
          <tr><td>1200 UTC OCT 9, 2025</td></tr>
          <tr><td>Storm Location:</td></tr>
          <tr><td><b>43.5 N, 34.8 W</b></td></tr>
          <tr><td>Min Sea Level Pressure:</td></tr>
          <tr><td>998 mb / 29.47 in Hg</td></tr>
          <tr><td>Maximum Intensity:</td></tr>
          <tr><td>40 kt / 46 mph / 74 kph</td></tr>
        </table>
      ]]></description>
      <Point><coordinates>-34.8,43.5</coordinates></Point>
    </Placemark>
    <Placemark>
      <name>1800 UTC OCT 9</name>
      <styleUrl>#ss</styleUrl>
      <description><![CDATA[
        <table>
          <tr><td>SS KAREN (AL112025)</td></tr>
          <tr><td><hr></td></tr>
          <tr><td>1800 UTC OCT 9, 2025</td></tr>
          <tr><td>Storm Location:</td></tr>
          <tr><td><b>43.9 N, 34.2 W</b></td></tr>
          <tr><td>Min Sea Level Pressure:</td></tr>
          <tr><td>998 mb / 29.47 in Hg</td></tr>
          <tr><td>Maximum Intensity:</td></tr>
          <tr><td>40 kt / 46 mph / 74 kph</td></tr>
        </table>
      ]]></description>
      <Point><coordinates>-34.2,43.9</coordinates></Point>
    </Placemark>
    <Placemark>
      <name>0000 UTC OCT 10</name>
      <styleUrl>#ss</styleUrl>
      <description><![CDATA[
        <table>
          <tr><td>SS KAREN (AL112025)</td></tr>
          <tr><td><hr></td></tr>
          <tr><td>0000 UTC OCT 10, 2025</td></tr>
          <tr><td>Storm Location:</td></tr>
          <tr><td><b>44.4 N, 33.5 W</b></td></tr>
          <tr><td>Min Sea Level Pressure:</td></tr>
          <tr><td>998 mb / 29.47 in Hg</td></tr>
          <tr><td>Maximum Intensity:</td></tr>
          <tr><td>40 kt / 46 mph / 74 kph</td></tr>
        </table>
      ]]></description>
      <Point><coordinates>-33.5,44.4</coordinates></Point>
    </Placemark>
    <Placemark>
      <name>0600 UTC OCT 10</name>
      <styleUrl>#ss</styleUrl>
      <description><![CDATA[
        <table>
          <tr><td>SS KAREN (AL112025)</td></tr>
          <tr><td><hr></td></tr>
          <tr><td>0600 UTC OCT 10, 2025</td></tr>
          <tr><td>Storm Location:</td></tr>
          <tr><td><b>45.0 N, 32.6 W</b></td></tr>
          <tr><td>Min Sea Level Pressure:</td></tr>
          <tr><td>998 mb / 29.47 in Hg</td></tr>
          <tr><td>Maximum Intensity:</td></tr>
          <tr><td>40 kt / 46 mph / 74 kph</td></tr>
        </table>
      ]]></description>
      <Point><coordinates>-32.6,45</coordinates></Point>
    </Placemark>
    <Placemark>
      <name>1200 UTC OCT 10</name>
      <styleUrl>#ss</styleUrl>
      <description><![CDATA[
        <table>
          <tr><td>SS KAREN (AL112025)</td></tr>
          <tr><td><hr></td></tr>
          <tr><td>1200 UTC OCT 10, 2025</td></tr>
          <tr><td>Storm Location:</td></tr>
          <tr><td><b>45.7 N, 31.5 W</b></td></tr>
          <tr><td>Min Sea Level Pressure:</td></tr>
          <tr><td>998 mb / 29.47 in Hg</td></tr>
          <tr><td>Maximum Intensity:</td></tr>
          <tr><td>40 kt / 46 mph / 74 kph</td></tr>
        </table>
      ]]></description>
      <Point><coordinates>-31.5,45.7</coordinates></Point>
    </Placemark>
    <Placemark>
      <name>1800 UTC OCT 10</name>
      <styleUrl>#ss</styleUrl>
      <description><![CDATA[
        <table>
          <tr><td>SS KAREN (AL112025)</td></tr>
          <tr><td><hr></td></tr>
          <tr><td>1800 UTC OCT 10, 2025</td></tr>
          <tr><td>Storm Location:</td></tr>
          <tr><td><b>46.8 N, 30.6 W</b></td></tr>
          <tr><td>Min Sea Level Pressure:</td></tr>
          <tr><td>1000 mb / 29.53 in Hg</td></tr>
          <tr><td>Maximum Intensity:</td></tr>
          <tr><td>35 kt / 40 mph / 65 kph</td></tr>
        </table>
      ]]></description>
      <Point><coordinates>-30.6,46.8</coordinates></Point>
    </Placemark>
    <Placemark>
      <name>0000 UTC OCT 11</name>
      <styleUrl>#lo</styleUrl>
      <description><![CDATA[
        <table>
          <tr><td>LO KAREN (AL112025)</td></tr>
          <tr><td><hr></td></tr>
          <tr><td>0000 UTC OCT 11, 2025</td></tr>
          <tr><td>Storm Location:</td></tr>
          <tr><td><b>48.0 N, 29.7 W</b></td></tr>
          <tr><td>Min Sea Level Pressure:</td></tr>
          <tr><td>1003 mb / 29.62 in Hg</td></tr>
          <tr><td>Maximum Intensity:</td></tr>
          <tr><td>35 kt / 40 mph / 65 kph</td></tr>
        </table>
      ]]></description>
      <Point><coordinates>-29.7,48</coordinates></Point>
    </Placemark>
    <Placemark>
      <name>0600 UTC OCT 11</name>
      <styleUrl>#lo</styleUrl>
      <description><![CDATA[
        <table>
          <tr><td>LO KAREN (AL112025)</td></tr>
          <tr><td><hr></td></tr>
          <tr><td>0600 UTC OCT 11, 2025</td></tr>
          <tr><td>Storm Location:</td></tr>
          <tr><td><b>49.4 N, 28.7 W</b></td></tr>
          <tr><td>Min Sea Level Pressure:</td></tr>
          <tr><td>1005 mb / 29.68 in Hg</td></tr>
          <tr><td>Maximum Intensity:</td></tr>
          <tr><td>30 kt / 35 mph / 56 kph</td></tr>
        </table>
      ]]></description>
      <Point><coordinates>-28.7,49.4</coordinates></Point>
    </Placemark>
    <Placemark>
      <name>1200 UTC OCT 11</name>
      <styleUrl>#lo</styleUrl>
      <description><![CDATA[
        <table>
          <tr><td>LO KAREN (AL112025)</td></tr>
          <tr><td><hr></td></tr>
          <tr><td>1200 UTC OCT 11, 2025</td></tr>
          <tr><td>Storm Location:</td></tr>
          <tr><td><b>51.3 N, 28.0 W</b></td></tr>
          <tr><td>Min Sea Level Pressure:</td></tr>
          <tr><td>1005 mb / 29.68 in Hg</td></tr>
          <tr><td>Maximum Intensity:</td></tr>
          <tr><td>30 kt / 35 mph / 56 kph</td></tr>
        </table>
      ]]></description>
      <Point><coordinates>-28,51.3</coordinates></Point>
    </Placemark>
  </Document>
</kml>
