<?xml version="1.0" encoding="UTF-8"?>
<kml xmlns="http://www.opengis.net/kml/2.2">
  <Document>
    <name>AL132025</name>
    <open>0</open>

    <!-- =====  Document header ===== -->
    <description><![CDATA[
      <table>
        <tr><td><b>Title:</b> Tropical Cyclone Best Track for AL132025</td></tr>
      </table>
    ]]></description>

    <!-- =====  Styles (ids must be unique)  ===== -->
	<Style id="pt"> 
		<IconStyle> 
			<scale>1.0</scale> 
			<Icon> 
				<href>ex_nhemi.png</href> 
			</Icon> 
             <hotSpot x="15" y="17" xunits="pixels" yunits="pixels"/>
		</IconStyle> 
		<LabelStyle> 
			<scale>1.0</scale> 
		</LabelStyle> 
	</Style>
	<Style id="cat5"> 
		<IconStyle> 
			<scale>1.0</scale> 
			<Icon> 
				<href>cat5_nhemi.png</href> 
			</Icon> 
             <hotSpot x="15" y="17" xunits="pixels" yunits="pixels"/>
		</IconStyle> 
		<LabelStyle> 
			<scale>1.0</scale> 
		</LabelStyle> 
	</Style>
	<Style id="db"> 
		<IconStyle> 
			<scale>1.0</scale> 
			<Icon> 
				<href>ex_nhemi.png</href> 
			</Icon> 
             <hotSpot x="15" y="17" xunits="pixels" yunits="pixels"/>
		</IconStyle> 
		<LabelStyle> 
			<scale>1.0</scale> 
		</LabelStyle> 
	</Style>
	<Style id="cat3"> 
		<IconStyle> 
			<scale>1.0</scale> 
			<Icon> 
				<href>cat3_nhemi.png</href> 
			</Icon> 
             <hotSpot x="15" y="17" xunits="pixels" yunits="pixels"/>
		</IconStyle> 
		<LabelStyle> 
			<scale>1.0</scale> 
		</LabelStyle> 
	</Style>
	<Style id="ss"> 
		<IconStyle> 
			<scale>1.0</scale> 
			<Icon> 
				<href>ts_nhemi.png</href> 
			</Icon> 
             <hotSpot x="15" y="17" xunits="pixels" yunits="pixels"/>
		</IconStyle> 
		<LabelStyle> 
			<scale>1.0</scale> 
		</LabelStyle> 
	</Style>
	<Style id="lo"> 
		<IconStyle> 
			<scale>1.0</scale> 
			<Icon> 
				<href>ex_nhemi.png</href> 
			</Icon> 
             <hotSpot x="15" y="17" xunits="pixels" yunits="pixels"/>
		</IconStyle> 
		<LabelStyle> 
			<scale>1.0</scale> 
		</LabelStyle> 
	</Style>
	<Style id="cat4"> 
		<IconStyle> 
			<scale>1.0</scale> 
			<Icon> 
				<href>cat4_nhemi.png</href> 
			</Icon> 
             <hotSpot x="15" y="17" xunits="pixels" yunits="pixels"/>
		</IconStyle> 
		<LabelStyle> 
			<scale>1.0</scale> 
		</LabelStyle> 
	</Style>
	<Style id="cat2"> 
		<IconStyle> 
			<scale>1.0</scale> 
			<Icon> 
				<href>cat2_nhemi.png</href> 
			</Icon> 
             <hotSpot x="15" y="17" xunits="pixels" yunits="pixels"/>
		</IconStyle> 
		<LabelStyle> 
			<scale>1.0</scale> 
		</LabelStyle> 
	</Style>
	<Style id="ts"> 
		<IconStyle> 
			<scale>1.0</scale> 
			<Icon> 
				<href>ts_nhemi.png</href> 
			</Icon> 
             <hotSpot x="15" y="17" xunits="pixels" yunits="pixels"/>
		</IconStyle> 
		<LabelStyle> 
			<scale>1.0</scale> 
		</LabelStyle> 
	</Style>
	<Style id="cat1"> 
		<IconStyle> 
			<scale>1.0</scale> 
			<Icon> 
				<href>cat1_nhemi.png</href> 
			</Icon> 
             <hotSpot x="15" y="17" xunits="pixels" yunits="pixels"/>
		</IconStyle> 
		<LabelStyle> 
			<scale>1.0</scale> 
		</LabelStyle> 
	</Style>
	<Style id="ex"> 
		<IconStyle> 
			<scale>1.0</scale> 
			<Icon> 
				<href>ex_nhemi.png</href> 
			</Icon> 
             <hotSpot x="15" y="17" xunits="pixels" yunits="pixels"/>
		</IconStyle> 
		<LabelStyle> 
			<scale>1.0</scale> 
		</LabelStyle> 
	</Style>
	<Style id="tc"> 
		<IconStyle> 
			<scale>1.0</scale> 
			<Icon> 
				<href>ex_nhemi.png</href> 
			</Icon> 
             <hotSpot x="15" y="17" xunits="pixels" yunits="pixels"/>
		</IconStyle> 
		<LabelStyle> 
			<scale>1.0</scale> 
		</LabelStyle> 
	</Style>
	<Style id="wv"> 
		<IconStyle> 
			<scale>1.0</scale> 
			<Icon> 
				<href>ex_nhemi.png</href> 
			</Icon> 
             <hotSpot x="15" y="17" xunits="pixels" yunits="pixels"/>
		</IconStyle> 
		<LabelStyle> 
			<scale>1.0</scale> 
		</LabelStyle> 
	</Style>
	<Style id="td"> 
		<IconStyle> 
			<scale>1.0</scale> 
			<Icon> 
				<href>td_nhemi.png</href> 
			</Icon> 
             <hotSpot x="15" y="17" xunits="pixels" yunits="pixels"/>
		</IconStyle> 
		<LabelStyle> 
			<scale>1.0</scale> 
		</LabelStyle> 
	</Style>
	<Style id="sd"> 
		<IconStyle> 
			<scale>1.0</scale> 
			<Icon> 
				<href>ex_nhemi.png</href> 
			</Icon> 
             <hotSpot x="15" y="17" xunits="pixels" yunits="pixels"/>
		</IconStyle> 
		<LabelStyle> 
			<scale>1.0</scale> 
		</LabelStyle> 
	</Style>

    <Placemark>
      <name>0600 UTC OCT 21</name>
      <styleUrl>#ts</styleUrl>
      <description><![CDATA[
        <table>
          <tr><td>TS MELISSA (AL132025)</td></tr>
          <tr><td><hr></td></tr>
          <tr><td>0600 UTC OCT 21, 2025</td></tr>
          <tr><td>Storm Location:</td></tr>
          <tr><td><b>14.0 N, 70.0 W</b></td></tr>
          <tr><td>Min Sea Level Pressure:</td></tr>
          <tr><td>1003 mb / 29.62 in Hg</td></tr>
          <tr><td>Maximum Intensity:</td></tr>
          <tr><td>40 kt / 46 mph / 74 kph</td></tr>
        </table>
      ]]></description>
      <Point><coordinates>-70,14</coordinates></Point>
    </Placemark>
    <Placemark>
      <name>1200 UTC OCT 21</name>
      <styleUrl>#ts</styleUrl>
      <description><![CDATA[
        <table>
          <tr><td>TS MELISSA (AL132025)</td></tr>
          <tr><td><hr></td></tr>
          <tr><td>1200 UTC OCT 21, 2025</td></tr>
          <tr><td>Storm Location:</td></tr>
          <tr><td><b>14.0 N, 71.4 W</b></td></tr>
          <tr><td>Min Sea Level Pressure:</td></tr>
          <tr><td>1003 mb / 29.62 in Hg</td></tr>
          <tr><td>Maximum Intensity:</td></tr>
          <tr><td>45 kt / 52 mph / 83 kph</td></tr>
        </table>
      ]]></description>
      <Point><coordinates>-71.4,14</coordinates></Point>
    </Placemark>
    <Placemark>
      <name>1800 UTC OCT 21</name>
      <styleUrl>#ts</styleUrl>
      <description><![CDATA[
        <table>
          <tr><td>TS MELISSA (AL132025)</td></tr>
          <tr><td><hr></td></tr>
          <tr><td>1800 UTC OCT 21, 2025</td></tr>
          <tr><td>Storm Location:</td></tr>
          <tr><td><b>14.0 N, 72.4 W</b></td></tr>
          <tr><td>Min Sea Level Pressure:</td></tr>
          <tr><td>1003 mb / 29.62 in Hg</td></tr>
          <tr><td>Maximum Intensity:</td></tr>
          <tr><td>45 kt / 52 mph / 83 kph</td></tr>
        </table>
      ]]></description>
      <Point><coordinates>-72.4,14</coordinates></Point>
    </Placemark>
    <Placemark>
      <name>0000 UTC OCT 22</name>
      <styleUrl>#ts</styleUrl>
      <description><![CDATA[
        <table>
          <tr><td>TS MELISSA (AL132025)</td></tr>
          <tr><td><hr></td></tr>
          <tr><td>0000 UTC OCT 22, 2025</td></tr>
          <tr><td>Storm Location:</td></tr>
          <tr><td><b>14.1 N, 73.3 W</b></td></tr>
          <tr><td>Min Sea Level Pressure:</td></tr>
          <tr><td>1003 mb / 29.62 in Hg</td></tr>
          <tr><td>Maximum Intensity:</td></tr>
          <tr><td>45 kt / 52 mph / 83 kph</td></tr>
        </table>
      ]]></description>
      <Point><coordinates>-73.3,14.1</coordinates></Point>
    </Placemark>
    <Placemark>
      <name>0600 UTC OCT 22</name>
      <styleUrl>#ts</styleUrl>
      <description><![CDATA[
        <table>
          <tr><td>TS MELISSA (AL132025)</td></tr>
          <tr><td><hr></td></tr>
          <tr><td>0600 UTC OCT 22, 2025</td></tr>
          <tr><td>Storm Location:</td></tr>
          <tr><td><b>14.2 N, 73.5 W</b></td></tr>
          <tr><td>Min Sea Level Pressure:</td></tr>
          <tr><td>1002 mb / 29.59 in Hg</td></tr>
          <tr><td>Maximum Intensity:</td></tr>
          <tr><td>45 kt / 52 mph / 83 kph</td></tr>
        </table>
      ]]></description>
      <Point><coordinates>-73.5,14.2</coordinates></Point>
    </Placemark>
    <Placemark>
      <name>1200 UTC OCT 22</name>
      <styleUrl>#ts</styleUrl>
      <description><![CDATA[
        <table>
          <tr><td>TS MELISSA (AL132025)</td></tr>
          <tr><td><hr></td></tr>
          <tr><td>1200 UTC OCT 22, 2025</td></tr>
          <tr><td>Storm Location:</td></tr>
          <tr><td><b>14.3 N, 73.7 W</b></td></tr>
          <tr><td>Min Sea Level Pressure:</td></tr>
          <tr><td>1002 mb / 29.59 in Hg</td></tr>
          <tr><td>Maximum Intensity:</td></tr>
          <tr><td>45 kt / 52 mph / 83 kph</td></tr>
        </table>
      ]]></description>
      <Point><coordinates>-73.7,14.3</coordinates></Point>
    </Placemark>
    <Placemark>
      <name>1800 UTC OCT 22</name>
      <styleUrl>#ts</styleUrl>
      <description><![CDATA[
        <table>
          <tr><td>TS MELISSA (AL132025)</td></tr>
          <tr><td><hr></td></tr>
          <tr><td>1800 UTC OCT 22, 2025</td></tr>
          <tr><td>Storm Location:</td></tr>
          <tr><td><b>14.3 N, 74.1 W</b></td></tr>
          <tr><td>Min Sea Level Pressure:</td></tr>
          <tr><td>1002 mb / 29.59 in Hg</td></tr>
          <tr><td>Maximum Intensity:</td></tr>
          <tr><td>45 kt / 52 mph / 83 kph</td></tr>
        </table>
      ]]></description>
      <Point><coordinates>-74.1,14.3</coordinates></Point>
    </Placemark>
    <Placemark>
      <name>0000 UTC OCT 23</name>
      <styleUrl>#ts</styleUrl>
      <description><![CDATA[
        <table>
          <tr><td>TS MELISSA (AL132025)</td></tr>
          <tr><td><hr></td></tr>
          <tr><td>0000 UTC OCT 23, 2025</td></tr>
          <tr><td>Storm Location:</td></tr>
          <tr><td><b>14.3 N, 74.5 W</b></td></tr>
          <tr><td>Min Sea Level Pressure:</td></tr>
          <tr><td>1002 mb / 29.59 in Hg</td></tr>
          <tr><td>Maximum Intensity:</td></tr>
          <tr><td>45 kt / 52 mph / 83 kph</td></tr>
        </table>
      ]]></description>
      <Point><coordinates>-74.5,14.3</coordinates></Point>
    </Placemark>
    <Placemark>
      <name>0600 UTC OCT 23</name>
      <styleUrl>#ts</styleUrl>
      <description><![CDATA[
        <table>
          <tr><td>TS MELISSA (AL132025)</td></tr>
          <tr><td><hr></td></tr>
          <tr><td>0600 UTC OCT 23, 2025</td></tr>
          <tr><td>Storm Location:</td></tr>
          <tr><td><b>14.7 N, 74.8 W</b></td></tr>
          <tr><td>Min Sea Level Pressure:</td></tr>
          <tr><td>1003 mb / 29.62 in Hg</td></tr>
          <tr><td>Maximum Intensity:</td></tr>
          <tr><td>40 kt / 46 mph / 74 kph</td></tr>
        </table>
      ]]></description>
      <Point><coordinates>-74.8,14.7</coordinates></Point>
    </Placemark>
    <Placemark>
      <name>1200 UTC OCT 23</name>
      <styleUrl>#ts</styleUrl>
      <description><![CDATA[
        <table>
          <tr><td>TS MELISSA (AL132025)</td></tr>
          <tr><td><hr></td></tr>
          <tr><td>1200 UTC OCT 23, 2025</td></tr>
          <tr><td>Storm Location:</td></tr>
          <tr><td><b>15.2 N, 75.0 W</b></td></tr>
          <tr><td>Min Sea Level Pressure:</td></tr>
          <tr><td>1003 mb / 29.62 in Hg</td></tr>
          <tr><td>Maximum Intensity:</td></tr>
          <tr><td>40 kt / 46 mph / 74 kph</td></tr>
        </table>
      ]]></description>
      <Point><coordinates>-75,15.2</coordinates></Point>
    </Placemark>
    <Placemark>
      <name>1800 UTC OCT 23</name>
      <styleUrl>#ts</styleUrl>
      <description><![CDATA[
        <table>
          <tr><td>TS MELISSA (AL132025)</td></tr>
          <tr><td><hr></td></tr>
          <tr><td>1800 UTC OCT 23, 2025</td></tr>
          <tr><td>Storm Location:</td></tr>
          <tr><td><b>15.5 N, 75.3 W</b></td></tr>
          <tr><td>Min Sea Level Pressure:</td></tr>
          <tr><td>1002 mb / 29.59 in Hg</td></tr>
          <tr><td>Maximum Intensity:</td></tr>
          <tr><td>40 kt / 46 mph / 74 kph</td></tr>
        </table>
      ]]></description>
      <Point><coordinates>-75.3,15.5</coordinates></Point>
    </Placemark>
    <Placemark>
      <name>0000 UTC OCT 24</name>
      <styleUrl>#ts</styleUrl>
      <description><![CDATA[
        <table>
          <tr><td>TS MELISSA (AL132025)</td></tr>
          <tr><td><hr></td></tr>
          <tr><td>0000 UTC OCT 24, 2025</td></tr>
          <tr><td>Storm Location:</td></tr>
          <tr><td><b>15.7 N, 75.5 W</b></td></tr>
          <tr><td>Min Sea Level Pressure:</td></tr>
          <tr><td>1002 mb / 29.59 in Hg</td></tr>
          <tr><td>Maximum Intensity:</td></tr>
          <tr><td>40 kt / 46 mph / 74 kph</td></tr>
        </table>
      ]]></description>
      <Point><coordinates>-75.5,15.7</coordinates></Point>
    </Placemark>
    <Placemark>
      <name>0600 UTC OCT 24</name>
      <styleUrl>#ts</styleUrl>
      <description><![CDATA[
        <table>
          <tr><td>TS MELISSA (AL132025)</td></tr>
          <tr><td><hr></td></tr>
          <tr><td>0600 UTC OCT 24, 2025</td></tr>
          <tr><td>Storm Location:</td></tr>
          <tr><td><b>15.8 N, 75.3 W</b></td></tr>
          <tr><td>Min Sea Level Pressure:</td></tr>
          <tr><td>1002 mb / 29.59 in Hg</td></tr>
          <tr><td>Maximum Intensity:</td></tr>
          <tr><td>40 kt / 46 mph / 74 kph</td></tr>
        </table>
      ]]></description>
      <Point><coordinates>-75.3,15.8</coordinates></Point>
    </Placemark>
    <Placemark>
      <name>1200 UTC OCT 24</name>
      <styleUrl>#ts</styleUrl>
      <description><![CDATA[
        <table>
          <tr><td>TS MELISSA (AL132025)</td></tr>
          <tr><td><hr></td></tr>
          <tr><td>1200 UTC OCT 24, 2025</td></tr>
          <tr><td>Storm Location:</td></tr>
          <tr><td><b>15.9 N, 75.1 W</b></td></tr>
          <tr><td>Min Sea Level Pressure:</td></tr>
          <tr><td>1000 mb / 29.53 in Hg</td></tr>
          <tr><td>Maximum Intensity:</td></tr>
          <tr><td>45 kt / 52 mph / 83 kph</td></tr>
        </table>
      ]]></description>
      <Point><coordinates>-75.1,15.9</coordinates></Point>
    </Placemark>
    <Placemark>
      <name>1800 UTC OCT 24</name>
      <styleUrl>#ts</styleUrl>
      <description><![CDATA[
        <table>
          <tr><td>TS MELISSA (AL132025)</td></tr>
          <tr><td><hr></td></tr>
          <tr><td>1800 UTC OCT 24, 2025</td></tr>
          <tr><td>Storm Location:</td></tr>
          <tr><td><b>15.9 N, 74.8 W</b></td></tr>
          <tr><td>Min Sea Level Pressure:</td></tr>
          <tr><td>997 mb / 29.44 in Hg</td></tr>
          <tr><td>Maximum Intensity:</td></tr>
          <tr><td>50 kt / 58 mph / 93 kph</td></tr>
        </table>
      ]]></description>
      <Point><coordinates>-74.8,15.9</coordinates></Point>
    </Placemark>
    <Placemark>
      <name>0000 UTC OCT 25</name>
      <styleUrl>#ts</styleUrl>
      <description><![CDATA[
        <table>
          <tr><td>TS MELISSA (AL132025)</td></tr>
          <tr><td><hr></td></tr>
          <tr><td>0000 UTC OCT 25, 2025</td></tr>
          <tr><td>Storm Location:</td></tr>
          <tr><td><b>16.1 N, 74.7 W</b></td></tr>
          <tr><td>Min Sea Level Pressure:</td></tr>
          <tr><td>993 mb / 29.32 in Hg</td></tr>
          <tr><td>Maximum Intensity:</td></tr>
          <tr><td>55 kt / 63 mph / 102 kph</td></tr>
        </table>
      ]]></description>
      <Point><coordinates>-74.7,16.1</coordinates></Point>
    </Placemark>
    <Placemark>
      <name>0600 UTC OCT 25</name>
      <styleUrl>#ts</styleUrl>
      <description><![CDATA[
        <table>
          <tr><td>TS MELISSA (AL132025)</td></tr>
          <tr><td><hr></td></tr>
          <tr><td>0600 UTC OCT 25, 2025</td></tr>
          <tr><td>Storm Location:</td></tr>
          <tr><td><b>16.3 N, 74.7 W</b></td></tr>
          <tr><td>Min Sea Level Pressure:</td></tr>
          <tr><td>986 mb / 29.12 in Hg</td></tr>
          <tr><td>Maximum Intensity:</td></tr>
          <tr><td>60 kt / 69 mph / 111 kph</td></tr>
        </table>
      ]]></description>
      <Point><coordinates>-74.7,16.3</coordinates></Point>
    </Placemark>
    <Placemark>
      <name>1200 UTC OCT 25</name>
      <styleUrl>#ts</styleUrl>
      <description><![CDATA[
        <table>
          <tr><td>TS MELISSA (AL132025)</td></tr>
          <tr><td><hr></td></tr>
          <tr><td>1200 UTC OCT 25, 2025</td></tr>
          <tr><td>Storm Location:</td></tr>
          <tr><td><b>16.4 N, 74.9 W</b></td></tr>
          <tr><td>Min Sea Level Pressure:</td></tr>
          <tr><td>984 mb / 29.06 in Hg</td></tr>
          <tr><td>Maximum Intensity:</td></tr>
          <tr><td>60 kt / 69 mph / 111 kph</td></tr>
        </table>
      ]]></description>
      <Point><coordinates>-74.9,16.4</coordinates></Point>
    </Placemark>
    <Placemark>
      <name>1800 UTC OCT 25</name>
      <styleUrl>#cat1</styleUrl>
      <description><![CDATA[
        <table>
          <tr><td>HU MELISSA (AL132025)</td></tr>
          <tr><td><hr></td></tr>
          <tr><td>1800 UTC OCT 25, 2025</td></tr>
          <tr><td>Storm Location:</td></tr>
          <tr><td><b>16.4 N, 75.3 W</b></td></tr>
          <tr><td>Min Sea Level Pressure:</td></tr>
          <tr><td>976 mb / 28.82 in Hg</td></tr>
          <tr><td>Maximum Intensity:</td></tr>
          <tr><td>75 kt / 86 mph / 139 kph</td></tr>
        </table>
      ]]></description>
      <Point><coordinates>-75.3,16.4</coordinates></Point>
    </Placemark>
    <Placemark>
      <name>0000 UTC OCT 26</name>
      <styleUrl>#cat2</styleUrl>
      <description><![CDATA[
        <table>
          <tr><td>HU MELISSA (AL132025)</td></tr>
          <tr><td><hr></td></tr>
          <tr><td>0000 UTC OCT 26, 2025</td></tr>
          <tr><td>Storm Location:</td></tr>
          <tr><td><b>16.4 N, 75.7 W</b></td></tr>
          <tr><td>Min Sea Level Pressure:</td></tr>
          <tr><td>971 mb / 28.67 in Hg</td></tr>
          <tr><td>Maximum Intensity:</td></tr>
          <tr><td>90 kt / 104 mph / 167 kph</td></tr>
        </table>
      ]]></description>
      <Point><coordinates>-75.7,16.4</coordinates></Point>
    </Placemark>
    <Placemark>
      <name>0600 UTC OCT 26</name>
      <styleUrl>#cat3</styleUrl>
      <description><![CDATA[
        <table>
          <tr><td>HU MELISSA (AL132025)</td></tr>
          <tr><td><hr></td></tr>
          <tr><td>0600 UTC OCT 26, 2025</td></tr>
          <tr><td>Storm Location:</td></tr>
          <tr><td><b>16.3 N, 76.0 W</b></td></tr>
          <tr><td>Min Sea Level Pressure:</td></tr>
          <tr><td>958 mb / 28.29 in Hg</td></tr>
          <tr><td>Maximum Intensity:</td></tr>
          <tr><td>105 kt / 121 mph / 194 kph</td></tr>
        </table>
      ]]></description>
      <Point><coordinates>-76,16.3</coordinates></Point>
    </Placemark>
    <Placemark>
      <name>1200 UTC OCT 26</name>
      <styleUrl>#cat4</styleUrl>
      <description><![CDATA[
        <table>
          <tr><td>HU MELISSA (AL132025)</td></tr>
          <tr><td><hr></td></tr>
          <tr><td>1200 UTC OCT 26, 2025</td></tr>
          <tr><td>Storm Location:</td></tr>
          <tr><td><b>16.3 N, 76.4 W</b></td></tr>
          <tr><td>Min Sea Level Pressure:</td></tr>
          <tr><td>952 mb / 28.11 in Hg</td></tr>
          <tr><td>Maximum Intensity:</td></tr>
          <tr><td>115 kt / 132 mph / 213 kph</td></tr>
        </table>
      ]]></description>
      <Point><coordinates>-76.4,16.3</coordinates></Point>
    </Placemark>
    <Placemark>
      <name>1800 UTC OCT 26</name>
      <styleUrl>#cat4</styleUrl>
      <description><![CDATA[
        <table>
          <tr><td>HU MELISSA (AL132025)</td></tr>
          <tr><td><hr></td></tr>
          <tr><td>1800 UTC OCT 26, 2025</td></tr>
          <tr><td>Storm Location:</td></tr>
          <tr><td><b>16.3 N, 76.9 W</b></td></tr>
          <tr><td>Min Sea Level Pressure:</td></tr>
          <tr><td>944 mb / 27.88 in Hg</td></tr>
          <tr><td>Maximum Intensity:</td></tr>
          <tr><td>120 kt / 138 mph / 222 kph</td></tr>
        </table>
      ]]></description>
      <Point><coordinates>-76.9,16.3</coordinates></Point>
    </Placemark>
    <Placemark>
      <name>0000 UTC OCT 27</name>
      <styleUrl>#cat4</styleUrl>
      <description><![CDATA[
        <table>
          <tr><td>HU MELISSA (AL132025)</td></tr>
          <tr><td><hr></td></tr>
          <tr><td>0000 UTC OCT 27, 2025</td></tr>
          <tr><td>Storm Location:</td></tr>
          <tr><td><b>16.3 N, 77.3 W</b></td></tr>
          <tr><td>Min Sea Level Pressure:</td></tr>
          <tr><td>934 mb / 27.58 in Hg</td></tr>
          <tr><td>Maximum Intensity:</td></tr>
          <tr><td>125 kt / 144 mph / 232 kph</td></tr>
        </table>
      ]]></description>
      <Point><coordinates>-77.3,16.3</coordinates></Point>
    </Placemark>
    <Placemark>
      <name>0600 UTC OCT 27</name>
      <styleUrl>#cat4</styleUrl>
      <description><![CDATA[
        <table>
          <tr><td>HU MELISSA (AL132025)</td></tr>
          <tr><td><hr></td></tr>
          <tr><td>0600 UTC OCT 27, 2025</td></tr>
          <tr><td>Storm Location:</td></tr>
          <tr><td><b>16.3 N, 77.7 W</b></td></tr>
          <tr><td>Min Sea Level Pressure:</td></tr>
          <tr><td>923 mb / 27.26 in Hg</td></tr>
          <tr><td>Maximum Intensity:</td></tr>
          <tr><td>135 kt / 155 mph / 250 kph</td></tr>
        </table>
      ]]></description>
      <Point><coordinates>-77.7,16.3</coordinates></Point>
    </Placemark>
    <Placemark>
      <name>1200 UTC OCT 27</name>
      <styleUrl>#cat5</styleUrl>
      <description><![CDATA[
        <table>
          <tr><td>HU MELISSA (AL132025)</td></tr>
          <tr><td><hr></td></tr>
          <tr><td>1200 UTC OCT 27, 2025</td></tr>
          <tr><td>Storm Location:</td></tr>
          <tr><td><b>16.3 N, 78.0 W</b></td></tr>
          <tr><td>Min Sea Level Pressure:</td></tr>
          <tr><td>912 mb / 26.93 in Hg</td></tr>
          <tr><td>Maximum Intensity:</td></tr>
          <tr><td>145 kt / 167 mph / 269 kph</td></tr>
        </table>
      ]]></description>
      <Point><coordinates>-78,16.3</coordinates></Point>
    </Placemark>
    <Placemark>
      <name>1800 UTC OCT 27</name>
      <styleUrl>#cat5</styleUrl>
      <description><![CDATA[
        <table>
          <tr><td>HU MELISSA (AL132025)</td></tr>
          <tr><td><hr></td></tr>
          <tr><td>1800 UTC OCT 27, 2025</td></tr>
          <tr><td>Storm Location:</td></tr>
          <tr><td><b>16.4 N, 78.3 W</b></td></tr>
          <tr><td>Min Sea Level Pressure:</td></tr>
          <tr><td>906 mb / 26.75 in Hg</td></tr>
          <tr><td>Maximum Intensity:</td></tr>
          <tr><td>155 kt / 178 mph / 287 kph</td></tr>
        </table>
      ]]></description>
      <Point><coordinates>-78.3,16.4</coordinates></Point>
    </Placemark>
    <Placemark>
      <name>0000 UTC OCT 28</name>
      <styleUrl>#cat5</styleUrl>
      <description><![CDATA[
        <table>
          <tr><td>HU MELISSA (AL132025)</td></tr>
          <tr><td><hr></td></tr>
          <tr><td>0000 UTC OCT 28, 2025</td></tr>
          <tr><td>Storm Location:</td></tr>
          <tr><td><b>16.5 N, 78.6 W</b></td></tr>
          <tr><td>Min Sea Level Pressure:</td></tr>
          <tr><td>909 mb / 26.84 in Hg</td></tr>
          <tr><td>Maximum Intensity:</td></tr>
          <tr><td>155 kt / 178 mph / 287 kph</td></tr>
        </table>
      ]]></description>
      <Point><coordinates>-78.6,16.5</coordinates></Point>
    </Placemark>
    <Placemark>
      <name>0600 UTC OCT 28</name>
      <styleUrl>#cat5</styleUrl>
      <description><![CDATA[
        <table>
          <tr><td>HU MELISSA (AL132025)</td></tr>
          <tr><td><hr></td></tr>
          <tr><td>0600 UTC OCT 28, 2025</td></tr>
          <tr><td>Storm Location:</td></tr>
          <tr><td><b>16.9 N, 78.4 W</b></td></tr>
          <tr><td>Min Sea Level Pressure:</td></tr>
          <tr><td>900 mb / 26.58 in Hg</td></tr>
          <tr><td>Maximum Intensity:</td></tr>
          <tr><td>155 kt / 178 mph / 287 kph</td></tr>
        </table>
      ]]></description>
      <Point><coordinates>-78.4,16.9</coordinates></Point>
    </Placemark>
    <Placemark>
      <name>1200 UTC OCT 28</name>
      <styleUrl>#cat5</styleUrl>
      <description><![CDATA[
        <table>
          <tr><td>HU MELISSA (AL132025)</td></tr>
          <tr><td><hr></td></tr>
          <tr><td>1200 UTC OCT 28, 2025</td></tr>
          <tr><td>Storm Location:</td></tr>
          <tr><td><b>17.5 N, 78.1 W</b></td></tr>
          <tr><td>Min Sea Level Pressure:</td></tr>
          <tr><td>892 mb / 26.34 in Hg</td></tr>
          <tr><td>Maximum Intensity:</td></tr>
          <tr><td>165 kt / 190 mph / 306 kph</td></tr>
        </table>
      ]]></description>
      <Point><coordinates>-78.1,17.5</coordinates></Point>
    </Placemark>
    <Placemark>
      <name>1725 UTC OCT 28</name>
      <styleUrl>#cat5</styleUrl>
      <description><![CDATA[
        <table>
          <tr><td>HU MELISSA (AL132025)</td></tr>
          <tr><td><hr></td></tr>
          <tr><td>1725 UTC OCT 28, 2025</td></tr>
          <tr><td>Storm Location:</td></tr>
          <tr><td><b>18.1 N, 78.0 W</b></td></tr>
          <tr><td>Min Sea Level Pressure:</td></tr>
          <tr><td>897 mb / 26.49 in Hg</td></tr>
          <tr><td>Maximum Intensity:</td></tr>
          <tr><td>160 kt / 184 mph / 296 kph</td></tr>
        </table>
      ]]></description>
      <Point><coordinates>-78,18.1</coordinates></Point>
    </Placemark>
    <Placemark>
      <name>1800 UTC OCT 28</name>
      <styleUrl>#cat5</styleUrl>
      <description><![CDATA[
        <table>
          <tr><td>HU MELISSA (AL132025)</td></tr>
          <tr><td><hr></td></tr>
          <tr><td>1800 UTC OCT 28, 2025</td></tr>
          <tr><td>Storm Location:</td></tr>
          <tr><td><b>18.2 N, 78.0 W</b></td></tr>
          <tr><td>Min Sea Level Pressure:</td></tr>
          <tr><td>910 mb / 26.87 in Hg</td></tr>
          <tr><td>Maximum Intensity:</td></tr>
          <tr><td>145 kt / 167 mph / 269 kph</td></tr>
        </table>
      ]]></description>
      <Point><coordinates>-78,18.2</coordinates></Point>
    </Placemark>
    <Placemark>
      <name>0000 UTC OCT 29</name>
      <styleUrl>#cat3</styleUrl>
      <description><![CDATA[
        <table>
          <tr><td>HU MELISSA (AL132025)</td></tr>
          <tr><td><hr></td></tr>
          <tr><td>0000 UTC OCT 29, 2025</td></tr>
          <tr><td>Storm Location:</td></tr>
          <tr><td><b>18.8 N, 77.1 W</b></td></tr>
          <tr><td>Min Sea Level Pressure:</td></tr>
          <tr><td>953 mb / 28.14 in Hg</td></tr>
          <tr><td>Maximum Intensity:</td></tr>
          <tr><td>105 kt / 121 mph / 194 kph</td></tr>
        </table>
      ]]></description>
      <Point><coordinates>-77.1,18.8</coordinates></Point>
    </Placemark>
    <Placemark>
      <name>0600 UTC OCT 29</name>
      <styleUrl>#cat3</styleUrl>
      <description><![CDATA[
        <table>
          <tr><td>HU MELISSA (AL132025)</td></tr>
          <tr><td><hr></td></tr>
          <tr><td>0600 UTC OCT 29, 2025</td></tr>
          <tr><td>Storm Location:</td></tr>
          <tr><td><b>19.7 N, 76.4 W</b></td></tr>
          <tr><td>Min Sea Level Pressure:</td></tr>
          <tr><td>952 mb / 28.11 in Hg</td></tr>
          <tr><td>Maximum Intensity:</td></tr>
          <tr><td>105 kt / 121 mph / 194 kph</td></tr>
        </table>
      ]]></description>
      <Point><coordinates>-76.4,19.7</coordinates></Point>
    </Placemark>
    <Placemark>
      <name>0720 UTC OCT 29</name>
      <styleUrl>#cat3</styleUrl>
      <description><![CDATA[
        <table>
          <tr><td>HU MELISSA (AL132025)</td></tr>
          <tr><td><hr></td></tr>
          <tr><td>0720 UTC OCT 29, 2025</td></tr>
          <tr><td>Storm Location:</td></tr>
          <tr><td><b>20.0 N, 76.2 W</b></td></tr>
          <tr><td>Min Sea Level Pressure:</td></tr>
          <tr><td>954 mb / 28.17 in Hg</td></tr>
          <tr><td>Maximum Intensity:</td></tr>
          <tr><td>100 kt / 115 mph / 185 kph</td></tr>
        </table>
      ]]></description>
      <Point><coordinates>-76.2,20</coordinates></Point>
    </Placemark>
    <Placemark>
      <name>1200 UTC OCT 29</name>
      <styleUrl>#cat2</styleUrl>
      <description><![CDATA[
        <table>
          <tr><td>HU MELISSA (AL132025)</td></tr>
          <tr><td><hr></td></tr>
          <tr><td>1200 UTC OCT 29, 2025</td></tr>
          <tr><td>Storm Location:</td></tr>
          <tr><td><b>20.9 N, 75.8 W</b></td></tr>
          <tr><td>Min Sea Level Pressure:</td></tr>
          <tr><td>968 mb / 28.59 in Hg</td></tr>
          <tr><td>Maximum Intensity:</td></tr>
          <tr><td>85 kt / 98 mph / 157 kph</td></tr>
        </table>
      ]]></description>
      <Point><coordinates>-75.8,20.9</coordinates></Point>
    </Placemark>
    <Placemark>
      <name>1800 UTC OCT 29</name>
      <styleUrl>#cat1</styleUrl>
      <description><![CDATA[
        <table>
          <tr><td>HU MELISSA (AL132025)</td></tr>
          <tr><td><hr></td></tr>
          <tr><td>1800 UTC OCT 29, 2025</td></tr>
          <tr><td>Storm Location:</td></tr>
          <tr><td><b>22.1 N, 75.4 W</b></td></tr>
          <tr><td>Min Sea Level Pressure:</td></tr>
          <tr><td>972 mb / 28.70 in Hg</td></tr>
          <tr><td>Maximum Intensity:</td></tr>
          <tr><td>80 kt / 92 mph / 148 kph</td></tr>
        </table>
      ]]></description>
      <Point><coordinates>-75.4,22.1</coordinates></Point>
    </Placemark>
    <Placemark>
      <name>2215 UTC OCT 29</name>
      <styleUrl>#cat1</styleUrl>
      <description><![CDATA[
        <table>
          <tr><td>HU MELISSA (AL132025)</td></tr>
          <tr><td><hr></td></tr>
          <tr><td>2215 UTC OCT 29, 2025</td></tr>
          <tr><td>Storm Location:</td></tr>
          <tr><td><b>23.1 N, 75.0 W</b></td></tr>
          <tr><td>Min Sea Level Pressure:</td></tr>
          <tr><td>972 mb / 28.70 in Hg</td></tr>
          <tr><td>Maximum Intensity:</td></tr>
          <tr><td>80 kt / 92 mph / 148 kph</td></tr>
        </table>
      ]]></description>
      <Point><coordinates>-75,23.1</coordinates></Point>
    </Placemark>
    <Placemark>
      <name>0000 UTC OCT 30</name>
      <styleUrl>#cat1</styleUrl>
      <description><![CDATA[
        <table>
          <tr><td>HU MELISSA (AL132025)</td></tr>
          <tr><td><hr></td></tr>
          <tr><td>0000 UTC OCT 30, 2025</td></tr>
          <tr><td>Storm Location:</td></tr>
          <tr><td><b>23.5 N, 74.8 W</b></td></tr>
          <tr><td>Min Sea Level Pressure:</td></tr>
          <tr><td>970 mb / 28.64 in Hg</td></tr>
          <tr><td>Maximum Intensity:</td></tr>
          <tr><td>80 kt / 92 mph / 148 kph</td></tr>
        </table>
      ]]></description>
      <Point><coordinates>-74.8,23.5</coordinates></Point>
    </Placemark>
    <Placemark>
      <name>0200 UTC OCT 30</name>
      <styleUrl>#cat1</styleUrl>
      <description><![CDATA[
        <table>
          <tr><td>HU MELISSA (AL132025)</td></tr>
          <tr><td><hr></td></tr>
          <tr><td>0200 UTC OCT 30, 2025</td></tr>
          <tr><td>Storm Location:</td></tr>
          <tr><td><b>24.0 N, 74.5 W</b></td></tr>
          <tr><td>Min Sea Level Pressure:</td></tr>
          <tr><td>970 mb / 28.64 in Hg</td></tr>
          <tr><td>Maximum Intensity:</td></tr>
          <tr><td>80 kt / 92 mph / 148 kph</td></tr>
        </table>
      ]]></description>
      <Point><coordinates>-74.5,24</coordinates></Point>
    </Placemark>
    <Placemark>
      <name>0600 UTC OCT 30</name>
      <styleUrl>#cat2</styleUrl>
      <description><![CDATA[
        <table>
          <tr><td>HU MELISSA (AL132025)</td></tr>
          <tr><td><hr></td></tr>
          <tr><td>0600 UTC OCT 30, 2025</td></tr>
          <tr><td>Storm Location:</td></tr>
          <tr><td><b>25.0 N, 73.8 W</b></td></tr>
          <tr><td>Min Sea Level Pressure:</td></tr>
          <tr><td>968 mb / 28.59 in Hg</td></tr>
          <tr><td>Maximum Intensity:</td></tr>
          <tr><td>85 kt / 98 mph / 157 kph</td></tr>
        </table>
      ]]></description>
      <Point><coordinates>-73.8,25</coordinates></Point>
    </Placemark>
    <Placemark>
      <name>1200 UTC OCT 30</name>
      <styleUrl>#cat2</styleUrl>
      <description><![CDATA[
        <table>
          <tr><td>HU MELISSA (AL132025)</td></tr>
          <tr><td><hr></td></tr>
          <tr><td>1200 UTC OCT 30, 2025</td></tr>
          <tr><td>Storm Location:</td></tr>
          <tr><td><b>26.7 N, 72.7 W</b></td></tr>
          <tr><td>Min Sea Level Pressure:</td></tr>
          <tr><td>965 mb / 28.50 in Hg</td></tr>
          <tr><td>Maximum Intensity:</td></tr>
          <tr><td>90 kt / 104 mph / 167 kph</td></tr>
        </table>
      ]]></description>
      <Point><coordinates>-72.7,26.7</coordinates></Point>
    </Placemark>
    <Placemark>
      <name>1800 UTC OCT 30</name>
      <styleUrl>#cat2</styleUrl>
      <description><![CDATA[
        <table>
          <tr><td>HU MELISSA (AL132025)</td></tr>
          <tr><td><hr></td></tr>
          <tr><td>1800 UTC OCT 30, 2025</td></tr>
          <tr><td>Storm Location:</td></tr>
          <tr><td><b>28.9 N, 70.9 W</b></td></tr>
          <tr><td>Min Sea Level Pressure:</td></tr>
          <tr><td>967 mb / 28.56 in Hg</td></tr>
          <tr><td>Maximum Intensity:</td></tr>
          <tr><td>85 kt / 98 mph / 157 kph</td></tr>
        </table>
      ]]></description>
      <Point><coordinates>-70.9,28.9</coordinates></Point>
    </Placemark>
    <Placemark>
      <name>0000 UTC OCT 31</name>
      <styleUrl>#cat1</styleUrl>
      <description><![CDATA[
        <table>
          <tr><td>HU MELISSA (AL132025)</td></tr>
          <tr><td><hr></td></tr>
          <tr><td>0000 UTC OCT 31, 2025</td></tr>
          <tr><td>Storm Location:</td></tr>
          <tr><td><b>31.3 N, 68.7 W</b></td></tr>
          <tr><td>Min Sea Level Pressure:</td></tr>
          <tr><td>970 mb / 28.64 in Hg</td></tr>
          <tr><td>Maximum Intensity:</td></tr>
          <tr><td>80 kt / 92 mph / 148 kph</td></tr>
        </table>
      ]]></description>
      <Point><coordinates>-68.7,31.3</coordinates></Point>
    </Placemark>
    <Placemark>
      <name>0600 UTC OCT 31</name>
      <styleUrl>#cat1</styleUrl>
      <description><![CDATA[
        <table>
          <tr><td>HU MELISSA (AL132025)</td></tr>
          <tr><td><hr></td></tr>
          <tr><td>0600 UTC OCT 31, 2025</td></tr>
          <tr><td>Storm Location:</td></tr>
          <tr><td><b>34.5 N, 65.5 W</b></td></tr>
          <tr><td>Min Sea Level Pressure:</td></tr>
          <tr><td>972 mb / 28.70 in Hg</td></tr>
          <tr><td>Maximum Intensity:</td></tr>
          <tr><td>75 kt / 86 mph / 139 kph</td></tr>
        </table>
      ]]></description>
      <Point><coordinates>-65.5,34.5</coordinates></Point>
    </Placemark>
    <Placemark>
      <name>1200 UTC OCT 31</name>
      <styleUrl>#ex</styleUrl>
      <description><![CDATA[
        <table>
          <tr><td>EX MELISSA (AL132025)</td></tr>
          <tr><td><hr></td></tr>
          <tr><td>1200 UTC OCT 31, 2025</td></tr>
          <tr><td>Storm Location:</td></tr>
          <tr><td><b>37.7 N, 62.1 W</b></td></tr>
          <tr><td>Min Sea Level Pressure:</td></tr>
          <tr><td>972 mb / 28.70 in Hg</td></tr>
          <tr><td>Maximum Intensity:</td></tr>
          <tr><td>75 kt / 86 mph / 139 kph</td></tr>
        </table>
      ]]></description>
      <Point><coordinates>-62.1,37.7</coordinates></Point>
    </Placemark>
    <Placemark>
      <name>1800 UTC OCT 31</name>
      <styleUrl>#ex</styleUrl>
      <description><![CDATA[
        <table>
          <tr><td>EX MELISSA (AL132025)</td></tr>
          <tr><td><hr></td></tr>
          <tr><td>1800 UTC OCT 31, 2025</td></tr>
          <tr><td>Storm Location:</td></tr>
          <tr><td><b>40.6 N, 58.9 W</b></td></tr>
          <tr><td>Min Sea Level Pressure:</td></tr>
          <tr><td>972 mb / 28.70 in Hg</td></tr>
          <tr><td>Maximum Intensity:</td></tr>
          <tr><td>70 kt / 81 mph / 130 kph</td></tr>
        </table>
      ]]></description>
      <Point><coordinates>-58.9,40.6</coordinates></Point>
    </Placemark>
    <Placemark>
      <name>0000 UTC NOV 1</name>
      <styleUrl>#ex</styleUrl>
      <description><![CDATA[
        <table>
          <tr><td>EX MELISSA (AL132025)</td></tr>
          <tr><td><hr></td></tr>
          <tr><td>0000 UTC NOV 1, 2025</td></tr>
          <tr><td>Storm Location:</td></tr>
          <tr><td><b>43.7 N, 56.0 W</b></td></tr>
          <tr><td>Min Sea Level Pressure:</td></tr>
          <tr><td>971 mb / 28.67 in Hg</td></tr>
          <tr><td>Maximum Intensity:</td></tr>
          <tr><td>70 kt / 81 mph / 130 kph</td></tr>
        </table>
      ]]></description>
      <Point><coordinates>-56,43.7</coordinates></Point>
    </Placemark>
    <Placemark>
      <name>0600 UTC NOV 1</name>
      <styleUrl>#ex</styleUrl>
      <description><![CDATA[
        <table>
          <tr><td>EX MELISSA (AL132025)</td></tr>
          <tr><td><hr></td></tr>
          <tr><td>0600 UTC NOV 1, 2025</td></tr>
          <tr><td>Storm Location:</td></tr>
          <tr><td><b>46.6 N, 51.3 W</b></td></tr>
          <tr><td>Min Sea Level Pressure:</td></tr>
          <tr><td>968 mb / 28.59 in Hg</td></tr>
          <tr><td>Maximum Intensity:</td></tr>
          <tr><td>65 kt / 75 mph / 120 kph</td></tr>
        </table>
      ]]></description>
      <Point><coordinates>-51.3,46.6</coordinates></Point>
    </Placemark>
  </Document>
</kml>
