<?xml version="1.0" encoding="UTF-8"?>
<kml xmlns="http://www.opengis.net/kml/2.2">
  <Document>
    <name>CP012024</name>
    <open>0</open>

    <!-- =====  Document header ===== -->
    <description><![CDATA[
      <table>
        <tr><td><b>Title:</b> Tropical Cyclone Best Track for CP012024</td></tr>
      </table>
    ]]></description>

    <!-- =====  Styles (ids must be unique)  ===== -->
	<Style id="pt"> 
		<IconStyle> 
			<scale>1.0</scale> 
			<Icon> 
				<href>ex_nhemi.png</href> 
			</Icon> 
             <hotSpot x="15" y="17" xunits="pixels" yunits="pixels"/>
		</IconStyle> 
		<LabelStyle> 
			<scale>1.0</scale> 
		</LabelStyle> 
	</Style>
	<Style id="cat5"> 
		<IconStyle> 
			<scale>1.0</scale> 
			<Icon> 
				<href>cat5_nhemi.png</href> 
			</Icon> 
             <hotSpot x="15" y="17" xunits="pixels" yunits="pixels"/>
		</IconStyle> 
		<LabelStyle> 
			<scale>1.0</scale> 
		</LabelStyle> 
	</Style>
	<Style id="db"> 
		<IconStyle> 
			<scale>1.0</scale> 
			<Icon> 
				<href>ex_nhemi.png</href> 
			</Icon> 
             <hotSpot x="15" y="17" xunits="pixels" yunits="pixels"/>
		</IconStyle> 
		<LabelStyle> 
			<scale>1.0</scale> 
		</LabelStyle> 
	</Style>
	<Style id="cat3"> 
		<IconStyle> 
			<scale>1.0</scale> 
			<Icon> 
				<href>cat3_nhemi.png</href> 
			</Icon> 
             <hotSpot x="15" y="17" xunits="pixels" yunits="pixels"/>
		</IconStyle> 
		<LabelStyle> 
			<scale>1.0</scale> 
		</LabelStyle> 
	</Style>
	<Style id="ss"> 
		<IconStyle> 
			<scale>1.0</scale> 
			<Icon> 
				<href>ts_nhemi.png</href> 
			</Icon> 
             <hotSpot x="15" y="17" xunits="pixels" yunits="pixels"/>
		</IconStyle> 
		<LabelStyle> 
			<scale>1.0</scale> 
		</LabelStyle> 
	</Style>
	<Style id="lo"> 
		<IconStyle> 
			<scale>1.0</scale> 
			<Icon> 
				<href>ex_nhemi.png</href> 
			</Icon> 
             <hotSpot x="15" y="17" xunits="pixels" yunits="pixels"/>
		</IconStyle> 
		<LabelStyle> 
			<scale>1.0</scale> 
		</LabelStyle> 
	</Style>
	<Style id="cat4"> 
		<IconStyle> 
			<scale>1.0</scale> 
			<Icon> 
				<href>cat4_nhemi.png</href> 
			</Icon> 
             <hotSpot x="15" y="17" xunits="pixels" yunits="pixels"/>
		</IconStyle> 
		<LabelStyle> 
			<scale>1.0</scale> 
		</LabelStyle> 
	</Style>
	<Style id="cat2"> 
		<IconStyle> 
			<scale>1.0</scale> 
			<Icon> 
				<href>cat2_nhemi.png</href> 
			</Icon> 
             <hotSpot x="15" y="17" xunits="pixels" yunits="pixels"/>
		</IconStyle> 
		<LabelStyle> 
			<scale>1.0</scale> 
		</LabelStyle> 
	</Style>
	<Style id="ts"> 
		<IconStyle> 
			<scale>1.0</scale> 
			<Icon> 
				<href>ts_nhemi.png</href> 
			</Icon> 
             <hotSpot x="15" y="17" xunits="pixels" yunits="pixels"/>
		</IconStyle> 
		<LabelStyle> 
			<scale>1.0</scale> 
		</LabelStyle> 
	</Style>
	<Style id="cat1"> 
		<IconStyle> 
			<scale>1.0</scale> 
			<Icon> 
				<href>cat1_nhemi.png</href> 
			</Icon> 
             <hotSpot x="15" y="17" xunits="pixels" yunits="pixels"/>
		</IconStyle> 
		<LabelStyle> 
			<scale>1.0</scale> 
		</LabelStyle> 
	</Style>
	<Style id="ex"> 
		<IconStyle> 
			<scale>1.0</scale> 
			<Icon> 
				<href>ex_nhemi.png</href> 
			</Icon> 
             <hotSpot x="15" y="17" xunits="pixels" yunits="pixels"/>
		</IconStyle> 
		<LabelStyle> 
			<scale>1.0</scale> 
		</LabelStyle> 
	</Style>
	<Style id="tc"> 
		<IconStyle> 
			<scale>1.0</scale> 
			<Icon> 
				<href>ex_nhemi.png</href> 
			</Icon> 
             <hotSpot x="15" y="17" xunits="pixels" yunits="pixels"/>
		</IconStyle> 
		<LabelStyle> 
			<scale>1.0</scale> 
		</LabelStyle> 
	</Style>
	<Style id="wv"> 
		<IconStyle> 
			<scale>1.0</scale> 
			<Icon> 
				<href>ex_nhemi.png</href> 
			</Icon> 
             <hotSpot x="15" y="17" xunits="pixels" yunits="pixels"/>
		</IconStyle> 
		<LabelStyle> 
			<scale>1.0</scale> 
		</LabelStyle> 
	</Style>
	<Style id="td"> 
		<IconStyle> 
			<scale>1.0</scale> 
			<Icon> 
				<href>td_nhemi.png</href> 
			</Icon> 
             <hotSpot x="15" y="17" xunits="pixels" yunits="pixels"/>
		</IconStyle> 
		<LabelStyle> 
			<scale>1.0</scale> 
		</LabelStyle> 
	</Style>
	<Style id="sd"> 
		<IconStyle> 
			<scale>1.0</scale> 
			<Icon> 
				<href>ex_nhemi.png</href> 
			</Icon> 
             <hotSpot x="15" y="17" xunits="pixels" yunits="pixels"/>
		</IconStyle> 
		<LabelStyle> 
			<scale>1.0</scale> 
		</LabelStyle> 
	</Style>

    <Placemark>
      <name>0000 UTC AUG 22</name>
      <styleUrl>#td</styleUrl>
      <description><![CDATA[
        <table>
          <tr><td>TD HONE (CP012024)</td></tr>
          <tr><td><hr></td></tr>
          <tr><td>0000 UTC AUG 22, 2024</td></tr>
          <tr><td>Storm Location:</td></tr>
          <tr><td><b>15.5 N, 137.5 W</b></td></tr>
          <tr><td>Min Sea Level Pressure:</td></tr>
          <tr><td>1007 mb / 29.74 in Hg</td></tr>
          <tr><td>Maximum Intensity:</td></tr>
          <tr><td>30 kt / 35 mph / 56 kph</td></tr>
        </table>
      ]]></description>
      <Point><coordinates>-137.5,15.5</coordinates></Point>
    </Placemark>
    <Placemark>
      <name>0600 UTC AUG 22</name>
      <styleUrl>#td</styleUrl>
      <description><![CDATA[
        <table>
          <tr><td>TD HONE (CP012024)</td></tr>
          <tr><td><hr></td></tr>
          <tr><td>0600 UTC AUG 22, 2024</td></tr>
          <tr><td>Storm Location:</td></tr>
          <tr><td><b>15.4 N, 138.8 W</b></td></tr>
          <tr><td>Min Sea Level Pressure:</td></tr>
          <tr><td>1007 mb / 29.74 in Hg</td></tr>
          <tr><td>Maximum Intensity:</td></tr>
          <tr><td>30 kt / 35 mph / 56 kph</td></tr>
        </table>
      ]]></description>
      <Point><coordinates>-138.8,15.4</coordinates></Point>
    </Placemark>
    <Placemark>
      <name>1200 UTC AUG 22</name>
      <styleUrl>#td</styleUrl>
      <description><![CDATA[
        <table>
          <tr><td>TD HONE (CP012024)</td></tr>
          <tr><td><hr></td></tr>
          <tr><td>1200 UTC AUG 22, 2024</td></tr>
          <tr><td>Storm Location:</td></tr>
          <tr><td><b>15.4 N, 140.2 W</b></td></tr>
          <tr><td>Min Sea Level Pressure:</td></tr>
          <tr><td>1007 mb / 29.74 in Hg</td></tr>
          <tr><td>Maximum Intensity:</td></tr>
          <tr><td>30 kt / 35 mph / 56 kph</td></tr>
        </table>
      ]]></description>
      <Point><coordinates>-140.2,15.4</coordinates></Point>
    </Placemark>
    <Placemark>
      <name>1800 UTC AUG 22</name>
      <styleUrl>#ts</styleUrl>
      <description><![CDATA[
        <table>
          <tr><td>TS HONE (CP012024)</td></tr>
          <tr><td><hr></td></tr>
          <tr><td>1800 UTC AUG 22, 2024</td></tr>
          <tr><td>Storm Location:</td></tr>
          <tr><td><b>15.5 N, 141.5 W</b></td></tr>
          <tr><td>Min Sea Level Pressure:</td></tr>
          <tr><td>1006 mb / 29.71 in Hg</td></tr>
          <tr><td>Maximum Intensity:</td></tr>
          <tr><td>35 kt / 40 mph / 65 kph</td></tr>
        </table>
      ]]></description>
      <Point><coordinates>-141.5,15.5</coordinates></Point>
    </Placemark>
    <Placemark>
      <name>0000 UTC AUG 23</name>
      <styleUrl>#ts</styleUrl>
      <description><![CDATA[
        <table>
          <tr><td>TS HONE (CP012024)</td></tr>
          <tr><td><hr></td></tr>
          <tr><td>0000 UTC AUG 23, 2024</td></tr>
          <tr><td>Storm Location:</td></tr>
          <tr><td><b>15.7 N, 142.8 W</b></td></tr>
          <tr><td>Min Sea Level Pressure:</td></tr>
          <tr><td>1006 mb / 29.71 in Hg</td></tr>
          <tr><td>Maximum Intensity:</td></tr>
          <tr><td>35 kt / 40 mph / 65 kph</td></tr>
        </table>
      ]]></description>
      <Point><coordinates>-142.8,15.7</coordinates></Point>
    </Placemark>
    <Placemark>
      <name>0600 UTC AUG 23</name>
      <styleUrl>#ts</styleUrl>
      <description><![CDATA[
        <table>
          <tr><td>TS HONE (CP012024)</td></tr>
          <tr><td><hr></td></tr>
          <tr><td>0600 UTC AUG 23, 2024</td></tr>
          <tr><td>Storm Location:</td></tr>
          <tr><td><b>15.9 N, 144.1 W</b></td></tr>
          <tr><td>Min Sea Level Pressure:</td></tr>
          <tr><td>1005 mb / 29.68 in Hg</td></tr>
          <tr><td>Maximum Intensity:</td></tr>
          <tr><td>40 kt / 46 mph / 74 kph</td></tr>
        </table>
      ]]></description>
      <Point><coordinates>-144.1,15.9</coordinates></Point>
    </Placemark>
    <Placemark>
      <name>1200 UTC AUG 23</name>
      <styleUrl>#ts</styleUrl>
      <description><![CDATA[
        <table>
          <tr><td>TS HONE (CP012024)</td></tr>
          <tr><td><hr></td></tr>
          <tr><td>1200 UTC AUG 23, 2024</td></tr>
          <tr><td>Storm Location:</td></tr>
          <tr><td><b>16.3 N, 145.6 W</b></td></tr>
          <tr><td>Min Sea Level Pressure:</td></tr>
          <tr><td>1005 mb / 29.68 in Hg</td></tr>
          <tr><td>Maximum Intensity:</td></tr>
          <tr><td>40 kt / 46 mph / 74 kph</td></tr>
        </table>
      ]]></description>
      <Point><coordinates>-145.6,16.3</coordinates></Point>
    </Placemark>
    <Placemark>
      <name>1800 UTC AUG 23</name>
      <styleUrl>#ts</styleUrl>
      <description><![CDATA[
        <table>
          <tr><td>TS HONE (CP012024)</td></tr>
          <tr><td><hr></td></tr>
          <tr><td>1800 UTC AUG 23, 2024</td></tr>
          <tr><td>Storm Location:</td></tr>
          <tr><td><b>16.6 N, 147.1 W</b></td></tr>
          <tr><td>Min Sea Level Pressure:</td></tr>
          <tr><td>1002 mb / 29.59 in Hg</td></tr>
          <tr><td>Maximum Intensity:</td></tr>
          <tr><td>45 kt / 52 mph / 83 kph</td></tr>
        </table>
      ]]></description>
      <Point><coordinates>-147.1,16.6</coordinates></Point>
    </Placemark>
    <Placemark>
      <name>0000 UTC AUG 24</name>
      <styleUrl>#ts</styleUrl>
      <description><![CDATA[
        <table>
          <tr><td>TS HONE (CP012024)</td></tr>
          <tr><td><hr></td></tr>
          <tr><td>0000 UTC AUG 24, 2024</td></tr>
          <tr><td>Storm Location:</td></tr>
          <tr><td><b>16.9 N, 148.5 W</b></td></tr>
          <tr><td>Min Sea Level Pressure:</td></tr>
          <tr><td>1000 mb / 29.53 in Hg</td></tr>
          <tr><td>Maximum Intensity:</td></tr>
          <tr><td>45 kt / 52 mph / 83 kph</td></tr>
        </table>
      ]]></description>
      <Point><coordinates>-148.5,16.9</coordinates></Point>
    </Placemark>
    <Placemark>
      <name>0600 UTC AUG 24</name>
      <styleUrl>#ts</styleUrl>
      <description><![CDATA[
        <table>
          <tr><td>TS HONE (CP012024)</td></tr>
          <tr><td><hr></td></tr>
          <tr><td>0600 UTC AUG 24, 2024</td></tr>
          <tr><td>Storm Location:</td></tr>
          <tr><td><b>17.2 N, 149.9 W</b></td></tr>
          <tr><td>Min Sea Level Pressure:</td></tr>
          <tr><td>999 mb / 29.50 in Hg</td></tr>
          <tr><td>Maximum Intensity:</td></tr>
          <tr><td>50 kt / 58 mph / 93 kph</td></tr>
        </table>
      ]]></description>
      <Point><coordinates>-149.9,17.2</coordinates></Point>
    </Placemark>
    <Placemark>
      <name>1200 UTC AUG 24</name>
      <styleUrl>#ts</styleUrl>
      <description><![CDATA[
        <table>
          <tr><td>TS HONE (CP012024)</td></tr>
          <tr><td><hr></td></tr>
          <tr><td>1200 UTC AUG 24, 2024</td></tr>
          <tr><td>Storm Location:</td></tr>
          <tr><td><b>17.4 N, 151.3 W</b></td></tr>
          <tr><td>Min Sea Level Pressure:</td></tr>
          <tr><td>997 mb / 29.44 in Hg</td></tr>
          <tr><td>Maximum Intensity:</td></tr>
          <tr><td>55 kt / 63 mph / 102 kph</td></tr>
        </table>
      ]]></description>
      <Point><coordinates>-151.3,17.4</coordinates></Point>
    </Placemark>
    <Placemark>
      <name>1800 UTC AUG 24</name>
      <styleUrl>#ts</styleUrl>
      <description><![CDATA[
        <table>
          <tr><td>TS HONE (CP012024)</td></tr>
          <tr><td><hr></td></tr>
          <tr><td>1800 UTC AUG 24, 2024</td></tr>
          <tr><td>Storm Location:</td></tr>
          <tr><td><b>17.6 N, 152.6 W</b></td></tr>
          <tr><td>Min Sea Level Pressure:</td></tr>
          <tr><td>1000 mb / 29.53 in Hg</td></tr>
          <tr><td>Maximum Intensity:</td></tr>
          <tr><td>50 kt / 58 mph / 93 kph</td></tr>
        </table>
      ]]></description>
      <Point><coordinates>-152.6,17.6</coordinates></Point>
    </Placemark>
    <Placemark>
      <name>0000 UTC AUG 25</name>
      <styleUrl>#ts</styleUrl>
      <description><![CDATA[
        <table>
          <tr><td>TS HONE (CP012024)</td></tr>
          <tr><td><hr></td></tr>
          <tr><td>0000 UTC AUG 25, 2024</td></tr>
          <tr><td>Storm Location:</td></tr>
          <tr><td><b>17.9 N, 153.8 W</b></td></tr>
          <tr><td>Min Sea Level Pressure:</td></tr>
          <tr><td>1000 mb / 29.53 in Hg</td></tr>
          <tr><td>Maximum Intensity:</td></tr>
          <tr><td>50 kt / 58 mph / 93 kph</td></tr>
        </table>
      ]]></description>
      <Point><coordinates>-153.8,17.9</coordinates></Point>
    </Placemark>
    <Placemark>
      <name>0600 UTC AUG 25</name>
      <styleUrl>#cat1</styleUrl>
      <description><![CDATA[
        <table>
          <tr><td>HU HONE (CP012024)</td></tr>
          <tr><td><hr></td></tr>
          <tr><td>0600 UTC AUG 25, 2024</td></tr>
          <tr><td>Storm Location:</td></tr>
          <tr><td><b>18.1 N, 154.8 W</b></td></tr>
          <tr><td>Min Sea Level Pressure:</td></tr>
          <tr><td>991 mb / 29.26 in Hg</td></tr>
          <tr><td>Maximum Intensity:</td></tr>
          <tr><td>65 kt / 75 mph / 120 kph</td></tr>
        </table>
      ]]></description>
      <Point><coordinates>-154.8,18.1</coordinates></Point>
    </Placemark>
    <Placemark>
      <name>1200 UTC AUG 25</name>
      <styleUrl>#cat1</styleUrl>
      <description><![CDATA[
        <table>
          <tr><td>HU HONE (CP012024)</td></tr>
          <tr><td><hr></td></tr>
          <tr><td>1200 UTC AUG 25, 2024</td></tr>
          <tr><td>Storm Location:</td></tr>
          <tr><td><b>18.2 N, 155.7 W</b></td></tr>
          <tr><td>Min Sea Level Pressure:</td></tr>
          <tr><td>988 mb / 29.18 in Hg</td></tr>
          <tr><td>Maximum Intensity:</td></tr>
          <tr><td>75 kt / 86 mph / 139 kph</td></tr>
        </table>
      ]]></description>
      <Point><coordinates>-155.7,18.2</coordinates></Point>
    </Placemark>
    <Placemark>
      <name>1800 UTC AUG 25</name>
      <styleUrl>#cat1</styleUrl>
      <description><![CDATA[
        <table>
          <tr><td>HU HONE (CP012024)</td></tr>
          <tr><td><hr></td></tr>
          <tr><td>1800 UTC AUG 25, 2024</td></tr>
          <tr><td>Storm Location:</td></tr>
          <tr><td><b>18.6 N, 156.7 W</b></td></tr>
          <tr><td>Min Sea Level Pressure:</td></tr>
          <tr><td>990 mb / 29.23 in Hg</td></tr>
          <tr><td>Maximum Intensity:</td></tr>
          <tr><td>65 kt / 75 mph / 120 kph</td></tr>
        </table>
      ]]></description>
      <Point><coordinates>-156.7,18.6</coordinates></Point>
    </Placemark>
    <Placemark>
      <name>0000 UTC AUG 26</name>
      <styleUrl>#ts</styleUrl>
      <description><![CDATA[
        <table>
          <tr><td>TS HONE (CP012024)</td></tr>
          <tr><td><hr></td></tr>
          <tr><td>0000 UTC AUG 26, 2024</td></tr>
          <tr><td>Storm Location:</td></tr>
          <tr><td><b>19.0 N, 157.9 W</b></td></tr>
          <tr><td>Min Sea Level Pressure:</td></tr>
          <tr><td>994 mb / 29.35 in Hg</td></tr>
          <tr><td>Maximum Intensity:</td></tr>
          <tr><td>60 kt / 69 mph / 111 kph</td></tr>
        </table>
      ]]></description>
      <Point><coordinates>-157.9,19</coordinates></Point>
    </Placemark>
    <Placemark>
      <name>0600 UTC AUG 26</name>
      <styleUrl>#ts</styleUrl>
      <description><![CDATA[
        <table>
          <tr><td>TS HONE (CP012024)</td></tr>
          <tr><td><hr></td></tr>
          <tr><td>0600 UTC AUG 26, 2024</td></tr>
          <tr><td>Storm Location:</td></tr>
          <tr><td><b>19.1 N, 159.1 W</b></td></tr>
          <tr><td>Min Sea Level Pressure:</td></tr>
          <tr><td>996 mb / 29.41 in Hg</td></tr>
          <tr><td>Maximum Intensity:</td></tr>
          <tr><td>60 kt / 69 mph / 111 kph</td></tr>
        </table>
      ]]></description>
      <Point><coordinates>-159.1,19.1</coordinates></Point>
    </Placemark>
    <Placemark>
      <name>1200 UTC AUG 26</name>
      <styleUrl>#ts</styleUrl>
      <description><![CDATA[
        <table>
          <tr><td>TS HONE (CP012024)</td></tr>
          <tr><td><hr></td></tr>
          <tr><td>1200 UTC AUG 26, 2024</td></tr>
          <tr><td>Storm Location:</td></tr>
          <tr><td><b>19.1 N, 160.1 W</b></td></tr>
          <tr><td>Min Sea Level Pressure:</td></tr>
          <tr><td>998 mb / 29.47 in Hg</td></tr>
          <tr><td>Maximum Intensity:</td></tr>
          <tr><td>55 kt / 63 mph / 102 kph</td></tr>
        </table>
      ]]></description>
      <Point><coordinates>-160.1,19.1</coordinates></Point>
    </Placemark>
    <Placemark>
      <name>1800 UTC AUG 26</name>
      <styleUrl>#ts</styleUrl>
      <description><![CDATA[
        <table>
          <tr><td>TS HONE (CP012024)</td></tr>
          <tr><td><hr></td></tr>
          <tr><td>1800 UTC AUG 26, 2024</td></tr>
          <tr><td>Storm Location:</td></tr>
          <tr><td><b>19.1 N, 161.2 W</b></td></tr>
          <tr><td>Min Sea Level Pressure:</td></tr>
          <tr><td>998 mb / 29.47 in Hg</td></tr>
          <tr><td>Maximum Intensity:</td></tr>
          <tr><td>55 kt / 63 mph / 102 kph</td></tr>
        </table>
      ]]></description>
      <Point><coordinates>-161.2,19.1</coordinates></Point>
    </Placemark>
    <Placemark>
      <name>0000 UTC AUG 27</name>
      <styleUrl>#ts</styleUrl>
      <description><![CDATA[
        <table>
          <tr><td>TS HONE (CP012024)</td></tr>
          <tr><td><hr></td></tr>
          <tr><td>0000 UTC AUG 27, 2024</td></tr>
          <tr><td>Storm Location:</td></tr>
          <tr><td><b>19.4 N, 162.3 W</b></td></tr>
          <tr><td>Min Sea Level Pressure:</td></tr>
          <tr><td>1001 mb / 29.56 in Hg</td></tr>
          <tr><td>Maximum Intensity:</td></tr>
          <tr><td>50 kt / 58 mph / 93 kph</td></tr>
        </table>
      ]]></description>
      <Point><coordinates>-162.3,19.4</coordinates></Point>
    </Placemark>
    <Placemark>
      <name>0600 UTC AUG 27</name>
      <styleUrl>#ts</styleUrl>
      <description><![CDATA[
        <table>
          <tr><td>TS HONE (CP012024)</td></tr>
          <tr><td><hr></td></tr>
          <tr><td>0600 UTC AUG 27, 2024</td></tr>
          <tr><td>Storm Location:</td></tr>
          <tr><td><b>19.7 N, 163.5 W</b></td></tr>
          <tr><td>Min Sea Level Pressure:</td></tr>
          <tr><td>1001 mb / 29.56 in Hg</td></tr>
          <tr><td>Maximum Intensity:</td></tr>
          <tr><td>50 kt / 58 mph / 93 kph</td></tr>
        </table>
      ]]></description>
      <Point><coordinates>-163.5,19.7</coordinates></Point>
    </Placemark>
    <Placemark>
      <name>1200 UTC AUG 27</name>
      <styleUrl>#ts</styleUrl>
      <description><![CDATA[
        <table>
          <tr><td>TS HONE (CP012024)</td></tr>
          <tr><td><hr></td></tr>
          <tr><td>1200 UTC AUG 27, 2024</td></tr>
          <tr><td>Storm Location:</td></tr>
          <tr><td><b>19.8 N, 164.7 W</b></td></tr>
          <tr><td>Min Sea Level Pressure:</td></tr>
          <tr><td>1003 mb / 29.62 in Hg</td></tr>
          <tr><td>Maximum Intensity:</td></tr>
          <tr><td>45 kt / 52 mph / 83 kph</td></tr>
        </table>
      ]]></description>
      <Point><coordinates>-164.7,19.8</coordinates></Point>
    </Placemark>
    <Placemark>
      <name>1800 UTC AUG 27</name>
      <styleUrl>#ts</styleUrl>
      <description><![CDATA[
        <table>
          <tr><td>TS HONE (CP012024)</td></tr>
          <tr><td><hr></td></tr>
          <tr><td>1800 UTC AUG 27, 2024</td></tr>
          <tr><td>Storm Location:</td></tr>
          <tr><td><b>20.0 N, 165.6 W</b></td></tr>
          <tr><td>Min Sea Level Pressure:</td></tr>
          <tr><td>1003 mb / 29.62 in Hg</td></tr>
          <tr><td>Maximum Intensity:</td></tr>
          <tr><td>45 kt / 52 mph / 83 kph</td></tr>
        </table>
      ]]></description>
      <Point><coordinates>-165.6,20</coordinates></Point>
    </Placemark>
    <Placemark>
      <name>0000 UTC AUG 28</name>
      <styleUrl>#ts</styleUrl>
      <description><![CDATA[
        <table>
          <tr><td>TS HONE (CP012024)</td></tr>
          <tr><td><hr></td></tr>
          <tr><td>0000 UTC AUG 28, 2024</td></tr>
          <tr><td>Storm Location:</td></tr>
          <tr><td><b>20.2 N, 166.5 W</b></td></tr>
          <tr><td>Min Sea Level Pressure:</td></tr>
          <tr><td>1003 mb / 29.62 in Hg</td></tr>
          <tr><td>Maximum Intensity:</td></tr>
          <tr><td>45 kt / 52 mph / 83 kph</td></tr>
        </table>
      ]]></description>
      <Point><coordinates>-166.5,20.2</coordinates></Point>
    </Placemark>
    <Placemark>
      <name>0600 UTC AUG 28</name>
      <styleUrl>#ts</styleUrl>
      <description><![CDATA[
        <table>
          <tr><td>TS HONE (CP012024)</td></tr>
          <tr><td><hr></td></tr>
          <tr><td>0600 UTC AUG 28, 2024</td></tr>
          <tr><td>Storm Location:</td></tr>
          <tr><td><b>20.3 N, 167.3 W</b></td></tr>
          <tr><td>Min Sea Level Pressure:</td></tr>
          <tr><td>1003 mb / 29.62 in Hg</td></tr>
          <tr><td>Maximum Intensity:</td></tr>
          <tr><td>45 kt / 52 mph / 83 kph</td></tr>
        </table>
      ]]></description>
      <Point><coordinates>-167.3,20.3</coordinates></Point>
    </Placemark>
    <Placemark>
      <name>1200 UTC AUG 28</name>
      <styleUrl>#ts</styleUrl>
      <description><![CDATA[
        <table>
          <tr><td>TS HONE (CP012024)</td></tr>
          <tr><td><hr></td></tr>
          <tr><td>1200 UTC AUG 28, 2024</td></tr>
          <tr><td>Storm Location:</td></tr>
          <tr><td><b>20.4 N, 168.1 W</b></td></tr>
          <tr><td>Min Sea Level Pressure:</td></tr>
          <tr><td>1003 mb / 29.62 in Hg</td></tr>
          <tr><td>Maximum Intensity:</td></tr>
          <tr><td>45 kt / 52 mph / 83 kph</td></tr>
        </table>
      ]]></description>
      <Point><coordinates>-168.1,20.4</coordinates></Point>
    </Placemark>
    <Placemark>
      <name>1800 UTC AUG 28</name>
      <styleUrl>#ts</styleUrl>
      <description><![CDATA[
        <table>
          <tr><td>TS HONE (CP012024)</td></tr>
          <tr><td><hr></td></tr>
          <tr><td>1800 UTC AUG 28, 2024</td></tr>
          <tr><td>Storm Location:</td></tr>
          <tr><td><b>20.5 N, 168.9 W</b></td></tr>
          <tr><td>Min Sea Level Pressure:</td></tr>
          <tr><td>1003 mb / 29.62 in Hg</td></tr>
          <tr><td>Maximum Intensity:</td></tr>
          <tr><td>45 kt / 52 mph / 83 kph</td></tr>
        </table>
      ]]></description>
      <Point><coordinates>-168.9,20.5</coordinates></Point>
    </Placemark>
    <Placemark>
      <name>0000 UTC AUG 29</name>
      <styleUrl>#ts</styleUrl>
      <description><![CDATA[
        <table>
          <tr><td>TS HONE (CP012024)</td></tr>
          <tr><td><hr></td></tr>
          <tr><td>0000 UTC AUG 29, 2024</td></tr>
          <tr><td>Storm Location:</td></tr>
          <tr><td><b>20.6 N, 169.7 W</b></td></tr>
          <tr><td>Min Sea Level Pressure:</td></tr>
          <tr><td>1003 mb / 29.62 in Hg</td></tr>
          <tr><td>Maximum Intensity:</td></tr>
          <tr><td>45 kt / 52 mph / 83 kph</td></tr>
        </table>
      ]]></description>
      <Point><coordinates>-169.7,20.6</coordinates></Point>
    </Placemark>
    <Placemark>
      <name>0600 UTC AUG 29</name>
      <styleUrl>#ts</styleUrl>
      <description><![CDATA[
        <table>
          <tr><td>TS HONE (CP012024)</td></tr>
          <tr><td><hr></td></tr>
          <tr><td>0600 UTC AUG 29, 2024</td></tr>
          <tr><td>Storm Location:</td></tr>
          <tr><td><b>20.8 N, 170.6 W</b></td></tr>
          <tr><td>Min Sea Level Pressure:</td></tr>
          <tr><td>1005 mb / 29.68 in Hg</td></tr>
          <tr><td>Maximum Intensity:</td></tr>
          <tr><td>40 kt / 46 mph / 74 kph</td></tr>
        </table>
      ]]></description>
      <Point><coordinates>-170.6,20.8</coordinates></Point>
    </Placemark>
    <Placemark>
      <name>1200 UTC AUG 29</name>
      <styleUrl>#ts</styleUrl>
      <description><![CDATA[
        <table>
          <tr><td>TS HONE (CP012024)</td></tr>
          <tr><td><hr></td></tr>
          <tr><td>1200 UTC AUG 29, 2024</td></tr>
          <tr><td>Storm Location:</td></tr>
          <tr><td><b>21.0 N, 171.5 W</b></td></tr>
          <tr><td>Min Sea Level Pressure:</td></tr>
          <tr><td>1007 mb / 29.74 in Hg</td></tr>
          <tr><td>Maximum Intensity:</td></tr>
          <tr><td>35 kt / 40 mph / 65 kph</td></tr>
        </table>
      ]]></description>
      <Point><coordinates>-171.5,21</coordinates></Point>
    </Placemark>
    <Placemark>
      <name>1800 UTC AUG 29</name>
      <styleUrl>#ts</styleUrl>
      <description><![CDATA[
        <table>
          <tr><td>TS HONE (CP012024)</td></tr>
          <tr><td><hr></td></tr>
          <tr><td>1800 UTC AUG 29, 2024</td></tr>
          <tr><td>Storm Location:</td></tr>
          <tr><td><b>21.3 N, 172.2 W</b></td></tr>
          <tr><td>Min Sea Level Pressure:</td></tr>
          <tr><td>1007 mb / 29.74 in Hg</td></tr>
          <tr><td>Maximum Intensity:</td></tr>
          <tr><td>35 kt / 40 mph / 65 kph</td></tr>
        </table>
      ]]></description>
      <Point><coordinates>-172.2,21.3</coordinates></Point>
    </Placemark>
    <Placemark>
      <name>0000 UTC AUG 30</name>
      <styleUrl>#td</styleUrl>
      <description><![CDATA[
        <table>
          <tr><td>TD HONE (CP012024)</td></tr>
          <tr><td><hr></td></tr>
          <tr><td>0000 UTC AUG 30, 2024</td></tr>
          <tr><td>Storm Location:</td></tr>
          <tr><td><b>21.4 N, 173.0 W</b></td></tr>
          <tr><td>Min Sea Level Pressure:</td></tr>
          <tr><td>1008 mb / 29.77 in Hg</td></tr>
          <tr><td>Maximum Intensity:</td></tr>
          <tr><td>30 kt / 35 mph / 56 kph</td></tr>
        </table>
      ]]></description>
      <Point><coordinates>-173,21.4</coordinates></Point>
    </Placemark>
    <Placemark>
      <name>0600 UTC AUG 30</name>
      <styleUrl>#td</styleUrl>
      <description><![CDATA[
        <table>
          <tr><td>TD HONE (CP012024)</td></tr>
          <tr><td><hr></td></tr>
          <tr><td>0600 UTC AUG 30, 2024</td></tr>
          <tr><td>Storm Location:</td></tr>
          <tr><td><b>21.5 N, 173.7 W</b></td></tr>
          <tr><td>Min Sea Level Pressure:</td></tr>
          <tr><td>1008 mb / 29.77 in Hg</td></tr>
          <tr><td>Maximum Intensity:</td></tr>
          <tr><td>30 kt / 35 mph / 56 kph</td></tr>
        </table>
      ]]></description>
      <Point><coordinates>-173.7,21.5</coordinates></Point>
    </Placemark>
    <Placemark>
      <name>1200 UTC AUG 30</name>
      <styleUrl>#td</styleUrl>
      <description><![CDATA[
        <table>
          <tr><td>TD HONE (CP012024)</td></tr>
          <tr><td><hr></td></tr>
          <tr><td>1200 UTC AUG 30, 2024</td></tr>
          <tr><td>Storm Location:</td></tr>
          <tr><td><b>21.7 N, 174.4 W</b></td></tr>
          <tr><td>Min Sea Level Pressure:</td></tr>
          <tr><td>1008 mb / 29.77 in Hg</td></tr>
          <tr><td>Maximum Intensity:</td></tr>
          <tr><td>30 kt / 35 mph / 56 kph</td></tr>
        </table>
      ]]></description>
      <Point><coordinates>-174.4,21.7</coordinates></Point>
    </Placemark>
    <Placemark>
      <name>1800 UTC AUG 30</name>
      <styleUrl>#td</styleUrl>
      <description><![CDATA[
        <table>
          <tr><td>TD HONE (CP012024)</td></tr>
          <tr><td><hr></td></tr>
          <tr><td>1800 UTC AUG 30, 2024</td></tr>
          <tr><td>Storm Location:</td></tr>
          <tr><td><b>21.8 N, 175.3 W</b></td></tr>
          <tr><td>Min Sea Level Pressure:</td></tr>
          <tr><td>1008 mb / 29.77 in Hg</td></tr>
          <tr><td>Maximum Intensity:</td></tr>
          <tr><td>30 kt / 35 mph / 56 kph</td></tr>
        </table>
      ]]></description>
      <Point><coordinates>-175.3,21.8</coordinates></Point>
    </Placemark>
    <Placemark>
      <name>0000 UTC AUG 31</name>
      <styleUrl>#td</styleUrl>
      <description><![CDATA[
        <table>
          <tr><td>TD HONE (CP012024)</td></tr>
          <tr><td><hr></td></tr>
          <tr><td>0000 UTC AUG 31, 2024</td></tr>
          <tr><td>Storm Location:</td></tr>
          <tr><td><b>21.9 N, 175.7 W</b></td></tr>
          <tr><td>Min Sea Level Pressure:</td></tr>
          <tr><td>1008 mb / 29.77 in Hg</td></tr>
          <tr><td>Maximum Intensity:</td></tr>
          <tr><td>30 kt / 35 mph / 56 kph</td></tr>
        </table>
      ]]></description>
      <Point><coordinates>-175.7,21.9</coordinates></Point>
    </Placemark>
    <Placemark>
      <name>0600 UTC AUG 31</name>
      <styleUrl>#ts</styleUrl>
      <description><![CDATA[
        <table>
          <tr><td>TS HONE (CP012024)</td></tr>
          <tr><td><hr></td></tr>
          <tr><td>0600 UTC AUG 31, 2024</td></tr>
          <tr><td>Storm Location:</td></tr>
          <tr><td><b>22.1 N, 175.7 W</b></td></tr>
          <tr><td>Min Sea Level Pressure:</td></tr>
          <tr><td>1007 mb / 29.74 in Hg</td></tr>
          <tr><td>Maximum Intensity:</td></tr>
          <tr><td>35 kt / 40 mph / 65 kph</td></tr>
        </table>
      ]]></description>
      <Point><coordinates>-175.7,22.1</coordinates></Point>
    </Placemark>
    <Placemark>
      <name>1200 UTC AUG 31</name>
      <styleUrl>#ts</styleUrl>
      <description><![CDATA[
        <table>
          <tr><td>TS HONE (CP012024)</td></tr>
          <tr><td><hr></td></tr>
          <tr><td>1200 UTC AUG 31, 2024</td></tr>
          <tr><td>Storm Location:</td></tr>
          <tr><td><b>22.3 N, 175.9 W</b></td></tr>
          <tr><td>Min Sea Level Pressure:</td></tr>
          <tr><td>1005 mb / 29.68 in Hg</td></tr>
          <tr><td>Maximum Intensity:</td></tr>
          <tr><td>40 kt / 46 mph / 74 kph</td></tr>
        </table>
      ]]></description>
      <Point><coordinates>-175.9,22.3</coordinates></Point>
    </Placemark>
    <Placemark>
      <name>1800 UTC AUG 31</name>
      <styleUrl>#ts</styleUrl>
      <description><![CDATA[
        <table>
          <tr><td>TS HONE (CP012024)</td></tr>
          <tr><td><hr></td></tr>
          <tr><td>1800 UTC AUG 31, 2024</td></tr>
          <tr><td>Storm Location:</td></tr>
          <tr><td><b>22.5 N, 176.3 W</b></td></tr>
          <tr><td>Min Sea Level Pressure:</td></tr>
          <tr><td>1007 mb / 29.74 in Hg</td></tr>
          <tr><td>Maximum Intensity:</td></tr>
          <tr><td>35 kt / 40 mph / 65 kph</td></tr>
        </table>
      ]]></description>
      <Point><coordinates>-176.3,22.5</coordinates></Point>
    </Placemark>
    <Placemark>
      <name>0000 UTC SEP 1</name>
      <styleUrl>#ts</styleUrl>
      <description><![CDATA[
        <table>
          <tr><td>TS HONE (CP012024)</td></tr>
          <tr><td><hr></td></tr>
          <tr><td>0000 UTC SEP 1, 2024</td></tr>
          <tr><td>Storm Location:</td></tr>
          <tr><td><b>23.3 N, 176.5 W</b></td></tr>
          <tr><td>Min Sea Level Pressure:</td></tr>
          <tr><td>1007 mb / 29.74 in Hg</td></tr>
          <tr><td>Maximum Intensity:</td></tr>
          <tr><td>35 kt / 40 mph / 65 kph</td></tr>
        </table>
      ]]></description>
      <Point><coordinates>-176.5,23.3</coordinates></Point>
    </Placemark>
    <Placemark>
      <name>0600 UTC SEP 1</name>
      <styleUrl>#lo</styleUrl>
      <description><![CDATA[
        <table>
          <tr><td>LO HONE (CP012024)</td></tr>
          <tr><td><hr></td></tr>
          <tr><td>0600 UTC SEP 1, 2024</td></tr>
          <tr><td>Storm Location:</td></tr>
          <tr><td><b>23.8 N, 176.5 W</b></td></tr>
          <tr><td>Min Sea Level Pressure:</td></tr>
          <tr><td>1007 mb / 29.74 in Hg</td></tr>
          <tr><td>Maximum Intensity:</td></tr>
          <tr><td>35 kt / 40 mph / 65 kph</td></tr>
        </table>
      ]]></description>
      <Point><coordinates>-176.5,23.8</coordinates></Point>
    </Placemark>
  </Document>
</kml>
