<?xml version="1.0" encoding="UTF-8"?>
<kml xmlns="http://www.opengis.net/kml/2.2">
  <Document>
    <name>CP012025</name>
    <open>0</open>

    <!-- =====  Document header ===== -->
    <description><![CDATA[
      <table>
        <tr><td><b>Title:</b> Tropical Cyclone Best Track for CP012025</td></tr>
      </table>
    ]]></description>

    <!-- =====  Styles (ids must be unique)  ===== -->
	<Style id="pt"> 
		<IconStyle> 
			<scale>1.0</scale> 
			<Icon> 
				<href>ex_nhemi.png</href> 
			</Icon> 
             <hotSpot x="15" y="17" xunits="pixels" yunits="pixels"/>
		</IconStyle> 
		<LabelStyle> 
			<scale>1.0</scale> 
		</LabelStyle> 
	</Style>
	<Style id="cat5"> 
		<IconStyle> 
			<scale>1.0</scale> 
			<Icon> 
				<href>cat5_nhemi.png</href> 
			</Icon> 
             <hotSpot x="15" y="17" xunits="pixels" yunits="pixels"/>
		</IconStyle> 
		<LabelStyle> 
			<scale>1.0</scale> 
		</LabelStyle> 
	</Style>
	<Style id="db"> 
		<IconStyle> 
			<scale>1.0</scale> 
			<Icon> 
				<href>ex_nhemi.png</href> 
			</Icon> 
             <hotSpot x="15" y="17" xunits="pixels" yunits="pixels"/>
		</IconStyle> 
		<LabelStyle> 
			<scale>1.0</scale> 
		</LabelStyle> 
	</Style>
	<Style id="cat3"> 
		<IconStyle> 
			<scale>1.0</scale> 
			<Icon> 
				<href>cat3_nhemi.png</href> 
			</Icon> 
             <hotSpot x="15" y="17" xunits="pixels" yunits="pixels"/>
		</IconStyle> 
		<LabelStyle> 
			<scale>1.0</scale> 
		</LabelStyle> 
	</Style>
	<Style id="ss"> 
		<IconStyle> 
			<scale>1.0</scale> 
			<Icon> 
				<href>ts_nhemi.png</href> 
			</Icon> 
             <hotSpot x="15" y="17" xunits="pixels" yunits="pixels"/>
		</IconStyle> 
		<LabelStyle> 
			<scale>1.0</scale> 
		</LabelStyle> 
	</Style>
	<Style id="lo"> 
		<IconStyle> 
			<scale>1.0</scale> 
			<Icon> 
				<href>ex_nhemi.png</href> 
			</Icon> 
             <hotSpot x="15" y="17" xunits="pixels" yunits="pixels"/>
		</IconStyle> 
		<LabelStyle> 
			<scale>1.0</scale> 
		</LabelStyle> 
	</Style>
	<Style id="cat4"> 
		<IconStyle> 
			<scale>1.0</scale> 
			<Icon> 
				<href>cat4_nhemi.png</href> 
			</Icon> 
             <hotSpot x="15" y="17" xunits="pixels" yunits="pixels"/>
		</IconStyle> 
		<LabelStyle> 
			<scale>1.0</scale> 
		</LabelStyle> 
	</Style>
	<Style id="cat2"> 
		<IconStyle> 
			<scale>1.0</scale> 
			<Icon> 
				<href>cat2_nhemi.png</href> 
			</Icon> 
             <hotSpot x="15" y="17" xunits="pixels" yunits="pixels"/>
		</IconStyle> 
		<LabelStyle> 
			<scale>1.0</scale> 
		</LabelStyle> 
	</Style>
	<Style id="ts"> 
		<IconStyle> 
			<scale>1.0</scale> 
			<Icon> 
				<href>ts_nhemi.png</href> 
			</Icon> 
             <hotSpot x="15" y="17" xunits="pixels" yunits="pixels"/>
		</IconStyle> 
		<LabelStyle> 
			<scale>1.0</scale> 
		</LabelStyle> 
	</Style>
	<Style id="cat1"> 
		<IconStyle> 
			<scale>1.0</scale> 
			<Icon> 
				<href>cat1_nhemi.png</href> 
			</Icon> 
             <hotSpot x="15" y="17" xunits="pixels" yunits="pixels"/>
		</IconStyle> 
		<LabelStyle> 
			<scale>1.0</scale> 
		</LabelStyle> 
	</Style>
	<Style id="ex"> 
		<IconStyle> 
			<scale>1.0</scale> 
			<Icon> 
				<href>ex_nhemi.png</href> 
			</Icon> 
             <hotSpot x="15" y="17" xunits="pixels" yunits="pixels"/>
		</IconStyle> 
		<LabelStyle> 
			<scale>1.0</scale> 
		</LabelStyle> 
	</Style>
	<Style id="tc"> 
		<IconStyle> 
			<scale>1.0</scale> 
			<Icon> 
				<href>ex_nhemi.png</href> 
			</Icon> 
             <hotSpot x="15" y="17" xunits="pixels" yunits="pixels"/>
		</IconStyle> 
		<LabelStyle> 
			<scale>1.0</scale> 
		</LabelStyle> 
	</Style>
	<Style id="wv"> 
		<IconStyle> 
			<scale>1.0</scale> 
			<Icon> 
				<href>ex_nhemi.png</href> 
			</Icon> 
             <hotSpot x="15" y="17" xunits="pixels" yunits="pixels"/>
		</IconStyle> 
		<LabelStyle> 
			<scale>1.0</scale> 
		</LabelStyle> 
	</Style>
	<Style id="td"> 
		<IconStyle> 
			<scale>1.0</scale> 
			<Icon> 
				<href>td_nhemi.png</href> 
			</Icon> 
             <hotSpot x="15" y="17" xunits="pixels" yunits="pixels"/>
		</IconStyle> 
		<LabelStyle> 
			<scale>1.0</scale> 
		</LabelStyle> 
	</Style>
	<Style id="sd"> 
		<IconStyle> 
			<scale>1.0</scale> 
			<Icon> 
				<href>ex_nhemi.png</href> 
			</Icon> 
             <hotSpot x="15" y="17" xunits="pixels" yunits="pixels"/>
		</IconStyle> 
		<LabelStyle> 
			<scale>1.0</scale> 
		</LabelStyle> 
	</Style>

    <Placemark>
      <name>0000 UTC JUL 26</name>
      <styleUrl>#lo</styleUrl>
      <description><![CDATA[
        <table>
          <tr><td>LO IONA (CP012025)</td></tr>
          <tr><td><hr></td></tr>
          <tr><td>0000 UTC JUL 26, 2025</td></tr>
          <tr><td>Storm Location:</td></tr>
          <tr><td><b>10.5 N, 140.9 W</b></td></tr>
          <tr><td>Min Sea Level Pressure:</td></tr>
          <tr><td>1009 mb / 29.80 in Hg</td></tr>
          <tr><td>Maximum Intensity:</td></tr>
          <tr><td>25 kt / 29 mph / 46 kph</td></tr>
        </table>
      ]]></description>
      <Point><coordinates>-140.9,10.5</coordinates></Point>
    </Placemark>
    <Placemark>
      <name>0600 UTC JUL 26</name>
      <styleUrl>#lo</styleUrl>
      <description><![CDATA[
        <table>
          <tr><td>LO IONA (CP012025)</td></tr>
          <tr><td><hr></td></tr>
          <tr><td>0600 UTC JUL 26, 2025</td></tr>
          <tr><td>Storm Location:</td></tr>
          <tr><td><b>10.7 N, 141.6 W</b></td></tr>
          <tr><td>Min Sea Level Pressure:</td></tr>
          <tr><td>1009 mb / 29.80 in Hg</td></tr>
          <tr><td>Maximum Intensity:</td></tr>
          <tr><td>25 kt / 29 mph / 46 kph</td></tr>
        </table>
      ]]></description>
      <Point><coordinates>-141.6,10.7</coordinates></Point>
    </Placemark>
    <Placemark>
      <name>1200 UTC JUL 26</name>
      <styleUrl>#lo</styleUrl>
      <description><![CDATA[
        <table>
          <tr><td>LO IONA (CP012025)</td></tr>
          <tr><td><hr></td></tr>
          <tr><td>1200 UTC JUL 26, 2025</td></tr>
          <tr><td>Storm Location:</td></tr>
          <tr><td><b>10.8 N, 142.3 W</b></td></tr>
          <tr><td>Min Sea Level Pressure:</td></tr>
          <tr><td>1009 mb / 29.80 in Hg</td></tr>
          <tr><td>Maximum Intensity:</td></tr>
          <tr><td>25 kt / 29 mph / 46 kph</td></tr>
        </table>
      ]]></description>
      <Point><coordinates>-142.3,10.8</coordinates></Point>
    </Placemark>
    <Placemark>
      <name>1800 UTC JUL 26</name>
      <styleUrl>#lo</styleUrl>
      <description><![CDATA[
        <table>
          <tr><td>LO IONA (CP012025)</td></tr>
          <tr><td><hr></td></tr>
          <tr><td>1800 UTC JUL 26, 2025</td></tr>
          <tr><td>Storm Location:</td></tr>
          <tr><td><b>10.9 N, 143.1 W</b></td></tr>
          <tr><td>Min Sea Level Pressure:</td></tr>
          <tr><td>1009 mb / 29.80 in Hg</td></tr>
          <tr><td>Maximum Intensity:</td></tr>
          <tr><td>25 kt / 29 mph / 46 kph</td></tr>
        </table>
      ]]></description>
      <Point><coordinates>-143.1,10.9</coordinates></Point>
    </Placemark>
    <Placemark>
      <name>0000 UTC JUL 27</name>
      <styleUrl>#td</styleUrl>
      <description><![CDATA[
        <table>
          <tr><td>TD IONA (CP012025)</td></tr>
          <tr><td><hr></td></tr>
          <tr><td>0000 UTC JUL 27, 2025</td></tr>
          <tr><td>Storm Location:</td></tr>
          <tr><td><b>10.9 N, 144.1 W</b></td></tr>
          <tr><td>Min Sea Level Pressure:</td></tr>
          <tr><td>1008 mb / 29.77 in Hg</td></tr>
          <tr><td>Maximum Intensity:</td></tr>
          <tr><td>25 kt / 29 mph / 46 kph</td></tr>
        </table>
      ]]></description>
      <Point><coordinates>-144.1,10.9</coordinates></Point>
    </Placemark>
    <Placemark>
      <name>0600 UTC JUL 27</name>
      <styleUrl>#td</styleUrl>
      <description><![CDATA[
        <table>
          <tr><td>TD IONA (CP012025)</td></tr>
          <tr><td><hr></td></tr>
          <tr><td>0600 UTC JUL 27, 2025</td></tr>
          <tr><td>Storm Location:</td></tr>
          <tr><td><b>10.9 N, 145.1 W</b></td></tr>
          <tr><td>Min Sea Level Pressure:</td></tr>
          <tr><td>1007 mb / 29.74 in Hg</td></tr>
          <tr><td>Maximum Intensity:</td></tr>
          <tr><td>30 kt / 35 mph / 56 kph</td></tr>
        </table>
      ]]></description>
      <Point><coordinates>-145.1,10.9</coordinates></Point>
    </Placemark>
    <Placemark>
      <name>1200 UTC JUL 27</name>
      <styleUrl>#td</styleUrl>
      <description><![CDATA[
        <table>
          <tr><td>TD IONA (CP012025)</td></tr>
          <tr><td><hr></td></tr>
          <tr><td>1200 UTC JUL 27, 2025</td></tr>
          <tr><td>Storm Location:</td></tr>
          <tr><td><b>10.9 N, 146.0 W</b></td></tr>
          <tr><td>Min Sea Level Pressure:</td></tr>
          <tr><td>1007 mb / 29.74 in Hg</td></tr>
          <tr><td>Maximum Intensity:</td></tr>
          <tr><td>30 kt / 35 mph / 56 kph</td></tr>
        </table>
      ]]></description>
      <Point><coordinates>-146,10.9</coordinates></Point>
    </Placemark>
    <Placemark>
      <name>1800 UTC JUL 27</name>
      <styleUrl>#ts</styleUrl>
      <description><![CDATA[
        <table>
          <tr><td>TS IONA (CP012025)</td></tr>
          <tr><td><hr></td></tr>
          <tr><td>1800 UTC JUL 27, 2025</td></tr>
          <tr><td>Storm Location:</td></tr>
          <tr><td><b>10.9 N, 146.9 W</b></td></tr>
          <tr><td>Min Sea Level Pressure:</td></tr>
          <tr><td>1006 mb / 29.71 in Hg</td></tr>
          <tr><td>Maximum Intensity:</td></tr>
          <tr><td>35 kt / 40 mph / 65 kph</td></tr>
        </table>
      ]]></description>
      <Point><coordinates>-146.9,10.9</coordinates></Point>
    </Placemark>
    <Placemark>
      <name>0000 UTC JUL 28</name>
      <styleUrl>#ts</styleUrl>
      <description><![CDATA[
        <table>
          <tr><td>TS IONA (CP012025)</td></tr>
          <tr><td><hr></td></tr>
          <tr><td>0000 UTC JUL 28, 2025</td></tr>
          <tr><td>Storm Location:</td></tr>
          <tr><td><b>10.9 N, 147.8 W</b></td></tr>
          <tr><td>Min Sea Level Pressure:</td></tr>
          <tr><td>1005 mb / 29.68 in Hg</td></tr>
          <tr><td>Maximum Intensity:</td></tr>
          <tr><td>40 kt / 46 mph / 74 kph</td></tr>
        </table>
      ]]></description>
      <Point><coordinates>-147.8,10.9</coordinates></Point>
    </Placemark>
    <Placemark>
      <name>0600 UTC JUL 28</name>
      <styleUrl>#ts</styleUrl>
      <description><![CDATA[
        <table>
          <tr><td>TS IONA (CP012025)</td></tr>
          <tr><td><hr></td></tr>
          <tr><td>0600 UTC JUL 28, 2025</td></tr>
          <tr><td>Storm Location:</td></tr>
          <tr><td><b>10.8 N, 148.8 W</b></td></tr>
          <tr><td>Min Sea Level Pressure:</td></tr>
          <tr><td>1004 mb / 29.65 in Hg</td></tr>
          <tr><td>Maximum Intensity:</td></tr>
          <tr><td>45 kt / 52 mph / 83 kph</td></tr>
        </table>
      ]]></description>
      <Point><coordinates>-148.8,10.8</coordinates></Point>
    </Placemark>
    <Placemark>
      <name>1200 UTC JUL 28</name>
      <styleUrl>#ts</styleUrl>
      <description><![CDATA[
        <table>
          <tr><td>TS IONA (CP012025)</td></tr>
          <tr><td><hr></td></tr>
          <tr><td>1200 UTC JUL 28, 2025</td></tr>
          <tr><td>Storm Location:</td></tr>
          <tr><td><b>10.7 N, 149.7 W</b></td></tr>
          <tr><td>Min Sea Level Pressure:</td></tr>
          <tr><td>1001 mb / 29.56 in Hg</td></tr>
          <tr><td>Maximum Intensity:</td></tr>
          <tr><td>55 kt / 63 mph / 102 kph</td></tr>
        </table>
      ]]></description>
      <Point><coordinates>-149.7,10.7</coordinates></Point>
    </Placemark>
    <Placemark>
      <name>1800 UTC JUL 28</name>
      <styleUrl>#cat1</styleUrl>
      <description><![CDATA[
        <table>
          <tr><td>HU IONA (CP012025)</td></tr>
          <tr><td><hr></td></tr>
          <tr><td>1800 UTC JUL 28, 2025</td></tr>
          <tr><td>Storm Location:</td></tr>
          <tr><td><b>10.7 N, 150.6 W</b></td></tr>
          <tr><td>Min Sea Level Pressure:</td></tr>
          <tr><td>996 mb / 29.41 in Hg</td></tr>
          <tr><td>Maximum Intensity:</td></tr>
          <tr><td>65 kt / 75 mph / 120 kph</td></tr>
        </table>
      ]]></description>
      <Point><coordinates>-150.6,10.7</coordinates></Point>
    </Placemark>
    <Placemark>
      <name>0000 UTC JUL 29</name>
      <styleUrl>#cat1</styleUrl>
      <description><![CDATA[
        <table>
          <tr><td>HU IONA (CP012025)</td></tr>
          <tr><td><hr></td></tr>
          <tr><td>0000 UTC JUL 29, 2025</td></tr>
          <tr><td>Storm Location:</td></tr>
          <tr><td><b>10.8 N, 151.6 W</b></td></tr>
          <tr><td>Min Sea Level Pressure:</td></tr>
          <tr><td>988 mb / 29.18 in Hg</td></tr>
          <tr><td>Maximum Intensity:</td></tr>
          <tr><td>75 kt / 86 mph / 139 kph</td></tr>
        </table>
      ]]></description>
      <Point><coordinates>-151.6,10.8</coordinates></Point>
    </Placemark>
    <Placemark>
      <name>0600 UTC JUL 29</name>
      <styleUrl>#cat3</styleUrl>
      <description><![CDATA[
        <table>
          <tr><td>HU IONA (CP012025)</td></tr>
          <tr><td><hr></td></tr>
          <tr><td>0600 UTC JUL 29, 2025</td></tr>
          <tr><td>Storm Location:</td></tr>
          <tr><td><b>10.8 N, 152.6 W</b></td></tr>
          <tr><td>Min Sea Level Pressure:</td></tr>
          <tr><td>970 mb / 28.64 in Hg</td></tr>
          <tr><td>Maximum Intensity:</td></tr>
          <tr><td>100 kt / 115 mph / 185 kph</td></tr>
        </table>
      ]]></description>
      <Point><coordinates>-152.6,10.8</coordinates></Point>
    </Placemark>
    <Placemark>
      <name>1200 UTC JUL 29</name>
      <styleUrl>#cat4</styleUrl>
      <description><![CDATA[
        <table>
          <tr><td>HU IONA (CP012025)</td></tr>
          <tr><td><hr></td></tr>
          <tr><td>1200 UTC JUL 29, 2025</td></tr>
          <tr><td>Storm Location:</td></tr>
          <tr><td><b>10.8 N, 153.7 W</b></td></tr>
          <tr><td>Min Sea Level Pressure:</td></tr>
          <tr><td>956 mb / 28.23 in Hg</td></tr>
          <tr><td>Maximum Intensity:</td></tr>
          <tr><td>115 kt / 132 mph / 213 kph</td></tr>
        </table>
      ]]></description>
      <Point><coordinates>-153.7,10.8</coordinates></Point>
    </Placemark>
    <Placemark>
      <name>1800 UTC JUL 29</name>
      <styleUrl>#cat3</styleUrl>
      <description><![CDATA[
        <table>
          <tr><td>HU IONA (CP012025)</td></tr>
          <tr><td><hr></td></tr>
          <tr><td>1800 UTC JUL 29, 2025</td></tr>
          <tr><td>Storm Location:</td></tr>
          <tr><td><b>10.9 N, 155.0 W</b></td></tr>
          <tr><td>Min Sea Level Pressure:</td></tr>
          <tr><td>960 mb / 28.35 in Hg</td></tr>
          <tr><td>Maximum Intensity:</td></tr>
          <tr><td>110 kt / 127 mph / 204 kph</td></tr>
        </table>
      ]]></description>
      <Point><coordinates>-155,10.9</coordinates></Point>
    </Placemark>
    <Placemark>
      <name>0000 UTC JUL 30</name>
      <styleUrl>#cat3</styleUrl>
      <description><![CDATA[
        <table>
          <tr><td>HU IONA (CP012025)</td></tr>
          <tr><td><hr></td></tr>
          <tr><td>0000 UTC JUL 30, 2025</td></tr>
          <tr><td>Storm Location:</td></tr>
          <tr><td><b>11.0 N, 156.4 W</b></td></tr>
          <tr><td>Min Sea Level Pressure:</td></tr>
          <tr><td>968 mb / 28.59 in Hg</td></tr>
          <tr><td>Maximum Intensity:</td></tr>
          <tr><td>100 kt / 115 mph / 185 kph</td></tr>
        </table>
      ]]></description>
      <Point><coordinates>-156.4,11</coordinates></Point>
    </Placemark>
    <Placemark>
      <name>0600 UTC JUL 30</name>
      <styleUrl>#cat2</styleUrl>
      <description><![CDATA[
        <table>
          <tr><td>HU IONA (CP012025)</td></tr>
          <tr><td><hr></td></tr>
          <tr><td>0600 UTC JUL 30, 2025</td></tr>
          <tr><td>Storm Location:</td></tr>
          <tr><td><b>11.2 N, 157.9 W</b></td></tr>
          <tr><td>Min Sea Level Pressure:</td></tr>
          <tr><td>976 mb / 28.82 in Hg</td></tr>
          <tr><td>Maximum Intensity:</td></tr>
          <tr><td>90 kt / 104 mph / 167 kph</td></tr>
        </table>
      ]]></description>
      <Point><coordinates>-157.9,11.2</coordinates></Point>
    </Placemark>
    <Placemark>
      <name>1200 UTC JUL 30</name>
      <styleUrl>#cat1</styleUrl>
      <description><![CDATA[
        <table>
          <tr><td>HU IONA (CP012025)</td></tr>
          <tr><td><hr></td></tr>
          <tr><td>1200 UTC JUL 30, 2025</td></tr>
          <tr><td>Storm Location:</td></tr>
          <tr><td><b>11.4 N, 159.6 W</b></td></tr>
          <tr><td>Min Sea Level Pressure:</td></tr>
          <tr><td>991 mb / 29.26 in Hg</td></tr>
          <tr><td>Maximum Intensity:</td></tr>
          <tr><td>70 kt / 81 mph / 130 kph</td></tr>
        </table>
      ]]></description>
      <Point><coordinates>-159.6,11.4</coordinates></Point>
    </Placemark>
    <Placemark>
      <name>1800 UTC JUL 30</name>
      <styleUrl>#ts</styleUrl>
      <description><![CDATA[
        <table>
          <tr><td>TS IONA (CP012025)</td></tr>
          <tr><td><hr></td></tr>
          <tr><td>1800 UTC JUL 30, 2025</td></tr>
          <tr><td>Storm Location:</td></tr>
          <tr><td><b>11.6 N, 161.7 W</b></td></tr>
          <tr><td>Min Sea Level Pressure:</td></tr>
          <tr><td>1000 mb / 29.53 in Hg</td></tr>
          <tr><td>Maximum Intensity:</td></tr>
          <tr><td>55 kt / 63 mph / 102 kph</td></tr>
        </table>
      ]]></description>
      <Point><coordinates>-161.7,11.6</coordinates></Point>
    </Placemark>
    <Placemark>
      <name>0000 UTC JUL 31</name>
      <styleUrl>#ts</styleUrl>
      <description><![CDATA[
        <table>
          <tr><td>TS IONA (CP012025)</td></tr>
          <tr><td><hr></td></tr>
          <tr><td>0000 UTC JUL 31, 2025</td></tr>
          <tr><td>Storm Location:</td></tr>
          <tr><td><b>11.8 N, 163.8 W</b></td></tr>
          <tr><td>Min Sea Level Pressure:</td></tr>
          <tr><td>1002 mb / 29.59 in Hg</td></tr>
          <tr><td>Maximum Intensity:</td></tr>
          <tr><td>45 kt / 52 mph / 83 kph</td></tr>
        </table>
      ]]></description>
      <Point><coordinates>-163.8,11.8</coordinates></Point>
    </Placemark>
    <Placemark>
      <name>0600 UTC JUL 31</name>
      <styleUrl>#ts</styleUrl>
      <description><![CDATA[
        <table>
          <tr><td>TS IONA (CP012025)</td></tr>
          <tr><td><hr></td></tr>
          <tr><td>0600 UTC JUL 31, 2025</td></tr>
          <tr><td>Storm Location:</td></tr>
          <tr><td><b>12.1 N, 165.9 W</b></td></tr>
          <tr><td>Min Sea Level Pressure:</td></tr>
          <tr><td>1002 mb / 29.59 in Hg</td></tr>
          <tr><td>Maximum Intensity:</td></tr>
          <tr><td>45 kt / 52 mph / 83 kph</td></tr>
        </table>
      ]]></description>
      <Point><coordinates>-165.9,12.1</coordinates></Point>
    </Placemark>
    <Placemark>
      <name>1200 UTC JUL 31</name>
      <styleUrl>#ts</styleUrl>
      <description><![CDATA[
        <table>
          <tr><td>TS IONA (CP012025)</td></tr>
          <tr><td><hr></td></tr>
          <tr><td>1200 UTC JUL 31, 2025</td></tr>
          <tr><td>Storm Location:</td></tr>
          <tr><td><b>12.5 N, 167.9 W</b></td></tr>
          <tr><td>Min Sea Level Pressure:</td></tr>
          <tr><td>1004 mb / 29.65 in Hg</td></tr>
          <tr><td>Maximum Intensity:</td></tr>
          <tr><td>40 kt / 46 mph / 74 kph</td></tr>
        </table>
      ]]></description>
      <Point><coordinates>-167.9,12.5</coordinates></Point>
    </Placemark>
    <Placemark>
      <name>1800 UTC JUL 31</name>
      <styleUrl>#ts</styleUrl>
      <description><![CDATA[
        <table>
          <tr><td>TS IONA (CP012025)</td></tr>
          <tr><td><hr></td></tr>
          <tr><td>1800 UTC JUL 31, 2025</td></tr>
          <tr><td>Storm Location:</td></tr>
          <tr><td><b>13.0 N, 169.8 W</b></td></tr>
          <tr><td>Min Sea Level Pressure:</td></tr>
          <tr><td>1004 mb / 29.65 in Hg</td></tr>
          <tr><td>Maximum Intensity:</td></tr>
          <tr><td>40 kt / 46 mph / 74 kph</td></tr>
        </table>
      ]]></description>
      <Point><coordinates>-169.8,13</coordinates></Point>
    </Placemark>
    <Placemark>
      <name>0000 UTC AUG 1</name>
      <styleUrl>#ts</styleUrl>
      <description><![CDATA[
        <table>
          <tr><td>TS IONA (CP012025)</td></tr>
          <tr><td><hr></td></tr>
          <tr><td>0000 UTC AUG 1, 2025</td></tr>
          <tr><td>Storm Location:</td></tr>
          <tr><td><b>13.4 N, 171.7 W</b></td></tr>
          <tr><td>Min Sea Level Pressure:</td></tr>
          <tr><td>1006 mb / 29.71 in Hg</td></tr>
          <tr><td>Maximum Intensity:</td></tr>
          <tr><td>35 kt / 40 mph / 65 kph</td></tr>
        </table>
      ]]></description>
      <Point><coordinates>-171.7,13.4</coordinates></Point>
    </Placemark>
    <Placemark>
      <name>0600 UTC AUG 1</name>
      <styleUrl>#td</styleUrl>
      <description><![CDATA[
        <table>
          <tr><td>TD IONA (CP012025)</td></tr>
          <tr><td><hr></td></tr>
          <tr><td>0600 UTC AUG 1, 2025</td></tr>
          <tr><td>Storm Location:</td></tr>
          <tr><td><b>13.6 N, 173.6 W</b></td></tr>
          <tr><td>Min Sea Level Pressure:</td></tr>
          <tr><td>1007 mb / 29.74 in Hg</td></tr>
          <tr><td>Maximum Intensity:</td></tr>
          <tr><td>30 kt / 35 mph / 56 kph</td></tr>
        </table>
      ]]></description>
      <Point><coordinates>-173.6,13.6</coordinates></Point>
    </Placemark>
    <Placemark>
      <name>1200 UTC AUG 1</name>
      <styleUrl>#td</styleUrl>
      <description><![CDATA[
        <table>
          <tr><td>TD IONA (CP012025)</td></tr>
          <tr><td><hr></td></tr>
          <tr><td>1200 UTC AUG 1, 2025</td></tr>
          <tr><td>Storm Location:</td></tr>
          <tr><td><b>13.8 N, 175.5 W</b></td></tr>
          <tr><td>Min Sea Level Pressure:</td></tr>
          <tr><td>1007 mb / 29.74 in Hg</td></tr>
          <tr><td>Maximum Intensity:</td></tr>
          <tr><td>30 kt / 35 mph / 56 kph</td></tr>
        </table>
      ]]></description>
      <Point><coordinates>-175.5,13.8</coordinates></Point>
    </Placemark>
  </Document>
</kml>
