<?xml version="1.0" encoding="UTF-8"?>
<kml xmlns="http://www.opengis.net/kml/2.2">
  <Document>
    <name>EP042025</name>
    <open>0</open>

    <!-- =====  Document header ===== -->
    <description><![CDATA[
      <table>
        <tr><td><b>Title:</b> Tropical Cyclone Best Track for EP042025</td></tr>
      </table>
    ]]></description>

    <!-- =====  Styles (ids must be unique)  ===== -->
	<Style id="pt"> 
		<IconStyle> 
			<scale>1.0</scale> 
			<Icon> 
				<href>ex_nhemi.png</href> 
			</Icon> 
             <hotSpot x="15" y="17" xunits="pixels" yunits="pixels"/>
		</IconStyle> 
		<LabelStyle> 
			<scale>1.0</scale> 
		</LabelStyle> 
	</Style>
	<Style id="cat5"> 
		<IconStyle> 
			<scale>1.0</scale> 
			<Icon> 
				<href>cat5_nhemi.png</href> 
			</Icon> 
             <hotSpot x="15" y="17" xunits="pixels" yunits="pixels"/>
		</IconStyle> 
		<LabelStyle> 
			<scale>1.0</scale> 
		</LabelStyle> 
	</Style>
	<Style id="db"> 
		<IconStyle> 
			<scale>1.0</scale> 
			<Icon> 
				<href>ex_nhemi.png</href> 
			</Icon> 
             <hotSpot x="15" y="17" xunits="pixels" yunits="pixels"/>
		</IconStyle> 
		<LabelStyle> 
			<scale>1.0</scale> 
		</LabelStyle> 
	</Style>
	<Style id="cat3"> 
		<IconStyle> 
			<scale>1.0</scale> 
			<Icon> 
				<href>cat3_nhemi.png</href> 
			</Icon> 
             <hotSpot x="15" y="17" xunits="pixels" yunits="pixels"/>
		</IconStyle> 
		<LabelStyle> 
			<scale>1.0</scale> 
		</LabelStyle> 
	</Style>
	<Style id="ss"> 
		<IconStyle> 
			<scale>1.0</scale> 
			<Icon> 
				<href>ts_nhemi.png</href> 
			</Icon> 
             <hotSpot x="15" y="17" xunits="pixels" yunits="pixels"/>
		</IconStyle> 
		<LabelStyle> 
			<scale>1.0</scale> 
		</LabelStyle> 
	</Style>
	<Style id="lo"> 
		<IconStyle> 
			<scale>1.0</scale> 
			<Icon> 
				<href>ex_nhemi.png</href> 
			</Icon> 
             <hotSpot x="15" y="17" xunits="pixels" yunits="pixels"/>
		</IconStyle> 
		<LabelStyle> 
			<scale>1.0</scale> 
		</LabelStyle> 
	</Style>
	<Style id="cat4"> 
		<IconStyle> 
			<scale>1.0</scale> 
			<Icon> 
				<href>cat4_nhemi.png</href> 
			</Icon> 
             <hotSpot x="15" y="17" xunits="pixels" yunits="pixels"/>
		</IconStyle> 
		<LabelStyle> 
			<scale>1.0</scale> 
		</LabelStyle> 
	</Style>
	<Style id="cat2"> 
		<IconStyle> 
			<scale>1.0</scale> 
			<Icon> 
				<href>cat2_nhemi.png</href> 
			</Icon> 
             <hotSpot x="15" y="17" xunits="pixels" yunits="pixels"/>
		</IconStyle> 
		<LabelStyle> 
			<scale>1.0</scale> 
		</LabelStyle> 
	</Style>
	<Style id="ts"> 
		<IconStyle> 
			<scale>1.0</scale> 
			<Icon> 
				<href>ts_nhemi.png</href> 
			</Icon> 
             <hotSpot x="15" y="17" xunits="pixels" yunits="pixels"/>
		</IconStyle> 
		<LabelStyle> 
			<scale>1.0</scale> 
		</LabelStyle> 
	</Style>
	<Style id="cat1"> 
		<IconStyle> 
			<scale>1.0</scale> 
			<Icon> 
				<href>cat1_nhemi.png</href> 
			</Icon> 
             <hotSpot x="15" y="17" xunits="pixels" yunits="pixels"/>
		</IconStyle> 
		<LabelStyle> 
			<scale>1.0</scale> 
		</LabelStyle> 
	</Style>
	<Style id="ex"> 
		<IconStyle> 
			<scale>1.0</scale> 
			<Icon> 
				<href>ex_nhemi.png</href> 
			</Icon> 
             <hotSpot x="15" y="17" xunits="pixels" yunits="pixels"/>
		</IconStyle> 
		<LabelStyle> 
			<scale>1.0</scale> 
		</LabelStyle> 
	</Style>
	<Style id="tc"> 
		<IconStyle> 
			<scale>1.0</scale> 
			<Icon> 
				<href>ex_nhemi.png</href> 
			</Icon> 
             <hotSpot x="15" y="17" xunits="pixels" yunits="pixels"/>
		</IconStyle> 
		<LabelStyle> 
			<scale>1.0</scale> 
		</LabelStyle> 
	</Style>
	<Style id="wv"> 
		<IconStyle> 
			<scale>1.0</scale> 
			<Icon> 
				<href>ex_nhemi.png</href> 
			</Icon> 
             <hotSpot x="15" y="17" xunits="pixels" yunits="pixels"/>
		</IconStyle> 
		<LabelStyle> 
			<scale>1.0</scale> 
		</LabelStyle> 
	</Style>
	<Style id="td"> 
		<IconStyle> 
			<scale>1.0</scale> 
			<Icon> 
				<href>td_nhemi.png</href> 
			</Icon> 
             <hotSpot x="15" y="17" xunits="pixels" yunits="pixels"/>
		</IconStyle> 
		<LabelStyle> 
			<scale>1.0</scale> 
		</LabelStyle> 
	</Style>
	<Style id="sd"> 
		<IconStyle> 
			<scale>1.0</scale> 
			<Icon> 
				<href>ex_nhemi.png</href> 
			</Icon> 
             <hotSpot x="15" y="17" xunits="pixels" yunits="pixels"/>
		</IconStyle> 
		<LabelStyle> 
			<scale>1.0</scale> 
		</LabelStyle> 
	</Style>

    <Placemark>
      <name>1800 UTC JUN 12</name>
      <styleUrl>#db</styleUrl>
      <description><![CDATA[
        <table>
          <tr><td>DB DALILA (EP042025)</td></tr>
          <tr><td><hr></td></tr>
          <tr><td>1800 UTC JUN 12, 2025</td></tr>
          <tr><td>Storm Location:</td></tr>
          <tr><td><b>11.1 N, 100.1 W</b></td></tr>
          <tr><td>Min Sea Level Pressure:</td></tr>
          <tr><td>1006 mb / 29.71 in Hg</td></tr>
          <tr><td>Maximum Intensity:</td></tr>
          <tr><td>30 kt / 35 mph / 56 kph</td></tr>
        </table>
      ]]></description>
      <Point><coordinates>-100.1,11.1</coordinates></Point>
    </Placemark>
    <Placemark>
      <name>0000 UTC JUN 13</name>
      <styleUrl>#db</styleUrl>
      <description><![CDATA[
        <table>
          <tr><td>DB DALILA (EP042025)</td></tr>
          <tr><td><hr></td></tr>
          <tr><td>0000 UTC JUN 13, 2025</td></tr>
          <tr><td>Storm Location:</td></tr>
          <tr><td><b>11.5 N, 100.5 W</b></td></tr>
          <tr><td>Min Sea Level Pressure:</td></tr>
          <tr><td>1006 mb / 29.71 in Hg</td></tr>
          <tr><td>Maximum Intensity:</td></tr>
          <tr><td>30 kt / 35 mph / 56 kph</td></tr>
        </table>
      ]]></description>
      <Point><coordinates>-100.5,11.5</coordinates></Point>
    </Placemark>
    <Placemark>
      <name>0600 UTC JUN 13</name>
      <styleUrl>#db</styleUrl>
      <description><![CDATA[
        <table>
          <tr><td>DB DALILA (EP042025)</td></tr>
          <tr><td><hr></td></tr>
          <tr><td>0600 UTC JUN 13, 2025</td></tr>
          <tr><td>Storm Location:</td></tr>
          <tr><td><b>12.5 N, 100.8 W</b></td></tr>
          <tr><td>Min Sea Level Pressure:</td></tr>
          <tr><td>1006 mb / 29.71 in Hg</td></tr>
          <tr><td>Maximum Intensity:</td></tr>
          <tr><td>30 kt / 35 mph / 56 kph</td></tr>
        </table>
      ]]></description>
      <Point><coordinates>-100.8,12.5</coordinates></Point>
    </Placemark>
    <Placemark>
      <name>1200 UTC JUN 13</name>
      <styleUrl>#td</styleUrl>
      <description><![CDATA[
        <table>
          <tr><td>TD DALILA (EP042025)</td></tr>
          <tr><td><hr></td></tr>
          <tr><td>1200 UTC JUN 13, 2025</td></tr>
          <tr><td>Storm Location:</td></tr>
          <tr><td><b>13.4 N, 101.3 W</b></td></tr>
          <tr><td>Min Sea Level Pressure:</td></tr>
          <tr><td>1005 mb / 29.68 in Hg</td></tr>
          <tr><td>Maximum Intensity:</td></tr>
          <tr><td>30 kt / 35 mph / 56 kph</td></tr>
        </table>
      ]]></description>
      <Point><coordinates>-101.3,13.4</coordinates></Point>
    </Placemark>
    <Placemark>
      <name>1800 UTC JUN 13</name>
      <styleUrl>#ts</styleUrl>
      <description><![CDATA[
        <table>
          <tr><td>TS DALILA (EP042025)</td></tr>
          <tr><td><hr></td></tr>
          <tr><td>1800 UTC JUN 13, 2025</td></tr>
          <tr><td>Storm Location:</td></tr>
          <tr><td><b>14.2 N, 101.8 W</b></td></tr>
          <tr><td>Min Sea Level Pressure:</td></tr>
          <tr><td>1001 mb / 29.56 in Hg</td></tr>
          <tr><td>Maximum Intensity:</td></tr>
          <tr><td>35 kt / 40 mph / 65 kph</td></tr>
        </table>
      ]]></description>
      <Point><coordinates>-101.8,14.2</coordinates></Point>
    </Placemark>
    <Placemark>
      <name>0000 UTC JUN 14</name>
      <styleUrl>#ts</styleUrl>
      <description><![CDATA[
        <table>
          <tr><td>TS DALILA (EP042025)</td></tr>
          <tr><td><hr></td></tr>
          <tr><td>0000 UTC JUN 14, 2025</td></tr>
          <tr><td>Storm Location:</td></tr>
          <tr><td><b>14.9 N, 102.5 W</b></td></tr>
          <tr><td>Min Sea Level Pressure:</td></tr>
          <tr><td>1001 mb / 29.56 in Hg</td></tr>
          <tr><td>Maximum Intensity:</td></tr>
          <tr><td>40 kt / 46 mph / 74 kph</td></tr>
        </table>
      ]]></description>
      <Point><coordinates>-102.5,14.9</coordinates></Point>
    </Placemark>
    <Placemark>
      <name>0600 UTC JUN 14</name>
      <styleUrl>#ts</styleUrl>
      <description><![CDATA[
        <table>
          <tr><td>TS DALILA (EP042025)</td></tr>
          <tr><td><hr></td></tr>
          <tr><td>0600 UTC JUN 14, 2025</td></tr>
          <tr><td>Storm Location:</td></tr>
          <tr><td><b>15.6 N, 103.2 W</b></td></tr>
          <tr><td>Min Sea Level Pressure:</td></tr>
          <tr><td>999 mb / 29.50 in Hg</td></tr>
          <tr><td>Maximum Intensity:</td></tr>
          <tr><td>45 kt / 52 mph / 83 kph</td></tr>
        </table>
      ]]></description>
      <Point><coordinates>-103.2,15.6</coordinates></Point>
    </Placemark>
    <Placemark>
      <name>1200 UTC JUN 14</name>
      <styleUrl>#ts</styleUrl>
      <description><![CDATA[
        <table>
          <tr><td>TS DALILA (EP042025)</td></tr>
          <tr><td><hr></td></tr>
          <tr><td>1200 UTC JUN 14, 2025</td></tr>
          <tr><td>Storm Location:</td></tr>
          <tr><td><b>16.2 N, 103.8 W</b></td></tr>
          <tr><td>Min Sea Level Pressure:</td></tr>
          <tr><td>995 mb / 29.38 in Hg</td></tr>
          <tr><td>Maximum Intensity:</td></tr>
          <tr><td>50 kt / 58 mph / 93 kph</td></tr>
        </table>
      ]]></description>
      <Point><coordinates>-103.8,16.2</coordinates></Point>
    </Placemark>
    <Placemark>
      <name>1800 UTC JUN 14</name>
      <styleUrl>#ts</styleUrl>
      <description><![CDATA[
        <table>
          <tr><td>TS DALILA (EP042025)</td></tr>
          <tr><td><hr></td></tr>
          <tr><td>1800 UTC JUN 14, 2025</td></tr>
          <tr><td>Storm Location:</td></tr>
          <tr><td><b>16.8 N, 104.5 W</b></td></tr>
          <tr><td>Min Sea Level Pressure:</td></tr>
          <tr><td>992 mb / 29.29 in Hg</td></tr>
          <tr><td>Maximum Intensity:</td></tr>
          <tr><td>55 kt / 63 mph / 102 kph</td></tr>
        </table>
      ]]></description>
      <Point><coordinates>-104.5,16.8</coordinates></Point>
    </Placemark>
    <Placemark>
      <name>0000 UTC JUN 15</name>
      <styleUrl>#ts</styleUrl>
      <description><![CDATA[
        <table>
          <tr><td>TS DALILA (EP042025)</td></tr>
          <tr><td><hr></td></tr>
          <tr><td>0000 UTC JUN 15, 2025</td></tr>
          <tr><td>Storm Location:</td></tr>
          <tr><td><b>17.5 N, 105.5 W</b></td></tr>
          <tr><td>Min Sea Level Pressure:</td></tr>
          <tr><td>994 mb / 29.35 in Hg</td></tr>
          <tr><td>Maximum Intensity:</td></tr>
          <tr><td>55 kt / 63 mph / 102 kph</td></tr>
        </table>
      ]]></description>
      <Point><coordinates>-105.5,17.5</coordinates></Point>
    </Placemark>
    <Placemark>
      <name>0600 UTC JUN 15</name>
      <styleUrl>#ts</styleUrl>
      <description><![CDATA[
        <table>
          <tr><td>TS DALILA (EP042025)</td></tr>
          <tr><td><hr></td></tr>
          <tr><td>0600 UTC JUN 15, 2025</td></tr>
          <tr><td>Storm Location:</td></tr>
          <tr><td><b>17.9 N, 106.6 W</b></td></tr>
          <tr><td>Min Sea Level Pressure:</td></tr>
          <tr><td>996 mb / 29.41 in Hg</td></tr>
          <tr><td>Maximum Intensity:</td></tr>
          <tr><td>55 kt / 63 mph / 102 kph</td></tr>
        </table>
      ]]></description>
      <Point><coordinates>-106.6,17.9</coordinates></Point>
    </Placemark>
    <Placemark>
      <name>1200 UTC JUN 15</name>
      <styleUrl>#ts</styleUrl>
      <description><![CDATA[
        <table>
          <tr><td>TS DALILA (EP042025)</td></tr>
          <tr><td><hr></td></tr>
          <tr><td>1200 UTC JUN 15, 2025</td></tr>
          <tr><td>Storm Location:</td></tr>
          <tr><td><b>18.1 N, 107.4 W</b></td></tr>
          <tr><td>Min Sea Level Pressure:</td></tr>
          <tr><td>998 mb / 29.47 in Hg</td></tr>
          <tr><td>Maximum Intensity:</td></tr>
          <tr><td>50 kt / 58 mph / 93 kph</td></tr>
        </table>
      ]]></description>
      <Point><coordinates>-107.4,18.1</coordinates></Point>
    </Placemark>
    <Placemark>
      <name>1800 UTC JUN 15</name>
      <styleUrl>#ts</styleUrl>
      <description><![CDATA[
        <table>
          <tr><td>TS DALILA (EP042025)</td></tr>
          <tr><td><hr></td></tr>
          <tr><td>1800 UTC JUN 15, 2025</td></tr>
          <tr><td>Storm Location:</td></tr>
          <tr><td><b>18.3 N, 108.0 W</b></td></tr>
          <tr><td>Min Sea Level Pressure:</td></tr>
          <tr><td>1002 mb / 29.59 in Hg</td></tr>
          <tr><td>Maximum Intensity:</td></tr>
          <tr><td>40 kt / 46 mph / 74 kph</td></tr>
        </table>
      ]]></description>
      <Point><coordinates>-108,18.3</coordinates></Point>
    </Placemark>
    <Placemark>
      <name>0000 UTC JUN 16</name>
      <styleUrl>#lo</styleUrl>
      <description><![CDATA[
        <table>
          <tr><td>LO DALILA (EP042025)</td></tr>
          <tr><td><hr></td></tr>
          <tr><td>0000 UTC JUN 16, 2025</td></tr>
          <tr><td>Storm Location:</td></tr>
          <tr><td><b>18.5 N, 108.8 W</b></td></tr>
          <tr><td>Min Sea Level Pressure:</td></tr>
          <tr><td>1004 mb / 29.65 in Hg</td></tr>
          <tr><td>Maximum Intensity:</td></tr>
          <tr><td>35 kt / 40 mph / 65 kph</td></tr>
        </table>
      ]]></description>
      <Point><coordinates>-108.8,18.5</coordinates></Point>
    </Placemark>
    <Placemark>
      <name>0600 UTC JUN 16</name>
      <styleUrl>#lo</styleUrl>
      <description><![CDATA[
        <table>
          <tr><td>LO DALILA (EP042025)</td></tr>
          <tr><td><hr></td></tr>
          <tr><td>0600 UTC JUN 16, 2025</td></tr>
          <tr><td>Storm Location:</td></tr>
          <tr><td><b>18.7 N, 109.7 W</b></td></tr>
          <tr><td>Min Sea Level Pressure:</td></tr>
          <tr><td>1005 mb / 29.68 in Hg</td></tr>
          <tr><td>Maximum Intensity:</td></tr>
          <tr><td>30 kt / 35 mph / 56 kph</td></tr>
        </table>
      ]]></description>
      <Point><coordinates>-109.7,18.7</coordinates></Point>
    </Placemark>
    <Placemark>
      <name>1200 UTC JUN 16</name>
      <styleUrl>#lo</styleUrl>
      <description><![CDATA[
        <table>
          <tr><td>LO DALILA (EP042025)</td></tr>
          <tr><td><hr></td></tr>
          <tr><td>1200 UTC JUN 16, 2025</td></tr>
          <tr><td>Storm Location:</td></tr>
          <tr><td><b>18.8 N, 110.5 W</b></td></tr>
          <tr><td>Min Sea Level Pressure:</td></tr>
          <tr><td>1006 mb / 29.71 in Hg</td></tr>
          <tr><td>Maximum Intensity:</td></tr>
          <tr><td>25 kt / 29 mph / 46 kph</td></tr>
        </table>
      ]]></description>
      <Point><coordinates>-110.5,18.8</coordinates></Point>
    </Placemark>
    <Placemark>
      <name>1800 UTC JUN 16</name>
      <styleUrl>#lo</styleUrl>
      <description><![CDATA[
        <table>
          <tr><td>LO DALILA (EP042025)</td></tr>
          <tr><td><hr></td></tr>
          <tr><td>1800 UTC JUN 16, 2025</td></tr>
          <tr><td>Storm Location:</td></tr>
          <tr><td><b>18.9 N, 111.1 W</b></td></tr>
          <tr><td>Min Sea Level Pressure:</td></tr>
          <tr><td>1007 mb / 29.74 in Hg</td></tr>
          <tr><td>Maximum Intensity:</td></tr>
          <tr><td>20 kt / 23 mph / 37 kph</td></tr>
        </table>
      ]]></description>
      <Point><coordinates>-111.1,18.9</coordinates></Point>
    </Placemark>
    <Placemark>
      <name>0000 UTC JUN 17</name>
      <styleUrl>#lo</styleUrl>
      <description><![CDATA[
        <table>
          <tr><td>LO DALILA (EP042025)</td></tr>
          <tr><td><hr></td></tr>
          <tr><td>0000 UTC JUN 17, 2025</td></tr>
          <tr><td>Storm Location:</td></tr>
          <tr><td><b>18.9 N, 111.7 W</b></td></tr>
          <tr><td>Min Sea Level Pressure:</td></tr>
          <tr><td>1007 mb / 29.74 in Hg</td></tr>
          <tr><td>Maximum Intensity:</td></tr>
          <tr><td>20 kt / 23 mph / 37 kph</td></tr>
        </table>
      ]]></description>
      <Point><coordinates>-111.7,18.9</coordinates></Point>
    </Placemark>
    <Placemark>
      <name>0600 UTC JUN 17</name>
      <styleUrl>#lo</styleUrl>
      <description><![CDATA[
        <table>
          <tr><td>LO DALILA (EP042025)</td></tr>
          <tr><td><hr></td></tr>
          <tr><td>0600 UTC JUN 17, 2025</td></tr>
          <tr><td>Storm Location:</td></tr>
          <tr><td><b>19.0 N, 112.4 W</b></td></tr>
          <tr><td>Min Sea Level Pressure:</td></tr>
          <tr><td>1008 mb / 29.77 in Hg</td></tr>
          <tr><td>Maximum Intensity:</td></tr>
          <tr><td>15 kt / 17 mph / 28 kph</td></tr>
        </table>
      ]]></description>
      <Point><coordinates>-112.4,19</coordinates></Point>
    </Placemark>
    <Placemark>
      <name>1200 UTC JUN 17</name>
      <styleUrl>#lo</styleUrl>
      <description><![CDATA[
        <table>
          <tr><td>LO DALILA (EP042025)</td></tr>
          <tr><td><hr></td></tr>
          <tr><td>1200 UTC JUN 17, 2025</td></tr>
          <tr><td>Storm Location:</td></tr>
          <tr><td><b>19.2 N, 113.2 W</b></td></tr>
          <tr><td>Min Sea Level Pressure:</td></tr>
          <tr><td>1008 mb / 29.77 in Hg</td></tr>
          <tr><td>Maximum Intensity:</td></tr>
          <tr><td>15 kt / 17 mph / 28 kph</td></tr>
        </table>
      ]]></description>
      <Point><coordinates>-113.2,19.2</coordinates></Point>
    </Placemark>
    <Placemark>
      <name>1800 UTC JUN 17</name>
      <styleUrl>#lo</styleUrl>
      <description><![CDATA[
        <table>
          <tr><td>LO DALILA (EP042025)</td></tr>
          <tr><td><hr></td></tr>
          <tr><td>1800 UTC JUN 17, 2025</td></tr>
          <tr><td>Storm Location:</td></tr>
          <tr><td><b>19.5 N, 114.0 W</b></td></tr>
          <tr><td>Min Sea Level Pressure:</td></tr>
          <tr><td>1009 mb / 29.80 in Hg</td></tr>
          <tr><td>Maximum Intensity:</td></tr>
          <tr><td>15 kt / 17 mph / 28 kph</td></tr>
        </table>
      ]]></description>
      <Point><coordinates>-114,19.5</coordinates></Point>
    </Placemark>
  </Document>
</kml>
