<?xml version="1.0" encoding="UTF-8"?>
<kml xmlns="http://www.opengis.net/kml/2.2">
  <Document>
    <name>EP052025</name>
    <open>0</open>

    <!-- =====  Document header ===== -->
    <description><![CDATA[
      <table>
        <tr><td><b>Title:</b> Tropical Cyclone Best Track for EP052025</td></tr>
      </table>
    ]]></description>

    <!-- =====  Styles (ids must be unique)  ===== -->
	<Style id="pt"> 
		<IconStyle> 
			<scale>1.0</scale> 
			<Icon> 
				<href>ex_nhemi.png</href> 
			</Icon> 
             <hotSpot x="15" y="17" xunits="pixels" yunits="pixels"/>
		</IconStyle> 
		<LabelStyle> 
			<scale>1.0</scale> 
		</LabelStyle> 
	</Style>
	<Style id="cat5"> 
		<IconStyle> 
			<scale>1.0</scale> 
			<Icon> 
				<href>cat5_nhemi.png</href> 
			</Icon> 
             <hotSpot x="15" y="17" xunits="pixels" yunits="pixels"/>
		</IconStyle> 
		<LabelStyle> 
			<scale>1.0</scale> 
		</LabelStyle> 
	</Style>
	<Style id="db"> 
		<IconStyle> 
			<scale>1.0</scale> 
			<Icon> 
				<href>ex_nhemi.png</href> 
			</Icon> 
             <hotSpot x="15" y="17" xunits="pixels" yunits="pixels"/>
		</IconStyle> 
		<LabelStyle> 
			<scale>1.0</scale> 
		</LabelStyle> 
	</Style>
	<Style id="cat3"> 
		<IconStyle> 
			<scale>1.0</scale> 
			<Icon> 
				<href>cat3_nhemi.png</href> 
			</Icon> 
             <hotSpot x="15" y="17" xunits="pixels" yunits="pixels"/>
		</IconStyle> 
		<LabelStyle> 
			<scale>1.0</scale> 
		</LabelStyle> 
	</Style>
	<Style id="ss"> 
		<IconStyle> 
			<scale>1.0</scale> 
			<Icon> 
				<href>ts_nhemi.png</href> 
			</Icon> 
             <hotSpot x="15" y="17" xunits="pixels" yunits="pixels"/>
		</IconStyle> 
		<LabelStyle> 
			<scale>1.0</scale> 
		</LabelStyle> 
	</Style>
	<Style id="lo"> 
		<IconStyle> 
			<scale>1.0</scale> 
			<Icon> 
				<href>ex_nhemi.png</href> 
			</Icon> 
             <hotSpot x="15" y="17" xunits="pixels" yunits="pixels"/>
		</IconStyle> 
		<LabelStyle> 
			<scale>1.0</scale> 
		</LabelStyle> 
	</Style>
	<Style id="cat4"> 
		<IconStyle> 
			<scale>1.0</scale> 
			<Icon> 
				<href>cat4_nhemi.png</href> 
			</Icon> 
             <hotSpot x="15" y="17" xunits="pixels" yunits="pixels"/>
		</IconStyle> 
		<LabelStyle> 
			<scale>1.0</scale> 
		</LabelStyle> 
	</Style>
	<Style id="cat2"> 
		<IconStyle> 
			<scale>1.0</scale> 
			<Icon> 
				<href>cat2_nhemi.png</href> 
			</Icon> 
             <hotSpot x="15" y="17" xunits="pixels" yunits="pixels"/>
		</IconStyle> 
		<LabelStyle> 
			<scale>1.0</scale> 
		</LabelStyle> 
	</Style>
	<Style id="ts"> 
		<IconStyle> 
			<scale>1.0</scale> 
			<Icon> 
				<href>ts_nhemi.png</href> 
			</Icon> 
             <hotSpot x="15" y="17" xunits="pixels" yunits="pixels"/>
		</IconStyle> 
		<LabelStyle> 
			<scale>1.0</scale> 
		</LabelStyle> 
	</Style>
	<Style id="cat1"> 
		<IconStyle> 
			<scale>1.0</scale> 
			<Icon> 
				<href>cat1_nhemi.png</href> 
			</Icon> 
             <hotSpot x="15" y="17" xunits="pixels" yunits="pixels"/>
		</IconStyle> 
		<LabelStyle> 
			<scale>1.0</scale> 
		</LabelStyle> 
	</Style>
	<Style id="ex"> 
		<IconStyle> 
			<scale>1.0</scale> 
			<Icon> 
				<href>ex_nhemi.png</href> 
			</Icon> 
             <hotSpot x="15" y="17" xunits="pixels" yunits="pixels"/>
		</IconStyle> 
		<LabelStyle> 
			<scale>1.0</scale> 
		</LabelStyle> 
	</Style>
	<Style id="tc"> 
		<IconStyle> 
			<scale>1.0</scale> 
			<Icon> 
				<href>ex_nhemi.png</href> 
			</Icon> 
             <hotSpot x="15" y="17" xunits="pixels" yunits="pixels"/>
		</IconStyle> 
		<LabelStyle> 
			<scale>1.0</scale> 
		</LabelStyle> 
	</Style>
	<Style id="wv"> 
		<IconStyle> 
			<scale>1.0</scale> 
			<Icon> 
				<href>ex_nhemi.png</href> 
			</Icon> 
             <hotSpot x="15" y="17" xunits="pixels" yunits="pixels"/>
		</IconStyle> 
		<LabelStyle> 
			<scale>1.0</scale> 
		</LabelStyle> 
	</Style>
	<Style id="td"> 
		<IconStyle> 
			<scale>1.0</scale> 
			<Icon> 
				<href>td_nhemi.png</href> 
			</Icon> 
             <hotSpot x="15" y="17" xunits="pixels" yunits="pixels"/>
		</IconStyle> 
		<LabelStyle> 
			<scale>1.0</scale> 
		</LabelStyle> 
	</Style>
	<Style id="sd"> 
		<IconStyle> 
			<scale>1.0</scale> 
			<Icon> 
				<href>ex_nhemi.png</href> 
			</Icon> 
             <hotSpot x="15" y="17" xunits="pixels" yunits="pixels"/>
		</IconStyle> 
		<LabelStyle> 
			<scale>1.0</scale> 
		</LabelStyle> 
	</Style>

    <Placemark>
      <name>1800 UTC JUN 16</name>
      <styleUrl>#db</styleUrl>
      <description><![CDATA[
        <table>
          <tr><td>DB ERICK (EP052025)</td></tr>
          <tr><td><hr></td></tr>
          <tr><td>1800 UTC JUN 16, 2025</td></tr>
          <tr><td>Storm Location:</td></tr>
          <tr><td><b>10.6 N, 91.5 W</b></td></tr>
          <tr><td>Min Sea Level Pressure:</td></tr>
          <tr><td>1009 mb / 29.80 in Hg</td></tr>
          <tr><td>Maximum Intensity:</td></tr>
          <tr><td>30 kt / 35 mph / 56 kph</td></tr>
        </table>
      ]]></description>
      <Point><coordinates>-91.5,10.6</coordinates></Point>
    </Placemark>
    <Placemark>
      <name>0000 UTC JUN 17</name>
      <styleUrl>#td</styleUrl>
      <description><![CDATA[
        <table>
          <tr><td>TD ERICK (EP052025)</td></tr>
          <tr><td><hr></td></tr>
          <tr><td>0000 UTC JUN 17, 2025</td></tr>
          <tr><td>Storm Location:</td></tr>
          <tr><td><b>11.3 N, 92.4 W</b></td></tr>
          <tr><td>Min Sea Level Pressure:</td></tr>
          <tr><td>1007 mb / 29.74 in Hg</td></tr>
          <tr><td>Maximum Intensity:</td></tr>
          <tr><td>30 kt / 35 mph / 56 kph</td></tr>
        </table>
      ]]></description>
      <Point><coordinates>-92.4,11.3</coordinates></Point>
    </Placemark>
    <Placemark>
      <name>0600 UTC JUN 17</name>
      <styleUrl>#td</styleUrl>
      <description><![CDATA[
        <table>
          <tr><td>TD ERICK (EP052025)</td></tr>
          <tr><td><hr></td></tr>
          <tr><td>0600 UTC JUN 17, 2025</td></tr>
          <tr><td>Storm Location:</td></tr>
          <tr><td><b>11.7 N, 93.3 W</b></td></tr>
          <tr><td>Min Sea Level Pressure:</td></tr>
          <tr><td>1007 mb / 29.74 in Hg</td></tr>
          <tr><td>Maximum Intensity:</td></tr>
          <tr><td>30 kt / 35 mph / 56 kph</td></tr>
        </table>
      ]]></description>
      <Point><coordinates>-93.3,11.7</coordinates></Point>
    </Placemark>
    <Placemark>
      <name>1200 UTC JUN 17</name>
      <styleUrl>#ts</styleUrl>
      <description><![CDATA[
        <table>
          <tr><td>TS ERICK (EP052025)</td></tr>
          <tr><td><hr></td></tr>
          <tr><td>1200 UTC JUN 17, 2025</td></tr>
          <tr><td>Storm Location:</td></tr>
          <tr><td><b>12.1 N, 93.7 W</b></td></tr>
          <tr><td>Min Sea Level Pressure:</td></tr>
          <tr><td>1005 mb / 29.68 in Hg</td></tr>
          <tr><td>Maximum Intensity:</td></tr>
          <tr><td>35 kt / 40 mph / 65 kph</td></tr>
        </table>
      ]]></description>
      <Point><coordinates>-93.7,12.1</coordinates></Point>
    </Placemark>
    <Placemark>
      <name>1800 UTC JUN 17</name>
      <styleUrl>#ts</styleUrl>
      <description><![CDATA[
        <table>
          <tr><td>TS ERICK (EP052025)</td></tr>
          <tr><td><hr></td></tr>
          <tr><td>1800 UTC JUN 17, 2025</td></tr>
          <tr><td>Storm Location:</td></tr>
          <tr><td><b>12.3 N, 94.0 W</b></td></tr>
          <tr><td>Min Sea Level Pressure:</td></tr>
          <tr><td>1001 mb / 29.56 in Hg</td></tr>
          <tr><td>Maximum Intensity:</td></tr>
          <tr><td>45 kt / 52 mph / 83 kph</td></tr>
        </table>
      ]]></description>
      <Point><coordinates>-94,12.3</coordinates></Point>
    </Placemark>
    <Placemark>
      <name>0000 UTC JUN 18</name>
      <styleUrl>#ts</styleUrl>
      <description><![CDATA[
        <table>
          <tr><td>TS ERICK (EP052025)</td></tr>
          <tr><td><hr></td></tr>
          <tr><td>0000 UTC JUN 18, 2025</td></tr>
          <tr><td>Storm Location:</td></tr>
          <tr><td><b>12.6 N, 94.6 W</b></td></tr>
          <tr><td>Min Sea Level Pressure:</td></tr>
          <tr><td>996 mb / 29.41 in Hg</td></tr>
          <tr><td>Maximum Intensity:</td></tr>
          <tr><td>55 kt / 63 mph / 102 kph</td></tr>
        </table>
      ]]></description>
      <Point><coordinates>-94.6,12.6</coordinates></Point>
    </Placemark>
    <Placemark>
      <name>0600 UTC JUN 18</name>
      <styleUrl>#cat1</styleUrl>
      <description><![CDATA[
        <table>
          <tr><td>HU ERICK (EP052025)</td></tr>
          <tr><td><hr></td></tr>
          <tr><td>0600 UTC JUN 18, 2025</td></tr>
          <tr><td>Storm Location:</td></tr>
          <tr><td><b>13.1 N, 95.1 W</b></td></tr>
          <tr><td>Min Sea Level Pressure:</td></tr>
          <tr><td>990 mb / 29.23 in Hg</td></tr>
          <tr><td>Maximum Intensity:</td></tr>
          <tr><td>65 kt / 75 mph / 120 kph</td></tr>
        </table>
      ]]></description>
      <Point><coordinates>-95.1,13.1</coordinates></Point>
    </Placemark>
    <Placemark>
      <name>1200 UTC JUN 18</name>
      <styleUrl>#cat1</styleUrl>
      <description><![CDATA[
        <table>
          <tr><td>HU ERICK (EP052025)</td></tr>
          <tr><td><hr></td></tr>
          <tr><td>1200 UTC JUN 18, 2025</td></tr>
          <tr><td>Storm Location:</td></tr>
          <tr><td><b>13.7 N, 95.7 W</b></td></tr>
          <tr><td>Min Sea Level Pressure:</td></tr>
          <tr><td>982 mb / 29.00 in Hg</td></tr>
          <tr><td>Maximum Intensity:</td></tr>
          <tr><td>75 kt / 86 mph / 139 kph</td></tr>
        </table>
      ]]></description>
      <Point><coordinates>-95.7,13.7</coordinates></Point>
    </Placemark>
    <Placemark>
      <name>1800 UTC JUN 18</name>
      <styleUrl>#cat2</styleUrl>
      <description><![CDATA[
        <table>
          <tr><td>HU ERICK (EP052025)</td></tr>
          <tr><td><hr></td></tr>
          <tr><td>1800 UTC JUN 18, 2025</td></tr>
          <tr><td>Storm Location:</td></tr>
          <tr><td><b>14.2 N, 96.3 W</b></td></tr>
          <tr><td>Min Sea Level Pressure:</td></tr>
          <tr><td>965 mb / 28.50 in Hg</td></tr>
          <tr><td>Maximum Intensity:</td></tr>
          <tr><td>95 kt / 109 mph / 176 kph</td></tr>
        </table>
      ]]></description>
      <Point><coordinates>-96.3,14.2</coordinates></Point>
    </Placemark>
    <Placemark>
      <name>0000 UTC JUN 19</name>
      <styleUrl>#cat3</styleUrl>
      <description><![CDATA[
        <table>
          <tr><td>HU ERICK (EP052025)</td></tr>
          <tr><td><hr></td></tr>
          <tr><td>0000 UTC JUN 19, 2025</td></tr>
          <tr><td>Storm Location:</td></tr>
          <tr><td><b>14.9 N, 96.8 W</b></td></tr>
          <tr><td>Min Sea Level Pressure:</td></tr>
          <tr><td>951 mb / 28.08 in Hg</td></tr>
          <tr><td>Maximum Intensity:</td></tr>
          <tr><td>110 kt / 127 mph / 204 kph</td></tr>
        </table>
      ]]></description>
      <Point><coordinates>-96.8,14.9</coordinates></Point>
    </Placemark>
    <Placemark>
      <name>0600 UTC JUN 19</name>
      <styleUrl>#cat4</styleUrl>
      <description><![CDATA[
        <table>
          <tr><td>HU ERICK (EP052025)</td></tr>
          <tr><td><hr></td></tr>
          <tr><td>0600 UTC JUN 19, 2025</td></tr>
          <tr><td>Storm Location:</td></tr>
          <tr><td><b>15.5 N, 97.5 W</b></td></tr>
          <tr><td>Min Sea Level Pressure:</td></tr>
          <tr><td>944 mb / 27.88 in Hg</td></tr>
          <tr><td>Maximum Intensity:</td></tr>
          <tr><td>120 kt / 138 mph / 222 kph</td></tr>
        </table>
      ]]></description>
      <Point><coordinates>-97.5,15.5</coordinates></Point>
    </Placemark>
    <Placemark>
      <name>1130 UTC JUN 19</name>
      <styleUrl>#cat3</styleUrl>
      <description><![CDATA[
        <table>
          <tr><td>HU ERICK (EP052025)</td></tr>
          <tr><td><hr></td></tr>
          <tr><td>1130 UTC JUN 19, 2025</td></tr>
          <tr><td>Storm Location:</td></tr>
          <tr><td><b>16.3 N, 98.3 W</b></td></tr>
          <tr><td>Min Sea Level Pressure:</td></tr>
          <tr><td>954 mb / 28.17 in Hg</td></tr>
          <tr><td>Maximum Intensity:</td></tr>
          <tr><td>110 kt / 127 mph / 204 kph</td></tr>
        </table>
      ]]></description>
      <Point><coordinates>-98.3,16.3</coordinates></Point>
    </Placemark>
    <Placemark>
      <name>1200 UTC JUN 19</name>
      <styleUrl>#cat3</styleUrl>
      <description><![CDATA[
        <table>
          <tr><td>HU ERICK (EP052025)</td></tr>
          <tr><td><hr></td></tr>
          <tr><td>1200 UTC JUN 19, 2025</td></tr>
          <tr><td>Storm Location:</td></tr>
          <tr><td><b>16.4 N, 98.4 W</b></td></tr>
          <tr><td>Min Sea Level Pressure:</td></tr>
          <tr><td>958 mb / 28.29 in Hg</td></tr>
          <tr><td>Maximum Intensity:</td></tr>
          <tr><td>105 kt / 121 mph / 194 kph</td></tr>
        </table>
      ]]></description>
      <Point><coordinates>-98.4,16.4</coordinates></Point>
    </Placemark>
    <Placemark>
      <name>1800 UTC JUN 19</name>
      <styleUrl>#cat1</styleUrl>
      <description><![CDATA[
        <table>
          <tr><td>HU ERICK (EP052025)</td></tr>
          <tr><td><hr></td></tr>
          <tr><td>1800 UTC JUN 19, 2025</td></tr>
          <tr><td>Storm Location:</td></tr>
          <tr><td><b>17.1 N, 99.3 W</b></td></tr>
          <tr><td>Min Sea Level Pressure:</td></tr>
          <tr><td>988 mb / 29.18 in Hg</td></tr>
          <tr><td>Maximum Intensity:</td></tr>
          <tr><td>65 kt / 75 mph / 120 kph</td></tr>
        </table>
      ]]></description>
      <Point><coordinates>-99.3,17.1</coordinates></Point>
    </Placemark>
    <Placemark>
      <name>0000 UTC JUN 20</name>
      <styleUrl>#td</styleUrl>
      <description><![CDATA[
        <table>
          <tr><td>TD ERICK (EP052025)</td></tr>
          <tr><td><hr></td></tr>
          <tr><td>0000 UTC JUN 20, 2025</td></tr>
          <tr><td>Storm Location:</td></tr>
          <tr><td><b>17.8 N, 100.3 W</b></td></tr>
          <tr><td>Min Sea Level Pressure:</td></tr>
          <tr><td>1006 mb / 29.71 in Hg</td></tr>
          <tr><td>Maximum Intensity:</td></tr>
          <tr><td>25 kt / 29 mph / 46 kph</td></tr>
        </table>
      ]]></description>
      <Point><coordinates>-100.3,17.8</coordinates></Point>
    </Placemark>
  </Document>
</kml>
