<?xml version="1.0" encoding="UTF-8"?>
<kml xmlns="http://www.opengis.net/kml/2.2">
  <Document>
    <name>EP062025</name>
    <open>0</open>

    <!-- =====  Document header ===== -->
    <description><![CDATA[
      <table>
        <tr><td><b>Title:</b> Tropical Cyclone Best Track for EP062025</td></tr>
      </table>
    ]]></description>

    <!-- =====  Styles (ids must be unique)  ===== -->
	<Style id="pt"> 
		<IconStyle> 
			<scale>1.0</scale> 
			<Icon> 
				<href>ex_nhemi.png</href> 
			</Icon> 
             <hotSpot x="15" y="17" xunits="pixels" yunits="pixels"/>
		</IconStyle> 
		<LabelStyle> 
			<scale>1.0</scale> 
		</LabelStyle> 
	</Style>
	<Style id="cat5"> 
		<IconStyle> 
			<scale>1.0</scale> 
			<Icon> 
				<href>cat5_nhemi.png</href> 
			</Icon> 
             <hotSpot x="15" y="17" xunits="pixels" yunits="pixels"/>
		</IconStyle> 
		<LabelStyle> 
			<scale>1.0</scale> 
		</LabelStyle> 
	</Style>
	<Style id="db"> 
		<IconStyle> 
			<scale>1.0</scale> 
			<Icon> 
				<href>ex_nhemi.png</href> 
			</Icon> 
             <hotSpot x="15" y="17" xunits="pixels" yunits="pixels"/>
		</IconStyle> 
		<LabelStyle> 
			<scale>1.0</scale> 
		</LabelStyle> 
	</Style>
	<Style id="cat3"> 
		<IconStyle> 
			<scale>1.0</scale> 
			<Icon> 
				<href>cat3_nhemi.png</href> 
			</Icon> 
             <hotSpot x="15" y="17" xunits="pixels" yunits="pixels"/>
		</IconStyle> 
		<LabelStyle> 
			<scale>1.0</scale> 
		</LabelStyle> 
	</Style>
	<Style id="ss"> 
		<IconStyle> 
			<scale>1.0</scale> 
			<Icon> 
				<href>ts_nhemi.png</href> 
			</Icon> 
             <hotSpot x="15" y="17" xunits="pixels" yunits="pixels"/>
		</IconStyle> 
		<LabelStyle> 
			<scale>1.0</scale> 
		</LabelStyle> 
	</Style>
	<Style id="lo"> 
		<IconStyle> 
			<scale>1.0</scale> 
			<Icon> 
				<href>ex_nhemi.png</href> 
			</Icon> 
             <hotSpot x="15" y="17" xunits="pixels" yunits="pixels"/>
		</IconStyle> 
		<LabelStyle> 
			<scale>1.0</scale> 
		</LabelStyle> 
	</Style>
	<Style id="cat4"> 
		<IconStyle> 
			<scale>1.0</scale> 
			<Icon> 
				<href>cat4_nhemi.png</href> 
			</Icon> 
             <hotSpot x="15" y="17" xunits="pixels" yunits="pixels"/>
		</IconStyle> 
		<LabelStyle> 
			<scale>1.0</scale> 
		</LabelStyle> 
	</Style>
	<Style id="cat2"> 
		<IconStyle> 
			<scale>1.0</scale> 
			<Icon> 
				<href>cat2_nhemi.png</href> 
			</Icon> 
             <hotSpot x="15" y="17" xunits="pixels" yunits="pixels"/>
		</IconStyle> 
		<LabelStyle> 
			<scale>1.0</scale> 
		</LabelStyle> 
	</Style>
	<Style id="ts"> 
		<IconStyle> 
			<scale>1.0</scale> 
			<Icon> 
				<href>ts_nhemi.png</href> 
			</Icon> 
             <hotSpot x="15" y="17" xunits="pixels" yunits="pixels"/>
		</IconStyle> 
		<LabelStyle> 
			<scale>1.0</scale> 
		</LabelStyle> 
	</Style>
	<Style id="cat1"> 
		<IconStyle> 
			<scale>1.0</scale> 
			<Icon> 
				<href>cat1_nhemi.png</href> 
			</Icon> 
             <hotSpot x="15" y="17" xunits="pixels" yunits="pixels"/>
		</IconStyle> 
		<LabelStyle> 
			<scale>1.0</scale> 
		</LabelStyle> 
	</Style>
	<Style id="ex"> 
		<IconStyle> 
			<scale>1.0</scale> 
			<Icon> 
				<href>ex_nhemi.png</href> 
			</Icon> 
             <hotSpot x="15" y="17" xunits="pixels" yunits="pixels"/>
		</IconStyle> 
		<LabelStyle> 
			<scale>1.0</scale> 
		</LabelStyle> 
	</Style>
	<Style id="tc"> 
		<IconStyle> 
			<scale>1.0</scale> 
			<Icon> 
				<href>ex_nhemi.png</href> 
			</Icon> 
             <hotSpot x="15" y="17" xunits="pixels" yunits="pixels"/>
		</IconStyle> 
		<LabelStyle> 
			<scale>1.0</scale> 
		</LabelStyle> 
	</Style>
	<Style id="wv"> 
		<IconStyle> 
			<scale>1.0</scale> 
			<Icon> 
				<href>ex_nhemi.png</href> 
			</Icon> 
             <hotSpot x="15" y="17" xunits="pixels" yunits="pixels"/>
		</IconStyle> 
		<LabelStyle> 
			<scale>1.0</scale> 
		</LabelStyle> 
	</Style>
	<Style id="td"> 
		<IconStyle> 
			<scale>1.0</scale> 
			<Icon> 
				<href>td_nhemi.png</href> 
			</Icon> 
             <hotSpot x="15" y="17" xunits="pixels" yunits="pixels"/>
		</IconStyle> 
		<LabelStyle> 
			<scale>1.0</scale> 
		</LabelStyle> 
	</Style>
	<Style id="sd"> 
		<IconStyle> 
			<scale>1.0</scale> 
			<Icon> 
				<href>ex_nhemi.png</href> 
			</Icon> 
             <hotSpot x="15" y="17" xunits="pixels" yunits="pixels"/>
		</IconStyle> 
		<LabelStyle> 
			<scale>1.0</scale> 
		</LabelStyle> 
	</Style>

    <Placemark>
      <name>0600 UTC JUN 29</name>
      <styleUrl>#td</styleUrl>
      <description><![CDATA[
        <table>
          <tr><td>TD FLOSSIE (EP062025)</td></tr>
          <tr><td><hr></td></tr>
          <tr><td>0600 UTC JUN 29, 2025</td></tr>
          <tr><td>Storm Location:</td></tr>
          <tr><td><b>13.0 N, 99.1 W</b></td></tr>
          <tr><td>Min Sea Level Pressure:</td></tr>
          <tr><td>1008 mb / 29.77 in Hg</td></tr>
          <tr><td>Maximum Intensity:</td></tr>
          <tr><td>25 kt / 29 mph / 46 kph</td></tr>
        </table>
      ]]></description>
      <Point><coordinates>-99.1,13</coordinates></Point>
    </Placemark>
    <Placemark>
      <name>1200 UTC JUN 29</name>
      <styleUrl>#td</styleUrl>
      <description><![CDATA[
        <table>
          <tr><td>TD FLOSSIE (EP062025)</td></tr>
          <tr><td><hr></td></tr>
          <tr><td>1200 UTC JUN 29, 2025</td></tr>
          <tr><td>Storm Location:</td></tr>
          <tr><td><b>13.1 N, 99.6 W</b></td></tr>
          <tr><td>Min Sea Level Pressure:</td></tr>
          <tr><td>1006 mb / 29.71 in Hg</td></tr>
          <tr><td>Maximum Intensity:</td></tr>
          <tr><td>30 kt / 35 mph / 56 kph</td></tr>
        </table>
      ]]></description>
      <Point><coordinates>-99.6,13.1</coordinates></Point>
    </Placemark>
    <Placemark>
      <name>1800 UTC JUN 29</name>
      <styleUrl>#ts</styleUrl>
      <description><![CDATA[
        <table>
          <tr><td>TS FLOSSIE (EP062025)</td></tr>
          <tr><td><hr></td></tr>
          <tr><td>1800 UTC JUN 29, 2025</td></tr>
          <tr><td>Storm Location:</td></tr>
          <tr><td><b>13.4 N, 100.1 W</b></td></tr>
          <tr><td>Min Sea Level Pressure:</td></tr>
          <tr><td>1005 mb / 29.68 in Hg</td></tr>
          <tr><td>Maximum Intensity:</td></tr>
          <tr><td>35 kt / 40 mph / 65 kph</td></tr>
        </table>
      ]]></description>
      <Point><coordinates>-100.1,13.4</coordinates></Point>
    </Placemark>
    <Placemark>
      <name>0000 UTC JUN 30</name>
      <styleUrl>#ts</styleUrl>
      <description><![CDATA[
        <table>
          <tr><td>TS FLOSSIE (EP062025)</td></tr>
          <tr><td><hr></td></tr>
          <tr><td>0000 UTC JUN 30, 2025</td></tr>
          <tr><td>Storm Location:</td></tr>
          <tr><td><b>14.0 N, 100.7 W</b></td></tr>
          <tr><td>Min Sea Level Pressure:</td></tr>
          <tr><td>1005 mb / 29.68 in Hg</td></tr>
          <tr><td>Maximum Intensity:</td></tr>
          <tr><td>35 kt / 40 mph / 65 kph</td></tr>
        </table>
      ]]></description>
      <Point><coordinates>-100.7,14</coordinates></Point>
    </Placemark>
    <Placemark>
      <name>0600 UTC JUN 30</name>
      <styleUrl>#ts</styleUrl>
      <description><![CDATA[
        <table>
          <tr><td>TS FLOSSIE (EP062025)</td></tr>
          <tr><td><hr></td></tr>
          <tr><td>0600 UTC JUN 30, 2025</td></tr>
          <tr><td>Storm Location:</td></tr>
          <tr><td><b>14.6 N, 101.4 W</b></td></tr>
          <tr><td>Min Sea Level Pressure:</td></tr>
          <tr><td>1004 mb / 29.65 in Hg</td></tr>
          <tr><td>Maximum Intensity:</td></tr>
          <tr><td>40 kt / 46 mph / 74 kph</td></tr>
        </table>
      ]]></description>
      <Point><coordinates>-101.4,14.6</coordinates></Point>
    </Placemark>
    <Placemark>
      <name>1200 UTC JUN 30</name>
      <styleUrl>#ts</styleUrl>
      <description><![CDATA[
        <table>
          <tr><td>TS FLOSSIE (EP062025)</td></tr>
          <tr><td><hr></td></tr>
          <tr><td>1200 UTC JUN 30, 2025</td></tr>
          <tr><td>Storm Location:</td></tr>
          <tr><td><b>15.3 N, 102.1 W</b></td></tr>
          <tr><td>Min Sea Level Pressure:</td></tr>
          <tr><td>999 mb / 29.50 in Hg</td></tr>
          <tr><td>Maximum Intensity:</td></tr>
          <tr><td>45 kt / 52 mph / 83 kph</td></tr>
        </table>
      ]]></description>
      <Point><coordinates>-102.1,15.3</coordinates></Point>
    </Placemark>
    <Placemark>
      <name>1800 UTC JUN 30</name>
      <styleUrl>#ts</styleUrl>
      <description><![CDATA[
        <table>
          <tr><td>TS FLOSSIE (EP062025)</td></tr>
          <tr><td><hr></td></tr>
          <tr><td>1800 UTC JUN 30, 2025</td></tr>
          <tr><td>Storm Location:</td></tr>
          <tr><td><b>15.9 N, 103.0 W</b></td></tr>
          <tr><td>Min Sea Level Pressure:</td></tr>
          <tr><td>996 mb / 29.41 in Hg</td></tr>
          <tr><td>Maximum Intensity:</td></tr>
          <tr><td>55 kt / 63 mph / 102 kph</td></tr>
        </table>
      ]]></description>
      <Point><coordinates>-103,15.9</coordinates></Point>
    </Placemark>
    <Placemark>
      <name>0000 UTC JUL 1</name>
      <styleUrl>#cat1</styleUrl>
      <description><![CDATA[
        <table>
          <tr><td>HU FLOSSIE (EP062025)</td></tr>
          <tr><td><hr></td></tr>
          <tr><td>0000 UTC JUL 1, 2025</td></tr>
          <tr><td>Storm Location:</td></tr>
          <tr><td><b>16.4 N, 103.9 W</b></td></tr>
          <tr><td>Min Sea Level Pressure:</td></tr>
          <tr><td>988 mb / 29.18 in Hg</td></tr>
          <tr><td>Maximum Intensity:</td></tr>
          <tr><td>65 kt / 75 mph / 120 kph</td></tr>
        </table>
      ]]></description>
      <Point><coordinates>-103.9,16.4</coordinates></Point>
    </Placemark>
    <Placemark>
      <name>0600 UTC JUL 1</name>
      <styleUrl>#cat1</styleUrl>
      <description><![CDATA[
        <table>
          <tr><td>HU FLOSSIE (EP062025)</td></tr>
          <tr><td><hr></td></tr>
          <tr><td>0600 UTC JUL 1, 2025</td></tr>
          <tr><td>Storm Location:</td></tr>
          <tr><td><b>16.8 N, 104.7 W</b></td></tr>
          <tr><td>Min Sea Level Pressure:</td></tr>
          <tr><td>984 mb / 29.06 in Hg</td></tr>
          <tr><td>Maximum Intensity:</td></tr>
          <tr><td>70 kt / 81 mph / 130 kph</td></tr>
        </table>
      ]]></description>
      <Point><coordinates>-104.7,16.8</coordinates></Point>
    </Placemark>
    <Placemark>
      <name>1200 UTC JUL 1</name>
      <styleUrl>#cat1</styleUrl>
      <description><![CDATA[
        <table>
          <tr><td>HU FLOSSIE (EP062025)</td></tr>
          <tr><td><hr></td></tr>
          <tr><td>1200 UTC JUL 1, 2025</td></tr>
          <tr><td>Storm Location:</td></tr>
          <tr><td><b>17.2 N, 105.5 W</b></td></tr>
          <tr><td>Min Sea Level Pressure:</td></tr>
          <tr><td>978 mb / 28.88 in Hg</td></tr>
          <tr><td>Maximum Intensity:</td></tr>
          <tr><td>80 kt / 92 mph / 148 kph</td></tr>
        </table>
      ]]></description>
      <Point><coordinates>-105.5,17.2</coordinates></Point>
    </Placemark>
    <Placemark>
      <name>1800 UTC JUL 1</name>
      <styleUrl>#cat2</styleUrl>
      <description><![CDATA[
        <table>
          <tr><td>HU FLOSSIE (EP062025)</td></tr>
          <tr><td><hr></td></tr>
          <tr><td>1800 UTC JUL 1, 2025</td></tr>
          <tr><td>Storm Location:</td></tr>
          <tr><td><b>17.6 N, 106.3 W</b></td></tr>
          <tr><td>Min Sea Level Pressure:</td></tr>
          <tr><td>966 mb / 28.53 in Hg</td></tr>
          <tr><td>Maximum Intensity:</td></tr>
          <tr><td>95 kt / 109 mph / 176 kph</td></tr>
        </table>
      ]]></description>
      <Point><coordinates>-106.3,17.6</coordinates></Point>
    </Placemark>
    <Placemark>
      <name>0000 UTC JUL 2</name>
      <styleUrl>#cat3</styleUrl>
      <description><![CDATA[
        <table>
          <tr><td>HU FLOSSIE (EP062025)</td></tr>
          <tr><td><hr></td></tr>
          <tr><td>0000 UTC JUL 2, 2025</td></tr>
          <tr><td>Storm Location:</td></tr>
          <tr><td><b>18.0 N, 107.1 W</b></td></tr>
          <tr><td>Min Sea Level Pressure:</td></tr>
          <tr><td>962 mb / 28.41 in Hg</td></tr>
          <tr><td>Maximum Intensity:</td></tr>
          <tr><td>100 kt / 115 mph / 185 kph</td></tr>
        </table>
      ]]></description>
      <Point><coordinates>-107.1,18</coordinates></Point>
    </Placemark>
    <Placemark>
      <name>0300 UTC JUL 2</name>
      <styleUrl>#cat3</styleUrl>
      <description><![CDATA[
        <table>
          <tr><td>HU FLOSSIE (EP062025)</td></tr>
          <tr><td><hr></td></tr>
          <tr><td>0300 UTC JUL 2, 2025</td></tr>
          <tr><td>Storm Location:</td></tr>
          <tr><td><b>18.2 N, 107.5 W</b></td></tr>
          <tr><td>Min Sea Level Pressure:</td></tr>
          <tr><td>958 mb / 28.29 in Hg</td></tr>
          <tr><td>Maximum Intensity:</td></tr>
          <tr><td>105 kt / 121 mph / 194 kph</td></tr>
        </table>
      ]]></description>
      <Point><coordinates>-107.5,18.2</coordinates></Point>
    </Placemark>
    <Placemark>
      <name>0600 UTC JUL 2</name>
      <styleUrl>#cat3</styleUrl>
      <description><![CDATA[
        <table>
          <tr><td>HU FLOSSIE (EP062025)</td></tr>
          <tr><td><hr></td></tr>
          <tr><td>0600 UTC JUL 2, 2025</td></tr>
          <tr><td>Storm Location:</td></tr>
          <tr><td><b>18.4 N, 107.9 W</b></td></tr>
          <tr><td>Min Sea Level Pressure:</td></tr>
          <tr><td>962 mb / 28.41 in Hg</td></tr>
          <tr><td>Maximum Intensity:</td></tr>
          <tr><td>100 kt / 115 mph / 185 kph</td></tr>
        </table>
      ]]></description>
      <Point><coordinates>-107.9,18.4</coordinates></Point>
    </Placemark>
    <Placemark>
      <name>1200 UTC JUL 2</name>
      <styleUrl>#cat2</styleUrl>
      <description><![CDATA[
        <table>
          <tr><td>HU FLOSSIE (EP062025)</td></tr>
          <tr><td><hr></td></tr>
          <tr><td>1200 UTC JUL 2, 2025</td></tr>
          <tr><td>Storm Location:</td></tr>
          <tr><td><b>18.8 N, 108.7 W</b></td></tr>
          <tr><td>Min Sea Level Pressure:</td></tr>
          <tr><td>967 mb / 28.56 in Hg</td></tr>
          <tr><td>Maximum Intensity:</td></tr>
          <tr><td>95 kt / 109 mph / 176 kph</td></tr>
        </table>
      ]]></description>
      <Point><coordinates>-108.7,18.8</coordinates></Point>
    </Placemark>
    <Placemark>
      <name>1800 UTC JUL 2</name>
      <styleUrl>#cat2</styleUrl>
      <description><![CDATA[
        <table>
          <tr><td>HU FLOSSIE (EP062025)</td></tr>
          <tr><td><hr></td></tr>
          <tr><td>1800 UTC JUL 2, 2025</td></tr>
          <tr><td>Storm Location:</td></tr>
          <tr><td><b>19.3 N, 109.4 W</b></td></tr>
          <tr><td>Min Sea Level Pressure:</td></tr>
          <tr><td>974 mb / 28.76 in Hg</td></tr>
          <tr><td>Maximum Intensity:</td></tr>
          <tr><td>85 kt / 98 mph / 157 kph</td></tr>
        </table>
      ]]></description>
      <Point><coordinates>-109.4,19.3</coordinates></Point>
    </Placemark>
    <Placemark>
      <name>0000 UTC JUL 3</name>
      <styleUrl>#cat1</styleUrl>
      <description><![CDATA[
        <table>
          <tr><td>HU FLOSSIE (EP062025)</td></tr>
          <tr><td><hr></td></tr>
          <tr><td>0000 UTC JUL 3, 2025</td></tr>
          <tr><td>Storm Location:</td></tr>
          <tr><td><b>19.6 N, 109.9 W</b></td></tr>
          <tr><td>Min Sea Level Pressure:</td></tr>
          <tr><td>983 mb / 29.03 in Hg</td></tr>
          <tr><td>Maximum Intensity:</td></tr>
          <tr><td>70 kt / 81 mph / 130 kph</td></tr>
        </table>
      ]]></description>
      <Point><coordinates>-109.9,19.6</coordinates></Point>
    </Placemark>
    <Placemark>
      <name>0600 UTC JUL 3</name>
      <styleUrl>#ts</styleUrl>
      <description><![CDATA[
        <table>
          <tr><td>TS FLOSSIE (EP062025)</td></tr>
          <tr><td><hr></td></tr>
          <tr><td>0600 UTC JUL 3, 2025</td></tr>
          <tr><td>Storm Location:</td></tr>
          <tr><td><b>20.0 N, 110.6 W</b></td></tr>
          <tr><td>Min Sea Level Pressure:</td></tr>
          <tr><td>997 mb / 29.44 in Hg</td></tr>
          <tr><td>Maximum Intensity:</td></tr>
          <tr><td>50 kt / 58 mph / 93 kph</td></tr>
        </table>
      ]]></description>
      <Point><coordinates>-110.6,20</coordinates></Point>
    </Placemark>
    <Placemark>
      <name>1200 UTC JUL 3</name>
      <styleUrl>#lo</styleUrl>
      <description><![CDATA[
        <table>
          <tr><td>LO FLOSSIE (EP062025)</td></tr>
          <tr><td><hr></td></tr>
          <tr><td>1200 UTC JUL 3, 2025</td></tr>
          <tr><td>Storm Location:</td></tr>
          <tr><td><b>20.4 N, 111.3 W</b></td></tr>
          <tr><td>Min Sea Level Pressure:</td></tr>
          <tr><td>1001 mb / 29.56 in Hg</td></tr>
          <tr><td>Maximum Intensity:</td></tr>
          <tr><td>40 kt / 46 mph / 74 kph</td></tr>
        </table>
      ]]></description>
      <Point><coordinates>-111.3,20.4</coordinates></Point>
    </Placemark>
    <Placemark>
      <name>1800 UTC JUL 3</name>
      <styleUrl>#lo</styleUrl>
      <description><![CDATA[
        <table>
          <tr><td>LO FLOSSIE (EP062025)</td></tr>
          <tr><td><hr></td></tr>
          <tr><td>1800 UTC JUL 3, 2025</td></tr>
          <tr><td>Storm Location:</td></tr>
          <tr><td><b>20.9 N, 112.0 W</b></td></tr>
          <tr><td>Min Sea Level Pressure:</td></tr>
          <tr><td>1003 mb / 29.62 in Hg</td></tr>
          <tr><td>Maximum Intensity:</td></tr>
          <tr><td>35 kt / 40 mph / 65 kph</td></tr>
        </table>
      ]]></description>
      <Point><coordinates>-112,20.9</coordinates></Point>
    </Placemark>
    <Placemark>
      <name>0000 UTC JUL 4</name>
      <styleUrl>#lo</styleUrl>
      <description><![CDATA[
        <table>
          <tr><td>LO FLOSSIE (EP062025)</td></tr>
          <tr><td><hr></td></tr>
          <tr><td>0000 UTC JUL 4, 2025</td></tr>
          <tr><td>Storm Location:</td></tr>
          <tr><td><b>21.6 N, 112.9 W</b></td></tr>
          <tr><td>Min Sea Level Pressure:</td></tr>
          <tr><td>1006 mb / 29.71 in Hg</td></tr>
          <tr><td>Maximum Intensity:</td></tr>
          <tr><td>30 kt / 35 mph / 56 kph</td></tr>
        </table>
      ]]></description>
      <Point><coordinates>-112.9,21.6</coordinates></Point>
    </Placemark>
    <Placemark>
      <name>0600 UTC JUL 4</name>
      <styleUrl>#lo</styleUrl>
      <description><![CDATA[
        <table>
          <tr><td>LO FLOSSIE (EP062025)</td></tr>
          <tr><td><hr></td></tr>
          <tr><td>0600 UTC JUL 4, 2025</td></tr>
          <tr><td>Storm Location:</td></tr>
          <tr><td><b>22.3 N, 113.8 W</b></td></tr>
          <tr><td>Min Sea Level Pressure:</td></tr>
          <tr><td>1007 mb / 29.74 in Hg</td></tr>
          <tr><td>Maximum Intensity:</td></tr>
          <tr><td>30 kt / 35 mph / 56 kph</td></tr>
        </table>
      ]]></description>
      <Point><coordinates>-113.8,22.3</coordinates></Point>
    </Placemark>
    <Placemark>
      <name>1200 UTC JUL 4</name>
      <styleUrl>#lo</styleUrl>
      <description><![CDATA[
        <table>
          <tr><td>LO FLOSSIE (EP062025)</td></tr>
          <tr><td><hr></td></tr>
          <tr><td>1200 UTC JUL 4, 2025</td></tr>
          <tr><td>Storm Location:</td></tr>
          <tr><td><b>22.9 N, 114.8 W</b></td></tr>
          <tr><td>Min Sea Level Pressure:</td></tr>
          <tr><td>1007 mb / 29.74 in Hg</td></tr>
          <tr><td>Maximum Intensity:</td></tr>
          <tr><td>30 kt / 35 mph / 56 kph</td></tr>
        </table>
      ]]></description>
      <Point><coordinates>-114.8,22.9</coordinates></Point>
    </Placemark>
    <Placemark>
      <name>1800 UTC JUL 4</name>
      <styleUrl>#lo</styleUrl>
      <description><![CDATA[
        <table>
          <tr><td>LO FLOSSIE (EP062025)</td></tr>
          <tr><td><hr></td></tr>
          <tr><td>1800 UTC JUL 4, 2025</td></tr>
          <tr><td>Storm Location:</td></tr>
          <tr><td><b>23.4 N, 115.8 W</b></td></tr>
          <tr><td>Min Sea Level Pressure:</td></tr>
          <tr><td>1008 mb / 29.77 in Hg</td></tr>
          <tr><td>Maximum Intensity:</td></tr>
          <tr><td>25 kt / 29 mph / 46 kph</td></tr>
        </table>
      ]]></description>
      <Point><coordinates>-115.8,23.4</coordinates></Point>
    </Placemark>
    <Placemark>
      <name>0000 UTC JUL 5</name>
      <styleUrl>#lo</styleUrl>
      <description><![CDATA[
        <table>
          <tr><td>LO FLOSSIE (EP062025)</td></tr>
          <tr><td><hr></td></tr>
          <tr><td>0000 UTC JUL 5, 2025</td></tr>
          <tr><td>Storm Location:</td></tr>
          <tr><td><b>23.8 N, 116.6 W</b></td></tr>
          <tr><td>Min Sea Level Pressure:</td></tr>
          <tr><td>1010 mb / 29.83 in Hg</td></tr>
          <tr><td>Maximum Intensity:</td></tr>
          <tr><td>20 kt / 23 mph / 37 kph</td></tr>
        </table>
      ]]></description>
      <Point><coordinates>-116.6,23.8</coordinates></Point>
    </Placemark>
    <Placemark>
      <name>0600 UTC JUL 5</name>
      <styleUrl>#lo</styleUrl>
      <description><![CDATA[
        <table>
          <tr><td>LO FLOSSIE (EP062025)</td></tr>
          <tr><td><hr></td></tr>
          <tr><td>0600 UTC JUL 5, 2025</td></tr>
          <tr><td>Storm Location:</td></tr>
          <tr><td><b>24.0 N, 117.3 W</b></td></tr>
          <tr><td>Min Sea Level Pressure:</td></tr>
          <tr><td>1011 mb / 29.85 in Hg</td></tr>
          <tr><td>Maximum Intensity:</td></tr>
          <tr><td>15 kt / 17 mph / 28 kph</td></tr>
        </table>
      ]]></description>
      <Point><coordinates>-117.3,24</coordinates></Point>
    </Placemark>
    <Placemark>
      <name>1200 UTC JUL 5</name>
      <styleUrl>#lo</styleUrl>
      <description><![CDATA[
        <table>
          <tr><td>LO FLOSSIE (EP062025)</td></tr>
          <tr><td><hr></td></tr>
          <tr><td>1200 UTC JUL 5, 2025</td></tr>
          <tr><td>Storm Location:</td></tr>
          <tr><td><b>24.1 N, 117.9 W</b></td></tr>
          <tr><td>Min Sea Level Pressure:</td></tr>
          <tr><td>1013 mb / 29.91 in Hg</td></tr>
          <tr><td>Maximum Intensity:</td></tr>
          <tr><td>15 kt / 17 mph / 28 kph</td></tr>
        </table>
      ]]></description>
      <Point><coordinates>-117.9,24.1</coordinates></Point>
    </Placemark>
    <Placemark>
      <name>1800 UTC JUL 5</name>
      <styleUrl>#lo</styleUrl>
      <description><![CDATA[
        <table>
          <tr><td>LO FLOSSIE (EP062025)</td></tr>
          <tr><td><hr></td></tr>
          <tr><td>1800 UTC JUL 5, 2025</td></tr>
          <tr><td>Storm Location:</td></tr>
          <tr><td><b>24.1 N, 118.5 W</b></td></tr>
          <tr><td>Min Sea Level Pressure:</td></tr>
          <tr><td>1015 mb / 29.97 in Hg</td></tr>
          <tr><td>Maximum Intensity:</td></tr>
          <tr><td>15 kt / 17 mph / 28 kph</td></tr>
        </table>
      ]]></description>
      <Point><coordinates>-118.5,24.1</coordinates></Point>
    </Placemark>
  </Document>
</kml>
