<?xml version="1.0" encoding="UTF-8"?>
<kml xmlns="http://www.opengis.net/kml/2.2">
  <Document>
    <name>EP072025</name>
    <open>0</open>

    <!-- =====  Document header ===== -->
    <description><![CDATA[
      <table>
        <tr><td><b>Title:</b> Tropical Cyclone Best Track for EP072025</td></tr>
      </table>
    ]]></description>

    <!-- =====  Styles (ids must be unique)  ===== -->
	<Style id="pt"> 
		<IconStyle> 
			<scale>1.0</scale> 
			<Icon> 
				<href>ex_nhemi.png</href> 
			</Icon> 
             <hotSpot x="15" y="17" xunits="pixels" yunits="pixels"/>
		</IconStyle> 
		<LabelStyle> 
			<scale>1.0</scale> 
		</LabelStyle> 
	</Style>
	<Style id="cat5"> 
		<IconStyle> 
			<scale>1.0</scale> 
			<Icon> 
				<href>cat5_nhemi.png</href> 
			</Icon> 
             <hotSpot x="15" y="17" xunits="pixels" yunits="pixels"/>
		</IconStyle> 
		<LabelStyle> 
			<scale>1.0</scale> 
		</LabelStyle> 
	</Style>
	<Style id="db"> 
		<IconStyle> 
			<scale>1.0</scale> 
			<Icon> 
				<href>ex_nhemi.png</href> 
			</Icon> 
             <hotSpot x="15" y="17" xunits="pixels" yunits="pixels"/>
		</IconStyle> 
		<LabelStyle> 
			<scale>1.0</scale> 
		</LabelStyle> 
	</Style>
	<Style id="cat3"> 
		<IconStyle> 
			<scale>1.0</scale> 
			<Icon> 
				<href>cat3_nhemi.png</href> 
			</Icon> 
             <hotSpot x="15" y="17" xunits="pixels" yunits="pixels"/>
		</IconStyle> 
		<LabelStyle> 
			<scale>1.0</scale> 
		</LabelStyle> 
	</Style>
	<Style id="ss"> 
		<IconStyle> 
			<scale>1.0</scale> 
			<Icon> 
				<href>ts_nhemi.png</href> 
			</Icon> 
             <hotSpot x="15" y="17" xunits="pixels" yunits="pixels"/>
		</IconStyle> 
		<LabelStyle> 
			<scale>1.0</scale> 
		</LabelStyle> 
	</Style>
	<Style id="lo"> 
		<IconStyle> 
			<scale>1.0</scale> 
			<Icon> 
				<href>ex_nhemi.png</href> 
			</Icon> 
             <hotSpot x="15" y="17" xunits="pixels" yunits="pixels"/>
		</IconStyle> 
		<LabelStyle> 
			<scale>1.0</scale> 
		</LabelStyle> 
	</Style>
	<Style id="cat4"> 
		<IconStyle> 
			<scale>1.0</scale> 
			<Icon> 
				<href>cat4_nhemi.png</href> 
			</Icon> 
             <hotSpot x="15" y="17" xunits="pixels" yunits="pixels"/>
		</IconStyle> 
		<LabelStyle> 
			<scale>1.0</scale> 
		</LabelStyle> 
	</Style>
	<Style id="cat2"> 
		<IconStyle> 
			<scale>1.0</scale> 
			<Icon> 
				<href>cat2_nhemi.png</href> 
			</Icon> 
             <hotSpot x="15" y="17" xunits="pixels" yunits="pixels"/>
		</IconStyle> 
		<LabelStyle> 
			<scale>1.0</scale> 
		</LabelStyle> 
	</Style>
	<Style id="ts"> 
		<IconStyle> 
			<scale>1.0</scale> 
			<Icon> 
				<href>ts_nhemi.png</href> 
			</Icon> 
             <hotSpot x="15" y="17" xunits="pixels" yunits="pixels"/>
		</IconStyle> 
		<LabelStyle> 
			<scale>1.0</scale> 
		</LabelStyle> 
	</Style>
	<Style id="cat1"> 
		<IconStyle> 
			<scale>1.0</scale> 
			<Icon> 
				<href>cat1_nhemi.png</href> 
			</Icon> 
             <hotSpot x="15" y="17" xunits="pixels" yunits="pixels"/>
		</IconStyle> 
		<LabelStyle> 
			<scale>1.0</scale> 
		</LabelStyle> 
	</Style>
	<Style id="ex"> 
		<IconStyle> 
			<scale>1.0</scale> 
			<Icon> 
				<href>ex_nhemi.png</href> 
			</Icon> 
             <hotSpot x="15" y="17" xunits="pixels" yunits="pixels"/>
		</IconStyle> 
		<LabelStyle> 
			<scale>1.0</scale> 
		</LabelStyle> 
	</Style>
	<Style id="tc"> 
		<IconStyle> 
			<scale>1.0</scale> 
			<Icon> 
				<href>ex_nhemi.png</href> 
			</Icon> 
             <hotSpot x="15" y="17" xunits="pixels" yunits="pixels"/>
		</IconStyle> 
		<LabelStyle> 
			<scale>1.0</scale> 
		</LabelStyle> 
	</Style>
	<Style id="wv"> 
		<IconStyle> 
			<scale>1.0</scale> 
			<Icon> 
				<href>ex_nhemi.png</href> 
			</Icon> 
             <hotSpot x="15" y="17" xunits="pixels" yunits="pixels"/>
		</IconStyle> 
		<LabelStyle> 
			<scale>1.0</scale> 
		</LabelStyle> 
	</Style>
	<Style id="td"> 
		<IconStyle> 
			<scale>1.0</scale> 
			<Icon> 
				<href>td_nhemi.png</href> 
			</Icon> 
             <hotSpot x="15" y="17" xunits="pixels" yunits="pixels"/>
		</IconStyle> 
		<LabelStyle> 
			<scale>1.0</scale> 
		</LabelStyle> 
	</Style>
	<Style id="sd"> 
		<IconStyle> 
			<scale>1.0</scale> 
			<Icon> 
				<href>ex_nhemi.png</href> 
			</Icon> 
             <hotSpot x="15" y="17" xunits="pixels" yunits="pixels"/>
		</IconStyle> 
		<LabelStyle> 
			<scale>1.0</scale> 
		</LabelStyle> 
	</Style>

    <Placemark>
      <name>0000 UTC JUL 31</name>
      <styleUrl>#ts</styleUrl>
      <description><![CDATA[
        <table>
          <tr><td>TS GIL (EP072025)</td></tr>
          <tr><td><hr></td></tr>
          <tr><td>0000 UTC JUL 31, 2025</td></tr>
          <tr><td>Storm Location:</td></tr>
          <tr><td><b>12.5 N, 113.3 W</b></td></tr>
          <tr><td>Min Sea Level Pressure:</td></tr>
          <tr><td>1005 mb / 29.68 in Hg</td></tr>
          <tr><td>Maximum Intensity:</td></tr>
          <tr><td>35 kt / 40 mph / 65 kph</td></tr>
        </table>
      ]]></description>
      <Point><coordinates>-113.3,12.5</coordinates></Point>
    </Placemark>
    <Placemark>
      <name>0600 UTC JUL 31</name>
      <styleUrl>#ts</styleUrl>
      <description><![CDATA[
        <table>
          <tr><td>TS GIL (EP072025)</td></tr>
          <tr><td><hr></td></tr>
          <tr><td>0600 UTC JUL 31, 2025</td></tr>
          <tr><td>Storm Location:</td></tr>
          <tr><td><b>12.7 N, 114.5 W</b></td></tr>
          <tr><td>Min Sea Level Pressure:</td></tr>
          <tr><td>1003 mb / 29.62 in Hg</td></tr>
          <tr><td>Maximum Intensity:</td></tr>
          <tr><td>40 kt / 46 mph / 74 kph</td></tr>
        </table>
      ]]></description>
      <Point><coordinates>-114.5,12.7</coordinates></Point>
    </Placemark>
    <Placemark>
      <name>1200 UTC JUL 31</name>
      <styleUrl>#ts</styleUrl>
      <description><![CDATA[
        <table>
          <tr><td>TS GIL (EP072025)</td></tr>
          <tr><td><hr></td></tr>
          <tr><td>1200 UTC JUL 31, 2025</td></tr>
          <tr><td>Storm Location:</td></tr>
          <tr><td><b>12.9 N, 115.6 W</b></td></tr>
          <tr><td>Min Sea Level Pressure:</td></tr>
          <tr><td>1001 mb / 29.56 in Hg</td></tr>
          <tr><td>Maximum Intensity:</td></tr>
          <tr><td>45 kt / 52 mph / 83 kph</td></tr>
        </table>
      ]]></description>
      <Point><coordinates>-115.6,12.9</coordinates></Point>
    </Placemark>
    <Placemark>
      <name>1800 UTC JUL 31</name>
      <styleUrl>#ts</styleUrl>
      <description><![CDATA[
        <table>
          <tr><td>TS GIL (EP072025)</td></tr>
          <tr><td><hr></td></tr>
          <tr><td>1800 UTC JUL 31, 2025</td></tr>
          <tr><td>Storm Location:</td></tr>
          <tr><td><b>13.3 N, 116.7 W</b></td></tr>
          <tr><td>Min Sea Level Pressure:</td></tr>
          <tr><td>999 mb / 29.50 in Hg</td></tr>
          <tr><td>Maximum Intensity:</td></tr>
          <tr><td>50 kt / 58 mph / 93 kph</td></tr>
        </table>
      ]]></description>
      <Point><coordinates>-116.7,13.3</coordinates></Point>
    </Placemark>
    <Placemark>
      <name>0000 UTC AUG 1</name>
      <styleUrl>#ts</styleUrl>
      <description><![CDATA[
        <table>
          <tr><td>TS GIL (EP072025)</td></tr>
          <tr><td><hr></td></tr>
          <tr><td>0000 UTC AUG 1, 2025</td></tr>
          <tr><td>Storm Location:</td></tr>
          <tr><td><b>13.8 N, 117.9 W</b></td></tr>
          <tr><td>Min Sea Level Pressure:</td></tr>
          <tr><td>996 mb / 29.41 in Hg</td></tr>
          <tr><td>Maximum Intensity:</td></tr>
          <tr><td>55 kt / 63 mph / 102 kph</td></tr>
        </table>
      ]]></description>
      <Point><coordinates>-117.9,13.8</coordinates></Point>
    </Placemark>
    <Placemark>
      <name>0600 UTC AUG 1</name>
      <styleUrl>#ts</styleUrl>
      <description><![CDATA[
        <table>
          <tr><td>TS GIL (EP072025)</td></tr>
          <tr><td><hr></td></tr>
          <tr><td>0600 UTC AUG 1, 2025</td></tr>
          <tr><td>Storm Location:</td></tr>
          <tr><td><b>14.3 N, 119.3 W</b></td></tr>
          <tr><td>Min Sea Level Pressure:</td></tr>
          <tr><td>996 mb / 29.41 in Hg</td></tr>
          <tr><td>Maximum Intensity:</td></tr>
          <tr><td>55 kt / 63 mph / 102 kph</td></tr>
        </table>
      ]]></description>
      <Point><coordinates>-119.3,14.3</coordinates></Point>
    </Placemark>
    <Placemark>
      <name>1200 UTC AUG 1</name>
      <styleUrl>#ts</styleUrl>
      <description><![CDATA[
        <table>
          <tr><td>TS GIL (EP072025)</td></tr>
          <tr><td><hr></td></tr>
          <tr><td>1200 UTC AUG 1, 2025</td></tr>
          <tr><td>Storm Location:</td></tr>
          <tr><td><b>14.9 N, 120.9 W</b></td></tr>
          <tr><td>Min Sea Level Pressure:</td></tr>
          <tr><td>995 mb / 29.38 in Hg</td></tr>
          <tr><td>Maximum Intensity:</td></tr>
          <tr><td>55 kt / 63 mph / 102 kph</td></tr>
        </table>
      ]]></description>
      <Point><coordinates>-120.9,14.9</coordinates></Point>
    </Placemark>
    <Placemark>
      <name>1800 UTC AUG 1</name>
      <styleUrl>#ts</styleUrl>
      <description><![CDATA[
        <table>
          <tr><td>TS GIL (EP072025)</td></tr>
          <tr><td><hr></td></tr>
          <tr><td>1800 UTC AUG 1, 2025</td></tr>
          <tr><td>Storm Location:</td></tr>
          <tr><td><b>15.5 N, 122.6 W</b></td></tr>
          <tr><td>Min Sea Level Pressure:</td></tr>
          <tr><td>993 mb / 29.32 in Hg</td></tr>
          <tr><td>Maximum Intensity:</td></tr>
          <tr><td>60 kt / 69 mph / 111 kph</td></tr>
        </table>
      ]]></description>
      <Point><coordinates>-122.6,15.5</coordinates></Point>
    </Placemark>
    <Placemark>
      <name>0000 UTC AUG 2</name>
      <styleUrl>#cat1</styleUrl>
      <description><![CDATA[
        <table>
          <tr><td>HU GIL (EP072025)</td></tr>
          <tr><td><hr></td></tr>
          <tr><td>0000 UTC AUG 2, 2025</td></tr>
          <tr><td>Storm Location:</td></tr>
          <tr><td><b>16.2 N, 124.3 W</b></td></tr>
          <tr><td>Min Sea Level Pressure:</td></tr>
          <tr><td>991 mb / 29.26 in Hg</td></tr>
          <tr><td>Maximum Intensity:</td></tr>
          <tr><td>65 kt / 75 mph / 120 kph</td></tr>
        </table>
      ]]></description>
      <Point><coordinates>-124.3,16.2</coordinates></Point>
    </Placemark>
    <Placemark>
      <name>0600 UTC AUG 2</name>
      <styleUrl>#cat1</styleUrl>
      <description><![CDATA[
        <table>
          <tr><td>HU GIL (EP072025)</td></tr>
          <tr><td><hr></td></tr>
          <tr><td>0600 UTC AUG 2, 2025</td></tr>
          <tr><td>Storm Location:</td></tr>
          <tr><td><b>17.0 N, 126.0 W</b></td></tr>
          <tr><td>Min Sea Level Pressure:</td></tr>
          <tr><td>991 mb / 29.26 in Hg</td></tr>
          <tr><td>Maximum Intensity:</td></tr>
          <tr><td>65 kt / 75 mph / 120 kph</td></tr>
        </table>
      ]]></description>
      <Point><coordinates>-126,17</coordinates></Point>
    </Placemark>
    <Placemark>
      <name>1200 UTC AUG 2</name>
      <styleUrl>#cat1</styleUrl>
      <description><![CDATA[
        <table>
          <tr><td>HU GIL (EP072025)</td></tr>
          <tr><td><hr></td></tr>
          <tr><td>1200 UTC AUG 2, 2025</td></tr>
          <tr><td>Storm Location:</td></tr>
          <tr><td><b>17.7 N, 127.8 W</b></td></tr>
          <tr><td>Min Sea Level Pressure:</td></tr>
          <tr><td>992 mb / 29.29 in Hg</td></tr>
          <tr><td>Maximum Intensity:</td></tr>
          <tr><td>65 kt / 75 mph / 120 kph</td></tr>
        </table>
      ]]></description>
      <Point><coordinates>-127.8,17.7</coordinates></Point>
    </Placemark>
    <Placemark>
      <name>1800 UTC AUG 2</name>
      <styleUrl>#ts</styleUrl>
      <description><![CDATA[
        <table>
          <tr><td>TS GIL (EP072025)</td></tr>
          <tr><td><hr></td></tr>
          <tr><td>1800 UTC AUG 2, 2025</td></tr>
          <tr><td>Storm Location:</td></tr>
          <tr><td><b>18.4 N, 129.5 W</b></td></tr>
          <tr><td>Min Sea Level Pressure:</td></tr>
          <tr><td>995 mb / 29.38 in Hg</td></tr>
          <tr><td>Maximum Intensity:</td></tr>
          <tr><td>60 kt / 69 mph / 111 kph</td></tr>
        </table>
      ]]></description>
      <Point><coordinates>-129.5,18.4</coordinates></Point>
    </Placemark>
    <Placemark>
      <name>0000 UTC AUG 3</name>
      <styleUrl>#ts</styleUrl>
      <description><![CDATA[
        <table>
          <tr><td>TS GIL (EP072025)</td></tr>
          <tr><td><hr></td></tr>
          <tr><td>0000 UTC AUG 3, 2025</td></tr>
          <tr><td>Storm Location:</td></tr>
          <tr><td><b>19.2 N, 131.2 W</b></td></tr>
          <tr><td>Min Sea Level Pressure:</td></tr>
          <tr><td>998 mb / 29.47 in Hg</td></tr>
          <tr><td>Maximum Intensity:</td></tr>
          <tr><td>55 kt / 63 mph / 102 kph</td></tr>
        </table>
      ]]></description>
      <Point><coordinates>-131.2,19.2</coordinates></Point>
    </Placemark>
    <Placemark>
      <name>0600 UTC AUG 3</name>
      <styleUrl>#ts</styleUrl>
      <description><![CDATA[
        <table>
          <tr><td>TS GIL (EP072025)</td></tr>
          <tr><td><hr></td></tr>
          <tr><td>0600 UTC AUG 3, 2025</td></tr>
          <tr><td>Storm Location:</td></tr>
          <tr><td><b>19.8 N, 132.9 W</b></td></tr>
          <tr><td>Min Sea Level Pressure:</td></tr>
          <tr><td>1001 mb / 29.56 in Hg</td></tr>
          <tr><td>Maximum Intensity:</td></tr>
          <tr><td>50 kt / 58 mph / 93 kph</td></tr>
        </table>
      ]]></description>
      <Point><coordinates>-132.9,19.8</coordinates></Point>
    </Placemark>
    <Placemark>
      <name>1200 UTC AUG 3</name>
      <styleUrl>#lo</styleUrl>
      <description><![CDATA[
        <table>
          <tr><td>LO GIL (EP072025)</td></tr>
          <tr><td><hr></td></tr>
          <tr><td>1200 UTC AUG 3, 2025</td></tr>
          <tr><td>Storm Location:</td></tr>
          <tr><td><b>20.3 N, 134.8 W</b></td></tr>
          <tr><td>Min Sea Level Pressure:</td></tr>
          <tr><td>1003 mb / 29.62 in Hg</td></tr>
          <tr><td>Maximum Intensity:</td></tr>
          <tr><td>45 kt / 52 mph / 83 kph</td></tr>
        </table>
      ]]></description>
      <Point><coordinates>-134.8,20.3</coordinates></Point>
    </Placemark>
    <Placemark>
      <name>1800 UTC AUG 3</name>
      <styleUrl>#lo</styleUrl>
      <description><![CDATA[
        <table>
          <tr><td>LO GIL (EP072025)</td></tr>
          <tr><td><hr></td></tr>
          <tr><td>1800 UTC AUG 3, 2025</td></tr>
          <tr><td>Storm Location:</td></tr>
          <tr><td><b>20.6 N, 136.6 W</b></td></tr>
          <tr><td>Min Sea Level Pressure:</td></tr>
          <tr><td>1005 mb / 29.68 in Hg</td></tr>
          <tr><td>Maximum Intensity:</td></tr>
          <tr><td>40 kt / 46 mph / 74 kph</td></tr>
        </table>
      ]]></description>
      <Point><coordinates>-136.6,20.6</coordinates></Point>
    </Placemark>
    <Placemark>
      <name>0000 UTC AUG 4</name>
      <styleUrl>#lo</styleUrl>
      <description><![CDATA[
        <table>
          <tr><td>LO GIL (EP072025)</td></tr>
          <tr><td><hr></td></tr>
          <tr><td>0000 UTC AUG 4, 2025</td></tr>
          <tr><td>Storm Location:</td></tr>
          <tr><td><b>20.8 N, 138.3 W</b></td></tr>
          <tr><td>Min Sea Level Pressure:</td></tr>
          <tr><td>1006 mb / 29.71 in Hg</td></tr>
          <tr><td>Maximum Intensity:</td></tr>
          <tr><td>35 kt / 40 mph / 65 kph</td></tr>
        </table>
      ]]></description>
      <Point><coordinates>-138.3,20.8</coordinates></Point>
    </Placemark>
    <Placemark>
      <name>0600 UTC AUG 4</name>
      <styleUrl>#lo</styleUrl>
      <description><![CDATA[
        <table>
          <tr><td>LO GIL (EP072025)</td></tr>
          <tr><td><hr></td></tr>
          <tr><td>0600 UTC AUG 4, 2025</td></tr>
          <tr><td>Storm Location:</td></tr>
          <tr><td><b>21.0 N, 139.9 W</b></td></tr>
          <tr><td>Min Sea Level Pressure:</td></tr>
          <tr><td>1007 mb / 29.74 in Hg</td></tr>
          <tr><td>Maximum Intensity:</td></tr>
          <tr><td>30 kt / 35 mph / 56 kph</td></tr>
        </table>
      ]]></description>
      <Point><coordinates>-139.9,21</coordinates></Point>
    </Placemark>
    <Placemark>
      <name>1200 UTC AUG 4</name>
      <styleUrl>#lo</styleUrl>
      <description><![CDATA[
        <table>
          <tr><td>LO GIL (EP072025)</td></tr>
          <tr><td><hr></td></tr>
          <tr><td>1200 UTC AUG 4, 2025</td></tr>
          <tr><td>Storm Location:</td></tr>
          <tr><td><b>21.1 N, 141.2 W</b></td></tr>
          <tr><td>Min Sea Level Pressure:</td></tr>
          <tr><td>1008 mb / 29.77 in Hg</td></tr>
          <tr><td>Maximum Intensity:</td></tr>
          <tr><td>30 kt / 35 mph / 56 kph</td></tr>
        </table>
      ]]></description>
      <Point><coordinates>-141.2,21.1</coordinates></Point>
    </Placemark>
    <Placemark>
      <name>1800 UTC AUG 4</name>
      <styleUrl>#lo</styleUrl>
      <description><![CDATA[
        <table>
          <tr><td>LO GIL (EP072025)</td></tr>
          <tr><td><hr></td></tr>
          <tr><td>1800 UTC AUG 4, 2025</td></tr>
          <tr><td>Storm Location:</td></tr>
          <tr><td><b>21.2 N, 142.4 W</b></td></tr>
          <tr><td>Min Sea Level Pressure:</td></tr>
          <tr><td>1008 mb / 29.77 in Hg</td></tr>
          <tr><td>Maximum Intensity:</td></tr>
          <tr><td>30 kt / 35 mph / 56 kph</td></tr>
        </table>
      ]]></description>
      <Point><coordinates>-142.4,21.2</coordinates></Point>
    </Placemark>
    <Placemark>
      <name>0000 UTC AUG 5</name>
      <styleUrl>#lo</styleUrl>
      <description><![CDATA[
        <table>
          <tr><td>LO GIL (EP072025)</td></tr>
          <tr><td><hr></td></tr>
          <tr><td>0000 UTC AUG 5, 2025</td></tr>
          <tr><td>Storm Location:</td></tr>
          <tr><td><b>21.3 N, 143.4 W</b></td></tr>
          <tr><td>Min Sea Level Pressure:</td></tr>
          <tr><td>1009 mb / 29.80 in Hg</td></tr>
          <tr><td>Maximum Intensity:</td></tr>
          <tr><td>25 kt / 29 mph / 46 kph</td></tr>
        </table>
      ]]></description>
      <Point><coordinates>-143.4,21.3</coordinates></Point>
    </Placemark>
  </Document>
</kml>
