<?xml version="1.0" encoding="UTF-8"?>
<kml xmlns="http://www.opengis.net/kml/2.2">
  <Document>
    <name>EP082025</name>
    <open>0</open>

    <!-- =====  Document header ===== -->
    <description><![CDATA[
      <table>
        <tr><td><b>Title:</b> Tropical Cyclone Best Track for EP082025</td></tr>
      </table>
    ]]></description>

    <!-- =====  Styles (ids must be unique)  ===== -->
	<Style id="pt"> 
		<IconStyle> 
			<scale>1.0</scale> 
			<Icon> 
				<href>ex_nhemi.png</href> 
			</Icon> 
             <hotSpot x="15" y="17" xunits="pixels" yunits="pixels"/>
		</IconStyle> 
		<LabelStyle> 
			<scale>1.0</scale> 
		</LabelStyle> 
	</Style>
	<Style id="cat5"> 
		<IconStyle> 
			<scale>1.0</scale> 
			<Icon> 
				<href>cat5_nhemi.png</href> 
			</Icon> 
             <hotSpot x="15" y="17" xunits="pixels" yunits="pixels"/>
		</IconStyle> 
		<LabelStyle> 
			<scale>1.0</scale> 
		</LabelStyle> 
	</Style>
	<Style id="db"> 
		<IconStyle> 
			<scale>1.0</scale> 
			<Icon> 
				<href>ex_nhemi.png</href> 
			</Icon> 
             <hotSpot x="15" y="17" xunits="pixels" yunits="pixels"/>
		</IconStyle> 
		<LabelStyle> 
			<scale>1.0</scale> 
		</LabelStyle> 
	</Style>
	<Style id="cat3"> 
		<IconStyle> 
			<scale>1.0</scale> 
			<Icon> 
				<href>cat3_nhemi.png</href> 
			</Icon> 
             <hotSpot x="15" y="17" xunits="pixels" yunits="pixels"/>
		</IconStyle> 
		<LabelStyle> 
			<scale>1.0</scale> 
		</LabelStyle> 
	</Style>
	<Style id="ss"> 
		<IconStyle> 
			<scale>1.0</scale> 
			<Icon> 
				<href>ts_nhemi.png</href> 
			</Icon> 
             <hotSpot x="15" y="17" xunits="pixels" yunits="pixels"/>
		</IconStyle> 
		<LabelStyle> 
			<scale>1.0</scale> 
		</LabelStyle> 
	</Style>
	<Style id="lo"> 
		<IconStyle> 
			<scale>1.0</scale> 
			<Icon> 
				<href>ex_nhemi.png</href> 
			</Icon> 
             <hotSpot x="15" y="17" xunits="pixels" yunits="pixels"/>
		</IconStyle> 
		<LabelStyle> 
			<scale>1.0</scale> 
		</LabelStyle> 
	</Style>
	<Style id="cat4"> 
		<IconStyle> 
			<scale>1.0</scale> 
			<Icon> 
				<href>cat4_nhemi.png</href> 
			</Icon> 
             <hotSpot x="15" y="17" xunits="pixels" yunits="pixels"/>
		</IconStyle> 
		<LabelStyle> 
			<scale>1.0</scale> 
		</LabelStyle> 
	</Style>
	<Style id="cat2"> 
		<IconStyle> 
			<scale>1.0</scale> 
			<Icon> 
				<href>cat2_nhemi.png</href> 
			</Icon> 
             <hotSpot x="15" y="17" xunits="pixels" yunits="pixels"/>
		</IconStyle> 
		<LabelStyle> 
			<scale>1.0</scale> 
		</LabelStyle> 
	</Style>
	<Style id="ts"> 
		<IconStyle> 
			<scale>1.0</scale> 
			<Icon> 
				<href>ts_nhemi.png</href> 
			</Icon> 
             <hotSpot x="15" y="17" xunits="pixels" yunits="pixels"/>
		</IconStyle> 
		<LabelStyle> 
			<scale>1.0</scale> 
		</LabelStyle> 
	</Style>
	<Style id="cat1"> 
		<IconStyle> 
			<scale>1.0</scale> 
			<Icon> 
				<href>cat1_nhemi.png</href> 
			</Icon> 
             <hotSpot x="15" y="17" xunits="pixels" yunits="pixels"/>
		</IconStyle> 
		<LabelStyle> 
			<scale>1.0</scale> 
		</LabelStyle> 
	</Style>
	<Style id="ex"> 
		<IconStyle> 
			<scale>1.0</scale> 
			<Icon> 
				<href>ex_nhemi.png</href> 
			</Icon> 
             <hotSpot x="15" y="17" xunits="pixels" yunits="pixels"/>
		</IconStyle> 
		<LabelStyle> 
			<scale>1.0</scale> 
		</LabelStyle> 
	</Style>
	<Style id="tc"> 
		<IconStyle> 
			<scale>1.0</scale> 
			<Icon> 
				<href>ex_nhemi.png</href> 
			</Icon> 
             <hotSpot x="15" y="17" xunits="pixels" yunits="pixels"/>
		</IconStyle> 
		<LabelStyle> 
			<scale>1.0</scale> 
		</LabelStyle> 
	</Style>
	<Style id="wv"> 
		<IconStyle> 
			<scale>1.0</scale> 
			<Icon> 
				<href>ex_nhemi.png</href> 
			</Icon> 
             <hotSpot x="15" y="17" xunits="pixels" yunits="pixels"/>
		</IconStyle> 
		<LabelStyle> 
			<scale>1.0</scale> 
		</LabelStyle> 
	</Style>
	<Style id="td"> 
		<IconStyle> 
			<scale>1.0</scale> 
			<Icon> 
				<href>td_nhemi.png</href> 
			</Icon> 
             <hotSpot x="15" y="17" xunits="pixels" yunits="pixels"/>
		</IconStyle> 
		<LabelStyle> 
			<scale>1.0</scale> 
		</LabelStyle> 
	</Style>
	<Style id="sd"> 
		<IconStyle> 
			<scale>1.0</scale> 
			<Icon> 
				<href>ex_nhemi.png</href> 
			</Icon> 
             <hotSpot x="15" y="17" xunits="pixels" yunits="pixels"/>
		</IconStyle> 
		<LabelStyle> 
			<scale>1.0</scale> 
		</LabelStyle> 
	</Style>

    <Placemark>
      <name>0600 UTC AUG 4</name>
      <styleUrl>#td</styleUrl>
      <description><![CDATA[
        <table>
          <tr><td>TD HENRIETTE (EP082025)</td></tr>
          <tr><td><hr></td></tr>
          <tr><td>0600 UTC AUG 4, 2025</td></tr>
          <tr><td>Storm Location:</td></tr>
          <tr><td><b>13.4 N, 117.5 W</b></td></tr>
          <tr><td>Min Sea Level Pressure:</td></tr>
          <tr><td>1008 mb / 29.77 in Hg</td></tr>
          <tr><td>Maximum Intensity:</td></tr>
          <tr><td>30 kt / 35 mph / 56 kph</td></tr>
        </table>
      ]]></description>
      <Point><coordinates>-117.5,13.4</coordinates></Point>
    </Placemark>
    <Placemark>
      <name>1200 UTC AUG 4</name>
      <styleUrl>#ts</styleUrl>
      <description><![CDATA[
        <table>
          <tr><td>TS HENRIETTE (EP082025)</td></tr>
          <tr><td><hr></td></tr>
          <tr><td>1200 UTC AUG 4, 2025</td></tr>
          <tr><td>Storm Location:</td></tr>
          <tr><td><b>14.1 N, 118.8 W</b></td></tr>
          <tr><td>Min Sea Level Pressure:</td></tr>
          <tr><td>1006 mb / 29.71 in Hg</td></tr>
          <tr><td>Maximum Intensity:</td></tr>
          <tr><td>35 kt / 40 mph / 65 kph</td></tr>
        </table>
      ]]></description>
      <Point><coordinates>-118.8,14.1</coordinates></Point>
    </Placemark>
    <Placemark>
      <name>1800 UTC AUG 4</name>
      <styleUrl>#ts</styleUrl>
      <description><![CDATA[
        <table>
          <tr><td>TS HENRIETTE (EP082025)</td></tr>
          <tr><td><hr></td></tr>
          <tr><td>1800 UTC AUG 4, 2025</td></tr>
          <tr><td>Storm Location:</td></tr>
          <tr><td><b>14.6 N, 120.0 W</b></td></tr>
          <tr><td>Min Sea Level Pressure:</td></tr>
          <tr><td>1004 mb / 29.65 in Hg</td></tr>
          <tr><td>Maximum Intensity:</td></tr>
          <tr><td>40 kt / 46 mph / 74 kph</td></tr>
        </table>
      ]]></description>
      <Point><coordinates>-120,14.6</coordinates></Point>
    </Placemark>
    <Placemark>
      <name>0000 UTC AUG 5</name>
      <styleUrl>#ts</styleUrl>
      <description><![CDATA[
        <table>
          <tr><td>TS HENRIETTE (EP082025)</td></tr>
          <tr><td><hr></td></tr>
          <tr><td>0000 UTC AUG 5, 2025</td></tr>
          <tr><td>Storm Location:</td></tr>
          <tr><td><b>15.1 N, 121.2 W</b></td></tr>
          <tr><td>Min Sea Level Pressure:</td></tr>
          <tr><td>1003 mb / 29.62 in Hg</td></tr>
          <tr><td>Maximum Intensity:</td></tr>
          <tr><td>45 kt / 52 mph / 83 kph</td></tr>
        </table>
      ]]></description>
      <Point><coordinates>-121.2,15.1</coordinates></Point>
    </Placemark>
    <Placemark>
      <name>0600 UTC AUG 5</name>
      <styleUrl>#ts</styleUrl>
      <description><![CDATA[
        <table>
          <tr><td>TS HENRIETTE (EP082025)</td></tr>
          <tr><td><hr></td></tr>
          <tr><td>0600 UTC AUG 5, 2025</td></tr>
          <tr><td>Storm Location:</td></tr>
          <tr><td><b>15.7 N, 122.4 W</b></td></tr>
          <tr><td>Min Sea Level Pressure:</td></tr>
          <tr><td>1003 mb / 29.62 in Hg</td></tr>
          <tr><td>Maximum Intensity:</td></tr>
          <tr><td>45 kt / 52 mph / 83 kph</td></tr>
        </table>
      ]]></description>
      <Point><coordinates>-122.4,15.7</coordinates></Point>
    </Placemark>
    <Placemark>
      <name>1200 UTC AUG 5</name>
      <styleUrl>#ts</styleUrl>
      <description><![CDATA[
        <table>
          <tr><td>TS HENRIETTE (EP082025)</td></tr>
          <tr><td><hr></td></tr>
          <tr><td>1200 UTC AUG 5, 2025</td></tr>
          <tr><td>Storm Location:</td></tr>
          <tr><td><b>16.3 N, 123.7 W</b></td></tr>
          <tr><td>Min Sea Level Pressure:</td></tr>
          <tr><td>1003 mb / 29.62 in Hg</td></tr>
          <tr><td>Maximum Intensity:</td></tr>
          <tr><td>45 kt / 52 mph / 83 kph</td></tr>
        </table>
      ]]></description>
      <Point><coordinates>-123.7,16.3</coordinates></Point>
    </Placemark>
    <Placemark>
      <name>1800 UTC AUG 5</name>
      <styleUrl>#ts</styleUrl>
      <description><![CDATA[
        <table>
          <tr><td>TS HENRIETTE (EP082025)</td></tr>
          <tr><td><hr></td></tr>
          <tr><td>1800 UTC AUG 5, 2025</td></tr>
          <tr><td>Storm Location:</td></tr>
          <tr><td><b>16.8 N, 124.9 W</b></td></tr>
          <tr><td>Min Sea Level Pressure:</td></tr>
          <tr><td>1003 mb / 29.62 in Hg</td></tr>
          <tr><td>Maximum Intensity:</td></tr>
          <tr><td>45 kt / 52 mph / 83 kph</td></tr>
        </table>
      ]]></description>
      <Point><coordinates>-124.9,16.8</coordinates></Point>
    </Placemark>
    <Placemark>
      <name>0000 UTC AUG 6</name>
      <styleUrl>#ts</styleUrl>
      <description><![CDATA[
        <table>
          <tr><td>TS HENRIETTE (EP082025)</td></tr>
          <tr><td><hr></td></tr>
          <tr><td>0000 UTC AUG 6, 2025</td></tr>
          <tr><td>Storm Location:</td></tr>
          <tr><td><b>17.4 N, 126.1 W</b></td></tr>
          <tr><td>Min Sea Level Pressure:</td></tr>
          <tr><td>1003 mb / 29.62 in Hg</td></tr>
          <tr><td>Maximum Intensity:</td></tr>
          <tr><td>45 kt / 52 mph / 83 kph</td></tr>
        </table>
      ]]></description>
      <Point><coordinates>-126.1,17.4</coordinates></Point>
    </Placemark>
    <Placemark>
      <name>0600 UTC AUG 6</name>
      <styleUrl>#ts</styleUrl>
      <description><![CDATA[
        <table>
          <tr><td>TS HENRIETTE (EP082025)</td></tr>
          <tr><td><hr></td></tr>
          <tr><td>0600 UTC AUG 6, 2025</td></tr>
          <tr><td>Storm Location:</td></tr>
          <tr><td><b>17.7 N, 127.4 W</b></td></tr>
          <tr><td>Min Sea Level Pressure:</td></tr>
          <tr><td>1003 mb / 29.62 in Hg</td></tr>
          <tr><td>Maximum Intensity:</td></tr>
          <tr><td>45 kt / 52 mph / 83 kph</td></tr>
        </table>
      ]]></description>
      <Point><coordinates>-127.4,17.7</coordinates></Point>
    </Placemark>
    <Placemark>
      <name>1200 UTC AUG 6</name>
      <styleUrl>#ts</styleUrl>
      <description><![CDATA[
        <table>
          <tr><td>TS HENRIETTE (EP082025)</td></tr>
          <tr><td><hr></td></tr>
          <tr><td>1200 UTC AUG 6, 2025</td></tr>
          <tr><td>Storm Location:</td></tr>
          <tr><td><b>17.9 N, 128.9 W</b></td></tr>
          <tr><td>Min Sea Level Pressure:</td></tr>
          <tr><td>1004 mb / 29.65 in Hg</td></tr>
          <tr><td>Maximum Intensity:</td></tr>
          <tr><td>45 kt / 52 mph / 83 kph</td></tr>
        </table>
      ]]></description>
      <Point><coordinates>-128.9,17.9</coordinates></Point>
    </Placemark>
    <Placemark>
      <name>1800 UTC AUG 6</name>
      <styleUrl>#ts</styleUrl>
      <description><![CDATA[
        <table>
          <tr><td>TS HENRIETTE (EP082025)</td></tr>
          <tr><td><hr></td></tr>
          <tr><td>1800 UTC AUG 6, 2025</td></tr>
          <tr><td>Storm Location:</td></tr>
          <tr><td><b>18.0 N, 130.3 W</b></td></tr>
          <tr><td>Min Sea Level Pressure:</td></tr>
          <tr><td>1004 mb / 29.65 in Hg</td></tr>
          <tr><td>Maximum Intensity:</td></tr>
          <tr><td>45 kt / 52 mph / 83 kph</td></tr>
        </table>
      ]]></description>
      <Point><coordinates>-130.3,18</coordinates></Point>
    </Placemark>
    <Placemark>
      <name>0000 UTC AUG 7</name>
      <styleUrl>#ts</styleUrl>
      <description><![CDATA[
        <table>
          <tr><td>TS HENRIETTE (EP082025)</td></tr>
          <tr><td><hr></td></tr>
          <tr><td>0000 UTC AUG 7, 2025</td></tr>
          <tr><td>Storm Location:</td></tr>
          <tr><td><b>18.1 N, 131.7 W</b></td></tr>
          <tr><td>Min Sea Level Pressure:</td></tr>
          <tr><td>1004 mb / 29.65 in Hg</td></tr>
          <tr><td>Maximum Intensity:</td></tr>
          <tr><td>45 kt / 52 mph / 83 kph</td></tr>
        </table>
      ]]></description>
      <Point><coordinates>-131.7,18.1</coordinates></Point>
    </Placemark>
    <Placemark>
      <name>0600 UTC AUG 7</name>
      <styleUrl>#ts</styleUrl>
      <description><![CDATA[
        <table>
          <tr><td>TS HENRIETTE (EP082025)</td></tr>
          <tr><td><hr></td></tr>
          <tr><td>0600 UTC AUG 7, 2025</td></tr>
          <tr><td>Storm Location:</td></tr>
          <tr><td><b>18.3 N, 133.1 W</b></td></tr>
          <tr><td>Min Sea Level Pressure:</td></tr>
          <tr><td>1004 mb / 29.65 in Hg</td></tr>
          <tr><td>Maximum Intensity:</td></tr>
          <tr><td>45 kt / 52 mph / 83 kph</td></tr>
        </table>
      ]]></description>
      <Point><coordinates>-133.1,18.3</coordinates></Point>
    </Placemark>
    <Placemark>
      <name>1200 UTC AUG 7</name>
      <styleUrl>#ts</styleUrl>
      <description><![CDATA[
        <table>
          <tr><td>TS HENRIETTE (EP082025)</td></tr>
          <tr><td><hr></td></tr>
          <tr><td>1200 UTC AUG 7, 2025</td></tr>
          <tr><td>Storm Location:</td></tr>
          <tr><td><b>18.5 N, 134.6 W</b></td></tr>
          <tr><td>Min Sea Level Pressure:</td></tr>
          <tr><td>1004 mb / 29.65 in Hg</td></tr>
          <tr><td>Maximum Intensity:</td></tr>
          <tr><td>45 kt / 52 mph / 83 kph</td></tr>
        </table>
      ]]></description>
      <Point><coordinates>-134.6,18.5</coordinates></Point>
    </Placemark>
    <Placemark>
      <name>1800 UTC AUG 7</name>
      <styleUrl>#ts</styleUrl>
      <description><![CDATA[
        <table>
          <tr><td>TS HENRIETTE (EP082025)</td></tr>
          <tr><td><hr></td></tr>
          <tr><td>1800 UTC AUG 7, 2025</td></tr>
          <tr><td>Storm Location:</td></tr>
          <tr><td><b>18.7 N, 136.1 W</b></td></tr>
          <tr><td>Min Sea Level Pressure:</td></tr>
          <tr><td>1007 mb / 29.74 in Hg</td></tr>
          <tr><td>Maximum Intensity:</td></tr>
          <tr><td>35 kt / 40 mph / 65 kph</td></tr>
        </table>
      ]]></description>
      <Point><coordinates>-136.1,18.7</coordinates></Point>
    </Placemark>
    <Placemark>
      <name>0000 UTC AUG 8</name>
      <styleUrl>#ts</styleUrl>
      <description><![CDATA[
        <table>
          <tr><td>TS HENRIETTE (EP082025)</td></tr>
          <tr><td><hr></td></tr>
          <tr><td>0000 UTC AUG 8, 2025</td></tr>
          <tr><td>Storm Location:</td></tr>
          <tr><td><b>18.9 N, 137.7 W</b></td></tr>
          <tr><td>Min Sea Level Pressure:</td></tr>
          <tr><td>1007 mb / 29.74 in Hg</td></tr>
          <tr><td>Maximum Intensity:</td></tr>
          <tr><td>35 kt / 40 mph / 65 kph</td></tr>
        </table>
      ]]></description>
      <Point><coordinates>-137.7,18.9</coordinates></Point>
    </Placemark>
    <Placemark>
      <name>0600 UTC AUG 8</name>
      <styleUrl>#lo</styleUrl>
      <description><![CDATA[
        <table>
          <tr><td>LO HENRIETTE (EP082025)</td></tr>
          <tr><td><hr></td></tr>
          <tr><td>0600 UTC AUG 8, 2025</td></tr>
          <tr><td>Storm Location:</td></tr>
          <tr><td><b>19.1 N, 139.3 W</b></td></tr>
          <tr><td>Min Sea Level Pressure:</td></tr>
          <tr><td>1008 mb / 29.77 in Hg</td></tr>
          <tr><td>Maximum Intensity:</td></tr>
          <tr><td>35 kt / 40 mph / 65 kph</td></tr>
        </table>
      ]]></description>
      <Point><coordinates>-139.3,19.1</coordinates></Point>
    </Placemark>
    <Placemark>
      <name>1200 UTC AUG 8</name>
      <styleUrl>#lo</styleUrl>
      <description><![CDATA[
        <table>
          <tr><td>LO HENRIETTE (EP082025)</td></tr>
          <tr><td><hr></td></tr>
          <tr><td>1200 UTC AUG 8, 2025</td></tr>
          <tr><td>Storm Location:</td></tr>
          <tr><td><b>19.5 N, 140.8 W</b></td></tr>
          <tr><td>Min Sea Level Pressure:</td></tr>
          <tr><td>1008 mb / 29.77 in Hg</td></tr>
          <tr><td>Maximum Intensity:</td></tr>
          <tr><td>35 kt / 40 mph / 65 kph</td></tr>
        </table>
      ]]></description>
      <Point><coordinates>-140.8,19.5</coordinates></Point>
    </Placemark>
    <Placemark>
      <name>1800 UTC AUG 8</name>
      <styleUrl>#lo</styleUrl>
      <description><![CDATA[
        <table>
          <tr><td>LO HENRIETTE (EP082025)</td></tr>
          <tr><td><hr></td></tr>
          <tr><td>1800 UTC AUG 8, 2025</td></tr>
          <tr><td>Storm Location:</td></tr>
          <tr><td><b>19.8 N, 142.3 W</b></td></tr>
          <tr><td>Min Sea Level Pressure:</td></tr>
          <tr><td>1009 mb / 29.80 in Hg</td></tr>
          <tr><td>Maximum Intensity:</td></tr>
          <tr><td>30 kt / 35 mph / 56 kph</td></tr>
        </table>
      ]]></description>
      <Point><coordinates>-142.3,19.8</coordinates></Point>
    </Placemark>
    <Placemark>
      <name>0000 UTC AUG 9</name>
      <styleUrl>#lo</styleUrl>
      <description><![CDATA[
        <table>
          <tr><td>LO HENRIETTE (EP082025)</td></tr>
          <tr><td><hr></td></tr>
          <tr><td>0000 UTC AUG 9, 2025</td></tr>
          <tr><td>Storm Location:</td></tr>
          <tr><td><b>20.0 N, 143.9 W</b></td></tr>
          <tr><td>Min Sea Level Pressure:</td></tr>
          <tr><td>1009 mb / 29.80 in Hg</td></tr>
          <tr><td>Maximum Intensity:</td></tr>
          <tr><td>30 kt / 35 mph / 56 kph</td></tr>
        </table>
      ]]></description>
      <Point><coordinates>-143.9,20</coordinates></Point>
    </Placemark>
    <Placemark>
      <name>0600 UTC AUG 9</name>
      <styleUrl>#td</styleUrl>
      <description><![CDATA[
        <table>
          <tr><td>TD HENRIETTE (EP082025)</td></tr>
          <tr><td><hr></td></tr>
          <tr><td>0600 UTC AUG 9, 2025</td></tr>
          <tr><td>Storm Location:</td></tr>
          <tr><td><b>20.4 N, 145.1 W</b></td></tr>
          <tr><td>Min Sea Level Pressure:</td></tr>
          <tr><td>1009 mb / 29.80 in Hg</td></tr>
          <tr><td>Maximum Intensity:</td></tr>
          <tr><td>30 kt / 35 mph / 56 kph</td></tr>
        </table>
      ]]></description>
      <Point><coordinates>-145.1,20.4</coordinates></Point>
    </Placemark>
    <Placemark>
      <name>1200 UTC AUG 9</name>
      <styleUrl>#td</styleUrl>
      <description><![CDATA[
        <table>
          <tr><td>TD HENRIETTE (EP082025)</td></tr>
          <tr><td><hr></td></tr>
          <tr><td>1200 UTC AUG 9, 2025</td></tr>
          <tr><td>Storm Location:</td></tr>
          <tr><td><b>21.1 N, 146.3 W</b></td></tr>
          <tr><td>Min Sea Level Pressure:</td></tr>
          <tr><td>1009 mb / 29.80 in Hg</td></tr>
          <tr><td>Maximum Intensity:</td></tr>
          <tr><td>30 kt / 35 mph / 56 kph</td></tr>
        </table>
      ]]></description>
      <Point><coordinates>-146.3,21.1</coordinates></Point>
    </Placemark>
    <Placemark>
      <name>1800 UTC AUG 9</name>
      <styleUrl>#ts</styleUrl>
      <description><![CDATA[
        <table>
          <tr><td>TS HENRIETTE (EP082025)</td></tr>
          <tr><td><hr></td></tr>
          <tr><td>1800 UTC AUG 9, 2025</td></tr>
          <tr><td>Storm Location:</td></tr>
          <tr><td><b>21.8 N, 147.5 W</b></td></tr>
          <tr><td>Min Sea Level Pressure:</td></tr>
          <tr><td>1008 mb / 29.77 in Hg</td></tr>
          <tr><td>Maximum Intensity:</td></tr>
          <tr><td>35 kt / 40 mph / 65 kph</td></tr>
        </table>
      ]]></description>
      <Point><coordinates>-147.5,21.8</coordinates></Point>
    </Placemark>
    <Placemark>
      <name>0000 UTC AUG 10</name>
      <styleUrl>#ts</styleUrl>
      <description><![CDATA[
        <table>
          <tr><td>TS HENRIETTE (EP082025)</td></tr>
          <tr><td><hr></td></tr>
          <tr><td>0000 UTC AUG 10, 2025</td></tr>
          <tr><td>Storm Location:</td></tr>
          <tr><td><b>22.6 N, 148.6 W</b></td></tr>
          <tr><td>Min Sea Level Pressure:</td></tr>
          <tr><td>1005 mb / 29.68 in Hg</td></tr>
          <tr><td>Maximum Intensity:</td></tr>
          <tr><td>40 kt / 46 mph / 74 kph</td></tr>
        </table>
      ]]></description>
      <Point><coordinates>-148.6,22.6</coordinates></Point>
    </Placemark>
    <Placemark>
      <name>0600 UTC AUG 10</name>
      <styleUrl>#ts</styleUrl>
      <description><![CDATA[
        <table>
          <tr><td>TS HENRIETTE (EP082025)</td></tr>
          <tr><td><hr></td></tr>
          <tr><td>0600 UTC AUG 10, 2025</td></tr>
          <tr><td>Storm Location:</td></tr>
          <tr><td><b>23.4 N, 149.8 W</b></td></tr>
          <tr><td>Min Sea Level Pressure:</td></tr>
          <tr><td>1002 mb / 29.59 in Hg</td></tr>
          <tr><td>Maximum Intensity:</td></tr>
          <tr><td>45 kt / 52 mph / 83 kph</td></tr>
        </table>
      ]]></description>
      <Point><coordinates>-149.8,23.4</coordinates></Point>
    </Placemark>
    <Placemark>
      <name>1200 UTC AUG 10</name>
      <styleUrl>#ts</styleUrl>
      <description><![CDATA[
        <table>
          <tr><td>TS HENRIETTE (EP082025)</td></tr>
          <tr><td><hr></td></tr>
          <tr><td>1200 UTC AUG 10, 2025</td></tr>
          <tr><td>Storm Location:</td></tr>
          <tr><td><b>24.2 N, 150.9 W</b></td></tr>
          <tr><td>Min Sea Level Pressure:</td></tr>
          <tr><td>998 mb / 29.47 in Hg</td></tr>
          <tr><td>Maximum Intensity:</td></tr>
          <tr><td>55 kt / 63 mph / 102 kph</td></tr>
        </table>
      ]]></description>
      <Point><coordinates>-150.9,24.2</coordinates></Point>
    </Placemark>
    <Placemark>
      <name>1800 UTC AUG 10</name>
      <styleUrl>#cat1</styleUrl>
      <description><![CDATA[
        <table>
          <tr><td>HU HENRIETTE (EP082025)</td></tr>
          <tr><td><hr></td></tr>
          <tr><td>1800 UTC AUG 10, 2025</td></tr>
          <tr><td>Storm Location:</td></tr>
          <tr><td><b>25.2 N, 151.9 W</b></td></tr>
          <tr><td>Min Sea Level Pressure:</td></tr>
          <tr><td>993 mb / 29.32 in Hg</td></tr>
          <tr><td>Maximum Intensity:</td></tr>
          <tr><td>65 kt / 75 mph / 120 kph</td></tr>
        </table>
      ]]></description>
      <Point><coordinates>-151.9,25.2</coordinates></Point>
    </Placemark>
    <Placemark>
      <name>0000 UTC AUG 11</name>
      <styleUrl>#cat1</styleUrl>
      <description><![CDATA[
        <table>
          <tr><td>HU HENRIETTE (EP082025)</td></tr>
          <tr><td><hr></td></tr>
          <tr><td>0000 UTC AUG 11, 2025</td></tr>
          <tr><td>Storm Location:</td></tr>
          <tr><td><b>26.2 N, 153.2 W</b></td></tr>
          <tr><td>Min Sea Level Pressure:</td></tr>
          <tr><td>990 mb / 29.23 in Hg</td></tr>
          <tr><td>Maximum Intensity:</td></tr>
          <tr><td>70 kt / 81 mph / 130 kph</td></tr>
        </table>
      ]]></description>
      <Point><coordinates>-153.2,26.2</coordinates></Point>
    </Placemark>
    <Placemark>
      <name>0600 UTC AUG 11</name>
      <styleUrl>#cat1</styleUrl>
      <description><![CDATA[
        <table>
          <tr><td>HU HENRIETTE (EP082025)</td></tr>
          <tr><td><hr></td></tr>
          <tr><td>0600 UTC AUG 11, 2025</td></tr>
          <tr><td>Storm Location:</td></tr>
          <tr><td><b>27.2 N, 154.4 W</b></td></tr>
          <tr><td>Min Sea Level Pressure:</td></tr>
          <tr><td>990 mb / 29.23 in Hg</td></tr>
          <tr><td>Maximum Intensity:</td></tr>
          <tr><td>70 kt / 81 mph / 130 kph</td></tr>
        </table>
      ]]></description>
      <Point><coordinates>-154.4,27.2</coordinates></Point>
    </Placemark>
    <Placemark>
      <name>1200 UTC AUG 11</name>
      <styleUrl>#cat1</styleUrl>
      <description><![CDATA[
        <table>
          <tr><td>HU HENRIETTE (EP082025)</td></tr>
          <tr><td><hr></td></tr>
          <tr><td>1200 UTC AUG 11, 2025</td></tr>
          <tr><td>Storm Location:</td></tr>
          <tr><td><b>28.3 N, 155.8 W</b></td></tr>
          <tr><td>Min Sea Level Pressure:</td></tr>
          <tr><td>986 mb / 29.12 in Hg</td></tr>
          <tr><td>Maximum Intensity:</td></tr>
          <tr><td>75 kt / 86 mph / 139 kph</td></tr>
        </table>
      ]]></description>
      <Point><coordinates>-155.8,28.3</coordinates></Point>
    </Placemark>
    <Placemark>
      <name>1800 UTC AUG 11</name>
      <styleUrl>#cat1</styleUrl>
      <description><![CDATA[
        <table>
          <tr><td>HU HENRIETTE (EP082025)</td></tr>
          <tr><td><hr></td></tr>
          <tr><td>1800 UTC AUG 11, 2025</td></tr>
          <tr><td>Storm Location:</td></tr>
          <tr><td><b>29.3 N, 157.2 W</b></td></tr>
          <tr><td>Min Sea Level Pressure:</td></tr>
          <tr><td>986 mb / 29.12 in Hg</td></tr>
          <tr><td>Maximum Intensity:</td></tr>
          <tr><td>75 kt / 86 mph / 139 kph</td></tr>
        </table>
      ]]></description>
      <Point><coordinates>-157.2,29.3</coordinates></Point>
    </Placemark>
    <Placemark>
      <name>0000 UTC AUG 12</name>
      <styleUrl>#cat1</styleUrl>
      <description><![CDATA[
        <table>
          <tr><td>HU HENRIETTE (EP082025)</td></tr>
          <tr><td><hr></td></tr>
          <tr><td>0000 UTC AUG 12, 2025</td></tr>
          <tr><td>Storm Location:</td></tr>
          <tr><td><b>30.3 N, 158.4 W</b></td></tr>
          <tr><td>Min Sea Level Pressure:</td></tr>
          <tr><td>987 mb / 29.15 in Hg</td></tr>
          <tr><td>Maximum Intensity:</td></tr>
          <tr><td>70 kt / 81 mph / 130 kph</td></tr>
        </table>
      ]]></description>
      <Point><coordinates>-158.4,30.3</coordinates></Point>
    </Placemark>
    <Placemark>
      <name>0600 UTC AUG 12</name>
      <styleUrl>#cat1</styleUrl>
      <description><![CDATA[
        <table>
          <tr><td>HU HENRIETTE (EP082025)</td></tr>
          <tr><td><hr></td></tr>
          <tr><td>0600 UTC AUG 12, 2025</td></tr>
          <tr><td>Storm Location:</td></tr>
          <tr><td><b>31.3 N, 159.6 W</b></td></tr>
          <tr><td>Min Sea Level Pressure:</td></tr>
          <tr><td>990 mb / 29.23 in Hg</td></tr>
          <tr><td>Maximum Intensity:</td></tr>
          <tr><td>65 kt / 75 mph / 120 kph</td></tr>
        </table>
      ]]></description>
      <Point><coordinates>-159.6,31.3</coordinates></Point>
    </Placemark>
    <Placemark>
      <name>1200 UTC AUG 12</name>
      <styleUrl>#ts</styleUrl>
      <description><![CDATA[
        <table>
          <tr><td>TS HENRIETTE (EP082025)</td></tr>
          <tr><td><hr></td></tr>
          <tr><td>1200 UTC AUG 12, 2025</td></tr>
          <tr><td>Storm Location:</td></tr>
          <tr><td><b>32.3 N, 161.0 W</b></td></tr>
          <tr><td>Min Sea Level Pressure:</td></tr>
          <tr><td>994 mb / 29.35 in Hg</td></tr>
          <tr><td>Maximum Intensity:</td></tr>
          <tr><td>60 kt / 69 mph / 111 kph</td></tr>
        </table>
      ]]></description>
      <Point><coordinates>-161,32.3</coordinates></Point>
    </Placemark>
    <Placemark>
      <name>1800 UTC AUG 12</name>
      <styleUrl>#ts</styleUrl>
      <description><![CDATA[
        <table>
          <tr><td>TS HENRIETTE (EP082025)</td></tr>
          <tr><td><hr></td></tr>
          <tr><td>1800 UTC AUG 12, 2025</td></tr>
          <tr><td>Storm Location:</td></tr>
          <tr><td><b>33.6 N, 162.3 W</b></td></tr>
          <tr><td>Min Sea Level Pressure:</td></tr>
          <tr><td>999 mb / 29.50 in Hg</td></tr>
          <tr><td>Maximum Intensity:</td></tr>
          <tr><td>55 kt / 63 mph / 102 kph</td></tr>
        </table>
      ]]></description>
      <Point><coordinates>-162.3,33.6</coordinates></Point>
    </Placemark>
    <Placemark>
      <name>0000 UTC AUG 13</name>
      <styleUrl>#ts</styleUrl>
      <description><![CDATA[
        <table>
          <tr><td>TS HENRIETTE (EP082025)</td></tr>
          <tr><td><hr></td></tr>
          <tr><td>0000 UTC AUG 13, 2025</td></tr>
          <tr><td>Storm Location:</td></tr>
          <tr><td><b>34.7 N, 163.7 W</b></td></tr>
          <tr><td>Min Sea Level Pressure:</td></tr>
          <tr><td>1001 mb / 29.56 in Hg</td></tr>
          <tr><td>Maximum Intensity:</td></tr>
          <tr><td>50 kt / 58 mph / 93 kph</td></tr>
        </table>
      ]]></description>
      <Point><coordinates>-163.7,34.7</coordinates></Point>
    </Placemark>
    <Placemark>
      <name>0600 UTC AUG 13</name>
      <styleUrl>#lo</styleUrl>
      <description><![CDATA[
        <table>
          <tr><td>LO HENRIETTE (EP082025)</td></tr>
          <tr><td><hr></td></tr>
          <tr><td>0600 UTC AUG 13, 2025</td></tr>
          <tr><td>Storm Location:</td></tr>
          <tr><td><b>36.0 N, 165.0 W</b></td></tr>
          <tr><td>Min Sea Level Pressure:</td></tr>
          <tr><td>1006 mb / 29.71 in Hg</td></tr>
          <tr><td>Maximum Intensity:</td></tr>
          <tr><td>40 kt / 46 mph / 74 kph</td></tr>
        </table>
      ]]></description>
      <Point><coordinates>-165,36</coordinates></Point>
    </Placemark>
    <Placemark>
      <name>1200 UTC AUG 13</name>
      <styleUrl>#lo</styleUrl>
      <description><![CDATA[
        <table>
          <tr><td>LO HENRIETTE (EP082025)</td></tr>
          <tr><td><hr></td></tr>
          <tr><td>1200 UTC AUG 13, 2025</td></tr>
          <tr><td>Storm Location:</td></tr>
          <tr><td><b>37.4 N, 166.3 W</b></td></tr>
          <tr><td>Min Sea Level Pressure:</td></tr>
          <tr><td>1011 mb / 29.85 in Hg</td></tr>
          <tr><td>Maximum Intensity:</td></tr>
          <tr><td>35 kt / 40 mph / 65 kph</td></tr>
        </table>
      ]]></description>
      <Point><coordinates>-166.3,37.4</coordinates></Point>
    </Placemark>
    <Placemark>
      <name>1800 UTC AUG 13</name>
      <styleUrl>#lo</styleUrl>
      <description><![CDATA[
        <table>
          <tr><td>LO HENRIETTE (EP082025)</td></tr>
          <tr><td><hr></td></tr>
          <tr><td>1800 UTC AUG 13, 2025</td></tr>
          <tr><td>Storm Location:</td></tr>
          <tr><td><b>39.0 N, 167.6 W</b></td></tr>
          <tr><td>Min Sea Level Pressure:</td></tr>
          <tr><td>1014 mb / 29.94 in Hg</td></tr>
          <tr><td>Maximum Intensity:</td></tr>
          <tr><td>30 kt / 35 mph / 56 kph</td></tr>
        </table>
      ]]></description>
      <Point><coordinates>-167.6,39</coordinates></Point>
    </Placemark>
    <Placemark>
      <name>0000 UTC AUG 14</name>
      <styleUrl>#lo</styleUrl>
      <description><![CDATA[
        <table>
          <tr><td>LO HENRIETTE (EP082025)</td></tr>
          <tr><td><hr></td></tr>
          <tr><td>0000 UTC AUG 14, 2025</td></tr>
          <tr><td>Storm Location:</td></tr>
          <tr><td><b>40.5 N, 168.3 W</b></td></tr>
          <tr><td>Min Sea Level Pressure:</td></tr>
          <tr><td>1014 mb / 29.94 in Hg</td></tr>
          <tr><td>Maximum Intensity:</td></tr>
          <tr><td>30 kt / 35 mph / 56 kph</td></tr>
        </table>
      ]]></description>
      <Point><coordinates>-168.3,40.5</coordinates></Point>
    </Placemark>
    <Placemark>
      <name>0600 UTC AUG 14</name>
      <styleUrl>#lo</styleUrl>
      <description><![CDATA[
        <table>
          <tr><td>LO HENRIETTE (EP082025)</td></tr>
          <tr><td><hr></td></tr>
          <tr><td>0600 UTC AUG 14, 2025</td></tr>
          <tr><td>Storm Location:</td></tr>
          <tr><td><b>42.1 N, 168.4 W</b></td></tr>
          <tr><td>Min Sea Level Pressure:</td></tr>
          <tr><td>1016 mb / 30.00 in Hg</td></tr>
          <tr><td>Maximum Intensity:</td></tr>
          <tr><td>25 kt / 29 mph / 46 kph</td></tr>
        </table>
      ]]></description>
      <Point><coordinates>-168.4,42.1</coordinates></Point>
    </Placemark>
  </Document>
</kml>
