<?xml version="1.0" encoding="UTF-8"?>
<kml xmlns="http://www.opengis.net/kml/2.2">
  <Document>
    <name>EP092025</name>
    <open>0</open>

    <!-- =====  Document header ===== -->
    <description><![CDATA[
      <table>
        <tr><td><b>Title:</b> Tropical Cyclone Best Track for EP092025</td></tr>
      </table>
    ]]></description>

    <!-- =====  Styles (ids must be unique)  ===== -->
	<Style id="pt"> 
		<IconStyle> 
			<scale>1.0</scale> 
			<Icon> 
				<href>ex_nhemi.png</href> 
			</Icon> 
             <hotSpot x="15" y="17" xunits="pixels" yunits="pixels"/>
		</IconStyle> 
		<LabelStyle> 
			<scale>1.0</scale> 
		</LabelStyle> 
	</Style>
	<Style id="cat5"> 
		<IconStyle> 
			<scale>1.0</scale> 
			<Icon> 
				<href>cat5_nhemi.png</href> 
			</Icon> 
             <hotSpot x="15" y="17" xunits="pixels" yunits="pixels"/>
		</IconStyle> 
		<LabelStyle> 
			<scale>1.0</scale> 
		</LabelStyle> 
	</Style>
	<Style id="db"> 
		<IconStyle> 
			<scale>1.0</scale> 
			<Icon> 
				<href>ex_nhemi.png</href> 
			</Icon> 
             <hotSpot x="15" y="17" xunits="pixels" yunits="pixels"/>
		</IconStyle> 
		<LabelStyle> 
			<scale>1.0</scale> 
		</LabelStyle> 
	</Style>
	<Style id="cat3"> 
		<IconStyle> 
			<scale>1.0</scale> 
			<Icon> 
				<href>cat3_nhemi.png</href> 
			</Icon> 
             <hotSpot x="15" y="17" xunits="pixels" yunits="pixels"/>
		</IconStyle> 
		<LabelStyle> 
			<scale>1.0</scale> 
		</LabelStyle> 
	</Style>
	<Style id="ss"> 
		<IconStyle> 
			<scale>1.0</scale> 
			<Icon> 
				<href>ts_nhemi.png</href> 
			</Icon> 
             <hotSpot x="15" y="17" xunits="pixels" yunits="pixels"/>
		</IconStyle> 
		<LabelStyle> 
			<scale>1.0</scale> 
		</LabelStyle> 
	</Style>
	<Style id="lo"> 
		<IconStyle> 
			<scale>1.0</scale> 
			<Icon> 
				<href>ex_nhemi.png</href> 
			</Icon> 
             <hotSpot x="15" y="17" xunits="pixels" yunits="pixels"/>
		</IconStyle> 
		<LabelStyle> 
			<scale>1.0</scale> 
		</LabelStyle> 
	</Style>
	<Style id="cat4"> 
		<IconStyle> 
			<scale>1.0</scale> 
			<Icon> 
				<href>cat4_nhemi.png</href> 
			</Icon> 
             <hotSpot x="15" y="17" xunits="pixels" yunits="pixels"/>
		</IconStyle> 
		<LabelStyle> 
			<scale>1.0</scale> 
		</LabelStyle> 
	</Style>
	<Style id="cat2"> 
		<IconStyle> 
			<scale>1.0</scale> 
			<Icon> 
				<href>cat2_nhemi.png</href> 
			</Icon> 
             <hotSpot x="15" y="17" xunits="pixels" yunits="pixels"/>
		</IconStyle> 
		<LabelStyle> 
			<scale>1.0</scale> 
		</LabelStyle> 
	</Style>
	<Style id="ts"> 
		<IconStyle> 
			<scale>1.0</scale> 
			<Icon> 
				<href>ts_nhemi.png</href> 
			</Icon> 
             <hotSpot x="15" y="17" xunits="pixels" yunits="pixels"/>
		</IconStyle> 
		<LabelStyle> 
			<scale>1.0</scale> 
		</LabelStyle> 
	</Style>
	<Style id="cat1"> 
		<IconStyle> 
			<scale>1.0</scale> 
			<Icon> 
				<href>cat1_nhemi.png</href> 
			</Icon> 
             <hotSpot x="15" y="17" xunits="pixels" yunits="pixels"/>
		</IconStyle> 
		<LabelStyle> 
			<scale>1.0</scale> 
		</LabelStyle> 
	</Style>
	<Style id="ex"> 
		<IconStyle> 
			<scale>1.0</scale> 
			<Icon> 
				<href>ex_nhemi.png</href> 
			</Icon> 
             <hotSpot x="15" y="17" xunits="pixels" yunits="pixels"/>
		</IconStyle> 
		<LabelStyle> 
			<scale>1.0</scale> 
		</LabelStyle> 
	</Style>
	<Style id="tc"> 
		<IconStyle> 
			<scale>1.0</scale> 
			<Icon> 
				<href>ex_nhemi.png</href> 
			</Icon> 
             <hotSpot x="15" y="17" xunits="pixels" yunits="pixels"/>
		</IconStyle> 
		<LabelStyle> 
			<scale>1.0</scale> 
		</LabelStyle> 
	</Style>
	<Style id="wv"> 
		<IconStyle> 
			<scale>1.0</scale> 
			<Icon> 
				<href>ex_nhemi.png</href> 
			</Icon> 
             <hotSpot x="15" y="17" xunits="pixels" yunits="pixels"/>
		</IconStyle> 
		<LabelStyle> 
			<scale>1.0</scale> 
		</LabelStyle> 
	</Style>
	<Style id="td"> 
		<IconStyle> 
			<scale>1.0</scale> 
			<Icon> 
				<href>td_nhemi.png</href> 
			</Icon> 
             <hotSpot x="15" y="17" xunits="pixels" yunits="pixels"/>
		</IconStyle> 
		<LabelStyle> 
			<scale>1.0</scale> 
		</LabelStyle> 
	</Style>
	<Style id="sd"> 
		<IconStyle> 
			<scale>1.0</scale> 
			<Icon> 
				<href>ex_nhemi.png</href> 
			</Icon> 
             <hotSpot x="15" y="17" xunits="pixels" yunits="pixels"/>
		</IconStyle> 
		<LabelStyle> 
			<scale>1.0</scale> 
		</LabelStyle> 
	</Style>

    <Placemark>
      <name>1200 UTC AUG 6</name>
      <styleUrl>#td</styleUrl>
      <description><![CDATA[
        <table>
          <tr><td>TD IVO (EP092025)</td></tr>
          <tr><td><hr></td></tr>
          <tr><td>1200 UTC AUG 6, 2025</td></tr>
          <tr><td>Storm Location:</td></tr>
          <tr><td><b>13.0 N, 96.5 W</b></td></tr>
          <tr><td>Min Sea Level Pressure:</td></tr>
          <tr><td>1009 mb / 29.80 in Hg</td></tr>
          <tr><td>Maximum Intensity:</td></tr>
          <tr><td>30 kt / 35 mph / 56 kph</td></tr>
        </table>
      ]]></description>
      <Point><coordinates>-96.5,13</coordinates></Point>
    </Placemark>
    <Placemark>
      <name>1800 UTC AUG 6</name>
      <styleUrl>#ts</styleUrl>
      <description><![CDATA[
        <table>
          <tr><td>TS IVO (EP092025)</td></tr>
          <tr><td><hr></td></tr>
          <tr><td>1800 UTC AUG 6, 2025</td></tr>
          <tr><td>Storm Location:</td></tr>
          <tr><td><b>13.8 N, 98.2 W</b></td></tr>
          <tr><td>Min Sea Level Pressure:</td></tr>
          <tr><td>1008 mb / 29.77 in Hg</td></tr>
          <tr><td>Maximum Intensity:</td></tr>
          <tr><td>35 kt / 40 mph / 65 kph</td></tr>
        </table>
      ]]></description>
      <Point><coordinates>-98.2,13.8</coordinates></Point>
    </Placemark>
    <Placemark>
      <name>0000 UTC AUG 7</name>
      <styleUrl>#ts</styleUrl>
      <description><![CDATA[
        <table>
          <tr><td>TS IVO (EP092025)</td></tr>
          <tr><td><hr></td></tr>
          <tr><td>0000 UTC AUG 7, 2025</td></tr>
          <tr><td>Storm Location:</td></tr>
          <tr><td><b>14.7 N, 99.9 W</b></td></tr>
          <tr><td>Min Sea Level Pressure:</td></tr>
          <tr><td>1007 mb / 29.74 in Hg</td></tr>
          <tr><td>Maximum Intensity:</td></tr>
          <tr><td>35 kt / 40 mph / 65 kph</td></tr>
        </table>
      ]]></description>
      <Point><coordinates>-99.9,14.7</coordinates></Point>
    </Placemark>
    <Placemark>
      <name>0600 UTC AUG 7</name>
      <styleUrl>#ts</styleUrl>
      <description><![CDATA[
        <table>
          <tr><td>TS IVO (EP092025)</td></tr>
          <tr><td><hr></td></tr>
          <tr><td>0600 UTC AUG 7, 2025</td></tr>
          <tr><td>Storm Location:</td></tr>
          <tr><td><b>15.8 N, 101.5 W</b></td></tr>
          <tr><td>Min Sea Level Pressure:</td></tr>
          <tr><td>1006 mb / 29.71 in Hg</td></tr>
          <tr><td>Maximum Intensity:</td></tr>
          <tr><td>40 kt / 46 mph / 74 kph</td></tr>
        </table>
      ]]></description>
      <Point><coordinates>-101.5,15.8</coordinates></Point>
    </Placemark>
    <Placemark>
      <name>1200 UTC AUG 7</name>
      <styleUrl>#ts</styleUrl>
      <description><![CDATA[
        <table>
          <tr><td>TS IVO (EP092025)</td></tr>
          <tr><td><hr></td></tr>
          <tr><td>1200 UTC AUG 7, 2025</td></tr>
          <tr><td>Storm Location:</td></tr>
          <tr><td><b>17.2 N, 103.2 W</b></td></tr>
          <tr><td>Min Sea Level Pressure:</td></tr>
          <tr><td>1004 mb / 29.65 in Hg</td></tr>
          <tr><td>Maximum Intensity:</td></tr>
          <tr><td>45 kt / 52 mph / 83 kph</td></tr>
        </table>
      ]]></description>
      <Point><coordinates>-103.2,17.2</coordinates></Point>
    </Placemark>
    <Placemark>
      <name>1800 UTC AUG 7</name>
      <styleUrl>#ts</styleUrl>
      <description><![CDATA[
        <table>
          <tr><td>TS IVO (EP092025)</td></tr>
          <tr><td><hr></td></tr>
          <tr><td>1800 UTC AUG 7, 2025</td></tr>
          <tr><td>Storm Location:</td></tr>
          <tr><td><b>18.3 N, 105.0 W</b></td></tr>
          <tr><td>Min Sea Level Pressure:</td></tr>
          <tr><td>1001 mb / 29.56 in Hg</td></tr>
          <tr><td>Maximum Intensity:</td></tr>
          <tr><td>50 kt / 58 mph / 93 kph</td></tr>
        </table>
      ]]></description>
      <Point><coordinates>-105,18.3</coordinates></Point>
    </Placemark>
    <Placemark>
      <name>0000 UTC AUG 8</name>
      <styleUrl>#ts</styleUrl>
      <description><![CDATA[
        <table>
          <tr><td>TS IVO (EP092025)</td></tr>
          <tr><td><hr></td></tr>
          <tr><td>0000 UTC AUG 8, 2025</td></tr>
          <tr><td>Storm Location:</td></tr>
          <tr><td><b>19.3 N, 106.6 W</b></td></tr>
          <tr><td>Min Sea Level Pressure:</td></tr>
          <tr><td>1001 mb / 29.56 in Hg</td></tr>
          <tr><td>Maximum Intensity:</td></tr>
          <tr><td>50 kt / 58 mph / 93 kph</td></tr>
        </table>
      ]]></description>
      <Point><coordinates>-106.6,19.3</coordinates></Point>
    </Placemark>
    <Placemark>
      <name>0600 UTC AUG 8</name>
      <styleUrl>#ts</styleUrl>
      <description><![CDATA[
        <table>
          <tr><td>TS IVO (EP092025)</td></tr>
          <tr><td><hr></td></tr>
          <tr><td>0600 UTC AUG 8, 2025</td></tr>
          <tr><td>Storm Location:</td></tr>
          <tr><td><b>20.0 N, 108.1 W</b></td></tr>
          <tr><td>Min Sea Level Pressure:</td></tr>
          <tr><td>1001 mb / 29.56 in Hg</td></tr>
          <tr><td>Maximum Intensity:</td></tr>
          <tr><td>50 kt / 58 mph / 93 kph</td></tr>
        </table>
      ]]></description>
      <Point><coordinates>-108.1,20</coordinates></Point>
    </Placemark>
    <Placemark>
      <name>1200 UTC AUG 8</name>
      <styleUrl>#ts</styleUrl>
      <description><![CDATA[
        <table>
          <tr><td>TS IVO (EP092025)</td></tr>
          <tr><td><hr></td></tr>
          <tr><td>1200 UTC AUG 8, 2025</td></tr>
          <tr><td>Storm Location:</td></tr>
          <tr><td><b>20.2 N, 109.5 W</b></td></tr>
          <tr><td>Min Sea Level Pressure:</td></tr>
          <tr><td>1000 mb / 29.53 in Hg</td></tr>
          <tr><td>Maximum Intensity:</td></tr>
          <tr><td>50 kt / 58 mph / 93 kph</td></tr>
        </table>
      ]]></description>
      <Point><coordinates>-109.5,20.2</coordinates></Point>
    </Placemark>
    <Placemark>
      <name>1800 UTC AUG 8</name>
      <styleUrl>#ts</styleUrl>
      <description><![CDATA[
        <table>
          <tr><td>TS IVO (EP092025)</td></tr>
          <tr><td><hr></td></tr>
          <tr><td>1800 UTC AUG 8, 2025</td></tr>
          <tr><td>Storm Location:</td></tr>
          <tr><td><b>20.3 N, 110.7 W</b></td></tr>
          <tr><td>Min Sea Level Pressure:</td></tr>
          <tr><td>999 mb / 29.50 in Hg</td></tr>
          <tr><td>Maximum Intensity:</td></tr>
          <tr><td>55 kt / 63 mph / 102 kph</td></tr>
        </table>
      ]]></description>
      <Point><coordinates>-110.7,20.3</coordinates></Point>
    </Placemark>
    <Placemark>
      <name>0000 UTC AUG 9</name>
      <styleUrl>#ts</styleUrl>
      <description><![CDATA[
        <table>
          <tr><td>TS IVO (EP092025)</td></tr>
          <tr><td><hr></td></tr>
          <tr><td>0000 UTC AUG 9, 2025</td></tr>
          <tr><td>Storm Location:</td></tr>
          <tr><td><b>20.5 N, 111.3 W</b></td></tr>
          <tr><td>Min Sea Level Pressure:</td></tr>
          <tr><td>998 mb / 29.47 in Hg</td></tr>
          <tr><td>Maximum Intensity:</td></tr>
          <tr><td>55 kt / 63 mph / 102 kph</td></tr>
        </table>
      ]]></description>
      <Point><coordinates>-111.3,20.5</coordinates></Point>
    </Placemark>
    <Placemark>
      <name>0600 UTC AUG 9</name>
      <styleUrl>#ts</styleUrl>
      <description><![CDATA[
        <table>
          <tr><td>TS IVO (EP092025)</td></tr>
          <tr><td><hr></td></tr>
          <tr><td>0600 UTC AUG 9, 2025</td></tr>
          <tr><td>Storm Location:</td></tr>
          <tr><td><b>20.7 N, 111.9 W</b></td></tr>
          <tr><td>Min Sea Level Pressure:</td></tr>
          <tr><td>999 mb / 29.50 in Hg</td></tr>
          <tr><td>Maximum Intensity:</td></tr>
          <tr><td>50 kt / 58 mph / 93 kph</td></tr>
        </table>
      ]]></description>
      <Point><coordinates>-111.9,20.7</coordinates></Point>
    </Placemark>
    <Placemark>
      <name>1200 UTC AUG 9</name>
      <styleUrl>#ts</styleUrl>
      <description><![CDATA[
        <table>
          <tr><td>TS IVO (EP092025)</td></tr>
          <tr><td><hr></td></tr>
          <tr><td>1200 UTC AUG 9, 2025</td></tr>
          <tr><td>Storm Location:</td></tr>
          <tr><td><b>20.8 N, 112.5 W</b></td></tr>
          <tr><td>Min Sea Level Pressure:</td></tr>
          <tr><td>1001 mb / 29.56 in Hg</td></tr>
          <tr><td>Maximum Intensity:</td></tr>
          <tr><td>50 kt / 58 mph / 93 kph</td></tr>
        </table>
      ]]></description>
      <Point><coordinates>-112.5,20.8</coordinates></Point>
    </Placemark>
    <Placemark>
      <name>1800 UTC AUG 9</name>
      <styleUrl>#ts</styleUrl>
      <description><![CDATA[
        <table>
          <tr><td>TS IVO (EP092025)</td></tr>
          <tr><td><hr></td></tr>
          <tr><td>1800 UTC AUG 9, 2025</td></tr>
          <tr><td>Storm Location:</td></tr>
          <tr><td><b>20.9 N, 113.1 W</b></td></tr>
          <tr><td>Min Sea Level Pressure:</td></tr>
          <tr><td>1002 mb / 29.59 in Hg</td></tr>
          <tr><td>Maximum Intensity:</td></tr>
          <tr><td>45 kt / 52 mph / 83 kph</td></tr>
        </table>
      ]]></description>
      <Point><coordinates>-113.1,20.9</coordinates></Point>
    </Placemark>
    <Placemark>
      <name>0000 UTC AUG 10</name>
      <styleUrl>#ts</styleUrl>
      <description><![CDATA[
        <table>
          <tr><td>TS IVO (EP092025)</td></tr>
          <tr><td><hr></td></tr>
          <tr><td>0000 UTC AUG 10, 2025</td></tr>
          <tr><td>Storm Location:</td></tr>
          <tr><td><b>21.1 N, 113.7 W</b></td></tr>
          <tr><td>Min Sea Level Pressure:</td></tr>
          <tr><td>1003 mb / 29.62 in Hg</td></tr>
          <tr><td>Maximum Intensity:</td></tr>
          <tr><td>45 kt / 52 mph / 83 kph</td></tr>
        </table>
      ]]></description>
      <Point><coordinates>-113.7,21.1</coordinates></Point>
    </Placemark>
    <Placemark>
      <name>0600 UTC AUG 10</name>
      <styleUrl>#ts</styleUrl>
      <description><![CDATA[
        <table>
          <tr><td>TS IVO (EP092025)</td></tr>
          <tr><td><hr></td></tr>
          <tr><td>0600 UTC AUG 10, 2025</td></tr>
          <tr><td>Storm Location:</td></tr>
          <tr><td><b>21.3 N, 114.5 W</b></td></tr>
          <tr><td>Min Sea Level Pressure:</td></tr>
          <tr><td>1004 mb / 29.65 in Hg</td></tr>
          <tr><td>Maximum Intensity:</td></tr>
          <tr><td>40 kt / 46 mph / 74 kph</td></tr>
        </table>
      ]]></description>
      <Point><coordinates>-114.5,21.3</coordinates></Point>
    </Placemark>
    <Placemark>
      <name>1200 UTC AUG 10</name>
      <styleUrl>#ts</styleUrl>
      <description><![CDATA[
        <table>
          <tr><td>TS IVO (EP092025)</td></tr>
          <tr><td><hr></td></tr>
          <tr><td>1200 UTC AUG 10, 2025</td></tr>
          <tr><td>Storm Location:</td></tr>
          <tr><td><b>21.6 N, 115.6 W</b></td></tr>
          <tr><td>Min Sea Level Pressure:</td></tr>
          <tr><td>1005 mb / 29.68 in Hg</td></tr>
          <tr><td>Maximum Intensity:</td></tr>
          <tr><td>35 kt / 40 mph / 65 kph</td></tr>
        </table>
      ]]></description>
      <Point><coordinates>-115.6,21.6</coordinates></Point>
    </Placemark>
    <Placemark>
      <name>1800 UTC AUG 10</name>
      <styleUrl>#ts</styleUrl>
      <description><![CDATA[
        <table>
          <tr><td>TS IVO (EP092025)</td></tr>
          <tr><td><hr></td></tr>
          <tr><td>1800 UTC AUG 10, 2025</td></tr>
          <tr><td>Storm Location:</td></tr>
          <tr><td><b>22.0 N, 116.6 W</b></td></tr>
          <tr><td>Min Sea Level Pressure:</td></tr>
          <tr><td>1006 mb / 29.71 in Hg</td></tr>
          <tr><td>Maximum Intensity:</td></tr>
          <tr><td>35 kt / 40 mph / 65 kph</td></tr>
        </table>
      ]]></description>
      <Point><coordinates>-116.6,22</coordinates></Point>
    </Placemark>
    <Placemark>
      <name>0000 UTC AUG 11</name>
      <styleUrl>#td</styleUrl>
      <description><![CDATA[
        <table>
          <tr><td>TD IVO (EP092025)</td></tr>
          <tr><td><hr></td></tr>
          <tr><td>0000 UTC AUG 11, 2025</td></tr>
          <tr><td>Storm Location:</td></tr>
          <tr><td><b>22.3 N, 117.4 W</b></td></tr>
          <tr><td>Min Sea Level Pressure:</td></tr>
          <tr><td>1007 mb / 29.74 in Hg</td></tr>
          <tr><td>Maximum Intensity:</td></tr>
          <tr><td>30 kt / 35 mph / 56 kph</td></tr>
        </table>
      ]]></description>
      <Point><coordinates>-117.4,22.3</coordinates></Point>
    </Placemark>
    <Placemark>
      <name>0600 UTC AUG 11</name>
      <styleUrl>#lo</styleUrl>
      <description><![CDATA[
        <table>
          <tr><td>LO IVO (EP092025)</td></tr>
          <tr><td><hr></td></tr>
          <tr><td>0600 UTC AUG 11, 2025</td></tr>
          <tr><td>Storm Location:</td></tr>
          <tr><td><b>22.6 N, 118.2 W</b></td></tr>
          <tr><td>Min Sea Level Pressure:</td></tr>
          <tr><td>1008 mb / 29.77 in Hg</td></tr>
          <tr><td>Maximum Intensity:</td></tr>
          <tr><td>30 kt / 35 mph / 56 kph</td></tr>
        </table>
      ]]></description>
      <Point><coordinates>-118.2,22.6</coordinates></Point>
    </Placemark>
    <Placemark>
      <name>1200 UTC AUG 11</name>
      <styleUrl>#lo</styleUrl>
      <description><![CDATA[
        <table>
          <tr><td>LO IVO (EP092025)</td></tr>
          <tr><td><hr></td></tr>
          <tr><td>1200 UTC AUG 11, 2025</td></tr>
          <tr><td>Storm Location:</td></tr>
          <tr><td><b>23.0 N, 119.1 W</b></td></tr>
          <tr><td>Min Sea Level Pressure:</td></tr>
          <tr><td>1009 mb / 29.80 in Hg</td></tr>
          <tr><td>Maximum Intensity:</td></tr>
          <tr><td>25 kt / 29 mph / 46 kph</td></tr>
        </table>
      ]]></description>
      <Point><coordinates>-119.1,23</coordinates></Point>
    </Placemark>
    <Placemark>
      <name>1800 UTC AUG 11</name>
      <styleUrl>#lo</styleUrl>
      <description><![CDATA[
        <table>
          <tr><td>LO IVO (EP092025)</td></tr>
          <tr><td><hr></td></tr>
          <tr><td>1800 UTC AUG 11, 2025</td></tr>
          <tr><td>Storm Location:</td></tr>
          <tr><td><b>23.3 N, 120.0 W</b></td></tr>
          <tr><td>Min Sea Level Pressure:</td></tr>
          <tr><td>1010 mb / 29.83 in Hg</td></tr>
          <tr><td>Maximum Intensity:</td></tr>
          <tr><td>20 kt / 23 mph / 37 kph</td></tr>
        </table>
      ]]></description>
      <Point><coordinates>-120,23.3</coordinates></Point>
    </Placemark>
    <Placemark>
      <name>0000 UTC AUG 12</name>
      <styleUrl>#lo</styleUrl>
      <description><![CDATA[
        <table>
          <tr><td>LO IVO (EP092025)</td></tr>
          <tr><td><hr></td></tr>
          <tr><td>0000 UTC AUG 12, 2025</td></tr>
          <tr><td>Storm Location:</td></tr>
          <tr><td><b>23.5 N, 121.0 W</b></td></tr>
          <tr><td>Min Sea Level Pressure:</td></tr>
          <tr><td>1010 mb / 29.83 in Hg</td></tr>
          <tr><td>Maximum Intensity:</td></tr>
          <tr><td>20 kt / 23 mph / 37 kph</td></tr>
        </table>
      ]]></description>
      <Point><coordinates>-121,23.5</coordinates></Point>
    </Placemark>
  </Document>
</kml>
