<?xml version="1.0" encoding="UTF-8"?>
<kml xmlns="http://www.opengis.net/kml/2.2">
  <Document>
    <name>EP102025</name>
    <open>0</open>

    <!-- =====  Document header ===== -->
    <description><![CDATA[
      <table>
        <tr><td><b>Title:</b> Tropical Cyclone Best Track for EP102025</td></tr>
      </table>
    ]]></description>

    <!-- =====  Styles (ids must be unique)  ===== -->
	<Style id="pt"> 
		<IconStyle> 
			<scale>1.0</scale> 
			<Icon> 
				<href>ex_nhemi.png</href> 
			</Icon> 
             <hotSpot x="15" y="17" xunits="pixels" yunits="pixels"/>
		</IconStyle> 
		<LabelStyle> 
			<scale>1.0</scale> 
		</LabelStyle> 
	</Style>
	<Style id="cat5"> 
		<IconStyle> 
			<scale>1.0</scale> 
			<Icon> 
				<href>cat5_nhemi.png</href> 
			</Icon> 
             <hotSpot x="15" y="17" xunits="pixels" yunits="pixels"/>
		</IconStyle> 
		<LabelStyle> 
			<scale>1.0</scale> 
		</LabelStyle> 
	</Style>
	<Style id="db"> 
		<IconStyle> 
			<scale>1.0</scale> 
			<Icon> 
				<href>ex_nhemi.png</href> 
			</Icon> 
             <hotSpot x="15" y="17" xunits="pixels" yunits="pixels"/>
		</IconStyle> 
		<LabelStyle> 
			<scale>1.0</scale> 
		</LabelStyle> 
	</Style>
	<Style id="cat3"> 
		<IconStyle> 
			<scale>1.0</scale> 
			<Icon> 
				<href>cat3_nhemi.png</href> 
			</Icon> 
             <hotSpot x="15" y="17" xunits="pixels" yunits="pixels"/>
		</IconStyle> 
		<LabelStyle> 
			<scale>1.0</scale> 
		</LabelStyle> 
	</Style>
	<Style id="ss"> 
		<IconStyle> 
			<scale>1.0</scale> 
			<Icon> 
				<href>ts_nhemi.png</href> 
			</Icon> 
             <hotSpot x="15" y="17" xunits="pixels" yunits="pixels"/>
		</IconStyle> 
		<LabelStyle> 
			<scale>1.0</scale> 
		</LabelStyle> 
	</Style>
	<Style id="lo"> 
		<IconStyle> 
			<scale>1.0</scale> 
			<Icon> 
				<href>ex_nhemi.png</href> 
			</Icon> 
             <hotSpot x="15" y="17" xunits="pixels" yunits="pixels"/>
		</IconStyle> 
		<LabelStyle> 
			<scale>1.0</scale> 
		</LabelStyle> 
	</Style>
	<Style id="cat4"> 
		<IconStyle> 
			<scale>1.0</scale> 
			<Icon> 
				<href>cat4_nhemi.png</href> 
			</Icon> 
             <hotSpot x="15" y="17" xunits="pixels" yunits="pixels"/>
		</IconStyle> 
		<LabelStyle> 
			<scale>1.0</scale> 
		</LabelStyle> 
	</Style>
	<Style id="cat2"> 
		<IconStyle> 
			<scale>1.0</scale> 
			<Icon> 
				<href>cat2_nhemi.png</href> 
			</Icon> 
             <hotSpot x="15" y="17" xunits="pixels" yunits="pixels"/>
		</IconStyle> 
		<LabelStyle> 
			<scale>1.0</scale> 
		</LabelStyle> 
	</Style>
	<Style id="ts"> 
		<IconStyle> 
			<scale>1.0</scale> 
			<Icon> 
				<href>ts_nhemi.png</href> 
			</Icon> 
             <hotSpot x="15" y="17" xunits="pixels" yunits="pixels"/>
		</IconStyle> 
		<LabelStyle> 
			<scale>1.0</scale> 
		</LabelStyle> 
	</Style>
	<Style id="cat1"> 
		<IconStyle> 
			<scale>1.0</scale> 
			<Icon> 
				<href>cat1_nhemi.png</href> 
			</Icon> 
             <hotSpot x="15" y="17" xunits="pixels" yunits="pixels"/>
		</IconStyle> 
		<LabelStyle> 
			<scale>1.0</scale> 
		</LabelStyle> 
	</Style>
	<Style id="ex"> 
		<IconStyle> 
			<scale>1.0</scale> 
			<Icon> 
				<href>ex_nhemi.png</href> 
			</Icon> 
             <hotSpot x="15" y="17" xunits="pixels" yunits="pixels"/>
		</IconStyle> 
		<LabelStyle> 
			<scale>1.0</scale> 
		</LabelStyle> 
	</Style>
	<Style id="tc"> 
		<IconStyle> 
			<scale>1.0</scale> 
			<Icon> 
				<href>ex_nhemi.png</href> 
			</Icon> 
             <hotSpot x="15" y="17" xunits="pixels" yunits="pixels"/>
		</IconStyle> 
		<LabelStyle> 
			<scale>1.0</scale> 
		</LabelStyle> 
	</Style>
	<Style id="wv"> 
		<IconStyle> 
			<scale>1.0</scale> 
			<Icon> 
				<href>ex_nhemi.png</href> 
			</Icon> 
             <hotSpot x="15" y="17" xunits="pixels" yunits="pixels"/>
		</IconStyle> 
		<LabelStyle> 
			<scale>1.0</scale> 
		</LabelStyle> 
	</Style>
	<Style id="td"> 
		<IconStyle> 
			<scale>1.0</scale> 
			<Icon> 
				<href>td_nhemi.png</href> 
			</Icon> 
             <hotSpot x="15" y="17" xunits="pixels" yunits="pixels"/>
		</IconStyle> 
		<LabelStyle> 
			<scale>1.0</scale> 
		</LabelStyle> 
	</Style>
	<Style id="sd"> 
		<IconStyle> 
			<scale>1.0</scale> 
			<Icon> 
				<href>ex_nhemi.png</href> 
			</Icon> 
             <hotSpot x="15" y="17" xunits="pixels" yunits="pixels"/>
		</IconStyle> 
		<LabelStyle> 
			<scale>1.0</scale> 
		</LabelStyle> 
	</Style>

    <Placemark>
      <name>1800 UTC AUG 24</name>
      <styleUrl>#td</styleUrl>
      <description><![CDATA[
        <table>
          <tr><td>TD JULIETTE (EP102025)</td></tr>
          <tr><td><hr></td></tr>
          <tr><td>1800 UTC AUG 24, 2025</td></tr>
          <tr><td>Storm Location:</td></tr>
          <tr><td><b>15.7 N, 109.3 W</b></td></tr>
          <tr><td>Min Sea Level Pressure:</td></tr>
          <tr><td>1006 mb / 29.71 in Hg</td></tr>
          <tr><td>Maximum Intensity:</td></tr>
          <tr><td>30 kt / 35 mph / 56 kph</td></tr>
        </table>
      ]]></description>
      <Point><coordinates>-109.3,15.7</coordinates></Point>
    </Placemark>
    <Placemark>
      <name>0000 UTC AUG 25</name>
      <styleUrl>#td</styleUrl>
      <description><![CDATA[
        <table>
          <tr><td>TD JULIETTE (EP102025)</td></tr>
          <tr><td><hr></td></tr>
          <tr><td>0000 UTC AUG 25, 2025</td></tr>
          <tr><td>Storm Location:</td></tr>
          <tr><td><b>16.1 N, 110.5 W</b></td></tr>
          <tr><td>Min Sea Level Pressure:</td></tr>
          <tr><td>1005 mb / 29.68 in Hg</td></tr>
          <tr><td>Maximum Intensity:</td></tr>
          <tr><td>30 kt / 35 mph / 56 kph</td></tr>
        </table>
      ]]></description>
      <Point><coordinates>-110.5,16.1</coordinates></Point>
    </Placemark>
    <Placemark>
      <name>0600 UTC AUG 25</name>
      <styleUrl>#ts</styleUrl>
      <description><![CDATA[
        <table>
          <tr><td>TS JULIETTE (EP102025)</td></tr>
          <tr><td><hr></td></tr>
          <tr><td>0600 UTC AUG 25, 2025</td></tr>
          <tr><td>Storm Location:</td></tr>
          <tr><td><b>16.5 N, 111.6 W</b></td></tr>
          <tr><td>Min Sea Level Pressure:</td></tr>
          <tr><td>1004 mb / 29.65 in Hg</td></tr>
          <tr><td>Maximum Intensity:</td></tr>
          <tr><td>35 kt / 40 mph / 65 kph</td></tr>
        </table>
      ]]></description>
      <Point><coordinates>-111.6,16.5</coordinates></Point>
    </Placemark>
    <Placemark>
      <name>1200 UTC AUG 25</name>
      <styleUrl>#ts</styleUrl>
      <description><![CDATA[
        <table>
          <tr><td>TS JULIETTE (EP102025)</td></tr>
          <tr><td><hr></td></tr>
          <tr><td>1200 UTC AUG 25, 2025</td></tr>
          <tr><td>Storm Location:</td></tr>
          <tr><td><b>16.9 N, 112.8 W</b></td></tr>
          <tr><td>Min Sea Level Pressure:</td></tr>
          <tr><td>1002 mb / 29.59 in Hg</td></tr>
          <tr><td>Maximum Intensity:</td></tr>
          <tr><td>40 kt / 46 mph / 74 kph</td></tr>
        </table>
      ]]></description>
      <Point><coordinates>-112.8,16.9</coordinates></Point>
    </Placemark>
    <Placemark>
      <name>1800 UTC AUG 25</name>
      <styleUrl>#ts</styleUrl>
      <description><![CDATA[
        <table>
          <tr><td>TS JULIETTE (EP102025)</td></tr>
          <tr><td><hr></td></tr>
          <tr><td>1800 UTC AUG 25, 2025</td></tr>
          <tr><td>Storm Location:</td></tr>
          <tr><td><b>17.3 N, 113.9 W</b></td></tr>
          <tr><td>Min Sea Level Pressure:</td></tr>
          <tr><td>999 mb / 29.50 in Hg</td></tr>
          <tr><td>Maximum Intensity:</td></tr>
          <tr><td>50 kt / 58 mph / 93 kph</td></tr>
        </table>
      ]]></description>
      <Point><coordinates>-113.9,17.3</coordinates></Point>
    </Placemark>
    <Placemark>
      <name>0000 UTC AUG 26</name>
      <styleUrl>#ts</styleUrl>
      <description><![CDATA[
        <table>
          <tr><td>TS JULIETTE (EP102025)</td></tr>
          <tr><td><hr></td></tr>
          <tr><td>0000 UTC AUG 26, 2025</td></tr>
          <tr><td>Storm Location:</td></tr>
          <tr><td><b>17.7 N, 114.9 W</b></td></tr>
          <tr><td>Min Sea Level Pressure:</td></tr>
          <tr><td>997 mb / 29.44 in Hg</td></tr>
          <tr><td>Maximum Intensity:</td></tr>
          <tr><td>55 kt / 63 mph / 102 kph</td></tr>
        </table>
      ]]></description>
      <Point><coordinates>-114.9,17.7</coordinates></Point>
    </Placemark>
    <Placemark>
      <name>0600 UTC AUG 26</name>
      <styleUrl>#ts</styleUrl>
      <description><![CDATA[
        <table>
          <tr><td>TS JULIETTE (EP102025)</td></tr>
          <tr><td><hr></td></tr>
          <tr><td>0600 UTC AUG 26, 2025</td></tr>
          <tr><td>Storm Location:</td></tr>
          <tr><td><b>18.2 N, 115.6 W</b></td></tr>
          <tr><td>Min Sea Level Pressure:</td></tr>
          <tr><td>995 mb / 29.38 in Hg</td></tr>
          <tr><td>Maximum Intensity:</td></tr>
          <tr><td>60 kt / 69 mph / 111 kph</td></tr>
        </table>
      ]]></description>
      <Point><coordinates>-115.6,18.2</coordinates></Point>
    </Placemark>
    <Placemark>
      <name>1200 UTC AUG 26</name>
      <styleUrl>#ts</styleUrl>
      <description><![CDATA[
        <table>
          <tr><td>TS JULIETTE (EP102025)</td></tr>
          <tr><td><hr></td></tr>
          <tr><td>1200 UTC AUG 26, 2025</td></tr>
          <tr><td>Storm Location:</td></tr>
          <tr><td><b>18.7 N, 116.2 W</b></td></tr>
          <tr><td>Min Sea Level Pressure:</td></tr>
          <tr><td>994 mb / 29.35 in Hg</td></tr>
          <tr><td>Maximum Intensity:</td></tr>
          <tr><td>60 kt / 69 mph / 111 kph</td></tr>
        </table>
      ]]></description>
      <Point><coordinates>-116.2,18.7</coordinates></Point>
    </Placemark>
    <Placemark>
      <name>1800 UTC AUG 26</name>
      <styleUrl>#ts</styleUrl>
      <description><![CDATA[
        <table>
          <tr><td>TS JULIETTE (EP102025)</td></tr>
          <tr><td><hr></td></tr>
          <tr><td>1800 UTC AUG 26, 2025</td></tr>
          <tr><td>Storm Location:</td></tr>
          <tr><td><b>19.4 N, 116.9 W</b></td></tr>
          <tr><td>Min Sea Level Pressure:</td></tr>
          <tr><td>996 mb / 29.41 in Hg</td></tr>
          <tr><td>Maximum Intensity:</td></tr>
          <tr><td>55 kt / 63 mph / 102 kph</td></tr>
        </table>
      ]]></description>
      <Point><coordinates>-116.9,19.4</coordinates></Point>
    </Placemark>
    <Placemark>
      <name>0000 UTC AUG 27</name>
      <styleUrl>#ts</styleUrl>
      <description><![CDATA[
        <table>
          <tr><td>TS JULIETTE (EP102025)</td></tr>
          <tr><td><hr></td></tr>
          <tr><td>0000 UTC AUG 27, 2025</td></tr>
          <tr><td>Storm Location:</td></tr>
          <tr><td><b>20.4 N, 117.8 W</b></td></tr>
          <tr><td>Min Sea Level Pressure:</td></tr>
          <tr><td>997 mb / 29.44 in Hg</td></tr>
          <tr><td>Maximum Intensity:</td></tr>
          <tr><td>55 kt / 63 mph / 102 kph</td></tr>
        </table>
      ]]></description>
      <Point><coordinates>-117.8,20.4</coordinates></Point>
    </Placemark>
    <Placemark>
      <name>0600 UTC AUG 27</name>
      <styleUrl>#ts</styleUrl>
      <description><![CDATA[
        <table>
          <tr><td>TS JULIETTE (EP102025)</td></tr>
          <tr><td><hr></td></tr>
          <tr><td>0600 UTC AUG 27, 2025</td></tr>
          <tr><td>Storm Location:</td></tr>
          <tr><td><b>21.4 N, 118.6 W</b></td></tr>
          <tr><td>Min Sea Level Pressure:</td></tr>
          <tr><td>999 mb / 29.50 in Hg</td></tr>
          <tr><td>Maximum Intensity:</td></tr>
          <tr><td>50 kt / 58 mph / 93 kph</td></tr>
        </table>
      ]]></description>
      <Point><coordinates>-118.6,21.4</coordinates></Point>
    </Placemark>
    <Placemark>
      <name>1200 UTC AUG 27</name>
      <styleUrl>#ts</styleUrl>
      <description><![CDATA[
        <table>
          <tr><td>TS JULIETTE (EP102025)</td></tr>
          <tr><td><hr></td></tr>
          <tr><td>1200 UTC AUG 27, 2025</td></tr>
          <tr><td>Storm Location:</td></tr>
          <tr><td><b>22.5 N, 119.3 W</b></td></tr>
          <tr><td>Min Sea Level Pressure:</td></tr>
          <tr><td>1002 mb / 29.59 in Hg</td></tr>
          <tr><td>Maximum Intensity:</td></tr>
          <tr><td>45 kt / 52 mph / 83 kph</td></tr>
        </table>
      ]]></description>
      <Point><coordinates>-119.3,22.5</coordinates></Point>
    </Placemark>
    <Placemark>
      <name>1800 UTC AUG 27</name>
      <styleUrl>#ts</styleUrl>
      <description><![CDATA[
        <table>
          <tr><td>TS JULIETTE (EP102025)</td></tr>
          <tr><td><hr></td></tr>
          <tr><td>1800 UTC AUG 27, 2025</td></tr>
          <tr><td>Storm Location:</td></tr>
          <tr><td><b>23.5 N, 120.0 W</b></td></tr>
          <tr><td>Min Sea Level Pressure:</td></tr>
          <tr><td>1005 mb / 29.68 in Hg</td></tr>
          <tr><td>Maximum Intensity:</td></tr>
          <tr><td>40 kt / 46 mph / 74 kph</td></tr>
        </table>
      ]]></description>
      <Point><coordinates>-120,23.5</coordinates></Point>
    </Placemark>
    <Placemark>
      <name>0000 UTC AUG 28</name>
      <styleUrl>#ts</styleUrl>
      <description><![CDATA[
        <table>
          <tr><td>TS JULIETTE (EP102025)</td></tr>
          <tr><td><hr></td></tr>
          <tr><td>0000 UTC AUG 28, 2025</td></tr>
          <tr><td>Storm Location:</td></tr>
          <tr><td><b>24.4 N, 120.6 W</b></td></tr>
          <tr><td>Min Sea Level Pressure:</td></tr>
          <tr><td>1006 mb / 29.71 in Hg</td></tr>
          <tr><td>Maximum Intensity:</td></tr>
          <tr><td>40 kt / 46 mph / 74 kph</td></tr>
        </table>
      ]]></description>
      <Point><coordinates>-120.6,24.4</coordinates></Point>
    </Placemark>
    <Placemark>
      <name>0600 UTC AUG 28</name>
      <styleUrl>#lo</styleUrl>
      <description><![CDATA[
        <table>
          <tr><td>LO JULIETTE (EP102025)</td></tr>
          <tr><td><hr></td></tr>
          <tr><td>0600 UTC AUG 28, 2025</td></tr>
          <tr><td>Storm Location:</td></tr>
          <tr><td><b>25.1 N, 120.7 W</b></td></tr>
          <tr><td>Min Sea Level Pressure:</td></tr>
          <tr><td>1007 mb / 29.74 in Hg</td></tr>
          <tr><td>Maximum Intensity:</td></tr>
          <tr><td>35 kt / 40 mph / 65 kph</td></tr>
        </table>
      ]]></description>
      <Point><coordinates>-120.7,25.1</coordinates></Point>
    </Placemark>
    <Placemark>
      <name>1200 UTC AUG 28</name>
      <styleUrl>#lo</styleUrl>
      <description><![CDATA[
        <table>
          <tr><td>LO JULIETTE (EP102025)</td></tr>
          <tr><td><hr></td></tr>
          <tr><td>1200 UTC AUG 28, 2025</td></tr>
          <tr><td>Storm Location:</td></tr>
          <tr><td><b>25.5 N, 120.7 W</b></td></tr>
          <tr><td>Min Sea Level Pressure:</td></tr>
          <tr><td>1007 mb / 29.74 in Hg</td></tr>
          <tr><td>Maximum Intensity:</td></tr>
          <tr><td>30 kt / 35 mph / 56 kph</td></tr>
        </table>
      ]]></description>
      <Point><coordinates>-120.7,25.5</coordinates></Point>
    </Placemark>
    <Placemark>
      <name>1800 UTC AUG 28</name>
      <styleUrl>#lo</styleUrl>
      <description><![CDATA[
        <table>
          <tr><td>LO JULIETTE (EP102025)</td></tr>
          <tr><td><hr></td></tr>
          <tr><td>1800 UTC AUG 28, 2025</td></tr>
          <tr><td>Storm Location:</td></tr>
          <tr><td><b>25.8 N, 120.8 W</b></td></tr>
          <tr><td>Min Sea Level Pressure:</td></tr>
          <tr><td>1008 mb / 29.77 in Hg</td></tr>
          <tr><td>Maximum Intensity:</td></tr>
          <tr><td>30 kt / 35 mph / 56 kph</td></tr>
        </table>
      ]]></description>
      <Point><coordinates>-120.8,25.8</coordinates></Point>
    </Placemark>
    <Placemark>
      <name>0000 UTC AUG 29</name>
      <styleUrl>#lo</styleUrl>
      <description><![CDATA[
        <table>
          <tr><td>LO JULIETTE (EP102025)</td></tr>
          <tr><td><hr></td></tr>
          <tr><td>0000 UTC AUG 29, 2025</td></tr>
          <tr><td>Storm Location:</td></tr>
          <tr><td><b>25.9 N, 121.1 W</b></td></tr>
          <tr><td>Min Sea Level Pressure:</td></tr>
          <tr><td>1009 mb / 29.80 in Hg</td></tr>
          <tr><td>Maximum Intensity:</td></tr>
          <tr><td>25 kt / 29 mph / 46 kph</td></tr>
        </table>
      ]]></description>
      <Point><coordinates>-121.1,25.9</coordinates></Point>
    </Placemark>
    <Placemark>
      <name>0600 UTC AUG 29</name>
      <styleUrl>#lo</styleUrl>
      <description><![CDATA[
        <table>
          <tr><td>LO JULIETTE (EP102025)</td></tr>
          <tr><td><hr></td></tr>
          <tr><td>0600 UTC AUG 29, 2025</td></tr>
          <tr><td>Storm Location:</td></tr>
          <tr><td><b>25.9 N, 121.4 W</b></td></tr>
          <tr><td>Min Sea Level Pressure:</td></tr>
          <tr><td>1010 mb / 29.83 in Hg</td></tr>
          <tr><td>Maximum Intensity:</td></tr>
          <tr><td>25 kt / 29 mph / 46 kph</td></tr>
        </table>
      ]]></description>
      <Point><coordinates>-121.4,25.9</coordinates></Point>
    </Placemark>
    <Placemark>
      <name>1200 UTC AUG 29</name>
      <styleUrl>#lo</styleUrl>
      <description><![CDATA[
        <table>
          <tr><td>LO JULIETTE (EP102025)</td></tr>
          <tr><td><hr></td></tr>
          <tr><td>1200 UTC AUG 29, 2025</td></tr>
          <tr><td>Storm Location:</td></tr>
          <tr><td><b>25.8 N, 121.8 W</b></td></tr>
          <tr><td>Min Sea Level Pressure:</td></tr>
          <tr><td>1011 mb / 29.85 in Hg</td></tr>
          <tr><td>Maximum Intensity:</td></tr>
          <tr><td>20 kt / 23 mph / 37 kph</td></tr>
        </table>
      ]]></description>
      <Point><coordinates>-121.8,25.8</coordinates></Point>
    </Placemark>
    <Placemark>
      <name>1800 UTC AUG 29</name>
      <styleUrl>#lo</styleUrl>
      <description><![CDATA[
        <table>
          <tr><td>LO JULIETTE (EP102025)</td></tr>
          <tr><td><hr></td></tr>
          <tr><td>1800 UTC AUG 29, 2025</td></tr>
          <tr><td>Storm Location:</td></tr>
          <tr><td><b>25.6 N, 122.2 W</b></td></tr>
          <tr><td>Min Sea Level Pressure:</td></tr>
          <tr><td>1012 mb / 29.88 in Hg</td></tr>
          <tr><td>Maximum Intensity:</td></tr>
          <tr><td>20 kt / 23 mph / 37 kph</td></tr>
        </table>
      ]]></description>
      <Point><coordinates>-122.2,25.6</coordinates></Point>
    </Placemark>
    <Placemark>
      <name>0000 UTC AUG 30</name>
      <styleUrl>#lo</styleUrl>
      <description><![CDATA[
        <table>
          <tr><td>LO JULIETTE (EP102025)</td></tr>
          <tr><td><hr></td></tr>
          <tr><td>0000 UTC AUG 30, 2025</td></tr>
          <tr><td>Storm Location:</td></tr>
          <tr><td><b>25.3 N, 122.7 W</b></td></tr>
          <tr><td>Min Sea Level Pressure:</td></tr>
          <tr><td>1013 mb / 29.91 in Hg</td></tr>
          <tr><td>Maximum Intensity:</td></tr>
          <tr><td>15 kt / 17 mph / 28 kph</td></tr>
        </table>
      ]]></description>
      <Point><coordinates>-122.7,25.3</coordinates></Point>
    </Placemark>
  </Document>
</kml>
