<?xml version="1.0" encoding="UTF-8"?>
<kml xmlns="http://www.opengis.net/kml/2.2">
  <Document>
    <name>EP112025</name>
    <open>0</open>

    <!-- =====  Document header ===== -->
    <description><![CDATA[
      <table>
        <tr><td><b>Title:</b> Tropical Cyclone Best Track for EP112025</td></tr>
      </table>
    ]]></description>

    <!-- =====  Styles (ids must be unique)  ===== -->
	<Style id="pt"> 
		<IconStyle> 
			<scale>1.0</scale> 
			<Icon> 
				<href>ex_nhemi.png</href> 
			</Icon> 
             <hotSpot x="15" y="17" xunits="pixels" yunits="pixels"/>
		</IconStyle> 
		<LabelStyle> 
			<scale>1.0</scale> 
		</LabelStyle> 
	</Style>
	<Style id="cat5"> 
		<IconStyle> 
			<scale>1.0</scale> 
			<Icon> 
				<href>cat5_nhemi.png</href> 
			</Icon> 
             <hotSpot x="15" y="17" xunits="pixels" yunits="pixels"/>
		</IconStyle> 
		<LabelStyle> 
			<scale>1.0</scale> 
		</LabelStyle> 
	</Style>
	<Style id="db"> 
		<IconStyle> 
			<scale>1.0</scale> 
			<Icon> 
				<href>ex_nhemi.png</href> 
			</Icon> 
             <hotSpot x="15" y="17" xunits="pixels" yunits="pixels"/>
		</IconStyle> 
		<LabelStyle> 
			<scale>1.0</scale> 
		</LabelStyle> 
	</Style>
	<Style id="cat3"> 
		<IconStyle> 
			<scale>1.0</scale> 
			<Icon> 
				<href>cat3_nhemi.png</href> 
			</Icon> 
             <hotSpot x="15" y="17" xunits="pixels" yunits="pixels"/>
		</IconStyle> 
		<LabelStyle> 
			<scale>1.0</scale> 
		</LabelStyle> 
	</Style>
	<Style id="ss"> 
		<IconStyle> 
			<scale>1.0</scale> 
			<Icon> 
				<href>ts_nhemi.png</href> 
			</Icon> 
             <hotSpot x="15" y="17" xunits="pixels" yunits="pixels"/>
		</IconStyle> 
		<LabelStyle> 
			<scale>1.0</scale> 
		</LabelStyle> 
	</Style>
	<Style id="lo"> 
		<IconStyle> 
			<scale>1.0</scale> 
			<Icon> 
				<href>ex_nhemi.png</href> 
			</Icon> 
             <hotSpot x="15" y="17" xunits="pixels" yunits="pixels"/>
		</IconStyle> 
		<LabelStyle> 
			<scale>1.0</scale> 
		</LabelStyle> 
	</Style>
	<Style id="cat4"> 
		<IconStyle> 
			<scale>1.0</scale> 
			<Icon> 
				<href>cat4_nhemi.png</href> 
			</Icon> 
             <hotSpot x="15" y="17" xunits="pixels" yunits="pixels"/>
		</IconStyle> 
		<LabelStyle> 
			<scale>1.0</scale> 
		</LabelStyle> 
	</Style>
	<Style id="cat2"> 
		<IconStyle> 
			<scale>1.0</scale> 
			<Icon> 
				<href>cat2_nhemi.png</href> 
			</Icon> 
             <hotSpot x="15" y="17" xunits="pixels" yunits="pixels"/>
		</IconStyle> 
		<LabelStyle> 
			<scale>1.0</scale> 
		</LabelStyle> 
	</Style>
	<Style id="ts"> 
		<IconStyle> 
			<scale>1.0</scale> 
			<Icon> 
				<href>ts_nhemi.png</href> 
			</Icon> 
             <hotSpot x="15" y="17" xunits="pixels" yunits="pixels"/>
		</IconStyle> 
		<LabelStyle> 
			<scale>1.0</scale> 
		</LabelStyle> 
	</Style>
	<Style id="cat1"> 
		<IconStyle> 
			<scale>1.0</scale> 
			<Icon> 
				<href>cat1_nhemi.png</href> 
			</Icon> 
             <hotSpot x="15" y="17" xunits="pixels" yunits="pixels"/>
		</IconStyle> 
		<LabelStyle> 
			<scale>1.0</scale> 
		</LabelStyle> 
	</Style>
	<Style id="ex"> 
		<IconStyle> 
			<scale>1.0</scale> 
			<Icon> 
				<href>ex_nhemi.png</href> 
			</Icon> 
             <hotSpot x="15" y="17" xunits="pixels" yunits="pixels"/>
		</IconStyle> 
		<LabelStyle> 
			<scale>1.0</scale> 
		</LabelStyle> 
	</Style>
	<Style id="tc"> 
		<IconStyle> 
			<scale>1.0</scale> 
			<Icon> 
				<href>ex_nhemi.png</href> 
			</Icon> 
             <hotSpot x="15" y="17" xunits="pixels" yunits="pixels"/>
		</IconStyle> 
		<LabelStyle> 
			<scale>1.0</scale> 
		</LabelStyle> 
	</Style>
	<Style id="wv"> 
		<IconStyle> 
			<scale>1.0</scale> 
			<Icon> 
				<href>ex_nhemi.png</href> 
			</Icon> 
             <hotSpot x="15" y="17" xunits="pixels" yunits="pixels"/>
		</IconStyle> 
		<LabelStyle> 
			<scale>1.0</scale> 
		</LabelStyle> 
	</Style>
	<Style id="td"> 
		<IconStyle> 
			<scale>1.0</scale> 
			<Icon> 
				<href>td_nhemi.png</href> 
			</Icon> 
             <hotSpot x="15" y="17" xunits="pixels" yunits="pixels"/>
		</IconStyle> 
		<LabelStyle> 
			<scale>1.0</scale> 
		</LabelStyle> 
	</Style>
	<Style id="sd"> 
		<IconStyle> 
			<scale>1.0</scale> 
			<Icon> 
				<href>ex_nhemi.png</href> 
			</Icon> 
             <hotSpot x="15" y="17" xunits="pixels" yunits="pixels"/>
		</IconStyle> 
		<LabelStyle> 
			<scale>1.0</scale> 
		</LabelStyle> 
	</Style>

    <Placemark>
      <name>0000 UTC AUG 31</name>
      <styleUrl>#td</styleUrl>
      <description><![CDATA[
        <table>
          <tr><td>TD KIKO (EP112025)</td></tr>
          <tr><td><hr></td></tr>
          <tr><td>0000 UTC AUG 31, 2025</td></tr>
          <tr><td>Storm Location:</td></tr>
          <tr><td><b>14.4 N, 121.1 W</b></td></tr>
          <tr><td>Min Sea Level Pressure:</td></tr>
          <tr><td>1007 mb / 29.74 in Hg</td></tr>
          <tr><td>Maximum Intensity:</td></tr>
          <tr><td>30 kt / 35 mph / 56 kph</td></tr>
        </table>
      ]]></description>
      <Point><coordinates>-121.1,14.4</coordinates></Point>
    </Placemark>
    <Placemark>
      <name>0600 UTC AUG 31</name>
      <styleUrl>#td</styleUrl>
      <description><![CDATA[
        <table>
          <tr><td>TD KIKO (EP112025)</td></tr>
          <tr><td><hr></td></tr>
          <tr><td>0600 UTC AUG 31, 2025</td></tr>
          <tr><td>Storm Location:</td></tr>
          <tr><td><b>14.4 N, 121.8 W</b></td></tr>
          <tr><td>Min Sea Level Pressure:</td></tr>
          <tr><td>1007 mb / 29.74 in Hg</td></tr>
          <tr><td>Maximum Intensity:</td></tr>
          <tr><td>30 kt / 35 mph / 56 kph</td></tr>
        </table>
      ]]></description>
      <Point><coordinates>-121.8,14.4</coordinates></Point>
    </Placemark>
    <Placemark>
      <name>1200 UTC AUG 31</name>
      <styleUrl>#ts</styleUrl>
      <description><![CDATA[
        <table>
          <tr><td>TS KIKO (EP112025)</td></tr>
          <tr><td><hr></td></tr>
          <tr><td>1200 UTC AUG 31, 2025</td></tr>
          <tr><td>Storm Location:</td></tr>
          <tr><td><b>14.4 N, 122.6 W</b></td></tr>
          <tr><td>Min Sea Level Pressure:</td></tr>
          <tr><td>1006 mb / 29.71 in Hg</td></tr>
          <tr><td>Maximum Intensity:</td></tr>
          <tr><td>35 kt / 40 mph / 65 kph</td></tr>
        </table>
      ]]></description>
      <Point><coordinates>-122.6,14.4</coordinates></Point>
    </Placemark>
    <Placemark>
      <name>1800 UTC AUG 31</name>
      <styleUrl>#ts</styleUrl>
      <description><![CDATA[
        <table>
          <tr><td>TS KIKO (EP112025)</td></tr>
          <tr><td><hr></td></tr>
          <tr><td>1800 UTC AUG 31, 2025</td></tr>
          <tr><td>Storm Location:</td></tr>
          <tr><td><b>14.4 N, 123.5 W</b></td></tr>
          <tr><td>Min Sea Level Pressure:</td></tr>
          <tr><td>1006 mb / 29.71 in Hg</td></tr>
          <tr><td>Maximum Intensity:</td></tr>
          <tr><td>35 kt / 40 mph / 65 kph</td></tr>
        </table>
      ]]></description>
      <Point><coordinates>-123.5,14.4</coordinates></Point>
    </Placemark>
    <Placemark>
      <name>0000 UTC SEP 1</name>
      <styleUrl>#ts</styleUrl>
      <description><![CDATA[
        <table>
          <tr><td>TS KIKO (EP112025)</td></tr>
          <tr><td><hr></td></tr>
          <tr><td>0000 UTC SEP 1, 2025</td></tr>
          <tr><td>Storm Location:</td></tr>
          <tr><td><b>14.3 N, 124.3 W</b></td></tr>
          <tr><td>Min Sea Level Pressure:</td></tr>
          <tr><td>1004 mb / 29.65 in Hg</td></tr>
          <tr><td>Maximum Intensity:</td></tr>
          <tr><td>40 kt / 46 mph / 74 kph</td></tr>
        </table>
      ]]></description>
      <Point><coordinates>-124.3,14.3</coordinates></Point>
    </Placemark>
    <Placemark>
      <name>0600 UTC SEP 1</name>
      <styleUrl>#ts</styleUrl>
      <description><![CDATA[
        <table>
          <tr><td>TS KIKO (EP112025)</td></tr>
          <tr><td><hr></td></tr>
          <tr><td>0600 UTC SEP 1, 2025</td></tr>
          <tr><td>Storm Location:</td></tr>
          <tr><td><b>14.1 N, 125.1 W</b></td></tr>
          <tr><td>Min Sea Level Pressure:</td></tr>
          <tr><td>1004 mb / 29.65 in Hg</td></tr>
          <tr><td>Maximum Intensity:</td></tr>
          <tr><td>40 kt / 46 mph / 74 kph</td></tr>
        </table>
      ]]></description>
      <Point><coordinates>-125.1,14.1</coordinates></Point>
    </Placemark>
    <Placemark>
      <name>1200 UTC SEP 1</name>
      <styleUrl>#ts</styleUrl>
      <description><![CDATA[
        <table>
          <tr><td>TS KIKO (EP112025)</td></tr>
          <tr><td><hr></td></tr>
          <tr><td>1200 UTC SEP 1, 2025</td></tr>
          <tr><td>Storm Location:</td></tr>
          <tr><td><b>13.9 N, 125.8 W</b></td></tr>
          <tr><td>Min Sea Level Pressure:</td></tr>
          <tr><td>1002 mb / 29.59 in Hg</td></tr>
          <tr><td>Maximum Intensity:</td></tr>
          <tr><td>45 kt / 52 mph / 83 kph</td></tr>
        </table>
      ]]></description>
      <Point><coordinates>-125.8,13.9</coordinates></Point>
    </Placemark>
    <Placemark>
      <name>1800 UTC SEP 1</name>
      <styleUrl>#ts</styleUrl>
      <description><![CDATA[
        <table>
          <tr><td>TS KIKO (EP112025)</td></tr>
          <tr><td><hr></td></tr>
          <tr><td>1800 UTC SEP 1, 2025</td></tr>
          <tr><td>Storm Location:</td></tr>
          <tr><td><b>13.8 N, 126.4 W</b></td></tr>
          <tr><td>Min Sea Level Pressure:</td></tr>
          <tr><td>1001 mb / 29.56 in Hg</td></tr>
          <tr><td>Maximum Intensity:</td></tr>
          <tr><td>55 kt / 63 mph / 102 kph</td></tr>
        </table>
      ]]></description>
      <Point><coordinates>-126.4,13.8</coordinates></Point>
    </Placemark>
    <Placemark>
      <name>0000 UTC SEP 2</name>
      <styleUrl>#ts</styleUrl>
      <description><![CDATA[
        <table>
          <tr><td>TS KIKO (EP112025)</td></tr>
          <tr><td><hr></td></tr>
          <tr><td>0000 UTC SEP 2, 2025</td></tr>
          <tr><td>Storm Location:</td></tr>
          <tr><td><b>13.8 N, 127.0 W</b></td></tr>
          <tr><td>Min Sea Level Pressure:</td></tr>
          <tr><td>998 mb / 29.47 in Hg</td></tr>
          <tr><td>Maximum Intensity:</td></tr>
          <tr><td>55 kt / 63 mph / 102 kph</td></tr>
        </table>
      ]]></description>
      <Point><coordinates>-127,13.8</coordinates></Point>
    </Placemark>
    <Placemark>
      <name>0600 UTC SEP 2</name>
      <styleUrl>#cat1</styleUrl>
      <description><![CDATA[
        <table>
          <tr><td>HU KIKO (EP112025)</td></tr>
          <tr><td><hr></td></tr>
          <tr><td>0600 UTC SEP 2, 2025</td></tr>
          <tr><td>Storm Location:</td></tr>
          <tr><td><b>13.8 N, 127.6 W</b></td></tr>
          <tr><td>Min Sea Level Pressure:</td></tr>
          <tr><td>993 mb / 29.32 in Hg</td></tr>
          <tr><td>Maximum Intensity:</td></tr>
          <tr><td>65 kt / 75 mph / 120 kph</td></tr>
        </table>
      ]]></description>
      <Point><coordinates>-127.6,13.8</coordinates></Point>
    </Placemark>
    <Placemark>
      <name>1200 UTC SEP 2</name>
      <styleUrl>#cat1</styleUrl>
      <description><![CDATA[
        <table>
          <tr><td>HU KIKO (EP112025)</td></tr>
          <tr><td><hr></td></tr>
          <tr><td>1200 UTC SEP 2, 2025</td></tr>
          <tr><td>Storm Location:</td></tr>
          <tr><td><b>13.8 N, 128.1 W</b></td></tr>
          <tr><td>Min Sea Level Pressure:</td></tr>
          <tr><td>987 mb / 29.15 in Hg</td></tr>
          <tr><td>Maximum Intensity:</td></tr>
          <tr><td>75 kt / 86 mph / 139 kph</td></tr>
        </table>
      ]]></description>
      <Point><coordinates>-128.1,13.8</coordinates></Point>
    </Placemark>
    <Placemark>
      <name>1800 UTC SEP 2</name>
      <styleUrl>#cat1</styleUrl>
      <description><![CDATA[
        <table>
          <tr><td>HU KIKO (EP112025)</td></tr>
          <tr><td><hr></td></tr>
          <tr><td>1800 UTC SEP 2, 2025</td></tr>
          <tr><td>Storm Location:</td></tr>
          <tr><td><b>13.8 N, 128.6 W</b></td></tr>
          <tr><td>Min Sea Level Pressure:</td></tr>
          <tr><td>983 mb / 29.03 in Hg</td></tr>
          <tr><td>Maximum Intensity:</td></tr>
          <tr><td>80 kt / 92 mph / 148 kph</td></tr>
        </table>
      ]]></description>
      <Point><coordinates>-128.6,13.8</coordinates></Point>
    </Placemark>
    <Placemark>
      <name>0000 UTC SEP 3</name>
      <styleUrl>#cat2</styleUrl>
      <description><![CDATA[
        <table>
          <tr><td>HU KIKO (EP112025)</td></tr>
          <tr><td><hr></td></tr>
          <tr><td>0000 UTC SEP 3, 2025</td></tr>
          <tr><td>Storm Location:</td></tr>
          <tr><td><b>13.8 N, 129.2 W</b></td></tr>
          <tr><td>Min Sea Level Pressure:</td></tr>
          <tr><td>974 mb / 28.76 in Hg</td></tr>
          <tr><td>Maximum Intensity:</td></tr>
          <tr><td>90 kt / 104 mph / 167 kph</td></tr>
        </table>
      ]]></description>
      <Point><coordinates>-129.2,13.8</coordinates></Point>
    </Placemark>
    <Placemark>
      <name>0600 UTC SEP 3</name>
      <styleUrl>#cat2</styleUrl>
      <description><![CDATA[
        <table>
          <tr><td>HU KIKO (EP112025)</td></tr>
          <tr><td><hr></td></tr>
          <tr><td>0600 UTC SEP 3, 2025</td></tr>
          <tr><td>Storm Location:</td></tr>
          <tr><td><b>13.8 N, 129.8 W</b></td></tr>
          <tr><td>Min Sea Level Pressure:</td></tr>
          <tr><td>974 mb / 28.76 in Hg</td></tr>
          <tr><td>Maximum Intensity:</td></tr>
          <tr><td>90 kt / 104 mph / 167 kph</td></tr>
        </table>
      ]]></description>
      <Point><coordinates>-129.8,13.8</coordinates></Point>
    </Placemark>
    <Placemark>
      <name>1200 UTC SEP 3</name>
      <styleUrl>#cat2</styleUrl>
      <description><![CDATA[
        <table>
          <tr><td>HU KIKO (EP112025)</td></tr>
          <tr><td><hr></td></tr>
          <tr><td>1200 UTC SEP 3, 2025</td></tr>
          <tr><td>Storm Location:</td></tr>
          <tr><td><b>13.9 N, 130.4 W</b></td></tr>
          <tr><td>Min Sea Level Pressure:</td></tr>
          <tr><td>974 mb / 28.76 in Hg</td></tr>
          <tr><td>Maximum Intensity:</td></tr>
          <tr><td>90 kt / 104 mph / 167 kph</td></tr>
        </table>
      ]]></description>
      <Point><coordinates>-130.4,13.9</coordinates></Point>
    </Placemark>
    <Placemark>
      <name>1800 UTC SEP 3</name>
      <styleUrl>#cat3</styleUrl>
      <description><![CDATA[
        <table>
          <tr><td>HU KIKO (EP112025)</td></tr>
          <tr><td><hr></td></tr>
          <tr><td>1800 UTC SEP 3, 2025</td></tr>
          <tr><td>Storm Location:</td></tr>
          <tr><td><b>13.9 N, 131.1 W</b></td></tr>
          <tr><td>Min Sea Level Pressure:</td></tr>
          <tr><td>960 mb / 28.35 in Hg</td></tr>
          <tr><td>Maximum Intensity:</td></tr>
          <tr><td>110 kt / 127 mph / 204 kph</td></tr>
        </table>
      ]]></description>
      <Point><coordinates>-131.1,13.9</coordinates></Point>
    </Placemark>
    <Placemark>
      <name>0000 UTC SEP 4</name>
      <styleUrl>#cat4</styleUrl>
      <description><![CDATA[
        <table>
          <tr><td>HU KIKO (EP112025)</td></tr>
          <tr><td><hr></td></tr>
          <tr><td>0000 UTC SEP 4, 2025</td></tr>
          <tr><td>Storm Location:</td></tr>
          <tr><td><b>13.8 N, 131.9 W</b></td></tr>
          <tr><td>Min Sea Level Pressure:</td></tr>
          <tr><td>945 mb / 27.91 in Hg</td></tr>
          <tr><td>Maximum Intensity:</td></tr>
          <tr><td>125 kt / 144 mph / 232 kph</td></tr>
        </table>
      ]]></description>
      <Point><coordinates>-131.9,13.8</coordinates></Point>
    </Placemark>
    <Placemark>
      <name>0600 UTC SEP 4</name>
      <styleUrl>#cat4</styleUrl>
      <description><![CDATA[
        <table>
          <tr><td>HU KIKO (EP112025)</td></tr>
          <tr><td><hr></td></tr>
          <tr><td>0600 UTC SEP 4, 2025</td></tr>
          <tr><td>Storm Location:</td></tr>
          <tr><td><b>13.7 N, 132.6 W</b></td></tr>
          <tr><td>Min Sea Level Pressure:</td></tr>
          <tr><td>946 mb / 27.94 in Hg</td></tr>
          <tr><td>Maximum Intensity:</td></tr>
          <tr><td>125 kt / 144 mph / 232 kph</td></tr>
        </table>
      ]]></description>
      <Point><coordinates>-132.6,13.7</coordinates></Point>
    </Placemark>
    <Placemark>
      <name>1200 UTC SEP 4</name>
      <styleUrl>#cat4</styleUrl>
      <description><![CDATA[
        <table>
          <tr><td>HU KIKO (EP112025)</td></tr>
          <tr><td><hr></td></tr>
          <tr><td>1200 UTC SEP 4, 2025</td></tr>
          <tr><td>Storm Location:</td></tr>
          <tr><td><b>13.8 N, 133.3 W</b></td></tr>
          <tr><td>Min Sea Level Pressure:</td></tr>
          <tr><td>952 mb / 28.11 in Hg</td></tr>
          <tr><td>Maximum Intensity:</td></tr>
          <tr><td>115 kt / 132 mph / 213 kph</td></tr>
        </table>
      ]]></description>
      <Point><coordinates>-133.3,13.8</coordinates></Point>
    </Placemark>
    <Placemark>
      <name>1800 UTC SEP 4</name>
      <styleUrl>#cat4</styleUrl>
      <description><![CDATA[
        <table>
          <tr><td>HU KIKO (EP112025)</td></tr>
          <tr><td><hr></td></tr>
          <tr><td>1800 UTC SEP 4, 2025</td></tr>
          <tr><td>Storm Location:</td></tr>
          <tr><td><b>13.8 N, 134.1 W</b></td></tr>
          <tr><td>Min Sea Level Pressure:</td></tr>
          <tr><td>953 mb / 28.14 in Hg</td></tr>
          <tr><td>Maximum Intensity:</td></tr>
          <tr><td>115 kt / 132 mph / 213 kph</td></tr>
        </table>
      ]]></description>
      <Point><coordinates>-134.1,13.8</coordinates></Point>
    </Placemark>
    <Placemark>
      <name>0000 UTC SEP 5</name>
      <styleUrl>#cat3</styleUrl>
      <description><![CDATA[
        <table>
          <tr><td>HU KIKO (EP112025)</td></tr>
          <tr><td><hr></td></tr>
          <tr><td>0000 UTC SEP 5, 2025</td></tr>
          <tr><td>Storm Location:</td></tr>
          <tr><td><b>13.8 N, 135.0 W</b></td></tr>
          <tr><td>Min Sea Level Pressure:</td></tr>
          <tr><td>956 mb / 28.23 in Hg</td></tr>
          <tr><td>Maximum Intensity:</td></tr>
          <tr><td>110 kt / 127 mph / 204 kph</td></tr>
        </table>
      ]]></description>
      <Point><coordinates>-135,13.8</coordinates></Point>
    </Placemark>
    <Placemark>
      <name>0600 UTC SEP 5</name>
      <styleUrl>#cat3</styleUrl>
      <description><![CDATA[
        <table>
          <tr><td>HU KIKO (EP112025)</td></tr>
          <tr><td><hr></td></tr>
          <tr><td>0600 UTC SEP 5, 2025</td></tr>
          <tr><td>Storm Location:</td></tr>
          <tr><td><b>13.8 N, 135.8 W</b></td></tr>
          <tr><td>Min Sea Level Pressure:</td></tr>
          <tr><td>961 mb / 28.38 in Hg</td></tr>
          <tr><td>Maximum Intensity:</td></tr>
          <tr><td>105 kt / 121 mph / 194 kph</td></tr>
        </table>
      ]]></description>
      <Point><coordinates>-135.8,13.8</coordinates></Point>
    </Placemark>
    <Placemark>
      <name>1200 UTC SEP 5</name>
      <styleUrl>#cat3</styleUrl>
      <description><![CDATA[
        <table>
          <tr><td>HU KIKO (EP112025)</td></tr>
          <tr><td><hr></td></tr>
          <tr><td>1200 UTC SEP 5, 2025</td></tr>
          <tr><td>Storm Location:</td></tr>
          <tr><td><b>14.0 N, 136.6 W</b></td></tr>
          <tr><td>Min Sea Level Pressure:</td></tr>
          <tr><td>962 mb / 28.41 in Hg</td></tr>
          <tr><td>Maximum Intensity:</td></tr>
          <tr><td>100 kt / 115 mph / 185 kph</td></tr>
        </table>
      ]]></description>
      <Point><coordinates>-136.6,14</coordinates></Point>
    </Placemark>
    <Placemark>
      <name>1800 UTC SEP 5</name>
      <styleUrl>#cat3</styleUrl>
      <description><![CDATA[
        <table>
          <tr><td>HU KIKO (EP112025)</td></tr>
          <tr><td><hr></td></tr>
          <tr><td>1800 UTC SEP 5, 2025</td></tr>
          <tr><td>Storm Location:</td></tr>
          <tr><td><b>14.3 N, 137.4 W</b></td></tr>
          <tr><td>Min Sea Level Pressure:</td></tr>
          <tr><td>959 mb / 28.32 in Hg</td></tr>
          <tr><td>Maximum Intensity:</td></tr>
          <tr><td>105 kt / 121 mph / 194 kph</td></tr>
        </table>
      ]]></description>
      <Point><coordinates>-137.4,14.3</coordinates></Point>
    </Placemark>
    <Placemark>
      <name>0000 UTC SEP 6</name>
      <styleUrl>#cat4</styleUrl>
      <description><![CDATA[
        <table>
          <tr><td>HU KIKO (EP112025)</td></tr>
          <tr><td><hr></td></tr>
          <tr><td>0000 UTC SEP 6, 2025</td></tr>
          <tr><td>Storm Location:</td></tr>
          <tr><td><b>14.7 N, 138.2 W</b></td></tr>
          <tr><td>Min Sea Level Pressure:</td></tr>
          <tr><td>952 mb / 28.11 in Hg</td></tr>
          <tr><td>Maximum Intensity:</td></tr>
          <tr><td>115 kt / 132 mph / 213 kph</td></tr>
        </table>
      ]]></description>
      <Point><coordinates>-138.2,14.7</coordinates></Point>
    </Placemark>
    <Placemark>
      <name>0600 UTC SEP 6</name>
      <styleUrl>#cat4</styleUrl>
      <description><![CDATA[
        <table>
          <tr><td>HU KIKO (EP112025)</td></tr>
          <tr><td><hr></td></tr>
          <tr><td>0600 UTC SEP 6, 2025</td></tr>
          <tr><td>Storm Location:</td></tr>
          <tr><td><b>15.0 N, 139.2 W</b></td></tr>
          <tr><td>Min Sea Level Pressure:</td></tr>
          <tr><td>949 mb / 28.02 in Hg</td></tr>
          <tr><td>Maximum Intensity:</td></tr>
          <tr><td>120 kt / 138 mph / 222 kph</td></tr>
        </table>
      ]]></description>
      <Point><coordinates>-139.2,15</coordinates></Point>
    </Placemark>
    <Placemark>
      <name>1200 UTC SEP 6</name>
      <styleUrl>#cat3</styleUrl>
      <description><![CDATA[
        <table>
          <tr><td>HU KIKO (EP112025)</td></tr>
          <tr><td><hr></td></tr>
          <tr><td>1200 UTC SEP 6, 2025</td></tr>
          <tr><td>Storm Location:</td></tr>
          <tr><td><b>15.3 N, 140.1 W</b></td></tr>
          <tr><td>Min Sea Level Pressure:</td></tr>
          <tr><td>953 mb / 28.14 in Hg</td></tr>
          <tr><td>Maximum Intensity:</td></tr>
          <tr><td>110 kt / 127 mph / 204 kph</td></tr>
        </table>
      ]]></description>
      <Point><coordinates>-140.1,15.3</coordinates></Point>
    </Placemark>
    <Placemark>
      <name>1800 UTC SEP 6</name>
      <styleUrl>#cat3</styleUrl>
      <description><![CDATA[
        <table>
          <tr><td>HU KIKO (EP112025)</td></tr>
          <tr><td><hr></td></tr>
          <tr><td>1800 UTC SEP 6, 2025</td></tr>
          <tr><td>Storm Location:</td></tr>
          <tr><td><b>15.9 N, 140.9 W</b></td></tr>
          <tr><td>Min Sea Level Pressure:</td></tr>
          <tr><td>954 mb / 28.17 in Hg</td></tr>
          <tr><td>Maximum Intensity:</td></tr>
          <tr><td>110 kt / 127 mph / 204 kph</td></tr>
        </table>
      ]]></description>
      <Point><coordinates>-140.9,15.9</coordinates></Point>
    </Placemark>
    <Placemark>
      <name>0000 UTC SEP 7</name>
      <styleUrl>#cat4</styleUrl>
      <description><![CDATA[
        <table>
          <tr><td>HU KIKO (EP112025)</td></tr>
          <tr><td><hr></td></tr>
          <tr><td>0000 UTC SEP 7, 2025</td></tr>
          <tr><td>Storm Location:</td></tr>
          <tr><td><b>16.3 N, 141.9 W</b></td></tr>
          <tr><td>Min Sea Level Pressure:</td></tr>
          <tr><td>951 mb / 28.08 in Hg</td></tr>
          <tr><td>Maximum Intensity:</td></tr>
          <tr><td>115 kt / 132 mph / 213 kph</td></tr>
        </table>
      ]]></description>
      <Point><coordinates>-141.9,16.3</coordinates></Point>
    </Placemark>
    <Placemark>
      <name>0600 UTC SEP 7</name>
      <styleUrl>#cat3</styleUrl>
      <description><![CDATA[
        <table>
          <tr><td>HU KIKO (EP112025)</td></tr>
          <tr><td><hr></td></tr>
          <tr><td>0600 UTC SEP 7, 2025</td></tr>
          <tr><td>Storm Location:</td></tr>
          <tr><td><b>16.8 N, 142.9 W</b></td></tr>
          <tr><td>Min Sea Level Pressure:</td></tr>
          <tr><td>956 mb / 28.23 in Hg</td></tr>
          <tr><td>Maximum Intensity:</td></tr>
          <tr><td>110 kt / 127 mph / 204 kph</td></tr>
        </table>
      ]]></description>
      <Point><coordinates>-142.9,16.8</coordinates></Point>
    </Placemark>
    <Placemark>
      <name>1200 UTC SEP 7</name>
      <styleUrl>#cat3</styleUrl>
      <description><![CDATA[
        <table>
          <tr><td>HU KIKO (EP112025)</td></tr>
          <tr><td><hr></td></tr>
          <tr><td>1200 UTC SEP 7, 2025</td></tr>
          <tr><td>Storm Location:</td></tr>
          <tr><td><b>17.2 N, 143.9 W</b></td></tr>
          <tr><td>Min Sea Level Pressure:</td></tr>
          <tr><td>962 mb / 28.41 in Hg</td></tr>
          <tr><td>Maximum Intensity:</td></tr>
          <tr><td>105 kt / 121 mph / 194 kph</td></tr>
        </table>
      ]]></description>
      <Point><coordinates>-143.9,17.2</coordinates></Point>
    </Placemark>
    <Placemark>
      <name>1800 UTC SEP 7</name>
      <styleUrl>#cat2</styleUrl>
      <description><![CDATA[
        <table>
          <tr><td>HU KIKO (EP112025)</td></tr>
          <tr><td><hr></td></tr>
          <tr><td>1800 UTC SEP 7, 2025</td></tr>
          <tr><td>Storm Location:</td></tr>
          <tr><td><b>17.8 N, 145.0 W</b></td></tr>
          <tr><td>Min Sea Level Pressure:</td></tr>
          <tr><td>972 mb / 28.70 in Hg</td></tr>
          <tr><td>Maximum Intensity:</td></tr>
          <tr><td>95 kt / 109 mph / 176 kph</td></tr>
        </table>
      ]]></description>
      <Point><coordinates>-145,17.8</coordinates></Point>
    </Placemark>
    <Placemark>
      <name>0000 UTC SEP 8</name>
      <styleUrl>#cat2</styleUrl>
      <description><![CDATA[
        <table>
          <tr><td>HU KIKO (EP112025)</td></tr>
          <tr><td><hr></td></tr>
          <tr><td>0000 UTC SEP 8, 2025</td></tr>
          <tr><td>Storm Location:</td></tr>
          <tr><td><b>18.5 N, 146.0 W</b></td></tr>
          <tr><td>Min Sea Level Pressure:</td></tr>
          <tr><td>974 mb / 28.76 in Hg</td></tr>
          <tr><td>Maximum Intensity:</td></tr>
          <tr><td>95 kt / 109 mph / 176 kph</td></tr>
        </table>
      ]]></description>
      <Point><coordinates>-146,18.5</coordinates></Point>
    </Placemark>
    <Placemark>
      <name>0600 UTC SEP 8</name>
      <styleUrl>#cat2</styleUrl>
      <description><![CDATA[
        <table>
          <tr><td>HU KIKO (EP112025)</td></tr>
          <tr><td><hr></td></tr>
          <tr><td>0600 UTC SEP 8, 2025</td></tr>
          <tr><td>Storm Location:</td></tr>
          <tr><td><b>19.3 N, 147.1 W</b></td></tr>
          <tr><td>Min Sea Level Pressure:</td></tr>
          <tr><td>980 mb / 28.94 in Hg</td></tr>
          <tr><td>Maximum Intensity:</td></tr>
          <tr><td>90 kt / 104 mph / 167 kph</td></tr>
        </table>
      ]]></description>
      <Point><coordinates>-147.1,19.3</coordinates></Point>
    </Placemark>
    <Placemark>
      <name>1200 UTC SEP 8</name>
      <styleUrl>#cat2</styleUrl>
      <description><![CDATA[
        <table>
          <tr><td>HU KIKO (EP112025)</td></tr>
          <tr><td><hr></td></tr>
          <tr><td>1200 UTC SEP 8, 2025</td></tr>
          <tr><td>Storm Location:</td></tr>
          <tr><td><b>20.0 N, 148.2 W</b></td></tr>
          <tr><td>Min Sea Level Pressure:</td></tr>
          <tr><td>981 mb / 28.97 in Hg</td></tr>
          <tr><td>Maximum Intensity:</td></tr>
          <tr><td>85 kt / 98 mph / 157 kph</td></tr>
        </table>
      ]]></description>
      <Point><coordinates>-148.2,20</coordinates></Point>
    </Placemark>
    <Placemark>
      <name>1800 UTC SEP 8</name>
      <styleUrl>#cat1</styleUrl>
      <description><![CDATA[
        <table>
          <tr><td>HU KIKO (EP112025)</td></tr>
          <tr><td><hr></td></tr>
          <tr><td>1800 UTC SEP 8, 2025</td></tr>
          <tr><td>Storm Location:</td></tr>
          <tr><td><b>20.6 N, 149.3 W</b></td></tr>
          <tr><td>Min Sea Level Pressure:</td></tr>
          <tr><td>990 mb / 29.23 in Hg</td></tr>
          <tr><td>Maximum Intensity:</td></tr>
          <tr><td>80 kt / 92 mph / 148 kph</td></tr>
        </table>
      ]]></description>
      <Point><coordinates>-149.3,20.6</coordinates></Point>
    </Placemark>
    <Placemark>
      <name>0000 UTC SEP 9</name>
      <styleUrl>#cat1</styleUrl>
      <description><![CDATA[
        <table>
          <tr><td>HU KIKO (EP112025)</td></tr>
          <tr><td><hr></td></tr>
          <tr><td>0000 UTC SEP 9, 2025</td></tr>
          <tr><td>Storm Location:</td></tr>
          <tr><td><b>21.3 N, 150.3 W</b></td></tr>
          <tr><td>Min Sea Level Pressure:</td></tr>
          <tr><td>995 mb / 29.38 in Hg</td></tr>
          <tr><td>Maximum Intensity:</td></tr>
          <tr><td>65 kt / 75 mph / 120 kph</td></tr>
        </table>
      ]]></description>
      <Point><coordinates>-150.3,21.3</coordinates></Point>
    </Placemark>
    <Placemark>
      <name>0600 UTC SEP 9</name>
      <styleUrl>#ts</styleUrl>
      <description><![CDATA[
        <table>
          <tr><td>TS KIKO (EP112025)</td></tr>
          <tr><td><hr></td></tr>
          <tr><td>0600 UTC SEP 9, 2025</td></tr>
          <tr><td>Storm Location:</td></tr>
          <tr><td><b>21.7 N, 151.5 W</b></td></tr>
          <tr><td>Min Sea Level Pressure:</td></tr>
          <tr><td>1004 mb / 29.65 in Hg</td></tr>
          <tr><td>Maximum Intensity:</td></tr>
          <tr><td>50 kt / 58 mph / 93 kph</td></tr>
        </table>
      ]]></description>
      <Point><coordinates>-151.5,21.7</coordinates></Point>
    </Placemark>
    <Placemark>
      <name>1200 UTC SEP 9</name>
      <styleUrl>#ts</styleUrl>
      <description><![CDATA[
        <table>
          <tr><td>TS KIKO (EP112025)</td></tr>
          <tr><td><hr></td></tr>
          <tr><td>1200 UTC SEP 9, 2025</td></tr>
          <tr><td>Storm Location:</td></tr>
          <tr><td><b>22.2 N, 152.8 W</b></td></tr>
          <tr><td>Min Sea Level Pressure:</td></tr>
          <tr><td>1006 mb / 29.71 in Hg</td></tr>
          <tr><td>Maximum Intensity:</td></tr>
          <tr><td>40 kt / 46 mph / 74 kph</td></tr>
        </table>
      ]]></description>
      <Point><coordinates>-152.8,22.2</coordinates></Point>
    </Placemark>
    <Placemark>
      <name>1800 UTC SEP 9</name>
      <styleUrl>#ts</styleUrl>
      <description><![CDATA[
        <table>
          <tr><td>TS KIKO (EP112025)</td></tr>
          <tr><td><hr></td></tr>
          <tr><td>1800 UTC SEP 9, 2025</td></tr>
          <tr><td>Storm Location:</td></tr>
          <tr><td><b>22.5 N, 154.3 W</b></td></tr>
          <tr><td>Min Sea Level Pressure:</td></tr>
          <tr><td>1007 mb / 29.74 in Hg</td></tr>
          <tr><td>Maximum Intensity:</td></tr>
          <tr><td>40 kt / 46 mph / 74 kph</td></tr>
        </table>
      ]]></description>
      <Point><coordinates>-154.3,22.5</coordinates></Point>
    </Placemark>
    <Placemark>
      <name>0000 UTC SEP 10</name>
      <styleUrl>#ts</styleUrl>
      <description><![CDATA[
        <table>
          <tr><td>TS KIKO (EP112025)</td></tr>
          <tr><td><hr></td></tr>
          <tr><td>0000 UTC SEP 10, 2025</td></tr>
          <tr><td>Storm Location:</td></tr>
          <tr><td><b>22.7 N, 155.7 W</b></td></tr>
          <tr><td>Min Sea Level Pressure:</td></tr>
          <tr><td>1007 mb / 29.74 in Hg</td></tr>
          <tr><td>Maximum Intensity:</td></tr>
          <tr><td>35 kt / 40 mph / 65 kph</td></tr>
        </table>
      ]]></description>
      <Point><coordinates>-155.7,22.7</coordinates></Point>
    </Placemark>
    <Placemark>
      <name>0600 UTC SEP 10</name>
      <styleUrl>#ts</styleUrl>
      <description><![CDATA[
        <table>
          <tr><td>TS KIKO (EP112025)</td></tr>
          <tr><td><hr></td></tr>
          <tr><td>0600 UTC SEP 10, 2025</td></tr>
          <tr><td>Storm Location:</td></tr>
          <tr><td><b>22.3 N, 156.5 W</b></td></tr>
          <tr><td>Min Sea Level Pressure:</td></tr>
          <tr><td>1007 mb / 29.74 in Hg</td></tr>
          <tr><td>Maximum Intensity:</td></tr>
          <tr><td>35 kt / 40 mph / 65 kph</td></tr>
        </table>
      ]]></description>
      <Point><coordinates>-156.5,22.3</coordinates></Point>
    </Placemark>
    <Placemark>
      <name>1200 UTC SEP 10</name>
      <styleUrl>#lo</styleUrl>
      <description><![CDATA[
        <table>
          <tr><td>LO KIKO (EP112025)</td></tr>
          <tr><td><hr></td></tr>
          <tr><td>1200 UTC SEP 10, 2025</td></tr>
          <tr><td>Storm Location:</td></tr>
          <tr><td><b>22.7 N, 157.4 W</b></td></tr>
          <tr><td>Min Sea Level Pressure:</td></tr>
          <tr><td>1008 mb / 29.77 in Hg</td></tr>
          <tr><td>Maximum Intensity:</td></tr>
          <tr><td>30 kt / 35 mph / 56 kph</td></tr>
        </table>
      ]]></description>
      <Point><coordinates>-157.4,22.7</coordinates></Point>
    </Placemark>
    <Placemark>
      <name>1800 UTC SEP 10</name>
      <styleUrl>#lo</styleUrl>
      <description><![CDATA[
        <table>
          <tr><td>LO KIKO (EP112025)</td></tr>
          <tr><td><hr></td></tr>
          <tr><td>1800 UTC SEP 10, 2025</td></tr>
          <tr><td>Storm Location:</td></tr>
          <tr><td><b>23.4 N, 158.4 W</b></td></tr>
          <tr><td>Min Sea Level Pressure:</td></tr>
          <tr><td>1008 mb / 29.77 in Hg</td></tr>
          <tr><td>Maximum Intensity:</td></tr>
          <tr><td>30 kt / 35 mph / 56 kph</td></tr>
        </table>
      ]]></description>
      <Point><coordinates>-158.4,23.4</coordinates></Point>
    </Placemark>
    <Placemark>
      <name>0000 UTC SEP 11</name>
      <styleUrl>#lo</styleUrl>
      <description><![CDATA[
        <table>
          <tr><td>LO KIKO (EP112025)</td></tr>
          <tr><td><hr></td></tr>
          <tr><td>0000 UTC SEP 11, 2025</td></tr>
          <tr><td>Storm Location:</td></tr>
          <tr><td><b>24.3 N, 159.5 W</b></td></tr>
          <tr><td>Min Sea Level Pressure:</td></tr>
          <tr><td>1009 mb / 29.80 in Hg</td></tr>
          <tr><td>Maximum Intensity:</td></tr>
          <tr><td>30 kt / 35 mph / 56 kph</td></tr>
        </table>
      ]]></description>
      <Point><coordinates>-159.5,24.3</coordinates></Point>
    </Placemark>
  </Document>
</kml>
