<?xml version="1.0" encoding="UTF-8"?>
<kml xmlns="http://www.opengis.net/kml/2.2">
  <Document>
    <name>EP122025</name>
    <open>0</open>

    <!-- =====  Document header ===== -->
    <description><![CDATA[
      <table>
        <tr><td><b>Title:</b> Tropical Cyclone Best Track for EP122025</td></tr>
      </table>
    ]]></description>

    <!-- =====  Styles (ids must be unique)  ===== -->
	<Style id="pt"> 
		<IconStyle> 
			<scale>1.0</scale> 
			<Icon> 
				<href>ex_nhemi.png</href> 
			</Icon> 
             <hotSpot x="15" y="17" xunits="pixels" yunits="pixels"/>
		</IconStyle> 
		<LabelStyle> 
			<scale>1.0</scale> 
		</LabelStyle> 
	</Style>
	<Style id="cat5"> 
		<IconStyle> 
			<scale>1.0</scale> 
			<Icon> 
				<href>cat5_nhemi.png</href> 
			</Icon> 
             <hotSpot x="15" y="17" xunits="pixels" yunits="pixels"/>
		</IconStyle> 
		<LabelStyle> 
			<scale>1.0</scale> 
		</LabelStyle> 
	</Style>
	<Style id="db"> 
		<IconStyle> 
			<scale>1.0</scale> 
			<Icon> 
				<href>ex_nhemi.png</href> 
			</Icon> 
             <hotSpot x="15" y="17" xunits="pixels" yunits="pixels"/>
		</IconStyle> 
		<LabelStyle> 
			<scale>1.0</scale> 
		</LabelStyle> 
	</Style>
	<Style id="cat3"> 
		<IconStyle> 
			<scale>1.0</scale> 
			<Icon> 
				<href>cat3_nhemi.png</href> 
			</Icon> 
             <hotSpot x="15" y="17" xunits="pixels" yunits="pixels"/>
		</IconStyle> 
		<LabelStyle> 
			<scale>1.0</scale> 
		</LabelStyle> 
	</Style>
	<Style id="ss"> 
		<IconStyle> 
			<scale>1.0</scale> 
			<Icon> 
				<href>ts_nhemi.png</href> 
			</Icon> 
             <hotSpot x="15" y="17" xunits="pixels" yunits="pixels"/>
		</IconStyle> 
		<LabelStyle> 
			<scale>1.0</scale> 
		</LabelStyle> 
	</Style>
	<Style id="lo"> 
		<IconStyle> 
			<scale>1.0</scale> 
			<Icon> 
				<href>ex_nhemi.png</href> 
			</Icon> 
             <hotSpot x="15" y="17" xunits="pixels" yunits="pixels"/>
		</IconStyle> 
		<LabelStyle> 
			<scale>1.0</scale> 
		</LabelStyle> 
	</Style>
	<Style id="cat4"> 
		<IconStyle> 
			<scale>1.0</scale> 
			<Icon> 
				<href>cat4_nhemi.png</href> 
			</Icon> 
             <hotSpot x="15" y="17" xunits="pixels" yunits="pixels"/>
		</IconStyle> 
		<LabelStyle> 
			<scale>1.0</scale> 
		</LabelStyle> 
	</Style>
	<Style id="cat2"> 
		<IconStyle> 
			<scale>1.0</scale> 
			<Icon> 
				<href>cat2_nhemi.png</href> 
			</Icon> 
             <hotSpot x="15" y="17" xunits="pixels" yunits="pixels"/>
		</IconStyle> 
		<LabelStyle> 
			<scale>1.0</scale> 
		</LabelStyle> 
	</Style>
	<Style id="ts"> 
		<IconStyle> 
			<scale>1.0</scale> 
			<Icon> 
				<href>ts_nhemi.png</href> 
			</Icon> 
             <hotSpot x="15" y="17" xunits="pixels" yunits="pixels"/>
		</IconStyle> 
		<LabelStyle> 
			<scale>1.0</scale> 
		</LabelStyle> 
	</Style>
	<Style id="cat1"> 
		<IconStyle> 
			<scale>1.0</scale> 
			<Icon> 
				<href>cat1_nhemi.png</href> 
			</Icon> 
             <hotSpot x="15" y="17" xunits="pixels" yunits="pixels"/>
		</IconStyle> 
		<LabelStyle> 
			<scale>1.0</scale> 
		</LabelStyle> 
	</Style>
	<Style id="ex"> 
		<IconStyle> 
			<scale>1.0</scale> 
			<Icon> 
				<href>ex_nhemi.png</href> 
			</Icon> 
             <hotSpot x="15" y="17" xunits="pixels" yunits="pixels"/>
		</IconStyle> 
		<LabelStyle> 
			<scale>1.0</scale> 
		</LabelStyle> 
	</Style>
	<Style id="tc"> 
		<IconStyle> 
			<scale>1.0</scale> 
			<Icon> 
				<href>ex_nhemi.png</href> 
			</Icon> 
             <hotSpot x="15" y="17" xunits="pixels" yunits="pixels"/>
		</IconStyle> 
		<LabelStyle> 
			<scale>1.0</scale> 
		</LabelStyle> 
	</Style>
	<Style id="wv"> 
		<IconStyle> 
			<scale>1.0</scale> 
			<Icon> 
				<href>ex_nhemi.png</href> 
			</Icon> 
             <hotSpot x="15" y="17" xunits="pixels" yunits="pixels"/>
		</IconStyle> 
		<LabelStyle> 
			<scale>1.0</scale> 
		</LabelStyle> 
	</Style>
	<Style id="td"> 
		<IconStyle> 
			<scale>1.0</scale> 
			<Icon> 
				<href>td_nhemi.png</href> 
			</Icon> 
             <hotSpot x="15" y="17" xunits="pixels" yunits="pixels"/>
		</IconStyle> 
		<LabelStyle> 
			<scale>1.0</scale> 
		</LabelStyle> 
	</Style>
	<Style id="sd"> 
		<IconStyle> 
			<scale>1.0</scale> 
			<Icon> 
				<href>ex_nhemi.png</href> 
			</Icon> 
             <hotSpot x="15" y="17" xunits="pixels" yunits="pixels"/>
		</IconStyle> 
		<LabelStyle> 
			<scale>1.0</scale> 
		</LabelStyle> 
	</Style>

    <Placemark>
      <name>0000 UTC SEP 2</name>
      <styleUrl>#td</styleUrl>
      <description><![CDATA[
        <table>
          <tr><td>TD LORENA (EP122025)</td></tr>
          <tr><td><hr></td></tr>
          <tr><td>0000 UTC SEP 2, 2025</td></tr>
          <tr><td>Storm Location:</td></tr>
          <tr><td><b>16.9 N, 104.8 W</b></td></tr>
          <tr><td>Min Sea Level Pressure:</td></tr>
          <tr><td>1005 mb / 29.68 in Hg</td></tr>
          <tr><td>Maximum Intensity:</td></tr>
          <tr><td>30 kt / 35 mph / 56 kph</td></tr>
        </table>
      ]]></description>
      <Point><coordinates>-104.8,16.9</coordinates></Point>
    </Placemark>
    <Placemark>
      <name>0600 UTC SEP 2</name>
      <styleUrl>#ts</styleUrl>
      <description><![CDATA[
        <table>
          <tr><td>TS LORENA (EP122025)</td></tr>
          <tr><td><hr></td></tr>
          <tr><td>0600 UTC SEP 2, 2025</td></tr>
          <tr><td>Storm Location:</td></tr>
          <tr><td><b>17.3 N, 106.3 W</b></td></tr>
          <tr><td>Min Sea Level Pressure:</td></tr>
          <tr><td>1004 mb / 29.65 in Hg</td></tr>
          <tr><td>Maximum Intensity:</td></tr>
          <tr><td>35 kt / 40 mph / 65 kph</td></tr>
        </table>
      ]]></description>
      <Point><coordinates>-106.3,17.3</coordinates></Point>
    </Placemark>
    <Placemark>
      <name>1200 UTC SEP 2</name>
      <styleUrl>#ts</styleUrl>
      <description><![CDATA[
        <table>
          <tr><td>TS LORENA (EP122025)</td></tr>
          <tr><td><hr></td></tr>
          <tr><td>1200 UTC SEP 2, 2025</td></tr>
          <tr><td>Storm Location:</td></tr>
          <tr><td><b>18.0 N, 107.4 W</b></td></tr>
          <tr><td>Min Sea Level Pressure:</td></tr>
          <tr><td>1003 mb / 29.62 in Hg</td></tr>
          <tr><td>Maximum Intensity:</td></tr>
          <tr><td>40 kt / 46 mph / 74 kph</td></tr>
        </table>
      ]]></description>
      <Point><coordinates>-107.4,18</coordinates></Point>
    </Placemark>
    <Placemark>
      <name>1800 UTC SEP 2</name>
      <styleUrl>#ts</styleUrl>
      <description><![CDATA[
        <table>
          <tr><td>TS LORENA (EP122025)</td></tr>
          <tr><td><hr></td></tr>
          <tr><td>1800 UTC SEP 2, 2025</td></tr>
          <tr><td>Storm Location:</td></tr>
          <tr><td><b>18.9 N, 108.3 W</b></td></tr>
          <tr><td>Min Sea Level Pressure:</td></tr>
          <tr><td>1001 mb / 29.56 in Hg</td></tr>
          <tr><td>Maximum Intensity:</td></tr>
          <tr><td>45 kt / 52 mph / 83 kph</td></tr>
        </table>
      ]]></description>
      <Point><coordinates>-108.3,18.9</coordinates></Point>
    </Placemark>
    <Placemark>
      <name>0000 UTC SEP 3</name>
      <styleUrl>#ts</styleUrl>
      <description><![CDATA[
        <table>
          <tr><td>TS LORENA (EP122025)</td></tr>
          <tr><td><hr></td></tr>
          <tr><td>0000 UTC SEP 3, 2025</td></tr>
          <tr><td>Storm Location:</td></tr>
          <tr><td><b>19.8 N, 109.2 W</b></td></tr>
          <tr><td>Min Sea Level Pressure:</td></tr>
          <tr><td>998 mb / 29.47 in Hg</td></tr>
          <tr><td>Maximum Intensity:</td></tr>
          <tr><td>55 kt / 63 mph / 102 kph</td></tr>
        </table>
      ]]></description>
      <Point><coordinates>-109.2,19.8</coordinates></Point>
    </Placemark>
    <Placemark>
      <name>0600 UTC SEP 3</name>
      <styleUrl>#cat1</styleUrl>
      <description><![CDATA[
        <table>
          <tr><td>HU LORENA (EP122025)</td></tr>
          <tr><td><hr></td></tr>
          <tr><td>0600 UTC SEP 3, 2025</td></tr>
          <tr><td>Storm Location:</td></tr>
          <tr><td><b>20.8 N, 110.0 W</b></td></tr>
          <tr><td>Min Sea Level Pressure:</td></tr>
          <tr><td>991 mb / 29.26 in Hg</td></tr>
          <tr><td>Maximum Intensity:</td></tr>
          <tr><td>65 kt / 75 mph / 120 kph</td></tr>
        </table>
      ]]></description>
      <Point><coordinates>-110,20.8</coordinates></Point>
    </Placemark>
    <Placemark>
      <name>1200 UTC SEP 3</name>
      <styleUrl>#cat1</styleUrl>
      <description><![CDATA[
        <table>
          <tr><td>HU LORENA (EP122025)</td></tr>
          <tr><td><hr></td></tr>
          <tr><td>1200 UTC SEP 3, 2025</td></tr>
          <tr><td>Storm Location:</td></tr>
          <tr><td><b>21.9 N, 111.1 W</b></td></tr>
          <tr><td>Min Sea Level Pressure:</td></tr>
          <tr><td>987 mb / 29.15 in Hg</td></tr>
          <tr><td>Maximum Intensity:</td></tr>
          <tr><td>70 kt / 81 mph / 130 kph</td></tr>
        </table>
      ]]></description>
      <Point><coordinates>-111.1,21.9</coordinates></Point>
    </Placemark>
    <Placemark>
      <name>1800 UTC SEP 3</name>
      <styleUrl>#cat1</styleUrl>
      <description><![CDATA[
        <table>
          <tr><td>HU LORENA (EP122025)</td></tr>
          <tr><td><hr></td></tr>
          <tr><td>1800 UTC SEP 3, 2025</td></tr>
          <tr><td>Storm Location:</td></tr>
          <tr><td><b>22.5 N, 112.1 W</b></td></tr>
          <tr><td>Min Sea Level Pressure:</td></tr>
          <tr><td>984 mb / 29.06 in Hg</td></tr>
          <tr><td>Maximum Intensity:</td></tr>
          <tr><td>75 kt / 86 mph / 139 kph</td></tr>
        </table>
      ]]></description>
      <Point><coordinates>-112.1,22.5</coordinates></Point>
    </Placemark>
    <Placemark>
      <name>0000 UTC SEP 4</name>
      <styleUrl>#cat1</styleUrl>
      <description><![CDATA[
        <table>
          <tr><td>HU LORENA (EP122025)</td></tr>
          <tr><td><hr></td></tr>
          <tr><td>0000 UTC SEP 4, 2025</td></tr>
          <tr><td>Storm Location:</td></tr>
          <tr><td><b>23.1 N, 112.8 W</b></td></tr>
          <tr><td>Min Sea Level Pressure:</td></tr>
          <tr><td>981 mb / 28.97 in Hg</td></tr>
          <tr><td>Maximum Intensity:</td></tr>
          <tr><td>75 kt / 86 mph / 139 kph</td></tr>
        </table>
      ]]></description>
      <Point><coordinates>-112.8,23.1</coordinates></Point>
    </Placemark>
    <Placemark>
      <name>0600 UTC SEP 4</name>
      <styleUrl>#cat1</styleUrl>
      <description><![CDATA[
        <table>
          <tr><td>HU LORENA (EP122025)</td></tr>
          <tr><td><hr></td></tr>
          <tr><td>0600 UTC SEP 4, 2025</td></tr>
          <tr><td>Storm Location:</td></tr>
          <tr><td><b>23.6 N, 113.5 W</b></td></tr>
          <tr><td>Min Sea Level Pressure:</td></tr>
          <tr><td>984 mb / 29.06 in Hg</td></tr>
          <tr><td>Maximum Intensity:</td></tr>
          <tr><td>70 kt / 81 mph / 130 kph</td></tr>
        </table>
      ]]></description>
      <Point><coordinates>-113.5,23.6</coordinates></Point>
    </Placemark>
    <Placemark>
      <name>1200 UTC SEP 4</name>
      <styleUrl>#ts</styleUrl>
      <description><![CDATA[
        <table>
          <tr><td>TS LORENA (EP122025)</td></tr>
          <tr><td><hr></td></tr>
          <tr><td>1200 UTC SEP 4, 2025</td></tr>
          <tr><td>Storm Location:</td></tr>
          <tr><td><b>24.0 N, 114.0 W</b></td></tr>
          <tr><td>Min Sea Level Pressure:</td></tr>
          <tr><td>990 mb / 29.23 in Hg</td></tr>
          <tr><td>Maximum Intensity:</td></tr>
          <tr><td>60 kt / 69 mph / 111 kph</td></tr>
        </table>
      ]]></description>
      <Point><coordinates>-114,24</coordinates></Point>
    </Placemark>
    <Placemark>
      <name>1800 UTC SEP 4</name>
      <styleUrl>#ts</styleUrl>
      <description><![CDATA[
        <table>
          <tr><td>TS LORENA (EP122025)</td></tr>
          <tr><td><hr></td></tr>
          <tr><td>1800 UTC SEP 4, 2025</td></tr>
          <tr><td>Storm Location:</td></tr>
          <tr><td><b>24.4 N, 114.6 W</b></td></tr>
          <tr><td>Min Sea Level Pressure:</td></tr>
          <tr><td>996 mb / 29.41 in Hg</td></tr>
          <tr><td>Maximum Intensity:</td></tr>
          <tr><td>45 kt / 52 mph / 83 kph</td></tr>
        </table>
      ]]></description>
      <Point><coordinates>-114.6,24.4</coordinates></Point>
    </Placemark>
    <Placemark>
      <name>0000 UTC SEP 5</name>
      <styleUrl>#lo</styleUrl>
      <description><![CDATA[
        <table>
          <tr><td>LO LORENA (EP122025)</td></tr>
          <tr><td><hr></td></tr>
          <tr><td>0000 UTC SEP 5, 2025</td></tr>
          <tr><td>Storm Location:</td></tr>
          <tr><td><b>24.5 N, 115.0 W</b></td></tr>
          <tr><td>Min Sea Level Pressure:</td></tr>
          <tr><td>998 mb / 29.47 in Hg</td></tr>
          <tr><td>Maximum Intensity:</td></tr>
          <tr><td>40 kt / 46 mph / 74 kph</td></tr>
        </table>
      ]]></description>
      <Point><coordinates>-115,24.5</coordinates></Point>
    </Placemark>
    <Placemark>
      <name>0600 UTC SEP 5</name>
      <styleUrl>#lo</styleUrl>
      <description><![CDATA[
        <table>
          <tr><td>LO LORENA (EP122025)</td></tr>
          <tr><td><hr></td></tr>
          <tr><td>0600 UTC SEP 5, 2025</td></tr>
          <tr><td>Storm Location:</td></tr>
          <tr><td><b>24.4 N, 115.0 W</b></td></tr>
          <tr><td>Min Sea Level Pressure:</td></tr>
          <tr><td>1001 mb / 29.56 in Hg</td></tr>
          <tr><td>Maximum Intensity:</td></tr>
          <tr><td>35 kt / 40 mph / 65 kph</td></tr>
        </table>
      ]]></description>
      <Point><coordinates>-115,24.4</coordinates></Point>
    </Placemark>
    <Placemark>
      <name>1200 UTC SEP 5</name>
      <styleUrl>#lo</styleUrl>
      <description><![CDATA[
        <table>
          <tr><td>LO LORENA (EP122025)</td></tr>
          <tr><td><hr></td></tr>
          <tr><td>1200 UTC SEP 5, 2025</td></tr>
          <tr><td>Storm Location:</td></tr>
          <tr><td><b>24.3 N, 114.9 W</b></td></tr>
          <tr><td>Min Sea Level Pressure:</td></tr>
          <tr><td>1002 mb / 29.59 in Hg</td></tr>
          <tr><td>Maximum Intensity:</td></tr>
          <tr><td>30 kt / 35 mph / 56 kph</td></tr>
        </table>
      ]]></description>
      <Point><coordinates>-114.9,24.3</coordinates></Point>
    </Placemark>
    <Placemark>
      <name>1800 UTC SEP 5</name>
      <styleUrl>#lo</styleUrl>
      <description><![CDATA[
        <table>
          <tr><td>LO LORENA (EP122025)</td></tr>
          <tr><td><hr></td></tr>
          <tr><td>1800 UTC SEP 5, 2025</td></tr>
          <tr><td>Storm Location:</td></tr>
          <tr><td><b>24.4 N, 114.5 W</b></td></tr>
          <tr><td>Min Sea Level Pressure:</td></tr>
          <tr><td>1005 mb / 29.68 in Hg</td></tr>
          <tr><td>Maximum Intensity:</td></tr>
          <tr><td>30 kt / 35 mph / 56 kph</td></tr>
        </table>
      ]]></description>
      <Point><coordinates>-114.5,24.4</coordinates></Point>
    </Placemark>
    <Placemark>
      <name>0000 UTC SEP 6</name>
      <styleUrl>#lo</styleUrl>
      <description><![CDATA[
        <table>
          <tr><td>LO LORENA (EP122025)</td></tr>
          <tr><td><hr></td></tr>
          <tr><td>0000 UTC SEP 6, 2025</td></tr>
          <tr><td>Storm Location:</td></tr>
          <tr><td><b>24.7 N, 114.7 W</b></td></tr>
          <tr><td>Min Sea Level Pressure:</td></tr>
          <tr><td>1007 mb / 29.74 in Hg</td></tr>
          <tr><td>Maximum Intensity:</td></tr>
          <tr><td>25 kt / 29 mph / 46 kph</td></tr>
        </table>
      ]]></description>
      <Point><coordinates>-114.7,24.7</coordinates></Point>
    </Placemark>
    <Placemark>
      <name>0600 UTC SEP 6</name>
      <styleUrl>#lo</styleUrl>
      <description><![CDATA[
        <table>
          <tr><td>LO LORENA (EP122025)</td></tr>
          <tr><td><hr></td></tr>
          <tr><td>0600 UTC SEP 6, 2025</td></tr>
          <tr><td>Storm Location:</td></tr>
          <tr><td><b>25.0 N, 115.1 W</b></td></tr>
          <tr><td>Min Sea Level Pressure:</td></tr>
          <tr><td>1007 mb / 29.74 in Hg</td></tr>
          <tr><td>Maximum Intensity:</td></tr>
          <tr><td>25 kt / 29 mph / 46 kph</td></tr>
        </table>
      ]]></description>
      <Point><coordinates>-115.1,25</coordinates></Point>
    </Placemark>
    <Placemark>
      <name>1200 UTC SEP 6</name>
      <styleUrl>#lo</styleUrl>
      <description><![CDATA[
        <table>
          <tr><td>LO LORENA (EP122025)</td></tr>
          <tr><td><hr></td></tr>
          <tr><td>1200 UTC SEP 6, 2025</td></tr>
          <tr><td>Storm Location:</td></tr>
          <tr><td><b>25.2 N, 115.5 W</b></td></tr>
          <tr><td>Min Sea Level Pressure:</td></tr>
          <tr><td>1007 mb / 29.74 in Hg</td></tr>
          <tr><td>Maximum Intensity:</td></tr>
          <tr><td>20 kt / 23 mph / 37 kph</td></tr>
        </table>
      ]]></description>
      <Point><coordinates>-115.5,25.2</coordinates></Point>
    </Placemark>
    <Placemark>
      <name>1800 UTC SEP 6</name>
      <styleUrl>#lo</styleUrl>
      <description><![CDATA[
        <table>
          <tr><td>LO LORENA (EP122025)</td></tr>
          <tr><td><hr></td></tr>
          <tr><td>1800 UTC SEP 6, 2025</td></tr>
          <tr><td>Storm Location:</td></tr>
          <tr><td><b>25.5 N, 115.9 W</b></td></tr>
          <tr><td>Min Sea Level Pressure:</td></tr>
          <tr><td>1008 mb / 29.77 in Hg</td></tr>
          <tr><td>Maximum Intensity:</td></tr>
          <tr><td>20 kt / 23 mph / 37 kph</td></tr>
        </table>
      ]]></description>
      <Point><coordinates>-115.9,25.5</coordinates></Point>
    </Placemark>
    <Placemark>
      <name>0000 UTC SEP 7</name>
      <styleUrl>#lo</styleUrl>
      <description><![CDATA[
        <table>
          <tr><td>LO LORENA (EP122025)</td></tr>
          <tr><td><hr></td></tr>
          <tr><td>0000 UTC SEP 7, 2025</td></tr>
          <tr><td>Storm Location:</td></tr>
          <tr><td><b>25.8 N, 116.5 W</b></td></tr>
          <tr><td>Min Sea Level Pressure:</td></tr>
          <tr><td>1009 mb / 29.80 in Hg</td></tr>
          <tr><td>Maximum Intensity:</td></tr>
          <tr><td>15 kt / 17 mph / 28 kph</td></tr>
        </table>
      ]]></description>
      <Point><coordinates>-116.5,25.8</coordinates></Point>
    </Placemark>
    <Placemark>
      <name>0600 UTC SEP 7</name>
      <styleUrl>#lo</styleUrl>
      <description><![CDATA[
        <table>
          <tr><td>LO LORENA (EP122025)</td></tr>
          <tr><td><hr></td></tr>
          <tr><td>0600 UTC SEP 7, 2025</td></tr>
          <tr><td>Storm Location:</td></tr>
          <tr><td><b>26.1 N, 117.0 W</b></td></tr>
          <tr><td>Min Sea Level Pressure:</td></tr>
          <tr><td>1009 mb / 29.80 in Hg</td></tr>
          <tr><td>Maximum Intensity:</td></tr>
          <tr><td>15 kt / 17 mph / 28 kph</td></tr>
        </table>
      ]]></description>
      <Point><coordinates>-117,26.1</coordinates></Point>
    </Placemark>
  </Document>
</kml>
