<?xml version="1.0" encoding="UTF-8"?>
<kml xmlns="http://www.opengis.net/kml/2.2">
  <Document>
    <name>EP132025</name>
    <open>0</open>

    <!-- =====  Document header ===== -->
    <description><![CDATA[
      <table>
        <tr><td><b>Title:</b> Tropical Cyclone Best Track for EP132025</td></tr>
      </table>
    ]]></description>

    <!-- =====  Styles (ids must be unique)  ===== -->
	<Style id="pt"> 
		<IconStyle> 
			<scale>1.0</scale> 
			<Icon> 
				<href>ex_nhemi.png</href> 
			</Icon> 
             <hotSpot x="15" y="17" xunits="pixels" yunits="pixels"/>
		</IconStyle> 
		<LabelStyle> 
			<scale>1.0</scale> 
		</LabelStyle> 
	</Style>
	<Style id="cat5"> 
		<IconStyle> 
			<scale>1.0</scale> 
			<Icon> 
				<href>cat5_nhemi.png</href> 
			</Icon> 
             <hotSpot x="15" y="17" xunits="pixels" yunits="pixels"/>
		</IconStyle> 
		<LabelStyle> 
			<scale>1.0</scale> 
		</LabelStyle> 
	</Style>
	<Style id="db"> 
		<IconStyle> 
			<scale>1.0</scale> 
			<Icon> 
				<href>ex_nhemi.png</href> 
			</Icon> 
             <hotSpot x="15" y="17" xunits="pixels" yunits="pixels"/>
		</IconStyle> 
		<LabelStyle> 
			<scale>1.0</scale> 
		</LabelStyle> 
	</Style>
	<Style id="cat3"> 
		<IconStyle> 
			<scale>1.0</scale> 
			<Icon> 
				<href>cat3_nhemi.png</href> 
			</Icon> 
             <hotSpot x="15" y="17" xunits="pixels" yunits="pixels"/>
		</IconStyle> 
		<LabelStyle> 
			<scale>1.0</scale> 
		</LabelStyle> 
	</Style>
	<Style id="ss"> 
		<IconStyle> 
			<scale>1.0</scale> 
			<Icon> 
				<href>ts_nhemi.png</href> 
			</Icon> 
             <hotSpot x="15" y="17" xunits="pixels" yunits="pixels"/>
		</IconStyle> 
		<LabelStyle> 
			<scale>1.0</scale> 
		</LabelStyle> 
	</Style>
	<Style id="lo"> 
		<IconStyle> 
			<scale>1.0</scale> 
			<Icon> 
				<href>ex_nhemi.png</href> 
			</Icon> 
             <hotSpot x="15" y="17" xunits="pixels" yunits="pixels"/>
		</IconStyle> 
		<LabelStyle> 
			<scale>1.0</scale> 
		</LabelStyle> 
	</Style>
	<Style id="cat4"> 
		<IconStyle> 
			<scale>1.0</scale> 
			<Icon> 
				<href>cat4_nhemi.png</href> 
			</Icon> 
             <hotSpot x="15" y="17" xunits="pixels" yunits="pixels"/>
		</IconStyle> 
		<LabelStyle> 
			<scale>1.0</scale> 
		</LabelStyle> 
	</Style>
	<Style id="cat2"> 
		<IconStyle> 
			<scale>1.0</scale> 
			<Icon> 
				<href>cat2_nhemi.png</href> 
			</Icon> 
             <hotSpot x="15" y="17" xunits="pixels" yunits="pixels"/>
		</IconStyle> 
		<LabelStyle> 
			<scale>1.0</scale> 
		</LabelStyle> 
	</Style>
	<Style id="ts"> 
		<IconStyle> 
			<scale>1.0</scale> 
			<Icon> 
				<href>ts_nhemi.png</href> 
			</Icon> 
             <hotSpot x="15" y="17" xunits="pixels" yunits="pixels"/>
		</IconStyle> 
		<LabelStyle> 
			<scale>1.0</scale> 
		</LabelStyle> 
	</Style>
	<Style id="cat1"> 
		<IconStyle> 
			<scale>1.0</scale> 
			<Icon> 
				<href>cat1_nhemi.png</href> 
			</Icon> 
             <hotSpot x="15" y="17" xunits="pixels" yunits="pixels"/>
		</IconStyle> 
		<LabelStyle> 
			<scale>1.0</scale> 
		</LabelStyle> 
	</Style>
	<Style id="ex"> 
		<IconStyle> 
			<scale>1.0</scale> 
			<Icon> 
				<href>ex_nhemi.png</href> 
			</Icon> 
             <hotSpot x="15" y="17" xunits="pixels" yunits="pixels"/>
		</IconStyle> 
		<LabelStyle> 
			<scale>1.0</scale> 
		</LabelStyle> 
	</Style>
	<Style id="tc"> 
		<IconStyle> 
			<scale>1.0</scale> 
			<Icon> 
				<href>ex_nhemi.png</href> 
			</Icon> 
             <hotSpot x="15" y="17" xunits="pixels" yunits="pixels"/>
		</IconStyle> 
		<LabelStyle> 
			<scale>1.0</scale> 
		</LabelStyle> 
	</Style>
	<Style id="wv"> 
		<IconStyle> 
			<scale>1.0</scale> 
			<Icon> 
				<href>ex_nhemi.png</href> 
			</Icon> 
             <hotSpot x="15" y="17" xunits="pixels" yunits="pixels"/>
		</IconStyle> 
		<LabelStyle> 
			<scale>1.0</scale> 
		</LabelStyle> 
	</Style>
	<Style id="td"> 
		<IconStyle> 
			<scale>1.0</scale> 
			<Icon> 
				<href>td_nhemi.png</href> 
			</Icon> 
             <hotSpot x="15" y="17" xunits="pixels" yunits="pixels"/>
		</IconStyle> 
		<LabelStyle> 
			<scale>1.0</scale> 
		</LabelStyle> 
	</Style>
	<Style id="sd"> 
		<IconStyle> 
			<scale>1.0</scale> 
			<Icon> 
				<href>ex_nhemi.png</href> 
			</Icon> 
             <hotSpot x="15" y="17" xunits="pixels" yunits="pixels"/>
		</IconStyle> 
		<LabelStyle> 
			<scale>1.0</scale> 
		</LabelStyle> 
	</Style>

    <Placemark>
      <name>0000 UTC SEP 11</name>
      <styleUrl>#lo</styleUrl>
      <description><![CDATA[
        <table>
          <tr><td>LO MARIO (EP132025)</td></tr>
          <tr><td><hr></td></tr>
          <tr><td>0000 UTC SEP 11, 2025</td></tr>
          <tr><td>Storm Location:</td></tr>
          <tr><td><b>14.0 N, 97.9 W</b></td></tr>
          <tr><td>Min Sea Level Pressure:</td></tr>
          <tr><td>1009 mb / 29.80 in Hg</td></tr>
          <tr><td>Maximum Intensity:</td></tr>
          <tr><td>25 kt / 29 mph / 46 kph</td></tr>
        </table>
      ]]></description>
      <Point><coordinates>-97.9,14</coordinates></Point>
    </Placemark>
    <Placemark>
      <name>0600 UTC SEP 11</name>
      <styleUrl>#td</styleUrl>
      <description><![CDATA[
        <table>
          <tr><td>TD MARIO (EP132025)</td></tr>
          <tr><td><hr></td></tr>
          <tr><td>0600 UTC SEP 11, 2025</td></tr>
          <tr><td>Storm Location:</td></tr>
          <tr><td><b>14.7 N, 98.0 W</b></td></tr>
          <tr><td>Min Sea Level Pressure:</td></tr>
          <tr><td>1009 mb / 29.80 in Hg</td></tr>
          <tr><td>Maximum Intensity:</td></tr>
          <tr><td>25 kt / 29 mph / 46 kph</td></tr>
        </table>
      ]]></description>
      <Point><coordinates>-98,14.7</coordinates></Point>
    </Placemark>
    <Placemark>
      <name>1200 UTC SEP 11</name>
      <styleUrl>#td</styleUrl>
      <description><![CDATA[
        <table>
          <tr><td>TD MARIO (EP132025)</td></tr>
          <tr><td><hr></td></tr>
          <tr><td>1200 UTC SEP 11, 2025</td></tr>
          <tr><td>Storm Location:</td></tr>
          <tr><td><b>15.3 N, 98.1 W</b></td></tr>
          <tr><td>Min Sea Level Pressure:</td></tr>
          <tr><td>1008 mb / 29.77 in Hg</td></tr>
          <tr><td>Maximum Intensity:</td></tr>
          <tr><td>30 kt / 35 mph / 56 kph</td></tr>
        </table>
      ]]></description>
      <Point><coordinates>-98.1,15.3</coordinates></Point>
    </Placemark>
    <Placemark>
      <name>1800 UTC SEP 11</name>
      <styleUrl>#td</styleUrl>
      <description><![CDATA[
        <table>
          <tr><td>TD MARIO (EP132025)</td></tr>
          <tr><td><hr></td></tr>
          <tr><td>1800 UTC SEP 11, 2025</td></tr>
          <tr><td>Storm Location:</td></tr>
          <tr><td><b>15.5 N, 98.3 W</b></td></tr>
          <tr><td>Min Sea Level Pressure:</td></tr>
          <tr><td>1007 mb / 29.74 in Hg</td></tr>
          <tr><td>Maximum Intensity:</td></tr>
          <tr><td>30 kt / 35 mph / 56 kph</td></tr>
        </table>
      ]]></description>
      <Point><coordinates>-98.3,15.5</coordinates></Point>
    </Placemark>
    <Placemark>
      <name>0000 UTC SEP 12</name>
      <styleUrl>#ts</styleUrl>
      <description><![CDATA[
        <table>
          <tr><td>TS MARIO (EP132025)</td></tr>
          <tr><td><hr></td></tr>
          <tr><td>0000 UTC SEP 12, 2025</td></tr>
          <tr><td>Storm Location:</td></tr>
          <tr><td><b>16.0 N, 99.1 W</b></td></tr>
          <tr><td>Min Sea Level Pressure:</td></tr>
          <tr><td>1006 mb / 29.71 in Hg</td></tr>
          <tr><td>Maximum Intensity:</td></tr>
          <tr><td>35 kt / 40 mph / 65 kph</td></tr>
        </table>
      ]]></description>
      <Point><coordinates>-99.1,16</coordinates></Point>
    </Placemark>
    <Placemark>
      <name>0600 UTC SEP 12</name>
      <styleUrl>#ts</styleUrl>
      <description><![CDATA[
        <table>
          <tr><td>TS MARIO (EP132025)</td></tr>
          <tr><td><hr></td></tr>
          <tr><td>0600 UTC SEP 12, 2025</td></tr>
          <tr><td>Storm Location:</td></tr>
          <tr><td><b>16.5 N, 100.2 W</b></td></tr>
          <tr><td>Min Sea Level Pressure:</td></tr>
          <tr><td>1006 mb / 29.71 in Hg</td></tr>
          <tr><td>Maximum Intensity:</td></tr>
          <tr><td>35 kt / 40 mph / 65 kph</td></tr>
        </table>
      ]]></description>
      <Point><coordinates>-100.2,16.5</coordinates></Point>
    </Placemark>
    <Placemark>
      <name>1200 UTC SEP 12</name>
      <styleUrl>#ts</styleUrl>
      <description><![CDATA[
        <table>
          <tr><td>TS MARIO (EP132025)</td></tr>
          <tr><td><hr></td></tr>
          <tr><td>1200 UTC SEP 12, 2025</td></tr>
          <tr><td>Storm Location:</td></tr>
          <tr><td><b>17.0 N, 101.4 W</b></td></tr>
          <tr><td>Min Sea Level Pressure:</td></tr>
          <tr><td>1006 mb / 29.71 in Hg</td></tr>
          <tr><td>Maximum Intensity:</td></tr>
          <tr><td>35 kt / 40 mph / 65 kph</td></tr>
        </table>
      ]]></description>
      <Point><coordinates>-101.4,17</coordinates></Point>
    </Placemark>
    <Placemark>
      <name>1800 UTC SEP 12</name>
      <styleUrl>#td</styleUrl>
      <description><![CDATA[
        <table>
          <tr><td>TD MARIO (EP132025)</td></tr>
          <tr><td><hr></td></tr>
          <tr><td>1800 UTC SEP 12, 2025</td></tr>
          <tr><td>Storm Location:</td></tr>
          <tr><td><b>17.3 N, 102.5 W</b></td></tr>
          <tr><td>Min Sea Level Pressure:</td></tr>
          <tr><td>1007 mb / 29.74 in Hg</td></tr>
          <tr><td>Maximum Intensity:</td></tr>
          <tr><td>30 kt / 35 mph / 56 kph</td></tr>
        </table>
      ]]></description>
      <Point><coordinates>-102.5,17.3</coordinates></Point>
    </Placemark>
    <Placemark>
      <name>0000 UTC SEP 13</name>
      <styleUrl>#db</styleUrl>
      <description><![CDATA[
        <table>
          <tr><td>DB MARIO (EP132025)</td></tr>
          <tr><td><hr></td></tr>
          <tr><td>0000 UTC SEP 13, 2025</td></tr>
          <tr><td>Storm Location:</td></tr>
          <tr><td><b>17.8 N, 104.0 W</b></td></tr>
          <tr><td>Min Sea Level Pressure:</td></tr>
          <tr><td>1009 mb / 29.80 in Hg</td></tr>
          <tr><td>Maximum Intensity:</td></tr>
          <tr><td>25 kt / 29 mph / 46 kph</td></tr>
        </table>
      ]]></description>
      <Point><coordinates>-104,17.8</coordinates></Point>
    </Placemark>
    <Placemark>
      <name>0600 UTC SEP 13</name>
      <styleUrl>#db</styleUrl>
      <description><![CDATA[
        <table>
          <tr><td>DB MARIO (EP132025)</td></tr>
          <tr><td><hr></td></tr>
          <tr><td>0600 UTC SEP 13, 2025</td></tr>
          <tr><td>Storm Location:</td></tr>
          <tr><td><b>18.3 N, 105.4 W</b></td></tr>
          <tr><td>Min Sea Level Pressure:</td></tr>
          <tr><td>1009 mb / 29.80 in Hg</td></tr>
          <tr><td>Maximum Intensity:</td></tr>
          <tr><td>25 kt / 29 mph / 46 kph</td></tr>
        </table>
      ]]></description>
      <Point><coordinates>-105.4,18.3</coordinates></Point>
    </Placemark>
    <Placemark>
      <name>1200 UTC SEP 13</name>
      <styleUrl>#lo</styleUrl>
      <description><![CDATA[
        <table>
          <tr><td>LO MARIO (EP132025)</td></tr>
          <tr><td><hr></td></tr>
          <tr><td>1200 UTC SEP 13, 2025</td></tr>
          <tr><td>Storm Location:</td></tr>
          <tr><td><b>18.5 N, 106.6 W</b></td></tr>
          <tr><td>Min Sea Level Pressure:</td></tr>
          <tr><td>1009 mb / 29.80 in Hg</td></tr>
          <tr><td>Maximum Intensity:</td></tr>
          <tr><td>25 kt / 29 mph / 46 kph</td></tr>
        </table>
      ]]></description>
      <Point><coordinates>-106.6,18.5</coordinates></Point>
    </Placemark>
    <Placemark>
      <name>1800 UTC SEP 13</name>
      <styleUrl>#lo</styleUrl>
      <description><![CDATA[
        <table>
          <tr><td>LO MARIO (EP132025)</td></tr>
          <tr><td><hr></td></tr>
          <tr><td>1800 UTC SEP 13, 2025</td></tr>
          <tr><td>Storm Location:</td></tr>
          <tr><td><b>18.4 N, 107.6 W</b></td></tr>
          <tr><td>Min Sea Level Pressure:</td></tr>
          <tr><td>1008 mb / 29.77 in Hg</td></tr>
          <tr><td>Maximum Intensity:</td></tr>
          <tr><td>30 kt / 35 mph / 56 kph</td></tr>
        </table>
      ]]></description>
      <Point><coordinates>-107.6,18.4</coordinates></Point>
    </Placemark>
    <Placemark>
      <name>0000 UTC SEP 14</name>
      <styleUrl>#lo</styleUrl>
      <description><![CDATA[
        <table>
          <tr><td>LO MARIO (EP132025)</td></tr>
          <tr><td><hr></td></tr>
          <tr><td>0000 UTC SEP 14, 2025</td></tr>
          <tr><td>Storm Location:</td></tr>
          <tr><td><b>18.1 N, 108.4 W</b></td></tr>
          <tr><td>Min Sea Level Pressure:</td></tr>
          <tr><td>1008 mb / 29.77 in Hg</td></tr>
          <tr><td>Maximum Intensity:</td></tr>
          <tr><td>30 kt / 35 mph / 56 kph</td></tr>
        </table>
      ]]></description>
      <Point><coordinates>-108.4,18.1</coordinates></Point>
    </Placemark>
    <Placemark>
      <name>0600 UTC SEP 14</name>
      <styleUrl>#td</styleUrl>
      <description><![CDATA[
        <table>
          <tr><td>TD MARIO (EP132025)</td></tr>
          <tr><td><hr></td></tr>
          <tr><td>0600 UTC SEP 14, 2025</td></tr>
          <tr><td>Storm Location:</td></tr>
          <tr><td><b>18.1 N, 109.1 W</b></td></tr>
          <tr><td>Min Sea Level Pressure:</td></tr>
          <tr><td>1007 mb / 29.74 in Hg</td></tr>
          <tr><td>Maximum Intensity:</td></tr>
          <tr><td>30 kt / 35 mph / 56 kph</td></tr>
        </table>
      ]]></description>
      <Point><coordinates>-109.1,18.1</coordinates></Point>
    </Placemark>
    <Placemark>
      <name>1200 UTC SEP 14</name>
      <styleUrl>#ts</styleUrl>
      <description><![CDATA[
        <table>
          <tr><td>TS MARIO (EP132025)</td></tr>
          <tr><td><hr></td></tr>
          <tr><td>1200 UTC SEP 14, 2025</td></tr>
          <tr><td>Storm Location:</td></tr>
          <tr><td><b>18.4 N, 109.7 W</b></td></tr>
          <tr><td>Min Sea Level Pressure:</td></tr>
          <tr><td>1005 mb / 29.68 in Hg</td></tr>
          <tr><td>Maximum Intensity:</td></tr>
          <tr><td>35 kt / 40 mph / 65 kph</td></tr>
        </table>
      ]]></description>
      <Point><coordinates>-109.7,18.4</coordinates></Point>
    </Placemark>
    <Placemark>
      <name>1800 UTC SEP 14</name>
      <styleUrl>#ts</styleUrl>
      <description><![CDATA[
        <table>
          <tr><td>TS MARIO (EP132025)</td></tr>
          <tr><td><hr></td></tr>
          <tr><td>1800 UTC SEP 14, 2025</td></tr>
          <tr><td>Storm Location:</td></tr>
          <tr><td><b>18.7 N, 110.3 W</b></td></tr>
          <tr><td>Min Sea Level Pressure:</td></tr>
          <tr><td>1003 mb / 29.62 in Hg</td></tr>
          <tr><td>Maximum Intensity:</td></tr>
          <tr><td>40 kt / 46 mph / 74 kph</td></tr>
        </table>
      ]]></description>
      <Point><coordinates>-110.3,18.7</coordinates></Point>
    </Placemark>
    <Placemark>
      <name>0000 UTC SEP 15</name>
      <styleUrl>#ts</styleUrl>
      <description><![CDATA[
        <table>
          <tr><td>TS MARIO (EP132025)</td></tr>
          <tr><td><hr></td></tr>
          <tr><td>0000 UTC SEP 15, 2025</td></tr>
          <tr><td>Storm Location:</td></tr>
          <tr><td><b>19.1 N, 111.0 W</b></td></tr>
          <tr><td>Min Sea Level Pressure:</td></tr>
          <tr><td>1000 mb / 29.53 in Hg</td></tr>
          <tr><td>Maximum Intensity:</td></tr>
          <tr><td>45 kt / 52 mph / 83 kph</td></tr>
        </table>
      ]]></description>
      <Point><coordinates>-111,19.1</coordinates></Point>
    </Placemark>
    <Placemark>
      <name>0600 UTC SEP 15</name>
      <styleUrl>#ts</styleUrl>
      <description><![CDATA[
        <table>
          <tr><td>TS MARIO (EP132025)</td></tr>
          <tr><td><hr></td></tr>
          <tr><td>0600 UTC SEP 15, 2025</td></tr>
          <tr><td>Storm Location:</td></tr>
          <tr><td><b>19.4 N, 111.8 W</b></td></tr>
          <tr><td>Min Sea Level Pressure:</td></tr>
          <tr><td>996 mb / 29.41 in Hg</td></tr>
          <tr><td>Maximum Intensity:</td></tr>
          <tr><td>50 kt / 58 mph / 93 kph</td></tr>
        </table>
      ]]></description>
      <Point><coordinates>-111.8,19.4</coordinates></Point>
    </Placemark>
    <Placemark>
      <name>1200 UTC SEP 15</name>
      <styleUrl>#ts</styleUrl>
      <description><![CDATA[
        <table>
          <tr><td>TS MARIO (EP132025)</td></tr>
          <tr><td><hr></td></tr>
          <tr><td>1200 UTC SEP 15, 2025</td></tr>
          <tr><td>Storm Location:</td></tr>
          <tr><td><b>19.9 N, 112.8 W</b></td></tr>
          <tr><td>Min Sea Level Pressure:</td></tr>
          <tr><td>994 mb / 29.35 in Hg</td></tr>
          <tr><td>Maximum Intensity:</td></tr>
          <tr><td>55 kt / 63 mph / 102 kph</td></tr>
        </table>
      ]]></description>
      <Point><coordinates>-112.8,19.9</coordinates></Point>
    </Placemark>
    <Placemark>
      <name>1800 UTC SEP 15</name>
      <styleUrl>#ts</styleUrl>
      <description><![CDATA[
        <table>
          <tr><td>TS MARIO (EP132025)</td></tr>
          <tr><td><hr></td></tr>
          <tr><td>1800 UTC SEP 15, 2025</td></tr>
          <tr><td>Storm Location:</td></tr>
          <tr><td><b>20.6 N, 113.9 W</b></td></tr>
          <tr><td>Min Sea Level Pressure:</td></tr>
          <tr><td>994 mb / 29.35 in Hg</td></tr>
          <tr><td>Maximum Intensity:</td></tr>
          <tr><td>55 kt / 63 mph / 102 kph</td></tr>
        </table>
      ]]></description>
      <Point><coordinates>-113.9,20.6</coordinates></Point>
    </Placemark>
    <Placemark>
      <name>0000 UTC SEP 16</name>
      <styleUrl>#ts</styleUrl>
      <description><![CDATA[
        <table>
          <tr><td>TS MARIO (EP132025)</td></tr>
          <tr><td><hr></td></tr>
          <tr><td>0000 UTC SEP 16, 2025</td></tr>
          <tr><td>Storm Location:</td></tr>
          <tr><td><b>21.1 N, 114.7 W</b></td></tr>
          <tr><td>Min Sea Level Pressure:</td></tr>
          <tr><td>996 mb / 29.41 in Hg</td></tr>
          <tr><td>Maximum Intensity:</td></tr>
          <tr><td>50 kt / 58 mph / 93 kph</td></tr>
        </table>
      ]]></description>
      <Point><coordinates>-114.7,21.1</coordinates></Point>
    </Placemark>
    <Placemark>
      <name>0600 UTC SEP 16</name>
      <styleUrl>#ts</styleUrl>
      <description><![CDATA[
        <table>
          <tr><td>TS MARIO (EP132025)</td></tr>
          <tr><td><hr></td></tr>
          <tr><td>0600 UTC SEP 16, 2025</td></tr>
          <tr><td>Storm Location:</td></tr>
          <tr><td><b>21.6 N, 115.5 W</b></td></tr>
          <tr><td>Min Sea Level Pressure:</td></tr>
          <tr><td>1000 mb / 29.53 in Hg</td></tr>
          <tr><td>Maximum Intensity:</td></tr>
          <tr><td>45 kt / 52 mph / 83 kph</td></tr>
        </table>
      ]]></description>
      <Point><coordinates>-115.5,21.6</coordinates></Point>
    </Placemark>
    <Placemark>
      <name>1200 UTC SEP 16</name>
      <styleUrl>#lo</styleUrl>
      <description><![CDATA[
        <table>
          <tr><td>LO MARIO (EP132025)</td></tr>
          <tr><td><hr></td></tr>
          <tr><td>1200 UTC SEP 16, 2025</td></tr>
          <tr><td>Storm Location:</td></tr>
          <tr><td><b>22.0 N, 116.3 W</b></td></tr>
          <tr><td>Min Sea Level Pressure:</td></tr>
          <tr><td>1003 mb / 29.62 in Hg</td></tr>
          <tr><td>Maximum Intensity:</td></tr>
          <tr><td>35 kt / 40 mph / 65 kph</td></tr>
        </table>
      ]]></description>
      <Point><coordinates>-116.3,22</coordinates></Point>
    </Placemark>
    <Placemark>
      <name>1800 UTC SEP 16</name>
      <styleUrl>#lo</styleUrl>
      <description><![CDATA[
        <table>
          <tr><td>LO MARIO (EP132025)</td></tr>
          <tr><td><hr></td></tr>
          <tr><td>1800 UTC SEP 16, 2025</td></tr>
          <tr><td>Storm Location:</td></tr>
          <tr><td><b>22.6 N, 117.3 W</b></td></tr>
          <tr><td>Min Sea Level Pressure:</td></tr>
          <tr><td>1004 mb / 29.65 in Hg</td></tr>
          <tr><td>Maximum Intensity:</td></tr>
          <tr><td>30 kt / 35 mph / 56 kph</td></tr>
        </table>
      ]]></description>
      <Point><coordinates>-117.3,22.6</coordinates></Point>
    </Placemark>
    <Placemark>
      <name>0000 UTC SEP 17</name>
      <styleUrl>#lo</styleUrl>
      <description><![CDATA[
        <table>
          <tr><td>LO MARIO (EP132025)</td></tr>
          <tr><td><hr></td></tr>
          <tr><td>0000 UTC SEP 17, 2025</td></tr>
          <tr><td>Storm Location:</td></tr>
          <tr><td><b>23.3 N, 118.0 W</b></td></tr>
          <tr><td>Min Sea Level Pressure:</td></tr>
          <tr><td>1006 mb / 29.71 in Hg</td></tr>
          <tr><td>Maximum Intensity:</td></tr>
          <tr><td>25 kt / 29 mph / 46 kph</td></tr>
        </table>
      ]]></description>
      <Point><coordinates>-118,23.3</coordinates></Point>
    </Placemark>
    <Placemark>
      <name>0600 UTC SEP 17</name>
      <styleUrl>#lo</styleUrl>
      <description><![CDATA[
        <table>
          <tr><td>LO MARIO (EP132025)</td></tr>
          <tr><td><hr></td></tr>
          <tr><td>0600 UTC SEP 17, 2025</td></tr>
          <tr><td>Storm Location:</td></tr>
          <tr><td><b>23.9 N, 118.6 W</b></td></tr>
          <tr><td>Min Sea Level Pressure:</td></tr>
          <tr><td>1008 mb / 29.77 in Hg</td></tr>
          <tr><td>Maximum Intensity:</td></tr>
          <tr><td>25 kt / 29 mph / 46 kph</td></tr>
        </table>
      ]]></description>
      <Point><coordinates>-118.6,23.9</coordinates></Point>
    </Placemark>
    <Placemark>
      <name>1200 UTC SEP 17</name>
      <styleUrl>#lo</styleUrl>
      <description><![CDATA[
        <table>
          <tr><td>LO MARIO (EP132025)</td></tr>
          <tr><td><hr></td></tr>
          <tr><td>1200 UTC SEP 17, 2025</td></tr>
          <tr><td>Storm Location:</td></tr>
          <tr><td><b>24.5 N, 119.1 W</b></td></tr>
          <tr><td>Min Sea Level Pressure:</td></tr>
          <tr><td>1009 mb / 29.80 in Hg</td></tr>
          <tr><td>Maximum Intensity:</td></tr>
          <tr><td>20 kt / 23 mph / 37 kph</td></tr>
        </table>
      ]]></description>
      <Point><coordinates>-119.1,24.5</coordinates></Point>
    </Placemark>
    <Placemark>
      <name>1800 UTC SEP 17</name>
      <styleUrl>#lo</styleUrl>
      <description><![CDATA[
        <table>
          <tr><td>LO MARIO (EP132025)</td></tr>
          <tr><td><hr></td></tr>
          <tr><td>1800 UTC SEP 17, 2025</td></tr>
          <tr><td>Storm Location:</td></tr>
          <tr><td><b>24.8 N, 119.4 W</b></td></tr>
          <tr><td>Min Sea Level Pressure:</td></tr>
          <tr><td>1010 mb / 29.83 in Hg</td></tr>
          <tr><td>Maximum Intensity:</td></tr>
          <tr><td>20 kt / 23 mph / 37 kph</td></tr>
        </table>
      ]]></description>
      <Point><coordinates>-119.4,24.8</coordinates></Point>
    </Placemark>
    <Placemark>
      <name>0000 UTC SEP 18</name>
      <styleUrl>#lo</styleUrl>
      <description><![CDATA[
        <table>
          <tr><td>LO MARIO (EP132025)</td></tr>
          <tr><td><hr></td></tr>
          <tr><td>0000 UTC SEP 18, 2025</td></tr>
          <tr><td>Storm Location:</td></tr>
          <tr><td><b>24.9 N, 119.5 W</b></td></tr>
          <tr><td>Min Sea Level Pressure:</td></tr>
          <tr><td>1010 mb / 29.83 in Hg</td></tr>
          <tr><td>Maximum Intensity:</td></tr>
          <tr><td>15 kt / 17 mph / 28 kph</td></tr>
        </table>
      ]]></description>
      <Point><coordinates>-119.5,24.9</coordinates></Point>
    </Placemark>
    <Placemark>
      <name>0600 UTC SEP 18</name>
      <styleUrl>#lo</styleUrl>
      <description><![CDATA[
        <table>
          <tr><td>LO MARIO (EP132025)</td></tr>
          <tr><td><hr></td></tr>
          <tr><td>0600 UTC SEP 18, 2025</td></tr>
          <tr><td>Storm Location:</td></tr>
          <tr><td><b>25.0 N, 119.6 W</b></td></tr>
          <tr><td>Min Sea Level Pressure:</td></tr>
          <tr><td>1010 mb / 29.83 in Hg</td></tr>
          <tr><td>Maximum Intensity:</td></tr>
          <tr><td>15 kt / 17 mph / 28 kph</td></tr>
        </table>
      ]]></description>
      <Point><coordinates>-119.6,25</coordinates></Point>
    </Placemark>
  </Document>
</kml>
