<?xml version="1.0" encoding="UTF-8"?>
<kml xmlns="http://www.opengis.net/kml/2.2">
  <Document>
    <name>EP142025</name>
    <open>0</open>

    <!-- =====  Document header ===== -->
    <description><![CDATA[
      <table>
        <tr><td><b>Title:</b> Tropical Cyclone Best Track for EP142025</td></tr>
      </table>
    ]]></description>

    <!-- =====  Styles (ids must be unique)  ===== -->
	<Style id="pt"> 
		<IconStyle> 
			<scale>1.0</scale> 
			<Icon> 
				<href>ex_nhemi.png</href> 
			</Icon> 
             <hotSpot x="15" y="17" xunits="pixels" yunits="pixels"/>
		</IconStyle> 
		<LabelStyle> 
			<scale>1.0</scale> 
		</LabelStyle> 
	</Style>
	<Style id="cat5"> 
		<IconStyle> 
			<scale>1.0</scale> 
			<Icon> 
				<href>cat5_nhemi.png</href> 
			</Icon> 
             <hotSpot x="15" y="17" xunits="pixels" yunits="pixels"/>
		</IconStyle> 
		<LabelStyle> 
			<scale>1.0</scale> 
		</LabelStyle> 
	</Style>
	<Style id="db"> 
		<IconStyle> 
			<scale>1.0</scale> 
			<Icon> 
				<href>ex_nhemi.png</href> 
			</Icon> 
             <hotSpot x="15" y="17" xunits="pixels" yunits="pixels"/>
		</IconStyle> 
		<LabelStyle> 
			<scale>1.0</scale> 
		</LabelStyle> 
	</Style>
	<Style id="cat3"> 
		<IconStyle> 
			<scale>1.0</scale> 
			<Icon> 
				<href>cat3_nhemi.png</href> 
			</Icon> 
             <hotSpot x="15" y="17" xunits="pixels" yunits="pixels"/>
		</IconStyle> 
		<LabelStyle> 
			<scale>1.0</scale> 
		</LabelStyle> 
	</Style>
	<Style id="ss"> 
		<IconStyle> 
			<scale>1.0</scale> 
			<Icon> 
				<href>ts_nhemi.png</href> 
			</Icon> 
             <hotSpot x="15" y="17" xunits="pixels" yunits="pixels"/>
		</IconStyle> 
		<LabelStyle> 
			<scale>1.0</scale> 
		</LabelStyle> 
	</Style>
	<Style id="lo"> 
		<IconStyle> 
			<scale>1.0</scale> 
			<Icon> 
				<href>ex_nhemi.png</href> 
			</Icon> 
             <hotSpot x="15" y="17" xunits="pixels" yunits="pixels"/>
		</IconStyle> 
		<LabelStyle> 
			<scale>1.0</scale> 
		</LabelStyle> 
	</Style>
	<Style id="cat4"> 
		<IconStyle> 
			<scale>1.0</scale> 
			<Icon> 
				<href>cat4_nhemi.png</href> 
			</Icon> 
             <hotSpot x="15" y="17" xunits="pixels" yunits="pixels"/>
		</IconStyle> 
		<LabelStyle> 
			<scale>1.0</scale> 
		</LabelStyle> 
	</Style>
	<Style id="cat2"> 
		<IconStyle> 
			<scale>1.0</scale> 
			<Icon> 
				<href>cat2_nhemi.png</href> 
			</Icon> 
             <hotSpot x="15" y="17" xunits="pixels" yunits="pixels"/>
		</IconStyle> 
		<LabelStyle> 
			<scale>1.0</scale> 
		</LabelStyle> 
	</Style>
	<Style id="ts"> 
		<IconStyle> 
			<scale>1.0</scale> 
			<Icon> 
				<href>ts_nhemi.png</href> 
			</Icon> 
             <hotSpot x="15" y="17" xunits="pixels" yunits="pixels"/>
		</IconStyle> 
		<LabelStyle> 
			<scale>1.0</scale> 
		</LabelStyle> 
	</Style>
	<Style id="cat1"> 
		<IconStyle> 
			<scale>1.0</scale> 
			<Icon> 
				<href>cat1_nhemi.png</href> 
			</Icon> 
             <hotSpot x="15" y="17" xunits="pixels" yunits="pixels"/>
		</IconStyle> 
		<LabelStyle> 
			<scale>1.0</scale> 
		</LabelStyle> 
	</Style>
	<Style id="ex"> 
		<IconStyle> 
			<scale>1.0</scale> 
			<Icon> 
				<href>ex_nhemi.png</href> 
			</Icon> 
             <hotSpot x="15" y="17" xunits="pixels" yunits="pixels"/>
		</IconStyle> 
		<LabelStyle> 
			<scale>1.0</scale> 
		</LabelStyle> 
	</Style>
	<Style id="tc"> 
		<IconStyle> 
			<scale>1.0</scale> 
			<Icon> 
				<href>ex_nhemi.png</href> 
			</Icon> 
             <hotSpot x="15" y="17" xunits="pixels" yunits="pixels"/>
		</IconStyle> 
		<LabelStyle> 
			<scale>1.0</scale> 
		</LabelStyle> 
	</Style>
	<Style id="wv"> 
		<IconStyle> 
			<scale>1.0</scale> 
			<Icon> 
				<href>ex_nhemi.png</href> 
			</Icon> 
             <hotSpot x="15" y="17" xunits="pixels" yunits="pixels"/>
		</IconStyle> 
		<LabelStyle> 
			<scale>1.0</scale> 
		</LabelStyle> 
	</Style>
	<Style id="td"> 
		<IconStyle> 
			<scale>1.0</scale> 
			<Icon> 
				<href>td_nhemi.png</href> 
			</Icon> 
             <hotSpot x="15" y="17" xunits="pixels" yunits="pixels"/>
		</IconStyle> 
		<LabelStyle> 
			<scale>1.0</scale> 
		</LabelStyle> 
	</Style>
	<Style id="sd"> 
		<IconStyle> 
			<scale>1.0</scale> 
			<Icon> 
				<href>ex_nhemi.png</href> 
			</Icon> 
             <hotSpot x="15" y="17" xunits="pixels" yunits="pixels"/>
		</IconStyle> 
		<LabelStyle> 
			<scale>1.0</scale> 
		</LabelStyle> 
	</Style>

    <Placemark>
      <name>1800 UTC SEP 21</name>
      <styleUrl>#ts</styleUrl>
      <description><![CDATA[
        <table>
          <tr><td>TS NARDA (EP142025)</td></tr>
          <tr><td><hr></td></tr>
          <tr><td>1800 UTC SEP 21, 2025</td></tr>
          <tr><td>Storm Location:</td></tr>
          <tr><td><b>14.4 N, 99.4 W</b></td></tr>
          <tr><td>Min Sea Level Pressure:</td></tr>
          <tr><td>1007 mb / 29.74 in Hg</td></tr>
          <tr><td>Maximum Intensity:</td></tr>
          <tr><td>35 kt / 40 mph / 65 kph</td></tr>
        </table>
      ]]></description>
      <Point><coordinates>-99.4,14.4</coordinates></Point>
    </Placemark>
    <Placemark>
      <name>0000 UTC SEP 22</name>
      <styleUrl>#ts</styleUrl>
      <description><![CDATA[
        <table>
          <tr><td>TS NARDA (EP142025)</td></tr>
          <tr><td><hr></td></tr>
          <tr><td>0000 UTC SEP 22, 2025</td></tr>
          <tr><td>Storm Location:</td></tr>
          <tr><td><b>15.1 N, 100.1 W</b></td></tr>
          <tr><td>Min Sea Level Pressure:</td></tr>
          <tr><td>1006 mb / 29.71 in Hg</td></tr>
          <tr><td>Maximum Intensity:</td></tr>
          <tr><td>35 kt / 40 mph / 65 kph</td></tr>
        </table>
      ]]></description>
      <Point><coordinates>-100.1,15.1</coordinates></Point>
    </Placemark>
    <Placemark>
      <name>0600 UTC SEP 22</name>
      <styleUrl>#ts</styleUrl>
      <description><![CDATA[
        <table>
          <tr><td>TS NARDA (EP142025)</td></tr>
          <tr><td><hr></td></tr>
          <tr><td>0600 UTC SEP 22, 2025</td></tr>
          <tr><td>Storm Location:</td></tr>
          <tr><td><b>15.4 N, 101.2 W</b></td></tr>
          <tr><td>Min Sea Level Pressure:</td></tr>
          <tr><td>1003 mb / 29.62 in Hg</td></tr>
          <tr><td>Maximum Intensity:</td></tr>
          <tr><td>40 kt / 46 mph / 74 kph</td></tr>
        </table>
      ]]></description>
      <Point><coordinates>-101.2,15.4</coordinates></Point>
    </Placemark>
    <Placemark>
      <name>1200 UTC SEP 22</name>
      <styleUrl>#ts</styleUrl>
      <description><![CDATA[
        <table>
          <tr><td>TS NARDA (EP142025)</td></tr>
          <tr><td><hr></td></tr>
          <tr><td>1200 UTC SEP 22, 2025</td></tr>
          <tr><td>Storm Location:</td></tr>
          <tr><td><b>15.7 N, 102.3 W</b></td></tr>
          <tr><td>Min Sea Level Pressure:</td></tr>
          <tr><td>1000 mb / 29.53 in Hg</td></tr>
          <tr><td>Maximum Intensity:</td></tr>
          <tr><td>45 kt / 52 mph / 83 kph</td></tr>
        </table>
      ]]></description>
      <Point><coordinates>-102.3,15.7</coordinates></Point>
    </Placemark>
    <Placemark>
      <name>1800 UTC SEP 22</name>
      <styleUrl>#ts</styleUrl>
      <description><![CDATA[
        <table>
          <tr><td>TS NARDA (EP142025)</td></tr>
          <tr><td><hr></td></tr>
          <tr><td>1800 UTC SEP 22, 2025</td></tr>
          <tr><td>Storm Location:</td></tr>
          <tr><td><b>15.9 N, 103.4 W</b></td></tr>
          <tr><td>Min Sea Level Pressure:</td></tr>
          <tr><td>997 mb / 29.44 in Hg</td></tr>
          <tr><td>Maximum Intensity:</td></tr>
          <tr><td>50 kt / 58 mph / 93 kph</td></tr>
        </table>
      ]]></description>
      <Point><coordinates>-103.4,15.9</coordinates></Point>
    </Placemark>
    <Placemark>
      <name>0000 UTC SEP 23</name>
      <styleUrl>#ts</styleUrl>
      <description><![CDATA[
        <table>
          <tr><td>TS NARDA (EP142025)</td></tr>
          <tr><td><hr></td></tr>
          <tr><td>0000 UTC SEP 23, 2025</td></tr>
          <tr><td>Storm Location:</td></tr>
          <tr><td><b>16.1 N, 104.5 W</b></td></tr>
          <tr><td>Min Sea Level Pressure:</td></tr>
          <tr><td>993 mb / 29.32 in Hg</td></tr>
          <tr><td>Maximum Intensity:</td></tr>
          <tr><td>55 kt / 63 mph / 102 kph</td></tr>
        </table>
      ]]></description>
      <Point><coordinates>-104.5,16.1</coordinates></Point>
    </Placemark>
    <Placemark>
      <name>0600 UTC SEP 23</name>
      <styleUrl>#cat1</styleUrl>
      <description><![CDATA[
        <table>
          <tr><td>HU NARDA (EP142025)</td></tr>
          <tr><td><hr></td></tr>
          <tr><td>0600 UTC SEP 23, 2025</td></tr>
          <tr><td>Storm Location:</td></tr>
          <tr><td><b>15.8 N, 105.6 W</b></td></tr>
          <tr><td>Min Sea Level Pressure:</td></tr>
          <tr><td>986 mb / 29.12 in Hg</td></tr>
          <tr><td>Maximum Intensity:</td></tr>
          <tr><td>65 kt / 75 mph / 120 kph</td></tr>
        </table>
      ]]></description>
      <Point><coordinates>-105.6,15.8</coordinates></Point>
    </Placemark>
    <Placemark>
      <name>1200 UTC SEP 23</name>
      <styleUrl>#cat1</styleUrl>
      <description><![CDATA[
        <table>
          <tr><td>HU NARDA (EP142025)</td></tr>
          <tr><td><hr></td></tr>
          <tr><td>1200 UTC SEP 23, 2025</td></tr>
          <tr><td>Storm Location:</td></tr>
          <tr><td><b>15.5 N, 106.7 W</b></td></tr>
          <tr><td>Min Sea Level Pressure:</td></tr>
          <tr><td>982 mb / 29.00 in Hg</td></tr>
          <tr><td>Maximum Intensity:</td></tr>
          <tr><td>75 kt / 86 mph / 139 kph</td></tr>
        </table>
      ]]></description>
      <Point><coordinates>-106.7,15.5</coordinates></Point>
    </Placemark>
    <Placemark>
      <name>1800 UTC SEP 23</name>
      <styleUrl>#cat1</styleUrl>
      <description><![CDATA[
        <table>
          <tr><td>HU NARDA (EP142025)</td></tr>
          <tr><td><hr></td></tr>
          <tr><td>1800 UTC SEP 23, 2025</td></tr>
          <tr><td>Storm Location:</td></tr>
          <tr><td><b>15.4 N, 107.8 W</b></td></tr>
          <tr><td>Min Sea Level Pressure:</td></tr>
          <tr><td>977 mb / 28.85 in Hg</td></tr>
          <tr><td>Maximum Intensity:</td></tr>
          <tr><td>80 kt / 92 mph / 148 kph</td></tr>
        </table>
      ]]></description>
      <Point><coordinates>-107.8,15.4</coordinates></Point>
    </Placemark>
    <Placemark>
      <name>0000 UTC SEP 24</name>
      <styleUrl>#cat2</styleUrl>
      <description><![CDATA[
        <table>
          <tr><td>HU NARDA (EP142025)</td></tr>
          <tr><td><hr></td></tr>
          <tr><td>0000 UTC SEP 24, 2025</td></tr>
          <tr><td>Storm Location:</td></tr>
          <tr><td><b>15.3 N, 108.8 W</b></td></tr>
          <tr><td>Min Sea Level Pressure:</td></tr>
          <tr><td>972 mb / 28.70 in Hg</td></tr>
          <tr><td>Maximum Intensity:</td></tr>
          <tr><td>85 kt / 98 mph / 157 kph</td></tr>
        </table>
      ]]></description>
      <Point><coordinates>-108.8,15.3</coordinates></Point>
    </Placemark>
    <Placemark>
      <name>0600 UTC SEP 24</name>
      <styleUrl>#cat2</styleUrl>
      <description><![CDATA[
        <table>
          <tr><td>HU NARDA (EP142025)</td></tr>
          <tr><td><hr></td></tr>
          <tr><td>0600 UTC SEP 24, 2025</td></tr>
          <tr><td>Storm Location:</td></tr>
          <tr><td><b>15.2 N, 109.9 W</b></td></tr>
          <tr><td>Min Sea Level Pressure:</td></tr>
          <tr><td>970 mb / 28.64 in Hg</td></tr>
          <tr><td>Maximum Intensity:</td></tr>
          <tr><td>90 kt / 104 mph / 167 kph</td></tr>
        </table>
      ]]></description>
      <Point><coordinates>-109.9,15.2</coordinates></Point>
    </Placemark>
    <Placemark>
      <name>1200 UTC SEP 24</name>
      <styleUrl>#cat2</styleUrl>
      <description><![CDATA[
        <table>
          <tr><td>HU NARDA (EP142025)</td></tr>
          <tr><td><hr></td></tr>
          <tr><td>1200 UTC SEP 24, 2025</td></tr>
          <tr><td>Storm Location:</td></tr>
          <tr><td><b>15.1 N, 110.9 W</b></td></tr>
          <tr><td>Min Sea Level Pressure:</td></tr>
          <tr><td>970 mb / 28.64 in Hg</td></tr>
          <tr><td>Maximum Intensity:</td></tr>
          <tr><td>90 kt / 104 mph / 167 kph</td></tr>
        </table>
      ]]></description>
      <Point><coordinates>-110.9,15.1</coordinates></Point>
    </Placemark>
    <Placemark>
      <name>1800 UTC SEP 24</name>
      <styleUrl>#cat2</styleUrl>
      <description><![CDATA[
        <table>
          <tr><td>HU NARDA (EP142025)</td></tr>
          <tr><td><hr></td></tr>
          <tr><td>1800 UTC SEP 24, 2025</td></tr>
          <tr><td>Storm Location:</td></tr>
          <tr><td><b>15.2 N, 111.9 W</b></td></tr>
          <tr><td>Min Sea Level Pressure:</td></tr>
          <tr><td>975 mb / 28.79 in Hg</td></tr>
          <tr><td>Maximum Intensity:</td></tr>
          <tr><td>85 kt / 98 mph / 157 kph</td></tr>
        </table>
      ]]></description>
      <Point><coordinates>-111.9,15.2</coordinates></Point>
    </Placemark>
    <Placemark>
      <name>0000 UTC SEP 25</name>
      <styleUrl>#cat1</styleUrl>
      <description><![CDATA[
        <table>
          <tr><td>HU NARDA (EP142025)</td></tr>
          <tr><td><hr></td></tr>
          <tr><td>0000 UTC SEP 25, 2025</td></tr>
          <tr><td>Storm Location:</td></tr>
          <tr><td><b>15.3 N, 112.9 W</b></td></tr>
          <tr><td>Min Sea Level Pressure:</td></tr>
          <tr><td>978 mb / 28.88 in Hg</td></tr>
          <tr><td>Maximum Intensity:</td></tr>
          <tr><td>80 kt / 92 mph / 148 kph</td></tr>
        </table>
      ]]></description>
      <Point><coordinates>-112.9,15.3</coordinates></Point>
    </Placemark>
    <Placemark>
      <name>0600 UTC SEP 25</name>
      <styleUrl>#cat1</styleUrl>
      <description><![CDATA[
        <table>
          <tr><td>HU NARDA (EP142025)</td></tr>
          <tr><td><hr></td></tr>
          <tr><td>0600 UTC SEP 25, 2025</td></tr>
          <tr><td>Storm Location:</td></tr>
          <tr><td><b>15.6 N, 114.3 W</b></td></tr>
          <tr><td>Min Sea Level Pressure:</td></tr>
          <tr><td>980 mb / 28.94 in Hg</td></tr>
          <tr><td>Maximum Intensity:</td></tr>
          <tr><td>80 kt / 92 mph / 148 kph</td></tr>
        </table>
      ]]></description>
      <Point><coordinates>-114.3,15.6</coordinates></Point>
    </Placemark>
    <Placemark>
      <name>1200 UTC SEP 25</name>
      <styleUrl>#cat1</styleUrl>
      <description><![CDATA[
        <table>
          <tr><td>HU NARDA (EP142025)</td></tr>
          <tr><td><hr></td></tr>
          <tr><td>1200 UTC SEP 25, 2025</td></tr>
          <tr><td>Storm Location:</td></tr>
          <tr><td><b>15.9 N, 115.8 W</b></td></tr>
          <tr><td>Min Sea Level Pressure:</td></tr>
          <tr><td>980 mb / 28.94 in Hg</td></tr>
          <tr><td>Maximum Intensity:</td></tr>
          <tr><td>80 kt / 92 mph / 148 kph</td></tr>
        </table>
      ]]></description>
      <Point><coordinates>-115.8,15.9</coordinates></Point>
    </Placemark>
    <Placemark>
      <name>1800 UTC SEP 25</name>
      <styleUrl>#cat1</styleUrl>
      <description><![CDATA[
        <table>
          <tr><td>HU NARDA (EP142025)</td></tr>
          <tr><td><hr></td></tr>
          <tr><td>1800 UTC SEP 25, 2025</td></tr>
          <tr><td>Storm Location:</td></tr>
          <tr><td><b>16.1 N, 117.3 W</b></td></tr>
          <tr><td>Min Sea Level Pressure:</td></tr>
          <tr><td>980 mb / 28.94 in Hg</td></tr>
          <tr><td>Maximum Intensity:</td></tr>
          <tr><td>80 kt / 92 mph / 148 kph</td></tr>
        </table>
      ]]></description>
      <Point><coordinates>-117.3,16.1</coordinates></Point>
    </Placemark>
    <Placemark>
      <name>0000 UTC SEP 26</name>
      <styleUrl>#cat1</styleUrl>
      <description><![CDATA[
        <table>
          <tr><td>HU NARDA (EP142025)</td></tr>
          <tr><td><hr></td></tr>
          <tr><td>0000 UTC SEP 26, 2025</td></tr>
          <tr><td>Storm Location:</td></tr>
          <tr><td><b>16.3 N, 118.7 W</b></td></tr>
          <tr><td>Min Sea Level Pressure:</td></tr>
          <tr><td>982 mb / 29.00 in Hg</td></tr>
          <tr><td>Maximum Intensity:</td></tr>
          <tr><td>75 kt / 86 mph / 139 kph</td></tr>
        </table>
      ]]></description>
      <Point><coordinates>-118.7,16.3</coordinates></Point>
    </Placemark>
    <Placemark>
      <name>0600 UTC SEP 26</name>
      <styleUrl>#cat1</styleUrl>
      <description><![CDATA[
        <table>
          <tr><td>HU NARDA (EP142025)</td></tr>
          <tr><td><hr></td></tr>
          <tr><td>0600 UTC SEP 26, 2025</td></tr>
          <tr><td>Storm Location:</td></tr>
          <tr><td><b>16.5 N, 120.0 W</b></td></tr>
          <tr><td>Min Sea Level Pressure:</td></tr>
          <tr><td>982 mb / 29.00 in Hg</td></tr>
          <tr><td>Maximum Intensity:</td></tr>
          <tr><td>75 kt / 86 mph / 139 kph</td></tr>
        </table>
      ]]></description>
      <Point><coordinates>-120,16.5</coordinates></Point>
    </Placemark>
    <Placemark>
      <name>1200 UTC SEP 26</name>
      <styleUrl>#cat1</styleUrl>
      <description><![CDATA[
        <table>
          <tr><td>HU NARDA (EP142025)</td></tr>
          <tr><td><hr></td></tr>
          <tr><td>1200 UTC SEP 26, 2025</td></tr>
          <tr><td>Storm Location:</td></tr>
          <tr><td><b>16.7 N, 121.3 W</b></td></tr>
          <tr><td>Min Sea Level Pressure:</td></tr>
          <tr><td>982 mb / 29.00 in Hg</td></tr>
          <tr><td>Maximum Intensity:</td></tr>
          <tr><td>75 kt / 86 mph / 139 kph</td></tr>
        </table>
      ]]></description>
      <Point><coordinates>-121.3,16.7</coordinates></Point>
    </Placemark>
    <Placemark>
      <name>1800 UTC SEP 26</name>
      <styleUrl>#cat1</styleUrl>
      <description><![CDATA[
        <table>
          <tr><td>HU NARDA (EP142025)</td></tr>
          <tr><td><hr></td></tr>
          <tr><td>1800 UTC SEP 26, 2025</td></tr>
          <tr><td>Storm Location:</td></tr>
          <tr><td><b>16.9 N, 122.2 W</b></td></tr>
          <tr><td>Min Sea Level Pressure:</td></tr>
          <tr><td>983 mb / 29.03 in Hg</td></tr>
          <tr><td>Maximum Intensity:</td></tr>
          <tr><td>75 kt / 86 mph / 139 kph</td></tr>
        </table>
      ]]></description>
      <Point><coordinates>-122.2,16.9</coordinates></Point>
    </Placemark>
    <Placemark>
      <name>0000 UTC SEP 27</name>
      <styleUrl>#cat1</styleUrl>
      <description><![CDATA[
        <table>
          <tr><td>HU NARDA (EP142025)</td></tr>
          <tr><td><hr></td></tr>
          <tr><td>0000 UTC SEP 27, 2025</td></tr>
          <tr><td>Storm Location:</td></tr>
          <tr><td><b>17.2 N, 123.1 W</b></td></tr>
          <tr><td>Min Sea Level Pressure:</td></tr>
          <tr><td>983 mb / 29.03 in Hg</td></tr>
          <tr><td>Maximum Intensity:</td></tr>
          <tr><td>75 kt / 86 mph / 139 kph</td></tr>
        </table>
      ]]></description>
      <Point><coordinates>-123.1,17.2</coordinates></Point>
    </Placemark>
    <Placemark>
      <name>0600 UTC SEP 27</name>
      <styleUrl>#cat1</styleUrl>
      <description><![CDATA[
        <table>
          <tr><td>HU NARDA (EP142025)</td></tr>
          <tr><td><hr></td></tr>
          <tr><td>0600 UTC SEP 27, 2025</td></tr>
          <tr><td>Storm Location:</td></tr>
          <tr><td><b>17.5 N, 124.0 W</b></td></tr>
          <tr><td>Min Sea Level Pressure:</td></tr>
          <tr><td>983 mb / 29.03 in Hg</td></tr>
          <tr><td>Maximum Intensity:</td></tr>
          <tr><td>75 kt / 86 mph / 139 kph</td></tr>
        </table>
      ]]></description>
      <Point><coordinates>-124,17.5</coordinates></Point>
    </Placemark>
    <Placemark>
      <name>1200 UTC SEP 27</name>
      <styleUrl>#cat1</styleUrl>
      <description><![CDATA[
        <table>
          <tr><td>HU NARDA (EP142025)</td></tr>
          <tr><td><hr></td></tr>
          <tr><td>1200 UTC SEP 27, 2025</td></tr>
          <tr><td>Storm Location:</td></tr>
          <tr><td><b>17.8 N, 124.7 W</b></td></tr>
          <tr><td>Min Sea Level Pressure:</td></tr>
          <tr><td>983 mb / 29.03 in Hg</td></tr>
          <tr><td>Maximum Intensity:</td></tr>
          <tr><td>75 kt / 86 mph / 139 kph</td></tr>
        </table>
      ]]></description>
      <Point><coordinates>-124.7,17.8</coordinates></Point>
    </Placemark>
    <Placemark>
      <name>1800 UTC SEP 27</name>
      <styleUrl>#cat1</styleUrl>
      <description><![CDATA[
        <table>
          <tr><td>HU NARDA (EP142025)</td></tr>
          <tr><td><hr></td></tr>
          <tr><td>1800 UTC SEP 27, 2025</td></tr>
          <tr><td>Storm Location:</td></tr>
          <tr><td><b>18.2 N, 125.2 W</b></td></tr>
          <tr><td>Min Sea Level Pressure:</td></tr>
          <tr><td>986 mb / 29.12 in Hg</td></tr>
          <tr><td>Maximum Intensity:</td></tr>
          <tr><td>70 kt / 81 mph / 130 kph</td></tr>
        </table>
      ]]></description>
      <Point><coordinates>-125.2,18.2</coordinates></Point>
    </Placemark>
    <Placemark>
      <name>0000 UTC SEP 28</name>
      <styleUrl>#ts</styleUrl>
      <description><![CDATA[
        <table>
          <tr><td>TS NARDA (EP142025)</td></tr>
          <tr><td><hr></td></tr>
          <tr><td>0000 UTC SEP 28, 2025</td></tr>
          <tr><td>Storm Location:</td></tr>
          <tr><td><b>18.5 N, 125.5 W</b></td></tr>
          <tr><td>Min Sea Level Pressure:</td></tr>
          <tr><td>992 mb / 29.29 in Hg</td></tr>
          <tr><td>Maximum Intensity:</td></tr>
          <tr><td>60 kt / 69 mph / 111 kph</td></tr>
        </table>
      ]]></description>
      <Point><coordinates>-125.5,18.5</coordinates></Point>
    </Placemark>
    <Placemark>
      <name>0600 UTC SEP 28</name>
      <styleUrl>#ts</styleUrl>
      <description><![CDATA[
        <table>
          <tr><td>TS NARDA (EP142025)</td></tr>
          <tr><td><hr></td></tr>
          <tr><td>0600 UTC SEP 28, 2025</td></tr>
          <tr><td>Storm Location:</td></tr>
          <tr><td><b>18.9 N, 125.6 W</b></td></tr>
          <tr><td>Min Sea Level Pressure:</td></tr>
          <tr><td>998 mb / 29.47 in Hg</td></tr>
          <tr><td>Maximum Intensity:</td></tr>
          <tr><td>50 kt / 58 mph / 93 kph</td></tr>
        </table>
      ]]></description>
      <Point><coordinates>-125.6,18.9</coordinates></Point>
    </Placemark>
    <Placemark>
      <name>1200 UTC SEP 28</name>
      <styleUrl>#ts</styleUrl>
      <description><![CDATA[
        <table>
          <tr><td>TS NARDA (EP142025)</td></tr>
          <tr><td><hr></td></tr>
          <tr><td>1200 UTC SEP 28, 2025</td></tr>
          <tr><td>Storm Location:</td></tr>
          <tr><td><b>19.4 N, 125.6 W</b></td></tr>
          <tr><td>Min Sea Level Pressure:</td></tr>
          <tr><td>1001 mb / 29.56 in Hg</td></tr>
          <tr><td>Maximum Intensity:</td></tr>
          <tr><td>45 kt / 52 mph / 83 kph</td></tr>
        </table>
      ]]></description>
      <Point><coordinates>-125.6,19.4</coordinates></Point>
    </Placemark>
    <Placemark>
      <name>1800 UTC SEP 28</name>
      <styleUrl>#lo</styleUrl>
      <description><![CDATA[
        <table>
          <tr><td>LO NARDA (EP142025)</td></tr>
          <tr><td><hr></td></tr>
          <tr><td>1800 UTC SEP 28, 2025</td></tr>
          <tr><td>Storm Location:</td></tr>
          <tr><td><b>20.1 N, 125.5 W</b></td></tr>
          <tr><td>Min Sea Level Pressure:</td></tr>
          <tr><td>1006 mb / 29.71 in Hg</td></tr>
          <tr><td>Maximum Intensity:</td></tr>
          <tr><td>35 kt / 40 mph / 65 kph</td></tr>
        </table>
      ]]></description>
      <Point><coordinates>-125.5,20.1</coordinates></Point>
    </Placemark>
    <Placemark>
      <name>0000 UTC SEP 29</name>
      <styleUrl>#lo</styleUrl>
      <description><![CDATA[
        <table>
          <tr><td>LO NARDA (EP142025)</td></tr>
          <tr><td><hr></td></tr>
          <tr><td>0000 UTC SEP 29, 2025</td></tr>
          <tr><td>Storm Location:</td></tr>
          <tr><td><b>20.7 N, 125.2 W</b></td></tr>
          <tr><td>Min Sea Level Pressure:</td></tr>
          <tr><td>1009 mb / 29.80 in Hg</td></tr>
          <tr><td>Maximum Intensity:</td></tr>
          <tr><td>30 kt / 35 mph / 56 kph</td></tr>
        </table>
      ]]></description>
      <Point><coordinates>-125.2,20.7</coordinates></Point>
    </Placemark>
    <Placemark>
      <name>0600 UTC SEP 29</name>
      <styleUrl>#lo</styleUrl>
      <description><![CDATA[
        <table>
          <tr><td>LO NARDA (EP142025)</td></tr>
          <tr><td><hr></td></tr>
          <tr><td>0600 UTC SEP 29, 2025</td></tr>
          <tr><td>Storm Location:</td></tr>
          <tr><td><b>21.0 N, 125.0 W</b></td></tr>
          <tr><td>Min Sea Level Pressure:</td></tr>
          <tr><td>1009 mb / 29.80 in Hg</td></tr>
          <tr><td>Maximum Intensity:</td></tr>
          <tr><td>30 kt / 35 mph / 56 kph</td></tr>
        </table>
      ]]></description>
      <Point><coordinates>-125,21</coordinates></Point>
    </Placemark>
    <Placemark>
      <name>1200 UTC SEP 29</name>
      <styleUrl>#lo</styleUrl>
      <description><![CDATA[
        <table>
          <tr><td>LO NARDA (EP142025)</td></tr>
          <tr><td><hr></td></tr>
          <tr><td>1200 UTC SEP 29, 2025</td></tr>
          <tr><td>Storm Location:</td></tr>
          <tr><td><b>21.3 N, 124.9 W</b></td></tr>
          <tr><td>Min Sea Level Pressure:</td></tr>
          <tr><td>1010 mb / 29.83 in Hg</td></tr>
          <tr><td>Maximum Intensity:</td></tr>
          <tr><td>25 kt / 29 mph / 46 kph</td></tr>
        </table>
      ]]></description>
      <Point><coordinates>-124.9,21.3</coordinates></Point>
    </Placemark>
    <Placemark>
      <name>1800 UTC SEP 29</name>
      <styleUrl>#lo</styleUrl>
      <description><![CDATA[
        <table>
          <tr><td>LO NARDA (EP142025)</td></tr>
          <tr><td><hr></td></tr>
          <tr><td>1800 UTC SEP 29, 2025</td></tr>
          <tr><td>Storm Location:</td></tr>
          <tr><td><b>21.5 N, 124.7 W</b></td></tr>
          <tr><td>Min Sea Level Pressure:</td></tr>
          <tr><td>1011 mb / 29.85 in Hg</td></tr>
          <tr><td>Maximum Intensity:</td></tr>
          <tr><td>20 kt / 23 mph / 37 kph</td></tr>
        </table>
      ]]></description>
      <Point><coordinates>-124.7,21.5</coordinates></Point>
    </Placemark>
    <Placemark>
      <name>0000 UTC SEP 30</name>
      <styleUrl>#lo</styleUrl>
      <description><![CDATA[
        <table>
          <tr><td>LO NARDA (EP142025)</td></tr>
          <tr><td><hr></td></tr>
          <tr><td>0000 UTC SEP 30, 2025</td></tr>
          <tr><td>Storm Location:</td></tr>
          <tr><td><b>21.4 N, 124.4 W</b></td></tr>
          <tr><td>Min Sea Level Pressure:</td></tr>
          <tr><td>1011 mb / 29.85 in Hg</td></tr>
          <tr><td>Maximum Intensity:</td></tr>
          <tr><td>20 kt / 23 mph / 37 kph</td></tr>
        </table>
      ]]></description>
      <Point><coordinates>-124.4,21.4</coordinates></Point>
    </Placemark>
    <Placemark>
      <name>0600 UTC SEP 30</name>
      <styleUrl>#lo</styleUrl>
      <description><![CDATA[
        <table>
          <tr><td>LO NARDA (EP142025)</td></tr>
          <tr><td><hr></td></tr>
          <tr><td>0600 UTC SEP 30, 2025</td></tr>
          <tr><td>Storm Location:</td></tr>
          <tr><td><b>21.3 N, 124.6 W</b></td></tr>
          <tr><td>Min Sea Level Pressure:</td></tr>
          <tr><td>1012 mb / 29.88 in Hg</td></tr>
          <tr><td>Maximum Intensity:</td></tr>
          <tr><td>20 kt / 23 mph / 37 kph</td></tr>
        </table>
      ]]></description>
      <Point><coordinates>-124.6,21.3</coordinates></Point>
    </Placemark>
    <Placemark>
      <name>1200 UTC SEP 30</name>
      <styleUrl>#lo</styleUrl>
      <description><![CDATA[
        <table>
          <tr><td>LO NARDA (EP142025)</td></tr>
          <tr><td><hr></td></tr>
          <tr><td>1200 UTC SEP 30, 2025</td></tr>
          <tr><td>Storm Location:</td></tr>
          <tr><td><b>21.6 N, 124.6 W</b></td></tr>
          <tr><td>Min Sea Level Pressure:</td></tr>
          <tr><td>1012 mb / 29.88 in Hg</td></tr>
          <tr><td>Maximum Intensity:</td></tr>
          <tr><td>20 kt / 23 mph / 37 kph</td></tr>
        </table>
      ]]></description>
      <Point><coordinates>-124.6,21.6</coordinates></Point>
    </Placemark>
    <Placemark>
      <name>1800 UTC SEP 30</name>
      <styleUrl>#lo</styleUrl>
      <description><![CDATA[
        <table>
          <tr><td>LO NARDA (EP142025)</td></tr>
          <tr><td><hr></td></tr>
          <tr><td>1800 UTC SEP 30, 2025</td></tr>
          <tr><td>Storm Location:</td></tr>
          <tr><td><b>21.7 N, 124.8 W</b></td></tr>
          <tr><td>Min Sea Level Pressure:</td></tr>
          <tr><td>1012 mb / 29.88 in Hg</td></tr>
          <tr><td>Maximum Intensity:</td></tr>
          <tr><td>20 kt / 23 mph / 37 kph</td></tr>
        </table>
      ]]></description>
      <Point><coordinates>-124.8,21.7</coordinates></Point>
    </Placemark>
    <Placemark>
      <name>0000 UTC OCT 1</name>
      <styleUrl>#lo</styleUrl>
      <description><![CDATA[
        <table>
          <tr><td>LO NARDA (EP142025)</td></tr>
          <tr><td><hr></td></tr>
          <tr><td>0000 UTC OCT 1, 2025</td></tr>
          <tr><td>Storm Location:</td></tr>
          <tr><td><b>21.7 N, 125.0 W</b></td></tr>
          <tr><td>Min Sea Level Pressure:</td></tr>
          <tr><td>1012 mb / 29.88 in Hg</td></tr>
          <tr><td>Maximum Intensity:</td></tr>
          <tr><td>20 kt / 23 mph / 37 kph</td></tr>
        </table>
      ]]></description>
      <Point><coordinates>-125,21.7</coordinates></Point>
    </Placemark>
  </Document>
</kml>
