<?xml version="1.0" encoding="UTF-8"?>
<kml xmlns="http://www.opengis.net/kml/2.2">
  <Document>
    <name>EP152025</name>
    <open>0</open>

    <!-- =====  Document header ===== -->
    <description><![CDATA[
      <table>
        <tr><td><b>Title:</b> Tropical Cyclone Best Track for EP152025</td></tr>
      </table>
    ]]></description>

    <!-- =====  Styles (ids must be unique)  ===== -->
	<Style id="pt"> 
		<IconStyle> 
			<scale>1.0</scale> 
			<Icon> 
				<href>ex_nhemi.png</href> 
			</Icon> 
             <hotSpot x="15" y="17" xunits="pixels" yunits="pixels"/>
		</IconStyle> 
		<LabelStyle> 
			<scale>1.0</scale> 
		</LabelStyle> 
	</Style>
	<Style id="cat5"> 
		<IconStyle> 
			<scale>1.0</scale> 
			<Icon> 
				<href>cat5_nhemi.png</href> 
			</Icon> 
             <hotSpot x="15" y="17" xunits="pixels" yunits="pixels"/>
		</IconStyle> 
		<LabelStyle> 
			<scale>1.0</scale> 
		</LabelStyle> 
	</Style>
	<Style id="db"> 
		<IconStyle> 
			<scale>1.0</scale> 
			<Icon> 
				<href>ex_nhemi.png</href> 
			</Icon> 
             <hotSpot x="15" y="17" xunits="pixels" yunits="pixels"/>
		</IconStyle> 
		<LabelStyle> 
			<scale>1.0</scale> 
		</LabelStyle> 
	</Style>
	<Style id="cat3"> 
		<IconStyle> 
			<scale>1.0</scale> 
			<Icon> 
				<href>cat3_nhemi.png</href> 
			</Icon> 
             <hotSpot x="15" y="17" xunits="pixels" yunits="pixels"/>
		</IconStyle> 
		<LabelStyle> 
			<scale>1.0</scale> 
		</LabelStyle> 
	</Style>
	<Style id="ss"> 
		<IconStyle> 
			<scale>1.0</scale> 
			<Icon> 
				<href>ts_nhemi.png</href> 
			</Icon> 
             <hotSpot x="15" y="17" xunits="pixels" yunits="pixels"/>
		</IconStyle> 
		<LabelStyle> 
			<scale>1.0</scale> 
		</LabelStyle> 
	</Style>
	<Style id="lo"> 
		<IconStyle> 
			<scale>1.0</scale> 
			<Icon> 
				<href>ex_nhemi.png</href> 
			</Icon> 
             <hotSpot x="15" y="17" xunits="pixels" yunits="pixels"/>
		</IconStyle> 
		<LabelStyle> 
			<scale>1.0</scale> 
		</LabelStyle> 
	</Style>
	<Style id="cat4"> 
		<IconStyle> 
			<scale>1.0</scale> 
			<Icon> 
				<href>cat4_nhemi.png</href> 
			</Icon> 
             <hotSpot x="15" y="17" xunits="pixels" yunits="pixels"/>
		</IconStyle> 
		<LabelStyle> 
			<scale>1.0</scale> 
		</LabelStyle> 
	</Style>
	<Style id="cat2"> 
		<IconStyle> 
			<scale>1.0</scale> 
			<Icon> 
				<href>cat2_nhemi.png</href> 
			</Icon> 
             <hotSpot x="15" y="17" xunits="pixels" yunits="pixels"/>
		</IconStyle> 
		<LabelStyle> 
			<scale>1.0</scale> 
		</LabelStyle> 
	</Style>
	<Style id="ts"> 
		<IconStyle> 
			<scale>1.0</scale> 
			<Icon> 
				<href>ts_nhemi.png</href> 
			</Icon> 
             <hotSpot x="15" y="17" xunits="pixels" yunits="pixels"/>
		</IconStyle> 
		<LabelStyle> 
			<scale>1.0</scale> 
		</LabelStyle> 
	</Style>
	<Style id="cat1"> 
		<IconStyle> 
			<scale>1.0</scale> 
			<Icon> 
				<href>cat1_nhemi.png</href> 
			</Icon> 
             <hotSpot x="15" y="17" xunits="pixels" yunits="pixels"/>
		</IconStyle> 
		<LabelStyle> 
			<scale>1.0</scale> 
		</LabelStyle> 
	</Style>
	<Style id="ex"> 
		<IconStyle> 
			<scale>1.0</scale> 
			<Icon> 
				<href>ex_nhemi.png</href> 
			</Icon> 
             <hotSpot x="15" y="17" xunits="pixels" yunits="pixels"/>
		</IconStyle> 
		<LabelStyle> 
			<scale>1.0</scale> 
		</LabelStyle> 
	</Style>
	<Style id="tc"> 
		<IconStyle> 
			<scale>1.0</scale> 
			<Icon> 
				<href>ex_nhemi.png</href> 
			</Icon> 
             <hotSpot x="15" y="17" xunits="pixels" yunits="pixels"/>
		</IconStyle> 
		<LabelStyle> 
			<scale>1.0</scale> 
		</LabelStyle> 
	</Style>
	<Style id="wv"> 
		<IconStyle> 
			<scale>1.0</scale> 
			<Icon> 
				<href>ex_nhemi.png</href> 
			</Icon> 
             <hotSpot x="15" y="17" xunits="pixels" yunits="pixels"/>
		</IconStyle> 
		<LabelStyle> 
			<scale>1.0</scale> 
		</LabelStyle> 
	</Style>
	<Style id="td"> 
		<IconStyle> 
			<scale>1.0</scale> 
			<Icon> 
				<href>td_nhemi.png</href> 
			</Icon> 
             <hotSpot x="15" y="17" xunits="pixels" yunits="pixels"/>
		</IconStyle> 
		<LabelStyle> 
			<scale>1.0</scale> 
		</LabelStyle> 
	</Style>
	<Style id="sd"> 
		<IconStyle> 
			<scale>1.0</scale> 
			<Icon> 
				<href>ex_nhemi.png</href> 
			</Icon> 
             <hotSpot x="15" y="17" xunits="pixels" yunits="pixels"/>
		</IconStyle> 
		<LabelStyle> 
			<scale>1.0</scale> 
		</LabelStyle> 
	</Style>

    <Placemark>
      <name>1800 UTC SEP 29</name>
      <styleUrl>#lo</styleUrl>
      <description><![CDATA[
        <table>
          <tr><td>LO OCTAVE (EP152025)</td></tr>
          <tr><td><hr></td></tr>
          <tr><td>1800 UTC SEP 29, 2025</td></tr>
          <tr><td>Storm Location:</td></tr>
          <tr><td><b>9.3 N, 112.2 W</b></td></tr>
          <tr><td>Min Sea Level Pressure:</td></tr>
          <tr><td>1008 mb / 29.77 in Hg</td></tr>
          <tr><td>Maximum Intensity:</td></tr>
          <tr><td>30 kt / 35 mph / 56 kph</td></tr>
        </table>
      ]]></description>
      <Point><coordinates>-112.2,9.3</coordinates></Point>
    </Placemark>
    <Placemark>
      <name>0000 UTC SEP 30</name>
      <styleUrl>#td</styleUrl>
      <description><![CDATA[
        <table>
          <tr><td>TD OCTAVE (EP152025)</td></tr>
          <tr><td><hr></td></tr>
          <tr><td>0000 UTC SEP 30, 2025</td></tr>
          <tr><td>Storm Location:</td></tr>
          <tr><td><b>9.3 N, 112.4 W</b></td></tr>
          <tr><td>Min Sea Level Pressure:</td></tr>
          <tr><td>1008 mb / 29.77 in Hg</td></tr>
          <tr><td>Maximum Intensity:</td></tr>
          <tr><td>30 kt / 35 mph / 56 kph</td></tr>
        </table>
      ]]></description>
      <Point><coordinates>-112.4,9.3</coordinates></Point>
    </Placemark>
    <Placemark>
      <name>0600 UTC SEP 30</name>
      <styleUrl>#td</styleUrl>
      <description><![CDATA[
        <table>
          <tr><td>TD OCTAVE (EP152025)</td></tr>
          <tr><td><hr></td></tr>
          <tr><td>0600 UTC SEP 30, 2025</td></tr>
          <tr><td>Storm Location:</td></tr>
          <tr><td><b>9.3 N, 112.9 W</b></td></tr>
          <tr><td>Min Sea Level Pressure:</td></tr>
          <tr><td>1007 mb / 29.74 in Hg</td></tr>
          <tr><td>Maximum Intensity:</td></tr>
          <tr><td>30 kt / 35 mph / 56 kph</td></tr>
        </table>
      ]]></description>
      <Point><coordinates>-112.9,9.3</coordinates></Point>
    </Placemark>
    <Placemark>
      <name>1200 UTC SEP 30</name>
      <styleUrl>#ts</styleUrl>
      <description><![CDATA[
        <table>
          <tr><td>TS OCTAVE (EP152025)</td></tr>
          <tr><td><hr></td></tr>
          <tr><td>1200 UTC SEP 30, 2025</td></tr>
          <tr><td>Storm Location:</td></tr>
          <tr><td><b>9.5 N, 113.3 W</b></td></tr>
          <tr><td>Min Sea Level Pressure:</td></tr>
          <tr><td>1005 mb / 29.68 in Hg</td></tr>
          <tr><td>Maximum Intensity:</td></tr>
          <tr><td>35 kt / 40 mph / 65 kph</td></tr>
        </table>
      ]]></description>
      <Point><coordinates>-113.3,9.5</coordinates></Point>
    </Placemark>
    <Placemark>
      <name>1800 UTC SEP 30</name>
      <styleUrl>#ts</styleUrl>
      <description><![CDATA[
        <table>
          <tr><td>TS OCTAVE (EP152025)</td></tr>
          <tr><td><hr></td></tr>
          <tr><td>1800 UTC SEP 30, 2025</td></tr>
          <tr><td>Storm Location:</td></tr>
          <tr><td><b>9.9 N, 113.8 W</b></td></tr>
          <tr><td>Min Sea Level Pressure:</td></tr>
          <tr><td>1005 mb / 29.68 in Hg</td></tr>
          <tr><td>Maximum Intensity:</td></tr>
          <tr><td>35 kt / 40 mph / 65 kph</td></tr>
        </table>
      ]]></description>
      <Point><coordinates>-113.8,9.9</coordinates></Point>
    </Placemark>
    <Placemark>
      <name>0000 UTC OCT 1</name>
      <styleUrl>#ts</styleUrl>
      <description><![CDATA[
        <table>
          <tr><td>TS OCTAVE (EP152025)</td></tr>
          <tr><td><hr></td></tr>
          <tr><td>0000 UTC OCT 1, 2025</td></tr>
          <tr><td>Storm Location:</td></tr>
          <tr><td><b>10.3 N, 114.3 W</b></td></tr>
          <tr><td>Min Sea Level Pressure:</td></tr>
          <tr><td>1003 mb / 29.62 in Hg</td></tr>
          <tr><td>Maximum Intensity:</td></tr>
          <tr><td>40 kt / 46 mph / 74 kph</td></tr>
        </table>
      ]]></description>
      <Point><coordinates>-114.3,10.3</coordinates></Point>
    </Placemark>
    <Placemark>
      <name>0600 UTC OCT 1</name>
      <styleUrl>#ts</styleUrl>
      <description><![CDATA[
        <table>
          <tr><td>TS OCTAVE (EP152025)</td></tr>
          <tr><td><hr></td></tr>
          <tr><td>0600 UTC OCT 1, 2025</td></tr>
          <tr><td>Storm Location:</td></tr>
          <tr><td><b>10.9 N, 114.8 W</b></td></tr>
          <tr><td>Min Sea Level Pressure:</td></tr>
          <tr><td>1002 mb / 29.59 in Hg</td></tr>
          <tr><td>Maximum Intensity:</td></tr>
          <tr><td>45 kt / 52 mph / 83 kph</td></tr>
        </table>
      ]]></description>
      <Point><coordinates>-114.8,10.9</coordinates></Point>
    </Placemark>
    <Placemark>
      <name>1200 UTC OCT 1</name>
      <styleUrl>#ts</styleUrl>
      <description><![CDATA[
        <table>
          <tr><td>TS OCTAVE (EP152025)</td></tr>
          <tr><td><hr></td></tr>
          <tr><td>1200 UTC OCT 1, 2025</td></tr>
          <tr><td>Storm Location:</td></tr>
          <tr><td><b>11.4 N, 115.4 W</b></td></tr>
          <tr><td>Min Sea Level Pressure:</td></tr>
          <tr><td>1000 mb / 29.53 in Hg</td></tr>
          <tr><td>Maximum Intensity:</td></tr>
          <tr><td>50 kt / 58 mph / 93 kph</td></tr>
        </table>
      ]]></description>
      <Point><coordinates>-115.4,11.4</coordinates></Point>
    </Placemark>
    <Placemark>
      <name>1800 UTC OCT 1</name>
      <styleUrl>#ts</styleUrl>
      <description><![CDATA[
        <table>
          <tr><td>TS OCTAVE (EP152025)</td></tr>
          <tr><td><hr></td></tr>
          <tr><td>1800 UTC OCT 1, 2025</td></tr>
          <tr><td>Storm Location:</td></tr>
          <tr><td><b>11.7 N, 115.9 W</b></td></tr>
          <tr><td>Min Sea Level Pressure:</td></tr>
          <tr><td>1000 mb / 29.53 in Hg</td></tr>
          <tr><td>Maximum Intensity:</td></tr>
          <tr><td>50 kt / 58 mph / 93 kph</td></tr>
        </table>
      ]]></description>
      <Point><coordinates>-115.9,11.7</coordinates></Point>
    </Placemark>
    <Placemark>
      <name>0000 UTC OCT 2</name>
      <styleUrl>#ts</styleUrl>
      <description><![CDATA[
        <table>
          <tr><td>TS OCTAVE (EP152025)</td></tr>
          <tr><td><hr></td></tr>
          <tr><td>0000 UTC OCT 2, 2025</td></tr>
          <tr><td>Storm Location:</td></tr>
          <tr><td><b>11.9 N, 116.6 W</b></td></tr>
          <tr><td>Min Sea Level Pressure:</td></tr>
          <tr><td>999 mb / 29.50 in Hg</td></tr>
          <tr><td>Maximum Intensity:</td></tr>
          <tr><td>55 kt / 63 mph / 102 kph</td></tr>
        </table>
      ]]></description>
      <Point><coordinates>-116.6,11.9</coordinates></Point>
    </Placemark>
    <Placemark>
      <name>0600 UTC OCT 2</name>
      <styleUrl>#ts</styleUrl>
      <description><![CDATA[
        <table>
          <tr><td>TS OCTAVE (EP152025)</td></tr>
          <tr><td><hr></td></tr>
          <tr><td>0600 UTC OCT 2, 2025</td></tr>
          <tr><td>Storm Location:</td></tr>
          <tr><td><b>12.0 N, 117.4 W</b></td></tr>
          <tr><td>Min Sea Level Pressure:</td></tr>
          <tr><td>999 mb / 29.50 in Hg</td></tr>
          <tr><td>Maximum Intensity:</td></tr>
          <tr><td>55 kt / 63 mph / 102 kph</td></tr>
        </table>
      ]]></description>
      <Point><coordinates>-117.4,12</coordinates></Point>
    </Placemark>
    <Placemark>
      <name>1200 UTC OCT 2</name>
      <styleUrl>#ts</styleUrl>
      <description><![CDATA[
        <table>
          <tr><td>TS OCTAVE (EP152025)</td></tr>
          <tr><td><hr></td></tr>
          <tr><td>1200 UTC OCT 2, 2025</td></tr>
          <tr><td>Storm Location:</td></tr>
          <tr><td><b>12.3 N, 118.0 W</b></td></tr>
          <tr><td>Min Sea Level Pressure:</td></tr>
          <tr><td>999 mb / 29.50 in Hg</td></tr>
          <tr><td>Maximum Intensity:</td></tr>
          <tr><td>55 kt / 63 mph / 102 kph</td></tr>
        </table>
      ]]></description>
      <Point><coordinates>-118,12.3</coordinates></Point>
    </Placemark>
    <Placemark>
      <name>1800 UTC OCT 2</name>
      <styleUrl>#ts</styleUrl>
      <description><![CDATA[
        <table>
          <tr><td>TS OCTAVE (EP152025)</td></tr>
          <tr><td><hr></td></tr>
          <tr><td>1800 UTC OCT 2, 2025</td></tr>
          <tr><td>Storm Location:</td></tr>
          <tr><td><b>12.6 N, 118.7 W</b></td></tr>
          <tr><td>Min Sea Level Pressure:</td></tr>
          <tr><td>999 mb / 29.50 in Hg</td></tr>
          <tr><td>Maximum Intensity:</td></tr>
          <tr><td>55 kt / 63 mph / 102 kph</td></tr>
        </table>
      ]]></description>
      <Point><coordinates>-118.7,12.6</coordinates></Point>
    </Placemark>
    <Placemark>
      <name>0000 UTC OCT 3</name>
      <styleUrl>#ts</styleUrl>
      <description><![CDATA[
        <table>
          <tr><td>TS OCTAVE (EP152025)</td></tr>
          <tr><td><hr></td></tr>
          <tr><td>0000 UTC OCT 3, 2025</td></tr>
          <tr><td>Storm Location:</td></tr>
          <tr><td><b>12.9 N, 119.2 W</b></td></tr>
          <tr><td>Min Sea Level Pressure:</td></tr>
          <tr><td>1001 mb / 29.56 in Hg</td></tr>
          <tr><td>Maximum Intensity:</td></tr>
          <tr><td>50 kt / 58 mph / 93 kph</td></tr>
        </table>
      ]]></description>
      <Point><coordinates>-119.2,12.9</coordinates></Point>
    </Placemark>
    <Placemark>
      <name>0600 UTC OCT 3</name>
      <styleUrl>#ts</styleUrl>
      <description><![CDATA[
        <table>
          <tr><td>TS OCTAVE (EP152025)</td></tr>
          <tr><td><hr></td></tr>
          <tr><td>0600 UTC OCT 3, 2025</td></tr>
          <tr><td>Storm Location:</td></tr>
          <tr><td><b>13.1 N, 119.9 W</b></td></tr>
          <tr><td>Min Sea Level Pressure:</td></tr>
          <tr><td>1003 mb / 29.62 in Hg</td></tr>
          <tr><td>Maximum Intensity:</td></tr>
          <tr><td>45 kt / 52 mph / 83 kph</td></tr>
        </table>
      ]]></description>
      <Point><coordinates>-119.9,13.1</coordinates></Point>
    </Placemark>
    <Placemark>
      <name>1200 UTC OCT 3</name>
      <styleUrl>#ts</styleUrl>
      <description><![CDATA[
        <table>
          <tr><td>TS OCTAVE (EP152025)</td></tr>
          <tr><td><hr></td></tr>
          <tr><td>1200 UTC OCT 3, 2025</td></tr>
          <tr><td>Storm Location:</td></tr>
          <tr><td><b>13.2 N, 120.8 W</b></td></tr>
          <tr><td>Min Sea Level Pressure:</td></tr>
          <tr><td>1003 mb / 29.62 in Hg</td></tr>
          <tr><td>Maximum Intensity:</td></tr>
          <tr><td>45 kt / 52 mph / 83 kph</td></tr>
        </table>
      ]]></description>
      <Point><coordinates>-120.8,13.2</coordinates></Point>
    </Placemark>
    <Placemark>
      <name>1800 UTC OCT 3</name>
      <styleUrl>#ts</styleUrl>
      <description><![CDATA[
        <table>
          <tr><td>TS OCTAVE (EP152025)</td></tr>
          <tr><td><hr></td></tr>
          <tr><td>1800 UTC OCT 3, 2025</td></tr>
          <tr><td>Storm Location:</td></tr>
          <tr><td><b>13.3 N, 121.6 W</b></td></tr>
          <tr><td>Min Sea Level Pressure:</td></tr>
          <tr><td>1001 mb / 29.56 in Hg</td></tr>
          <tr><td>Maximum Intensity:</td></tr>
          <tr><td>50 kt / 58 mph / 93 kph</td></tr>
        </table>
      ]]></description>
      <Point><coordinates>-121.6,13.3</coordinates></Point>
    </Placemark>
    <Placemark>
      <name>0000 UTC OCT 4</name>
      <styleUrl>#ts</styleUrl>
      <description><![CDATA[
        <table>
          <tr><td>TS OCTAVE (EP152025)</td></tr>
          <tr><td><hr></td></tr>
          <tr><td>0000 UTC OCT 4, 2025</td></tr>
          <tr><td>Storm Location:</td></tr>
          <tr><td><b>13.6 N, 122.3 W</b></td></tr>
          <tr><td>Min Sea Level Pressure:</td></tr>
          <tr><td>1001 mb / 29.56 in Hg</td></tr>
          <tr><td>Maximum Intensity:</td></tr>
          <tr><td>50 kt / 58 mph / 93 kph</td></tr>
        </table>
      ]]></description>
      <Point><coordinates>-122.3,13.6</coordinates></Point>
    </Placemark>
    <Placemark>
      <name>0600 UTC OCT 4</name>
      <styleUrl>#ts</styleUrl>
      <description><![CDATA[
        <table>
          <tr><td>TS OCTAVE (EP152025)</td></tr>
          <tr><td><hr></td></tr>
          <tr><td>0600 UTC OCT 4, 2025</td></tr>
          <tr><td>Storm Location:</td></tr>
          <tr><td><b>13.9 N, 122.9 W</b></td></tr>
          <tr><td>Min Sea Level Pressure:</td></tr>
          <tr><td>1001 mb / 29.56 in Hg</td></tr>
          <tr><td>Maximum Intensity:</td></tr>
          <tr><td>50 kt / 58 mph / 93 kph</td></tr>
        </table>
      ]]></description>
      <Point><coordinates>-122.9,13.9</coordinates></Point>
    </Placemark>
    <Placemark>
      <name>1200 UTC OCT 4</name>
      <styleUrl>#ts</styleUrl>
      <description><![CDATA[
        <table>
          <tr><td>TS OCTAVE (EP152025)</td></tr>
          <tr><td><hr></td></tr>
          <tr><td>1200 UTC OCT 4, 2025</td></tr>
          <tr><td>Storm Location:</td></tr>
          <tr><td><b>14.3 N, 123.5 W</b></td></tr>
          <tr><td>Min Sea Level Pressure:</td></tr>
          <tr><td>999 mb / 29.50 in Hg</td></tr>
          <tr><td>Maximum Intensity:</td></tr>
          <tr><td>55 kt / 63 mph / 102 kph</td></tr>
        </table>
      ]]></description>
      <Point><coordinates>-123.5,14.3</coordinates></Point>
    </Placemark>
    <Placemark>
      <name>1800 UTC OCT 4</name>
      <styleUrl>#ts</styleUrl>
      <description><![CDATA[
        <table>
          <tr><td>TS OCTAVE (EP152025)</td></tr>
          <tr><td><hr></td></tr>
          <tr><td>1800 UTC OCT 4, 2025</td></tr>
          <tr><td>Storm Location:</td></tr>
          <tr><td><b>14.7 N, 123.9 W</b></td></tr>
          <tr><td>Min Sea Level Pressure:</td></tr>
          <tr><td>999 mb / 29.50 in Hg</td></tr>
          <tr><td>Maximum Intensity:</td></tr>
          <tr><td>55 kt / 63 mph / 102 kph</td></tr>
        </table>
      ]]></description>
      <Point><coordinates>-123.9,14.7</coordinates></Point>
    </Placemark>
    <Placemark>
      <name>0000 UTC OCT 5</name>
      <styleUrl>#ts</styleUrl>
      <description><![CDATA[
        <table>
          <tr><td>TS OCTAVE (EP152025)</td></tr>
          <tr><td><hr></td></tr>
          <tr><td>0000 UTC OCT 5, 2025</td></tr>
          <tr><td>Storm Location:</td></tr>
          <tr><td><b>15.0 N, 124.1 W</b></td></tr>
          <tr><td>Min Sea Level Pressure:</td></tr>
          <tr><td>996 mb / 29.41 in Hg</td></tr>
          <tr><td>Maximum Intensity:</td></tr>
          <tr><td>60 kt / 69 mph / 111 kph</td></tr>
        </table>
      ]]></description>
      <Point><coordinates>-124.1,15</coordinates></Point>
    </Placemark>
    <Placemark>
      <name>0600 UTC OCT 5</name>
      <styleUrl>#cat1</styleUrl>
      <description><![CDATA[
        <table>
          <tr><td>HU OCTAVE (EP152025)</td></tr>
          <tr><td><hr></td></tr>
          <tr><td>0600 UTC OCT 5, 2025</td></tr>
          <tr><td>Storm Location:</td></tr>
          <tr><td><b>15.4 N, 124.2 W</b></td></tr>
          <tr><td>Min Sea Level Pressure:</td></tr>
          <tr><td>992 mb / 29.29 in Hg</td></tr>
          <tr><td>Maximum Intensity:</td></tr>
          <tr><td>65 kt / 75 mph / 120 kph</td></tr>
        </table>
      ]]></description>
      <Point><coordinates>-124.2,15.4</coordinates></Point>
    </Placemark>
    <Placemark>
      <name>1200 UTC OCT 5</name>
      <styleUrl>#cat1</styleUrl>
      <description><![CDATA[
        <table>
          <tr><td>HU OCTAVE (EP152025)</td></tr>
          <tr><td><hr></td></tr>
          <tr><td>1200 UTC OCT 5, 2025</td></tr>
          <tr><td>Storm Location:</td></tr>
          <tr><td><b>15.6 N, 123.9 W</b></td></tr>
          <tr><td>Min Sea Level Pressure:</td></tr>
          <tr><td>987 mb / 29.15 in Hg</td></tr>
          <tr><td>Maximum Intensity:</td></tr>
          <tr><td>70 kt / 81 mph / 130 kph</td></tr>
        </table>
      ]]></description>
      <Point><coordinates>-123.9,15.6</coordinates></Point>
    </Placemark>
    <Placemark>
      <name>1800 UTC OCT 5</name>
      <styleUrl>#cat1</styleUrl>
      <description><![CDATA[
        <table>
          <tr><td>HU OCTAVE (EP152025)</td></tr>
          <tr><td><hr></td></tr>
          <tr><td>1800 UTC OCT 5, 2025</td></tr>
          <tr><td>Storm Location:</td></tr>
          <tr><td><b>15.9 N, 123.5 W</b></td></tr>
          <tr><td>Min Sea Level Pressure:</td></tr>
          <tr><td>984 mb / 29.06 in Hg</td></tr>
          <tr><td>Maximum Intensity:</td></tr>
          <tr><td>75 kt / 86 mph / 139 kph</td></tr>
        </table>
      ]]></description>
      <Point><coordinates>-123.5,15.9</coordinates></Point>
    </Placemark>
    <Placemark>
      <name>0000 UTC OCT 6</name>
      <styleUrl>#cat1</styleUrl>
      <description><![CDATA[
        <table>
          <tr><td>HU OCTAVE (EP152025)</td></tr>
          <tr><td><hr></td></tr>
          <tr><td>0000 UTC OCT 6, 2025</td></tr>
          <tr><td>Storm Location:</td></tr>
          <tr><td><b>16.2 N, 123.1 W</b></td></tr>
          <tr><td>Min Sea Level Pressure:</td></tr>
          <tr><td>980 mb / 28.94 in Hg</td></tr>
          <tr><td>Maximum Intensity:</td></tr>
          <tr><td>80 kt / 92 mph / 148 kph</td></tr>
        </table>
      ]]></description>
      <Point><coordinates>-123.1,16.2</coordinates></Point>
    </Placemark>
    <Placemark>
      <name>0600 UTC OCT 6</name>
      <styleUrl>#cat1</styleUrl>
      <description><![CDATA[
        <table>
          <tr><td>HU OCTAVE (EP152025)</td></tr>
          <tr><td><hr></td></tr>
          <tr><td>0600 UTC OCT 6, 2025</td></tr>
          <tr><td>Storm Location:</td></tr>
          <tr><td><b>16.3 N, 122.5 W</b></td></tr>
          <tr><td>Min Sea Level Pressure:</td></tr>
          <tr><td>984 mb / 29.06 in Hg</td></tr>
          <tr><td>Maximum Intensity:</td></tr>
          <tr><td>75 kt / 86 mph / 139 kph</td></tr>
        </table>
      ]]></description>
      <Point><coordinates>-122.5,16.3</coordinates></Point>
    </Placemark>
    <Placemark>
      <name>1200 UTC OCT 6</name>
      <styleUrl>#ts</styleUrl>
      <description><![CDATA[
        <table>
          <tr><td>TS OCTAVE (EP152025)</td></tr>
          <tr><td><hr></td></tr>
          <tr><td>1200 UTC OCT 6, 2025</td></tr>
          <tr><td>Storm Location:</td></tr>
          <tr><td><b>16.3 N, 121.9 W</b></td></tr>
          <tr><td>Min Sea Level Pressure:</td></tr>
          <tr><td>993 mb / 29.32 in Hg</td></tr>
          <tr><td>Maximum Intensity:</td></tr>
          <tr><td>60 kt / 69 mph / 111 kph</td></tr>
        </table>
      ]]></description>
      <Point><coordinates>-121.9,16.3</coordinates></Point>
    </Placemark>
    <Placemark>
      <name>1800 UTC OCT 6</name>
      <styleUrl>#ts</styleUrl>
      <description><![CDATA[
        <table>
          <tr><td>TS OCTAVE (EP152025)</td></tr>
          <tr><td><hr></td></tr>
          <tr><td>1800 UTC OCT 6, 2025</td></tr>
          <tr><td>Storm Location:</td></tr>
          <tr><td><b>16.2 N, 121.3 W</b></td></tr>
          <tr><td>Min Sea Level Pressure:</td></tr>
          <tr><td>999 mb / 29.50 in Hg</td></tr>
          <tr><td>Maximum Intensity:</td></tr>
          <tr><td>50 kt / 58 mph / 93 kph</td></tr>
        </table>
      ]]></description>
      <Point><coordinates>-121.3,16.2</coordinates></Point>
    </Placemark>
    <Placemark>
      <name>0000 UTC OCT 7</name>
      <styleUrl>#ts</styleUrl>
      <description><![CDATA[
        <table>
          <tr><td>TS OCTAVE (EP152025)</td></tr>
          <tr><td><hr></td></tr>
          <tr><td>0000 UTC OCT 7, 2025</td></tr>
          <tr><td>Storm Location:</td></tr>
          <tr><td><b>15.9 N, 120.7 W</b></td></tr>
          <tr><td>Min Sea Level Pressure:</td></tr>
          <tr><td>1001 mb / 29.56 in Hg</td></tr>
          <tr><td>Maximum Intensity:</td></tr>
          <tr><td>45 kt / 52 mph / 83 kph</td></tr>
        </table>
      ]]></description>
      <Point><coordinates>-120.7,15.9</coordinates></Point>
    </Placemark>
    <Placemark>
      <name>0600 UTC OCT 7</name>
      <styleUrl>#ts</styleUrl>
      <description><![CDATA[
        <table>
          <tr><td>TS OCTAVE (EP152025)</td></tr>
          <tr><td><hr></td></tr>
          <tr><td>0600 UTC OCT 7, 2025</td></tr>
          <tr><td>Storm Location:</td></tr>
          <tr><td><b>15.8 N, 120.2 W</b></td></tr>
          <tr><td>Min Sea Level Pressure:</td></tr>
          <tr><td>1001 mb / 29.56 in Hg</td></tr>
          <tr><td>Maximum Intensity:</td></tr>
          <tr><td>45 kt / 52 mph / 83 kph</td></tr>
        </table>
      ]]></description>
      <Point><coordinates>-120.2,15.8</coordinates></Point>
    </Placemark>
    <Placemark>
      <name>1200 UTC OCT 7</name>
      <styleUrl>#ts</styleUrl>
      <description><![CDATA[
        <table>
          <tr><td>TS OCTAVE (EP152025)</td></tr>
          <tr><td><hr></td></tr>
          <tr><td>1200 UTC OCT 7, 2025</td></tr>
          <tr><td>Storm Location:</td></tr>
          <tr><td><b>15.7 N, 119.7 W</b></td></tr>
          <tr><td>Min Sea Level Pressure:</td></tr>
          <tr><td>1001 mb / 29.56 in Hg</td></tr>
          <tr><td>Maximum Intensity:</td></tr>
          <tr><td>45 kt / 52 mph / 83 kph</td></tr>
        </table>
      ]]></description>
      <Point><coordinates>-119.7,15.7</coordinates></Point>
    </Placemark>
    <Placemark>
      <name>1800 UTC OCT 7</name>
      <styleUrl>#ts</styleUrl>
      <description><![CDATA[
        <table>
          <tr><td>TS OCTAVE (EP152025)</td></tr>
          <tr><td><hr></td></tr>
          <tr><td>1800 UTC OCT 7, 2025</td></tr>
          <tr><td>Storm Location:</td></tr>
          <tr><td><b>15.5 N, 119.2 W</b></td></tr>
          <tr><td>Min Sea Level Pressure:</td></tr>
          <tr><td>1001 mb / 29.56 in Hg</td></tr>
          <tr><td>Maximum Intensity:</td></tr>
          <tr><td>45 kt / 52 mph / 83 kph</td></tr>
        </table>
      ]]></description>
      <Point><coordinates>-119.2,15.5</coordinates></Point>
    </Placemark>
    <Placemark>
      <name>0000 UTC OCT 8</name>
      <styleUrl>#ts</styleUrl>
      <description><![CDATA[
        <table>
          <tr><td>TS OCTAVE (EP152025)</td></tr>
          <tr><td><hr></td></tr>
          <tr><td>0000 UTC OCT 8, 2025</td></tr>
          <tr><td>Storm Location:</td></tr>
          <tr><td><b>15.3 N, 118.5 W</b></td></tr>
          <tr><td>Min Sea Level Pressure:</td></tr>
          <tr><td>1003 mb / 29.62 in Hg</td></tr>
          <tr><td>Maximum Intensity:</td></tr>
          <tr><td>40 kt / 46 mph / 74 kph</td></tr>
        </table>
      ]]></description>
      <Point><coordinates>-118.5,15.3</coordinates></Point>
    </Placemark>
    <Placemark>
      <name>0600 UTC OCT 8</name>
      <styleUrl>#ts</styleUrl>
      <description><![CDATA[
        <table>
          <tr><td>TS OCTAVE (EP152025)</td></tr>
          <tr><td><hr></td></tr>
          <tr><td>0600 UTC OCT 8, 2025</td></tr>
          <tr><td>Storm Location:</td></tr>
          <tr><td><b>15.2 N, 117.8 W</b></td></tr>
          <tr><td>Min Sea Level Pressure:</td></tr>
          <tr><td>1003 mb / 29.62 in Hg</td></tr>
          <tr><td>Maximum Intensity:</td></tr>
          <tr><td>40 kt / 46 mph / 74 kph</td></tr>
        </table>
      ]]></description>
      <Point><coordinates>-117.8,15.2</coordinates></Point>
    </Placemark>
    <Placemark>
      <name>1200 UTC OCT 8</name>
      <styleUrl>#ts</styleUrl>
      <description><![CDATA[
        <table>
          <tr><td>TS OCTAVE (EP152025)</td></tr>
          <tr><td><hr></td></tr>
          <tr><td>1200 UTC OCT 8, 2025</td></tr>
          <tr><td>Storm Location:</td></tr>
          <tr><td><b>15.2 N, 116.9 W</b></td></tr>
          <tr><td>Min Sea Level Pressure:</td></tr>
          <tr><td>1003 mb / 29.62 in Hg</td></tr>
          <tr><td>Maximum Intensity:</td></tr>
          <tr><td>40 kt / 46 mph / 74 kph</td></tr>
        </table>
      ]]></description>
      <Point><coordinates>-116.9,15.2</coordinates></Point>
    </Placemark>
    <Placemark>
      <name>1800 UTC OCT 8</name>
      <styleUrl>#ts</styleUrl>
      <description><![CDATA[
        <table>
          <tr><td>TS OCTAVE (EP152025)</td></tr>
          <tr><td><hr></td></tr>
          <tr><td>1800 UTC OCT 8, 2025</td></tr>
          <tr><td>Storm Location:</td></tr>
          <tr><td><b>15.5 N, 115.8 W</b></td></tr>
          <tr><td>Min Sea Level Pressure:</td></tr>
          <tr><td>1003 mb / 29.62 in Hg</td></tr>
          <tr><td>Maximum Intensity:</td></tr>
          <tr><td>40 kt / 46 mph / 74 kph</td></tr>
        </table>
      ]]></description>
      <Point><coordinates>-115.8,15.5</coordinates></Point>
    </Placemark>
    <Placemark>
      <name>0000 UTC OCT 9</name>
      <styleUrl>#ts</styleUrl>
      <description><![CDATA[
        <table>
          <tr><td>TS OCTAVE (EP152025)</td></tr>
          <tr><td><hr></td></tr>
          <tr><td>0000 UTC OCT 9, 2025</td></tr>
          <tr><td>Storm Location:</td></tr>
          <tr><td><b>15.9 N, 114.0 W</b></td></tr>
          <tr><td>Min Sea Level Pressure:</td></tr>
          <tr><td>1003 mb / 29.62 in Hg</td></tr>
          <tr><td>Maximum Intensity:</td></tr>
          <tr><td>40 kt / 46 mph / 74 kph</td></tr>
        </table>
      ]]></description>
      <Point><coordinates>-114,15.9</coordinates></Point>
    </Placemark>
    <Placemark>
      <name>0600 UTC OCT 9</name>
      <styleUrl>#ts</styleUrl>
      <description><![CDATA[
        <table>
          <tr><td>TS OCTAVE (EP152025)</td></tr>
          <tr><td><hr></td></tr>
          <tr><td>0600 UTC OCT 9, 2025</td></tr>
          <tr><td>Storm Location:</td></tr>
          <tr><td><b>16.6 N, 112.4 W</b></td></tr>
          <tr><td>Min Sea Level Pressure:</td></tr>
          <tr><td>1005 mb / 29.68 in Hg</td></tr>
          <tr><td>Maximum Intensity:</td></tr>
          <tr><td>35 kt / 40 mph / 65 kph</td></tr>
        </table>
      ]]></description>
      <Point><coordinates>-112.4,16.6</coordinates></Point>
    </Placemark>
    <Placemark>
      <name>1200 UTC OCT 9</name>
      <styleUrl>#lo</styleUrl>
      <description><![CDATA[
        <table>
          <tr><td>LO OCTAVE (EP152025)</td></tr>
          <tr><td><hr></td></tr>
          <tr><td>1200 UTC OCT 9, 2025</td></tr>
          <tr><td>Storm Location:</td></tr>
          <tr><td><b>17.6 N, 111.0 W</b></td></tr>
          <tr><td>Min Sea Level Pressure:</td></tr>
          <tr><td>1007 mb / 29.74 in Hg</td></tr>
          <tr><td>Maximum Intensity:</td></tr>
          <tr><td>30 kt / 35 mph / 56 kph</td></tr>
        </table>
      ]]></description>
      <Point><coordinates>-111,17.6</coordinates></Point>
    </Placemark>
    <Placemark>
      <name>1800 UTC OCT 9</name>
      <styleUrl>#lo</styleUrl>
      <description><![CDATA[
        <table>
          <tr><td>LO OCTAVE (EP152025)</td></tr>
          <tr><td><hr></td></tr>
          <tr><td>1800 UTC OCT 9, 2025</td></tr>
          <tr><td>Storm Location:</td></tr>
          <tr><td><b>18.0 N, 109.6 W</b></td></tr>
          <tr><td>Min Sea Level Pressure:</td></tr>
          <tr><td>1007 mb / 29.74 in Hg</td></tr>
          <tr><td>Maximum Intensity:</td></tr>
          <tr><td>30 kt / 35 mph / 56 kph</td></tr>
        </table>
      ]]></description>
      <Point><coordinates>-109.6,18</coordinates></Point>
    </Placemark>
  </Document>
</kml>
