<?xml version="1.0" encoding="UTF-8"?>
<kml xmlns="http://www.opengis.net/kml/2.2">
  <Document>
    <name>EP162025</name>
    <open>0</open>

    <!-- =====  Document header ===== -->
    <description><![CDATA[
      <table>
        <tr><td><b>Title:</b> Tropical Cyclone Best Track for EP162025</td></tr>
      </table>
    ]]></description>

    <!-- =====  Styles (ids must be unique)  ===== -->
	<Style id="pt"> 
		<IconStyle> 
			<scale>1.0</scale> 
			<Icon> 
				<href>ex_nhemi.png</href> 
			</Icon> 
             <hotSpot x="15" y="17" xunits="pixels" yunits="pixels"/>
		</IconStyle> 
		<LabelStyle> 
			<scale>1.0</scale> 
		</LabelStyle> 
	</Style>
	<Style id="cat5"> 
		<IconStyle> 
			<scale>1.0</scale> 
			<Icon> 
				<href>cat5_nhemi.png</href> 
			</Icon> 
             <hotSpot x="15" y="17" xunits="pixels" yunits="pixels"/>
		</IconStyle> 
		<LabelStyle> 
			<scale>1.0</scale> 
		</LabelStyle> 
	</Style>
	<Style id="db"> 
		<IconStyle> 
			<scale>1.0</scale> 
			<Icon> 
				<href>ex_nhemi.png</href> 
			</Icon> 
             <hotSpot x="15" y="17" xunits="pixels" yunits="pixels"/>
		</IconStyle> 
		<LabelStyle> 
			<scale>1.0</scale> 
		</LabelStyle> 
	</Style>
	<Style id="cat3"> 
		<IconStyle> 
			<scale>1.0</scale> 
			<Icon> 
				<href>cat3_nhemi.png</href> 
			</Icon> 
             <hotSpot x="15" y="17" xunits="pixels" yunits="pixels"/>
		</IconStyle> 
		<LabelStyle> 
			<scale>1.0</scale> 
		</LabelStyle> 
	</Style>
	<Style id="ss"> 
		<IconStyle> 
			<scale>1.0</scale> 
			<Icon> 
				<href>ts_nhemi.png</href> 
			</Icon> 
             <hotSpot x="15" y="17" xunits="pixels" yunits="pixels"/>
		</IconStyle> 
		<LabelStyle> 
			<scale>1.0</scale> 
		</LabelStyle> 
	</Style>
	<Style id="lo"> 
		<IconStyle> 
			<scale>1.0</scale> 
			<Icon> 
				<href>ex_nhemi.png</href> 
			</Icon> 
             <hotSpot x="15" y="17" xunits="pixels" yunits="pixels"/>
		</IconStyle> 
		<LabelStyle> 
			<scale>1.0</scale> 
		</LabelStyle> 
	</Style>
	<Style id="cat4"> 
		<IconStyle> 
			<scale>1.0</scale> 
			<Icon> 
				<href>cat4_nhemi.png</href> 
			</Icon> 
             <hotSpot x="15" y="17" xunits="pixels" yunits="pixels"/>
		</IconStyle> 
		<LabelStyle> 
			<scale>1.0</scale> 
		</LabelStyle> 
	</Style>
	<Style id="cat2"> 
		<IconStyle> 
			<scale>1.0</scale> 
			<Icon> 
				<href>cat2_nhemi.png</href> 
			</Icon> 
             <hotSpot x="15" y="17" xunits="pixels" yunits="pixels"/>
		</IconStyle> 
		<LabelStyle> 
			<scale>1.0</scale> 
		</LabelStyle> 
	</Style>
	<Style id="ts"> 
		<IconStyle> 
			<scale>1.0</scale> 
			<Icon> 
				<href>ts_nhemi.png</href> 
			</Icon> 
             <hotSpot x="15" y="17" xunits="pixels" yunits="pixels"/>
		</IconStyle> 
		<LabelStyle> 
			<scale>1.0</scale> 
		</LabelStyle> 
	</Style>
	<Style id="cat1"> 
		<IconStyle> 
			<scale>1.0</scale> 
			<Icon> 
				<href>cat1_nhemi.png</href> 
			</Icon> 
             <hotSpot x="15" y="17" xunits="pixels" yunits="pixels"/>
		</IconStyle> 
		<LabelStyle> 
			<scale>1.0</scale> 
		</LabelStyle> 
	</Style>
	<Style id="ex"> 
		<IconStyle> 
			<scale>1.0</scale> 
			<Icon> 
				<href>ex_nhemi.png</href> 
			</Icon> 
             <hotSpot x="15" y="17" xunits="pixels" yunits="pixels"/>
		</IconStyle> 
		<LabelStyle> 
			<scale>1.0</scale> 
		</LabelStyle> 
	</Style>
	<Style id="tc"> 
		<IconStyle> 
			<scale>1.0</scale> 
			<Icon> 
				<href>ex_nhemi.png</href> 
			</Icon> 
             <hotSpot x="15" y="17" xunits="pixels" yunits="pixels"/>
		</IconStyle> 
		<LabelStyle> 
			<scale>1.0</scale> 
		</LabelStyle> 
	</Style>
	<Style id="wv"> 
		<IconStyle> 
			<scale>1.0</scale> 
			<Icon> 
				<href>ex_nhemi.png</href> 
			</Icon> 
             <hotSpot x="15" y="17" xunits="pixels" yunits="pixels"/>
		</IconStyle> 
		<LabelStyle> 
			<scale>1.0</scale> 
		</LabelStyle> 
	</Style>
	<Style id="td"> 
		<IconStyle> 
			<scale>1.0</scale> 
			<Icon> 
				<href>td_nhemi.png</href> 
			</Icon> 
             <hotSpot x="15" y="17" xunits="pixels" yunits="pixels"/>
		</IconStyle> 
		<LabelStyle> 
			<scale>1.0</scale> 
		</LabelStyle> 
	</Style>
	<Style id="sd"> 
		<IconStyle> 
			<scale>1.0</scale> 
			<Icon> 
				<href>ex_nhemi.png</href> 
			</Icon> 
             <hotSpot x="15" y="17" xunits="pixels" yunits="pixels"/>
		</IconStyle> 
		<LabelStyle> 
			<scale>1.0</scale> 
		</LabelStyle> 
	</Style>

    <Placemark>
      <name>1200 UTC OCT 4</name>
      <styleUrl>#td</styleUrl>
      <description><![CDATA[
        <table>
          <tr><td>TD PRISCILLA (EP162025)</td></tr>
          <tr><td><hr></td></tr>
          <tr><td>1200 UTC OCT 4, 2025</td></tr>
          <tr><td>Storm Location:</td></tr>
          <tr><td><b>15.2 N, 106.3 W</b></td></tr>
          <tr><td>Min Sea Level Pressure:</td></tr>
          <tr><td>1005 mb / 29.68 in Hg</td></tr>
          <tr><td>Maximum Intensity:</td></tr>
          <tr><td>30 kt / 35 mph / 56 kph</td></tr>
        </table>
      ]]></description>
      <Point><coordinates>-106.3,15.2</coordinates></Point>
    </Placemark>
    <Placemark>
      <name>1800 UTC OCT 4</name>
      <styleUrl>#ts</styleUrl>
      <description><![CDATA[
        <table>
          <tr><td>TS PRISCILLA (EP162025)</td></tr>
          <tr><td><hr></td></tr>
          <tr><td>1800 UTC OCT 4, 2025</td></tr>
          <tr><td>Storm Location:</td></tr>
          <tr><td><b>15.4 N, 106.5 W</b></td></tr>
          <tr><td>Min Sea Level Pressure:</td></tr>
          <tr><td>1002 mb / 29.59 in Hg</td></tr>
          <tr><td>Maximum Intensity:</td></tr>
          <tr><td>40 kt / 46 mph / 74 kph</td></tr>
        </table>
      ]]></description>
      <Point><coordinates>-106.5,15.4</coordinates></Point>
    </Placemark>
    <Placemark>
      <name>0000 UTC OCT 5</name>
      <styleUrl>#ts</styleUrl>
      <description><![CDATA[
        <table>
          <tr><td>TS PRISCILLA (EP162025)</td></tr>
          <tr><td><hr></td></tr>
          <tr><td>0000 UTC OCT 5, 2025</td></tr>
          <tr><td>Storm Location:</td></tr>
          <tr><td><b>15.6 N, 106.7 W</b></td></tr>
          <tr><td>Min Sea Level Pressure:</td></tr>
          <tr><td>998 mb / 29.47 in Hg</td></tr>
          <tr><td>Maximum Intensity:</td></tr>
          <tr><td>45 kt / 52 mph / 83 kph</td></tr>
        </table>
      ]]></description>
      <Point><coordinates>-106.7,15.6</coordinates></Point>
    </Placemark>
    <Placemark>
      <name>0600 UTC OCT 5</name>
      <styleUrl>#ts</styleUrl>
      <description><![CDATA[
        <table>
          <tr><td>TS PRISCILLA (EP162025)</td></tr>
          <tr><td><hr></td></tr>
          <tr><td>0600 UTC OCT 5, 2025</td></tr>
          <tr><td>Storm Location:</td></tr>
          <tr><td><b>15.9 N, 106.8 W</b></td></tr>
          <tr><td>Min Sea Level Pressure:</td></tr>
          <tr><td>990 mb / 29.23 in Hg</td></tr>
          <tr><td>Maximum Intensity:</td></tr>
          <tr><td>55 kt / 63 mph / 102 kph</td></tr>
        </table>
      ]]></description>
      <Point><coordinates>-106.8,15.9</coordinates></Point>
    </Placemark>
    <Placemark>
      <name>1200 UTC OCT 5</name>
      <styleUrl>#ts</styleUrl>
      <description><![CDATA[
        <table>
          <tr><td>TS PRISCILLA (EP162025)</td></tr>
          <tr><td><hr></td></tr>
          <tr><td>1200 UTC OCT 5, 2025</td></tr>
          <tr><td>Storm Location:</td></tr>
          <tr><td><b>16.1 N, 106.9 W</b></td></tr>
          <tr><td>Min Sea Level Pressure:</td></tr>
          <tr><td>989 mb / 29.21 in Hg</td></tr>
          <tr><td>Maximum Intensity:</td></tr>
          <tr><td>55 kt / 63 mph / 102 kph</td></tr>
        </table>
      ]]></description>
      <Point><coordinates>-106.9,16.1</coordinates></Point>
    </Placemark>
    <Placemark>
      <name>1800 UTC OCT 5</name>
      <styleUrl>#ts</styleUrl>
      <description><![CDATA[
        <table>
          <tr><td>TS PRISCILLA (EP162025)</td></tr>
          <tr><td><hr></td></tr>
          <tr><td>1800 UTC OCT 5, 2025</td></tr>
          <tr><td>Storm Location:</td></tr>
          <tr><td><b>16.3 N, 107.0 W</b></td></tr>
          <tr><td>Min Sea Level Pressure:</td></tr>
          <tr><td>983 mb / 29.03 in Hg</td></tr>
          <tr><td>Maximum Intensity:</td></tr>
          <tr><td>60 kt / 69 mph / 111 kph</td></tr>
        </table>
      ]]></description>
      <Point><coordinates>-107,16.3</coordinates></Point>
    </Placemark>
    <Placemark>
      <name>0000 UTC OCT 6</name>
      <styleUrl>#cat1</styleUrl>
      <description><![CDATA[
        <table>
          <tr><td>HU PRISCILLA (EP162025)</td></tr>
          <tr><td><hr></td></tr>
          <tr><td>0000 UTC OCT 6, 2025</td></tr>
          <tr><td>Storm Location:</td></tr>
          <tr><td><b>16.6 N, 107.1 W</b></td></tr>
          <tr><td>Min Sea Level Pressure:</td></tr>
          <tr><td>980 mb / 28.94 in Hg</td></tr>
          <tr><td>Maximum Intensity:</td></tr>
          <tr><td>65 kt / 75 mph / 120 kph</td></tr>
        </table>
      ]]></description>
      <Point><coordinates>-107.1,16.6</coordinates></Point>
    </Placemark>
    <Placemark>
      <name>0600 UTC OCT 6</name>
      <styleUrl>#cat1</styleUrl>
      <description><![CDATA[
        <table>
          <tr><td>HU PRISCILLA (EP162025)</td></tr>
          <tr><td><hr></td></tr>
          <tr><td>0600 UTC OCT 6, 2025</td></tr>
          <tr><td>Storm Location:</td></tr>
          <tr><td><b>17.0 N, 107.2 W</b></td></tr>
          <tr><td>Min Sea Level Pressure:</td></tr>
          <tr><td>973 mb / 28.73 in Hg</td></tr>
          <tr><td>Maximum Intensity:</td></tr>
          <tr><td>75 kt / 86 mph / 139 kph</td></tr>
        </table>
      ]]></description>
      <Point><coordinates>-107.2,17</coordinates></Point>
    </Placemark>
    <Placemark>
      <name>1200 UTC OCT 6</name>
      <styleUrl>#cat1</styleUrl>
      <description><![CDATA[
        <table>
          <tr><td>HU PRISCILLA (EP162025)</td></tr>
          <tr><td><hr></td></tr>
          <tr><td>1200 UTC OCT 6, 2025</td></tr>
          <tr><td>Storm Location:</td></tr>
          <tr><td><b>17.4 N, 107.3 W</b></td></tr>
          <tr><td>Min Sea Level Pressure:</td></tr>
          <tr><td>971 mb / 28.67 in Hg</td></tr>
          <tr><td>Maximum Intensity:</td></tr>
          <tr><td>75 kt / 86 mph / 139 kph</td></tr>
        </table>
      ]]></description>
      <Point><coordinates>-107.3,17.4</coordinates></Point>
    </Placemark>
    <Placemark>
      <name>1800 UTC OCT 6</name>
      <styleUrl>#cat1</styleUrl>
      <description><![CDATA[
        <table>
          <tr><td>HU PRISCILLA (EP162025)</td></tr>
          <tr><td><hr></td></tr>
          <tr><td>1800 UTC OCT 6, 2025</td></tr>
          <tr><td>Storm Location:</td></tr>
          <tr><td><b>17.9 N, 107.6 W</b></td></tr>
          <tr><td>Min Sea Level Pressure:</td></tr>
          <tr><td>971 mb / 28.67 in Hg</td></tr>
          <tr><td>Maximum Intensity:</td></tr>
          <tr><td>75 kt / 86 mph / 139 kph</td></tr>
        </table>
      ]]></description>
      <Point><coordinates>-107.6,17.9</coordinates></Point>
    </Placemark>
    <Placemark>
      <name>0000 UTC OCT 7</name>
      <styleUrl>#cat1</styleUrl>
      <description><![CDATA[
        <table>
          <tr><td>HU PRISCILLA (EP162025)</td></tr>
          <tr><td><hr></td></tr>
          <tr><td>0000 UTC OCT 7, 2025</td></tr>
          <tr><td>Storm Location:</td></tr>
          <tr><td><b>18.6 N, 108.2 W</b></td></tr>
          <tr><td>Min Sea Level Pressure:</td></tr>
          <tr><td>971 mb / 28.67 in Hg</td></tr>
          <tr><td>Maximum Intensity:</td></tr>
          <tr><td>75 kt / 86 mph / 139 kph</td></tr>
        </table>
      ]]></description>
      <Point><coordinates>-108.2,18.6</coordinates></Point>
    </Placemark>
    <Placemark>
      <name>0600 UTC OCT 7</name>
      <styleUrl>#cat2</styleUrl>
      <description><![CDATA[
        <table>
          <tr><td>HU PRISCILLA (EP162025)</td></tr>
          <tr><td><hr></td></tr>
          <tr><td>0600 UTC OCT 7, 2025</td></tr>
          <tr><td>Storm Location:</td></tr>
          <tr><td><b>19.1 N, 109.0 W</b></td></tr>
          <tr><td>Min Sea Level Pressure:</td></tr>
          <tr><td>967 mb / 28.56 in Hg</td></tr>
          <tr><td>Maximum Intensity:</td></tr>
          <tr><td>85 kt / 98 mph / 157 kph</td></tr>
        </table>
      ]]></description>
      <Point><coordinates>-109,19.1</coordinates></Point>
    </Placemark>
    <Placemark>
      <name>1200 UTC OCT 7</name>
      <styleUrl>#cat2</styleUrl>
      <description><![CDATA[
        <table>
          <tr><td>HU PRISCILLA (EP162025)</td></tr>
          <tr><td><hr></td></tr>
          <tr><td>1200 UTC OCT 7, 2025</td></tr>
          <tr><td>Storm Location:</td></tr>
          <tr><td><b>19.5 N, 109.8 W</b></td></tr>
          <tr><td>Min Sea Level Pressure:</td></tr>
          <tr><td>959 mb / 28.32 in Hg</td></tr>
          <tr><td>Maximum Intensity:</td></tr>
          <tr><td>95 kt / 109 mph / 176 kph</td></tr>
        </table>
      ]]></description>
      <Point><coordinates>-109.8,19.5</coordinates></Point>
    </Placemark>
    <Placemark>
      <name>1800 UTC OCT 7</name>
      <styleUrl>#cat3</styleUrl>
      <description><![CDATA[
        <table>
          <tr><td>HU PRISCILLA (EP162025)</td></tr>
          <tr><td><hr></td></tr>
          <tr><td>1800 UTC OCT 7, 2025</td></tr>
          <tr><td>Storm Location:</td></tr>
          <tr><td><b>19.7 N, 110.5 W</b></td></tr>
          <tr><td>Min Sea Level Pressure:</td></tr>
          <tr><td>954 mb / 28.17 in Hg</td></tr>
          <tr><td>Maximum Intensity:</td></tr>
          <tr><td>100 kt / 115 mph / 185 kph</td></tr>
        </table>
      ]]></description>
      <Point><coordinates>-110.5,19.7</coordinates></Point>
    </Placemark>
    <Placemark>
      <name>0000 UTC OCT 8</name>
      <styleUrl>#cat2</styleUrl>
      <description><![CDATA[
        <table>
          <tr><td>HU PRISCILLA (EP162025)</td></tr>
          <tr><td><hr></td></tr>
          <tr><td>0000 UTC OCT 8, 2025</td></tr>
          <tr><td>Storm Location:</td></tr>
          <tr><td><b>20.3 N, 111.2 W</b></td></tr>
          <tr><td>Min Sea Level Pressure:</td></tr>
          <tr><td>961 mb / 28.38 in Hg</td></tr>
          <tr><td>Maximum Intensity:</td></tr>
          <tr><td>90 kt / 104 mph / 167 kph</td></tr>
        </table>
      ]]></description>
      <Point><coordinates>-111.2,20.3</coordinates></Point>
    </Placemark>
    <Placemark>
      <name>0600 UTC OCT 8</name>
      <styleUrl>#cat1</styleUrl>
      <description><![CDATA[
        <table>
          <tr><td>HU PRISCILLA (EP162025)</td></tr>
          <tr><td><hr></td></tr>
          <tr><td>0600 UTC OCT 8, 2025</td></tr>
          <tr><td>Storm Location:</td></tr>
          <tr><td><b>20.7 N, 111.7 W</b></td></tr>
          <tr><td>Min Sea Level Pressure:</td></tr>
          <tr><td>971 mb / 28.67 in Hg</td></tr>
          <tr><td>Maximum Intensity:</td></tr>
          <tr><td>80 kt / 92 mph / 148 kph</td></tr>
        </table>
      ]]></description>
      <Point><coordinates>-111.7,20.7</coordinates></Point>
    </Placemark>
    <Placemark>
      <name>1200 UTC OCT 8</name>
      <styleUrl>#cat1</styleUrl>
      <description><![CDATA[
        <table>
          <tr><td>HU PRISCILLA (EP162025)</td></tr>
          <tr><td><hr></td></tr>
          <tr><td>1200 UTC OCT 8, 2025</td></tr>
          <tr><td>Storm Location:</td></tr>
          <tr><td><b>21.1 N, 112.2 W</b></td></tr>
          <tr><td>Min Sea Level Pressure:</td></tr>
          <tr><td>979 mb / 28.91 in Hg</td></tr>
          <tr><td>Maximum Intensity:</td></tr>
          <tr><td>70 kt / 81 mph / 130 kph</td></tr>
        </table>
      ]]></description>
      <Point><coordinates>-112.2,21.1</coordinates></Point>
    </Placemark>
    <Placemark>
      <name>1800 UTC OCT 8</name>
      <styleUrl>#ts</styleUrl>
      <description><![CDATA[
        <table>
          <tr><td>TS PRISCILLA (EP162025)</td></tr>
          <tr><td><hr></td></tr>
          <tr><td>1800 UTC OCT 8, 2025</td></tr>
          <tr><td>Storm Location:</td></tr>
          <tr><td><b>21.7 N, 112.7 W</b></td></tr>
          <tr><td>Min Sea Level Pressure:</td></tr>
          <tr><td>985 mb / 29.09 in Hg</td></tr>
          <tr><td>Maximum Intensity:</td></tr>
          <tr><td>60 kt / 69 mph / 111 kph</td></tr>
        </table>
      ]]></description>
      <Point><coordinates>-112.7,21.7</coordinates></Point>
    </Placemark>
    <Placemark>
      <name>0000 UTC OCT 9</name>
      <styleUrl>#ts</styleUrl>
      <description><![CDATA[
        <table>
          <tr><td>TS PRISCILLA (EP162025)</td></tr>
          <tr><td><hr></td></tr>
          <tr><td>0000 UTC OCT 9, 2025</td></tr>
          <tr><td>Storm Location:</td></tr>
          <tr><td><b>22.3 N, 113.3 W</b></td></tr>
          <tr><td>Min Sea Level Pressure:</td></tr>
          <tr><td>987 mb / 29.15 in Hg</td></tr>
          <tr><td>Maximum Intensity:</td></tr>
          <tr><td>55 kt / 63 mph / 102 kph</td></tr>
        </table>
      ]]></description>
      <Point><coordinates>-113.3,22.3</coordinates></Point>
    </Placemark>
    <Placemark>
      <name>0600 UTC OCT 9</name>
      <styleUrl>#ts</styleUrl>
      <description><![CDATA[
        <table>
          <tr><td>TS PRISCILLA (EP162025)</td></tr>
          <tr><td><hr></td></tr>
          <tr><td>0600 UTC OCT 9, 2025</td></tr>
          <tr><td>Storm Location:</td></tr>
          <tr><td><b>23.0 N, 113.9 W</b></td></tr>
          <tr><td>Min Sea Level Pressure:</td></tr>
          <tr><td>991 mb / 29.26 in Hg</td></tr>
          <tr><td>Maximum Intensity:</td></tr>
          <tr><td>50 kt / 58 mph / 93 kph</td></tr>
        </table>
      ]]></description>
      <Point><coordinates>-113.9,23</coordinates></Point>
    </Placemark>
    <Placemark>
      <name>1200 UTC OCT 9</name>
      <styleUrl>#ts</styleUrl>
      <description><![CDATA[
        <table>
          <tr><td>TS PRISCILLA (EP162025)</td></tr>
          <tr><td><hr></td></tr>
          <tr><td>1200 UTC OCT 9, 2025</td></tr>
          <tr><td>Storm Location:</td></tr>
          <tr><td><b>23.6 N, 114.5 W</b></td></tr>
          <tr><td>Min Sea Level Pressure:</td></tr>
          <tr><td>996 mb / 29.41 in Hg</td></tr>
          <tr><td>Maximum Intensity:</td></tr>
          <tr><td>45 kt / 52 mph / 83 kph</td></tr>
        </table>
      ]]></description>
      <Point><coordinates>-114.5,23.6</coordinates></Point>
    </Placemark>
    <Placemark>
      <name>1800 UTC OCT 9</name>
      <styleUrl>#ts</styleUrl>
      <description><![CDATA[
        <table>
          <tr><td>TS PRISCILLA (EP162025)</td></tr>
          <tr><td><hr></td></tr>
          <tr><td>1800 UTC OCT 9, 2025</td></tr>
          <tr><td>Storm Location:</td></tr>
          <tr><td><b>24.1 N, 114.9 W</b></td></tr>
          <tr><td>Min Sea Level Pressure:</td></tr>
          <tr><td>996 mb / 29.41 in Hg</td></tr>
          <tr><td>Maximum Intensity:</td></tr>
          <tr><td>45 kt / 52 mph / 83 kph</td></tr>
        </table>
      ]]></description>
      <Point><coordinates>-114.9,24.1</coordinates></Point>
    </Placemark>
    <Placemark>
      <name>0000 UTC OCT 10</name>
      <styleUrl>#ts</styleUrl>
      <description><![CDATA[
        <table>
          <tr><td>TS PRISCILLA (EP162025)</td></tr>
          <tr><td><hr></td></tr>
          <tr><td>0000 UTC OCT 10, 2025</td></tr>
          <tr><td>Storm Location:</td></tr>
          <tr><td><b>24.7 N, 115.1 W</b></td></tr>
          <tr><td>Min Sea Level Pressure:</td></tr>
          <tr><td>997 mb / 29.44 in Hg</td></tr>
          <tr><td>Maximum Intensity:</td></tr>
          <tr><td>45 kt / 52 mph / 83 kph</td></tr>
        </table>
      ]]></description>
      <Point><coordinates>-115.1,24.7</coordinates></Point>
    </Placemark>
    <Placemark>
      <name>0600 UTC OCT 10</name>
      <styleUrl>#ts</styleUrl>
      <description><![CDATA[
        <table>
          <tr><td>TS PRISCILLA (EP162025)</td></tr>
          <tr><td><hr></td></tr>
          <tr><td>0600 UTC OCT 10, 2025</td></tr>
          <tr><td>Storm Location:</td></tr>
          <tr><td><b>25.2 N, 115.2 W</b></td></tr>
          <tr><td>Min Sea Level Pressure:</td></tr>
          <tr><td>999 mb / 29.50 in Hg</td></tr>
          <tr><td>Maximum Intensity:</td></tr>
          <tr><td>45 kt / 52 mph / 83 kph</td></tr>
        </table>
      ]]></description>
      <Point><coordinates>-115.2,25.2</coordinates></Point>
    </Placemark>
    <Placemark>
      <name>1200 UTC OCT 10</name>
      <styleUrl>#ts</styleUrl>
      <description><![CDATA[
        <table>
          <tr><td>TS PRISCILLA (EP162025)</td></tr>
          <tr><td><hr></td></tr>
          <tr><td>1200 UTC OCT 10, 2025</td></tr>
          <tr><td>Storm Location:</td></tr>
          <tr><td><b>25.7 N, 115.2 W</b></td></tr>
          <tr><td>Min Sea Level Pressure:</td></tr>
          <tr><td>1000 mb / 29.53 in Hg</td></tr>
          <tr><td>Maximum Intensity:</td></tr>
          <tr><td>40 kt / 46 mph / 74 kph</td></tr>
        </table>
      ]]></description>
      <Point><coordinates>-115.2,25.7</coordinates></Point>
    </Placemark>
    <Placemark>
      <name>1800 UTC OCT 10</name>
      <styleUrl>#td</styleUrl>
      <description><![CDATA[
        <table>
          <tr><td>TD PRISCILLA (EP162025)</td></tr>
          <tr><td><hr></td></tr>
          <tr><td>1800 UTC OCT 10, 2025</td></tr>
          <tr><td>Storm Location:</td></tr>
          <tr><td><b>26.1 N, 115.4 W</b></td></tr>
          <tr><td>Min Sea Level Pressure:</td></tr>
          <tr><td>1002 mb / 29.59 in Hg</td></tr>
          <tr><td>Maximum Intensity:</td></tr>
          <tr><td>30 kt / 35 mph / 56 kph</td></tr>
        </table>
      ]]></description>
      <Point><coordinates>-115.4,26.1</coordinates></Point>
    </Placemark>
    <Placemark>
      <name>0000 UTC OCT 11</name>
      <styleUrl>#lo</styleUrl>
      <description><![CDATA[
        <table>
          <tr><td>LO PRISCILLA (EP162025)</td></tr>
          <tr><td><hr></td></tr>
          <tr><td>0000 UTC OCT 11, 2025</td></tr>
          <tr><td>Storm Location:</td></tr>
          <tr><td><b>26.1 N, 115.3 W</b></td></tr>
          <tr><td>Min Sea Level Pressure:</td></tr>
          <tr><td>1004 mb / 29.65 in Hg</td></tr>
          <tr><td>Maximum Intensity:</td></tr>
          <tr><td>30 kt / 35 mph / 56 kph</td></tr>
        </table>
      ]]></description>
      <Point><coordinates>-115.3,26.1</coordinates></Point>
    </Placemark>
    <Placemark>
      <name>0600 UTC OCT 11</name>
      <styleUrl>#lo</styleUrl>
      <description><![CDATA[
        <table>
          <tr><td>LO PRISCILLA (EP162025)</td></tr>
          <tr><td><hr></td></tr>
          <tr><td>0600 UTC OCT 11, 2025</td></tr>
          <tr><td>Storm Location:</td></tr>
          <tr><td><b>26.1 N, 114.9 W</b></td></tr>
          <tr><td>Min Sea Level Pressure:</td></tr>
          <tr><td>1007 mb / 29.74 in Hg</td></tr>
          <tr><td>Maximum Intensity:</td></tr>
          <tr><td>25 kt / 29 mph / 46 kph</td></tr>
        </table>
      ]]></description>
      <Point><coordinates>-114.9,26.1</coordinates></Point>
    </Placemark>
    <Placemark>
      <name>1200 UTC OCT 11</name>
      <styleUrl>#lo</styleUrl>
      <description><![CDATA[
        <table>
          <tr><td>LO PRISCILLA (EP162025)</td></tr>
          <tr><td><hr></td></tr>
          <tr><td>1200 UTC OCT 11, 2025</td></tr>
          <tr><td>Storm Location:</td></tr>
          <tr><td><b>26.2 N, 114.7 W</b></td></tr>
          <tr><td>Min Sea Level Pressure:</td></tr>
          <tr><td>1007 mb / 29.74 in Hg</td></tr>
          <tr><td>Maximum Intensity:</td></tr>
          <tr><td>25 kt / 29 mph / 46 kph</td></tr>
        </table>
      ]]></description>
      <Point><coordinates>-114.7,26.2</coordinates></Point>
    </Placemark>
    <Placemark>
      <name>1800 UTC OCT 11</name>
      <styleUrl>#lo</styleUrl>
      <description><![CDATA[
        <table>
          <tr><td>LO PRISCILLA (EP162025)</td></tr>
          <tr><td><hr></td></tr>
          <tr><td>1800 UTC OCT 11, 2025</td></tr>
          <tr><td>Storm Location:</td></tr>
          <tr><td><b>26.3 N, 114.5 W</b></td></tr>
          <tr><td>Min Sea Level Pressure:</td></tr>
          <tr><td>1007 mb / 29.74 in Hg</td></tr>
          <tr><td>Maximum Intensity:</td></tr>
          <tr><td>20 kt / 23 mph / 37 kph</td></tr>
        </table>
      ]]></description>
      <Point><coordinates>-114.5,26.3</coordinates></Point>
    </Placemark>
    <Placemark>
      <name>0000 UTC OCT 12</name>
      <styleUrl>#lo</styleUrl>
      <description><![CDATA[
        <table>
          <tr><td>LO PRISCILLA (EP162025)</td></tr>
          <tr><td><hr></td></tr>
          <tr><td>0000 UTC OCT 12, 2025</td></tr>
          <tr><td>Storm Location:</td></tr>
          <tr><td><b>26.5 N, 114.2 W</b></td></tr>
          <tr><td>Min Sea Level Pressure:</td></tr>
          <tr><td>1007 mb / 29.74 in Hg</td></tr>
          <tr><td>Maximum Intensity:</td></tr>
          <tr><td>20 kt / 23 mph / 37 kph</td></tr>
        </table>
      ]]></description>
      <Point><coordinates>-114.2,26.5</coordinates></Point>
    </Placemark>
  </Document>
</kml>
