<?xml version="1.0" encoding="UTF-8"?>
<kml xmlns="http://www.opengis.net/kml/2.2">
  <Document>
    <name>EP172025</name>
    <open>0</open>

    <!-- =====  Document header ===== -->
    <description><![CDATA[
      <table>
        <tr><td><b>Title:</b> Tropical Cyclone Best Track for EP172025</td></tr>
      </table>
    ]]></description>

    <!-- =====  Styles (ids must be unique)  ===== -->
	<Style id="pt"> 
		<IconStyle> 
			<scale>1.0</scale> 
			<Icon> 
				<href>ex_nhemi.png</href> 
			</Icon> 
             <hotSpot x="15" y="17" xunits="pixels" yunits="pixels"/>
		</IconStyle> 
		<LabelStyle> 
			<scale>1.0</scale> 
		</LabelStyle> 
	</Style>
	<Style id="cat5"> 
		<IconStyle> 
			<scale>1.0</scale> 
			<Icon> 
				<href>cat5_nhemi.png</href> 
			</Icon> 
             <hotSpot x="15" y="17" xunits="pixels" yunits="pixels"/>
		</IconStyle> 
		<LabelStyle> 
			<scale>1.0</scale> 
		</LabelStyle> 
	</Style>
	<Style id="db"> 
		<IconStyle> 
			<scale>1.0</scale> 
			<Icon> 
				<href>ex_nhemi.png</href> 
			</Icon> 
             <hotSpot x="15" y="17" xunits="pixels" yunits="pixels"/>
		</IconStyle> 
		<LabelStyle> 
			<scale>1.0</scale> 
		</LabelStyle> 
	</Style>
	<Style id="cat3"> 
		<IconStyle> 
			<scale>1.0</scale> 
			<Icon> 
				<href>cat3_nhemi.png</href> 
			</Icon> 
             <hotSpot x="15" y="17" xunits="pixels" yunits="pixels"/>
		</IconStyle> 
		<LabelStyle> 
			<scale>1.0</scale> 
		</LabelStyle> 
	</Style>
	<Style id="ss"> 
		<IconStyle> 
			<scale>1.0</scale> 
			<Icon> 
				<href>ts_nhemi.png</href> 
			</Icon> 
             <hotSpot x="15" y="17" xunits="pixels" yunits="pixels"/>
		</IconStyle> 
		<LabelStyle> 
			<scale>1.0</scale> 
		</LabelStyle> 
	</Style>
	<Style id="lo"> 
		<IconStyle> 
			<scale>1.0</scale> 
			<Icon> 
				<href>ex_nhemi.png</href> 
			</Icon> 
             <hotSpot x="15" y="17" xunits="pixels" yunits="pixels"/>
		</IconStyle> 
		<LabelStyle> 
			<scale>1.0</scale> 
		</LabelStyle> 
	</Style>
	<Style id="cat4"> 
		<IconStyle> 
			<scale>1.0</scale> 
			<Icon> 
				<href>cat4_nhemi.png</href> 
			</Icon> 
             <hotSpot x="15" y="17" xunits="pixels" yunits="pixels"/>
		</IconStyle> 
		<LabelStyle> 
			<scale>1.0</scale> 
		</LabelStyle> 
	</Style>
	<Style id="cat2"> 
		<IconStyle> 
			<scale>1.0</scale> 
			<Icon> 
				<href>cat2_nhemi.png</href> 
			</Icon> 
             <hotSpot x="15" y="17" xunits="pixels" yunits="pixels"/>
		</IconStyle> 
		<LabelStyle> 
			<scale>1.0</scale> 
		</LabelStyle> 
	</Style>
	<Style id="ts"> 
		<IconStyle> 
			<scale>1.0</scale> 
			<Icon> 
				<href>ts_nhemi.png</href> 
			</Icon> 
             <hotSpot x="15" y="17" xunits="pixels" yunits="pixels"/>
		</IconStyle> 
		<LabelStyle> 
			<scale>1.0</scale> 
		</LabelStyle> 
	</Style>
	<Style id="cat1"> 
		<IconStyle> 
			<scale>1.0</scale> 
			<Icon> 
				<href>cat1_nhemi.png</href> 
			</Icon> 
             <hotSpot x="15" y="17" xunits="pixels" yunits="pixels"/>
		</IconStyle> 
		<LabelStyle> 
			<scale>1.0</scale> 
		</LabelStyle> 
	</Style>
	<Style id="ex"> 
		<IconStyle> 
			<scale>1.0</scale> 
			<Icon> 
				<href>ex_nhemi.png</href> 
			</Icon> 
             <hotSpot x="15" y="17" xunits="pixels" yunits="pixels"/>
		</IconStyle> 
		<LabelStyle> 
			<scale>1.0</scale> 
		</LabelStyle> 
	</Style>
	<Style id="tc"> 
		<IconStyle> 
			<scale>1.0</scale> 
			<Icon> 
				<href>ex_nhemi.png</href> 
			</Icon> 
             <hotSpot x="15" y="17" xunits="pixels" yunits="pixels"/>
		</IconStyle> 
		<LabelStyle> 
			<scale>1.0</scale> 
		</LabelStyle> 
	</Style>
	<Style id="wv"> 
		<IconStyle> 
			<scale>1.0</scale> 
			<Icon> 
				<href>ex_nhemi.png</href> 
			</Icon> 
             <hotSpot x="15" y="17" xunits="pixels" yunits="pixels"/>
		</IconStyle> 
		<LabelStyle> 
			<scale>1.0</scale> 
		</LabelStyle> 
	</Style>
	<Style id="td"> 
		<IconStyle> 
			<scale>1.0</scale> 
			<Icon> 
				<href>td_nhemi.png</href> 
			</Icon> 
             <hotSpot x="15" y="17" xunits="pixels" yunits="pixels"/>
		</IconStyle> 
		<LabelStyle> 
			<scale>1.0</scale> 
		</LabelStyle> 
	</Style>
	<Style id="sd"> 
		<IconStyle> 
			<scale>1.0</scale> 
			<Icon> 
				<href>ex_nhemi.png</href> 
			</Icon> 
             <hotSpot x="15" y="17" xunits="pixels" yunits="pixels"/>
		</IconStyle> 
		<LabelStyle> 
			<scale>1.0</scale> 
		</LabelStyle> 
	</Style>

    <Placemark>
      <name>0600 UTC OCT 9</name>
      <styleUrl>#td</styleUrl>
      <description><![CDATA[
        <table>
          <tr><td>TD RAYMOND (EP172025)</td></tr>
          <tr><td><hr></td></tr>
          <tr><td>0600 UTC OCT 9, 2025</td></tr>
          <tr><td>Storm Location:</td></tr>
          <tr><td><b>15.9 N, 99.0 W</b></td></tr>
          <tr><td>Min Sea Level Pressure:</td></tr>
          <tr><td>1004 mb / 29.65 in Hg</td></tr>
          <tr><td>Maximum Intensity:</td></tr>
          <tr><td>30 kt / 35 mph / 56 kph</td></tr>
        </table>
      ]]></description>
      <Point><coordinates>-99,15.9</coordinates></Point>
    </Placemark>
    <Placemark>
      <name>1200 UTC OCT 9</name>
      <styleUrl>#ts</styleUrl>
      <description><![CDATA[
        <table>
          <tr><td>TS RAYMOND (EP172025)</td></tr>
          <tr><td><hr></td></tr>
          <tr><td>1200 UTC OCT 9, 2025</td></tr>
          <tr><td>Storm Location:</td></tr>
          <tr><td><b>15.9 N, 99.9 W</b></td></tr>
          <tr><td>Min Sea Level Pressure:</td></tr>
          <tr><td>1003 mb / 29.62 in Hg</td></tr>
          <tr><td>Maximum Intensity:</td></tr>
          <tr><td>35 kt / 40 mph / 65 kph</td></tr>
        </table>
      ]]></description>
      <Point><coordinates>-99.9,15.9</coordinates></Point>
    </Placemark>
    <Placemark>
      <name>1800 UTC OCT 9</name>
      <styleUrl>#ts</styleUrl>
      <description><![CDATA[
        <table>
          <tr><td>TS RAYMOND (EP172025)</td></tr>
          <tr><td><hr></td></tr>
          <tr><td>1800 UTC OCT 9, 2025</td></tr>
          <tr><td>Storm Location:</td></tr>
          <tr><td><b>16.0 N, 100.9 W</b></td></tr>
          <tr><td>Min Sea Level Pressure:</td></tr>
          <tr><td>1002 mb / 29.59 in Hg</td></tr>
          <tr><td>Maximum Intensity:</td></tr>
          <tr><td>40 kt / 46 mph / 74 kph</td></tr>
        </table>
      ]]></description>
      <Point><coordinates>-100.9,16</coordinates></Point>
    </Placemark>
    <Placemark>
      <name>0000 UTC OCT 10</name>
      <styleUrl>#ts</styleUrl>
      <description><![CDATA[
        <table>
          <tr><td>TS RAYMOND (EP172025)</td></tr>
          <tr><td><hr></td></tr>
          <tr><td>0000 UTC OCT 10, 2025</td></tr>
          <tr><td>Storm Location:</td></tr>
          <tr><td><b>16.4 N, 101.8 W</b></td></tr>
          <tr><td>Min Sea Level Pressure:</td></tr>
          <tr><td>1000 mb / 29.53 in Hg</td></tr>
          <tr><td>Maximum Intensity:</td></tr>
          <tr><td>45 kt / 52 mph / 83 kph</td></tr>
        </table>
      ]]></description>
      <Point><coordinates>-101.8,16.4</coordinates></Point>
    </Placemark>
    <Placemark>
      <name>0600 UTC OCT 10</name>
      <styleUrl>#ts</styleUrl>
      <description><![CDATA[
        <table>
          <tr><td>TS RAYMOND (EP172025)</td></tr>
          <tr><td><hr></td></tr>
          <tr><td>0600 UTC OCT 10, 2025</td></tr>
          <tr><td>Storm Location:</td></tr>
          <tr><td><b>17.0 N, 102.9 W</b></td></tr>
          <tr><td>Min Sea Level Pressure:</td></tr>
          <tr><td>998 mb / 29.47 in Hg</td></tr>
          <tr><td>Maximum Intensity:</td></tr>
          <tr><td>50 kt / 58 mph / 93 kph</td></tr>
        </table>
      ]]></description>
      <Point><coordinates>-102.9,17</coordinates></Point>
    </Placemark>
    <Placemark>
      <name>1200 UTC OCT 10</name>
      <styleUrl>#ts</styleUrl>
      <description><![CDATA[
        <table>
          <tr><td>TS RAYMOND (EP172025)</td></tr>
          <tr><td><hr></td></tr>
          <tr><td>1200 UTC OCT 10, 2025</td></tr>
          <tr><td>Storm Location:</td></tr>
          <tr><td><b>17.8 N, 104.4 W</b></td></tr>
          <tr><td>Min Sea Level Pressure:</td></tr>
          <tr><td>998 mb / 29.47 in Hg</td></tr>
          <tr><td>Maximum Intensity:</td></tr>
          <tr><td>50 kt / 58 mph / 93 kph</td></tr>
        </table>
      ]]></description>
      <Point><coordinates>-104.4,17.8</coordinates></Point>
    </Placemark>
    <Placemark>
      <name>1800 UTC OCT 10</name>
      <styleUrl>#ts</styleUrl>
      <description><![CDATA[
        <table>
          <tr><td>TS RAYMOND (EP172025)</td></tr>
          <tr><td><hr></td></tr>
          <tr><td>1800 UTC OCT 10, 2025</td></tr>
          <tr><td>Storm Location:</td></tr>
          <tr><td><b>18.6 N, 105.9 W</b></td></tr>
          <tr><td>Min Sea Level Pressure:</td></tr>
          <tr><td>1000 mb / 29.53 in Hg</td></tr>
          <tr><td>Maximum Intensity:</td></tr>
          <tr><td>45 kt / 52 mph / 83 kph</td></tr>
        </table>
      ]]></description>
      <Point><coordinates>-105.9,18.6</coordinates></Point>
    </Placemark>
    <Placemark>
      <name>0000 UTC OCT 11</name>
      <styleUrl>#ts</styleUrl>
      <description><![CDATA[
        <table>
          <tr><td>TS RAYMOND (EP172025)</td></tr>
          <tr><td><hr></td></tr>
          <tr><td>0000 UTC OCT 11, 2025</td></tr>
          <tr><td>Storm Location:</td></tr>
          <tr><td><b>19.6 N, 107.2 W</b></td></tr>
          <tr><td>Min Sea Level Pressure:</td></tr>
          <tr><td>1000 mb / 29.53 in Hg</td></tr>
          <tr><td>Maximum Intensity:</td></tr>
          <tr><td>45 kt / 52 mph / 83 kph</td></tr>
        </table>
      ]]></description>
      <Point><coordinates>-107.2,19.6</coordinates></Point>
    </Placemark>
    <Placemark>
      <name>0600 UTC OCT 11</name>
      <styleUrl>#ts</styleUrl>
      <description><![CDATA[
        <table>
          <tr><td>TS RAYMOND (EP172025)</td></tr>
          <tr><td><hr></td></tr>
          <tr><td>0600 UTC OCT 11, 2025</td></tr>
          <tr><td>Storm Location:</td></tr>
          <tr><td><b>20.4 N, 108.2 W</b></td></tr>
          <tr><td>Min Sea Level Pressure:</td></tr>
          <tr><td>1002 mb / 29.59 in Hg</td></tr>
          <tr><td>Maximum Intensity:</td></tr>
          <tr><td>40 kt / 46 mph / 74 kph</td></tr>
        </table>
      ]]></description>
      <Point><coordinates>-108.2,20.4</coordinates></Point>
    </Placemark>
    <Placemark>
      <name>1200 UTC OCT 11</name>
      <styleUrl>#ts</styleUrl>
      <description><![CDATA[
        <table>
          <tr><td>TS RAYMOND (EP172025)</td></tr>
          <tr><td><hr></td></tr>
          <tr><td>1200 UTC OCT 11, 2025</td></tr>
          <tr><td>Storm Location:</td></tr>
          <tr><td><b>21.1 N, 109.0 W</b></td></tr>
          <tr><td>Min Sea Level Pressure:</td></tr>
          <tr><td>1003 mb / 29.62 in Hg</td></tr>
          <tr><td>Maximum Intensity:</td></tr>
          <tr><td>35 kt / 40 mph / 65 kph</td></tr>
        </table>
      ]]></description>
      <Point><coordinates>-109,21.1</coordinates></Point>
    </Placemark>
    <Placemark>
      <name>1800 UTC OCT 11</name>
      <styleUrl>#lo</styleUrl>
      <description><![CDATA[
        <table>
          <tr><td>LO RAYMOND (EP172025)</td></tr>
          <tr><td><hr></td></tr>
          <tr><td>1800 UTC OCT 11, 2025</td></tr>
          <tr><td>Storm Location:</td></tr>
          <tr><td><b>21.8 N, 109.6 W</b></td></tr>
          <tr><td>Min Sea Level Pressure:</td></tr>
          <tr><td>1004 mb / 29.65 in Hg</td></tr>
          <tr><td>Maximum Intensity:</td></tr>
          <tr><td>30 kt / 35 mph / 56 kph</td></tr>
        </table>
      ]]></description>
      <Point><coordinates>-109.6,21.8</coordinates></Point>
    </Placemark>
    <Placemark>
      <name>0000 UTC OCT 12</name>
      <styleUrl>#lo</styleUrl>
      <description><![CDATA[
        <table>
          <tr><td>LO RAYMOND (EP172025)</td></tr>
          <tr><td><hr></td></tr>
          <tr><td>0000 UTC OCT 12, 2025</td></tr>
          <tr><td>Storm Location:</td></tr>
          <tr><td><b>22.6 N, 110.0 W</b></td></tr>
          <tr><td>Min Sea Level Pressure:</td></tr>
          <tr><td>1004 mb / 29.65 in Hg</td></tr>
          <tr><td>Maximum Intensity:</td></tr>
          <tr><td>30 kt / 35 mph / 56 kph</td></tr>
        </table>
      ]]></description>
      <Point><coordinates>-110,22.6</coordinates></Point>
    </Placemark>
    <Placemark>
      <name>0600 UTC OCT 12</name>
      <styleUrl>#lo</styleUrl>
      <description><![CDATA[
        <table>
          <tr><td>LO RAYMOND (EP172025)</td></tr>
          <tr><td><hr></td></tr>
          <tr><td>0600 UTC OCT 12, 2025</td></tr>
          <tr><td>Storm Location:</td></tr>
          <tr><td><b>23.5 N, 110.0 W</b></td></tr>
          <tr><td>Min Sea Level Pressure:</td></tr>
          <tr><td>1006 mb / 29.71 in Hg</td></tr>
          <tr><td>Maximum Intensity:</td></tr>
          <tr><td>25 kt / 29 mph / 46 kph</td></tr>
        </table>
      ]]></description>
      <Point><coordinates>-110,23.5</coordinates></Point>
    </Placemark>
    <Placemark>
      <name>1200 UTC OCT 12</name>
      <styleUrl>#lo</styleUrl>
      <description><![CDATA[
        <table>
          <tr><td>LO RAYMOND (EP172025)</td></tr>
          <tr><td><hr></td></tr>
          <tr><td>1200 UTC OCT 12, 2025</td></tr>
          <tr><td>Storm Location:</td></tr>
          <tr><td><b>24.5 N, 109.7 W</b></td></tr>
          <tr><td>Min Sea Level Pressure:</td></tr>
          <tr><td>1006 mb / 29.71 in Hg</td></tr>
          <tr><td>Maximum Intensity:</td></tr>
          <tr><td>25 kt / 29 mph / 46 kph</td></tr>
        </table>
      ]]></description>
      <Point><coordinates>-109.7,24.5</coordinates></Point>
    </Placemark>
  </Document>
</kml>
