<?xml version="1.0" encoding="UTF-8"?>
<kml xmlns="http://www.opengis.net/kml/2.2">
  <Document>
    <name>EP182025</name>
    <open>0</open>

    <!-- =====  Document header ===== -->
    <description><![CDATA[
      <table>
        <tr><td><b>Title:</b> Tropical Cyclone Best Track for EP182025</td></tr>
      </table>
    ]]></description>

    <!-- =====  Styles (ids must be unique)  ===== -->
	<Style id="pt"> 
		<IconStyle> 
			<scale>1.0</scale> 
			<Icon> 
				<href>ex_nhemi.png</href> 
			</Icon> 
             <hotSpot x="15" y="17" xunits="pixels" yunits="pixels"/>
		</IconStyle> 
		<LabelStyle> 
			<scale>1.0</scale> 
		</LabelStyle> 
	</Style>
	<Style id="cat5"> 
		<IconStyle> 
			<scale>1.0</scale> 
			<Icon> 
				<href>cat5_nhemi.png</href> 
			</Icon> 
             <hotSpot x="15" y="17" xunits="pixels" yunits="pixels"/>
		</IconStyle> 
		<LabelStyle> 
			<scale>1.0</scale> 
		</LabelStyle> 
	</Style>
	<Style id="db"> 
		<IconStyle> 
			<scale>1.0</scale> 
			<Icon> 
				<href>ex_nhemi.png</href> 
			</Icon> 
             <hotSpot x="15" y="17" xunits="pixels" yunits="pixels"/>
		</IconStyle> 
		<LabelStyle> 
			<scale>1.0</scale> 
		</LabelStyle> 
	</Style>
	<Style id="cat3"> 
		<IconStyle> 
			<scale>1.0</scale> 
			<Icon> 
				<href>cat3_nhemi.png</href> 
			</Icon> 
             <hotSpot x="15" y="17" xunits="pixels" yunits="pixels"/>
		</IconStyle> 
		<LabelStyle> 
			<scale>1.0</scale> 
		</LabelStyle> 
	</Style>
	<Style id="ss"> 
		<IconStyle> 
			<scale>1.0</scale> 
			<Icon> 
				<href>ts_nhemi.png</href> 
			</Icon> 
             <hotSpot x="15" y="17" xunits="pixels" yunits="pixels"/>
		</IconStyle> 
		<LabelStyle> 
			<scale>1.0</scale> 
		</LabelStyle> 
	</Style>
	<Style id="lo"> 
		<IconStyle> 
			<scale>1.0</scale> 
			<Icon> 
				<href>ex_nhemi.png</href> 
			</Icon> 
             <hotSpot x="15" y="17" xunits="pixels" yunits="pixels"/>
		</IconStyle> 
		<LabelStyle> 
			<scale>1.0</scale> 
		</LabelStyle> 
	</Style>
	<Style id="cat4"> 
		<IconStyle> 
			<scale>1.0</scale> 
			<Icon> 
				<href>cat4_nhemi.png</href> 
			</Icon> 
             <hotSpot x="15" y="17" xunits="pixels" yunits="pixels"/>
		</IconStyle> 
		<LabelStyle> 
			<scale>1.0</scale> 
		</LabelStyle> 
	</Style>
	<Style id="cat2"> 
		<IconStyle> 
			<scale>1.0</scale> 
			<Icon> 
				<href>cat2_nhemi.png</href> 
			</Icon> 
             <hotSpot x="15" y="17" xunits="pixels" yunits="pixels"/>
		</IconStyle> 
		<LabelStyle> 
			<scale>1.0</scale> 
		</LabelStyle> 
	</Style>
	<Style id="ts"> 
		<IconStyle> 
			<scale>1.0</scale> 
			<Icon> 
				<href>ts_nhemi.png</href> 
			</Icon> 
             <hotSpot x="15" y="17" xunits="pixels" yunits="pixels"/>
		</IconStyle> 
		<LabelStyle> 
			<scale>1.0</scale> 
		</LabelStyle> 
	</Style>
	<Style id="cat1"> 
		<IconStyle> 
			<scale>1.0</scale> 
			<Icon> 
				<href>cat1_nhemi.png</href> 
			</Icon> 
             <hotSpot x="15" y="17" xunits="pixels" yunits="pixels"/>
		</IconStyle> 
		<LabelStyle> 
			<scale>1.0</scale> 
		</LabelStyle> 
	</Style>
	<Style id="ex"> 
		<IconStyle> 
			<scale>1.0</scale> 
			<Icon> 
				<href>ex_nhemi.png</href> 
			</Icon> 
             <hotSpot x="15" y="17" xunits="pixels" yunits="pixels"/>
		</IconStyle> 
		<LabelStyle> 
			<scale>1.0</scale> 
		</LabelStyle> 
	</Style>
	<Style id="tc"> 
		<IconStyle> 
			<scale>1.0</scale> 
			<Icon> 
				<href>ex_nhemi.png</href> 
			</Icon> 
             <hotSpot x="15" y="17" xunits="pixels" yunits="pixels"/>
		</IconStyle> 
		<LabelStyle> 
			<scale>1.0</scale> 
		</LabelStyle> 
	</Style>
	<Style id="wv"> 
		<IconStyle> 
			<scale>1.0</scale> 
			<Icon> 
				<href>ex_nhemi.png</href> 
			</Icon> 
             <hotSpot x="15" y="17" xunits="pixels" yunits="pixels"/>
		</IconStyle> 
		<LabelStyle> 
			<scale>1.0</scale> 
		</LabelStyle> 
	</Style>
	<Style id="td"> 
		<IconStyle> 
			<scale>1.0</scale> 
			<Icon> 
				<href>td_nhemi.png</href> 
			</Icon> 
             <hotSpot x="15" y="17" xunits="pixels" yunits="pixels"/>
		</IconStyle> 
		<LabelStyle> 
			<scale>1.0</scale> 
		</LabelStyle> 
	</Style>
	<Style id="sd"> 
		<IconStyle> 
			<scale>1.0</scale> 
			<Icon> 
				<href>ex_nhemi.png</href> 
			</Icon> 
             <hotSpot x="15" y="17" xunits="pixels" yunits="pixels"/>
		</IconStyle> 
		<LabelStyle> 
			<scale>1.0</scale> 
		</LabelStyle> 
	</Style>

    <Placemark>
      <name>0600 UTC OCT 24</name>
      <styleUrl>#td</styleUrl>
      <description><![CDATA[
        <table>
          <tr><td>TD SONIA (EP182025)</td></tr>
          <tr><td><hr></td></tr>
          <tr><td>0600 UTC OCT 24, 2025</td></tr>
          <tr><td>Storm Location:</td></tr>
          <tr><td><b>13.1 N, 113.4 W</b></td></tr>
          <tr><td>Min Sea Level Pressure:</td></tr>
          <tr><td>1007 mb / 29.74 in Hg</td></tr>
          <tr><td>Maximum Intensity:</td></tr>
          <tr><td>30 kt / 35 mph / 56 kph</td></tr>
        </table>
      ]]></description>
      <Point><coordinates>-113.4,13.1</coordinates></Point>
    </Placemark>
    <Placemark>
      <name>1200 UTC OCT 24</name>
      <styleUrl>#td</styleUrl>
      <description><![CDATA[
        <table>
          <tr><td>TD SONIA (EP182025)</td></tr>
          <tr><td><hr></td></tr>
          <tr><td>1200 UTC OCT 24, 2025</td></tr>
          <tr><td>Storm Location:</td></tr>
          <tr><td><b>13.2 N, 114.5 W</b></td></tr>
          <tr><td>Min Sea Level Pressure:</td></tr>
          <tr><td>1007 mb / 29.74 in Hg</td></tr>
          <tr><td>Maximum Intensity:</td></tr>
          <tr><td>30 kt / 35 mph / 56 kph</td></tr>
        </table>
      ]]></description>
      <Point><coordinates>-114.5,13.2</coordinates></Point>
    </Placemark>
    <Placemark>
      <name>1800 UTC OCT 24</name>
      <styleUrl>#td</styleUrl>
      <description><![CDATA[
        <table>
          <tr><td>TD SONIA (EP182025)</td></tr>
          <tr><td><hr></td></tr>
          <tr><td>1800 UTC OCT 24, 2025</td></tr>
          <tr><td>Storm Location:</td></tr>
          <tr><td><b>13.2 N, 115.6 W</b></td></tr>
          <tr><td>Min Sea Level Pressure:</td></tr>
          <tr><td>1006 mb / 29.71 in Hg</td></tr>
          <tr><td>Maximum Intensity:</td></tr>
          <tr><td>30 kt / 35 mph / 56 kph</td></tr>
        </table>
      ]]></description>
      <Point><coordinates>-115.6,13.2</coordinates></Point>
    </Placemark>
    <Placemark>
      <name>0000 UTC OCT 25</name>
      <styleUrl>#ts</styleUrl>
      <description><![CDATA[
        <table>
          <tr><td>TS SONIA (EP182025)</td></tr>
          <tr><td><hr></td></tr>
          <tr><td>0000 UTC OCT 25, 2025</td></tr>
          <tr><td>Storm Location:</td></tr>
          <tr><td><b>13.2 N, 116.4 W</b></td></tr>
          <tr><td>Min Sea Level Pressure:</td></tr>
          <tr><td>1005 mb / 29.68 in Hg</td></tr>
          <tr><td>Maximum Intensity:</td></tr>
          <tr><td>35 kt / 40 mph / 65 kph</td></tr>
        </table>
      ]]></description>
      <Point><coordinates>-116.4,13.2</coordinates></Point>
    </Placemark>
    <Placemark>
      <name>0600 UTC OCT 25</name>
      <styleUrl>#ts</styleUrl>
      <description><![CDATA[
        <table>
          <tr><td>TS SONIA (EP182025)</td></tr>
          <tr><td><hr></td></tr>
          <tr><td>0600 UTC OCT 25, 2025</td></tr>
          <tr><td>Storm Location:</td></tr>
          <tr><td><b>13.3 N, 117.2 W</b></td></tr>
          <tr><td>Min Sea Level Pressure:</td></tr>
          <tr><td>1004 mb / 29.65 in Hg</td></tr>
          <tr><td>Maximum Intensity:</td></tr>
          <tr><td>40 kt / 46 mph / 74 kph</td></tr>
        </table>
      ]]></description>
      <Point><coordinates>-117.2,13.3</coordinates></Point>
    </Placemark>
    <Placemark>
      <name>1200 UTC OCT 25</name>
      <styleUrl>#ts</styleUrl>
      <description><![CDATA[
        <table>
          <tr><td>TS SONIA (EP182025)</td></tr>
          <tr><td><hr></td></tr>
          <tr><td>1200 UTC OCT 25, 2025</td></tr>
          <tr><td>Storm Location:</td></tr>
          <tr><td><b>13.4 N, 117.9 W</b></td></tr>
          <tr><td>Min Sea Level Pressure:</td></tr>
          <tr><td>1002 mb / 29.59 in Hg</td></tr>
          <tr><td>Maximum Intensity:</td></tr>
          <tr><td>45 kt / 52 mph / 83 kph</td></tr>
        </table>
      ]]></description>
      <Point><coordinates>-117.9,13.4</coordinates></Point>
    </Placemark>
    <Placemark>
      <name>1800 UTC OCT 25</name>
      <styleUrl>#ts</styleUrl>
      <description><![CDATA[
        <table>
          <tr><td>TS SONIA (EP182025)</td></tr>
          <tr><td><hr></td></tr>
          <tr><td>1800 UTC OCT 25, 2025</td></tr>
          <tr><td>Storm Location:</td></tr>
          <tr><td><b>13.4 N, 118.7 W</b></td></tr>
          <tr><td>Min Sea Level Pressure:</td></tr>
          <tr><td>1001 mb / 29.56 in Hg</td></tr>
          <tr><td>Maximum Intensity:</td></tr>
          <tr><td>45 kt / 52 mph / 83 kph</td></tr>
        </table>
      ]]></description>
      <Point><coordinates>-118.7,13.4</coordinates></Point>
    </Placemark>
    <Placemark>
      <name>0000 UTC OCT 26</name>
      <styleUrl>#ts</styleUrl>
      <description><![CDATA[
        <table>
          <tr><td>TS SONIA (EP182025)</td></tr>
          <tr><td><hr></td></tr>
          <tr><td>0000 UTC OCT 26, 2025</td></tr>
          <tr><td>Storm Location:</td></tr>
          <tr><td><b>13.4 N, 119.0 W</b></td></tr>
          <tr><td>Min Sea Level Pressure:</td></tr>
          <tr><td>1001 mb / 29.56 in Hg</td></tr>
          <tr><td>Maximum Intensity:</td></tr>
          <tr><td>45 kt / 52 mph / 83 kph</td></tr>
        </table>
      ]]></description>
      <Point><coordinates>-119,13.4</coordinates></Point>
    </Placemark>
    <Placemark>
      <name>0600 UTC OCT 26</name>
      <styleUrl>#ts</styleUrl>
      <description><![CDATA[
        <table>
          <tr><td>TS SONIA (EP182025)</td></tr>
          <tr><td><hr></td></tr>
          <tr><td>0600 UTC OCT 26, 2025</td></tr>
          <tr><td>Storm Location:</td></tr>
          <tr><td><b>13.4 N, 119.2 W</b></td></tr>
          <tr><td>Min Sea Level Pressure:</td></tr>
          <tr><td>1002 mb / 29.59 in Hg</td></tr>
          <tr><td>Maximum Intensity:</td></tr>
          <tr><td>45 kt / 52 mph / 83 kph</td></tr>
        </table>
      ]]></description>
      <Point><coordinates>-119.2,13.4</coordinates></Point>
    </Placemark>
    <Placemark>
      <name>1200 UTC OCT 26</name>
      <styleUrl>#ts</styleUrl>
      <description><![CDATA[
        <table>
          <tr><td>TS SONIA (EP182025)</td></tr>
          <tr><td><hr></td></tr>
          <tr><td>1200 UTC OCT 26, 2025</td></tr>
          <tr><td>Storm Location:</td></tr>
          <tr><td><b>13.5 N, 119.4 W</b></td></tr>
          <tr><td>Min Sea Level Pressure:</td></tr>
          <tr><td>1002 mb / 29.59 in Hg</td></tr>
          <tr><td>Maximum Intensity:</td></tr>
          <tr><td>45 kt / 52 mph / 83 kph</td></tr>
        </table>
      ]]></description>
      <Point><coordinates>-119.4,13.5</coordinates></Point>
    </Placemark>
    <Placemark>
      <name>1800 UTC OCT 26</name>
      <styleUrl>#ts</styleUrl>
      <description><![CDATA[
        <table>
          <tr><td>TS SONIA (EP182025)</td></tr>
          <tr><td><hr></td></tr>
          <tr><td>1800 UTC OCT 26, 2025</td></tr>
          <tr><td>Storm Location:</td></tr>
          <tr><td><b>13.7 N, 119.5 W</b></td></tr>
          <tr><td>Min Sea Level Pressure:</td></tr>
          <tr><td>1004 mb / 29.65 in Hg</td></tr>
          <tr><td>Maximum Intensity:</td></tr>
          <tr><td>40 kt / 46 mph / 74 kph</td></tr>
        </table>
      ]]></description>
      <Point><coordinates>-119.5,13.7</coordinates></Point>
    </Placemark>
    <Placemark>
      <name>0000 UTC OCT 27</name>
      <styleUrl>#ts</styleUrl>
      <description><![CDATA[
        <table>
          <tr><td>TS SONIA (EP182025)</td></tr>
          <tr><td><hr></td></tr>
          <tr><td>0000 UTC OCT 27, 2025</td></tr>
          <tr><td>Storm Location:</td></tr>
          <tr><td><b>13.9 N, 119.7 W</b></td></tr>
          <tr><td>Min Sea Level Pressure:</td></tr>
          <tr><td>1004 mb / 29.65 in Hg</td></tr>
          <tr><td>Maximum Intensity:</td></tr>
          <tr><td>40 kt / 46 mph / 74 kph</td></tr>
        </table>
      ]]></description>
      <Point><coordinates>-119.7,13.9</coordinates></Point>
    </Placemark>
    <Placemark>
      <name>0600 UTC OCT 27</name>
      <styleUrl>#ts</styleUrl>
      <description><![CDATA[
        <table>
          <tr><td>TS SONIA (EP182025)</td></tr>
          <tr><td><hr></td></tr>
          <tr><td>0600 UTC OCT 27, 2025</td></tr>
          <tr><td>Storm Location:</td></tr>
          <tr><td><b>14.0 N, 120.3 W</b></td></tr>
          <tr><td>Min Sea Level Pressure:</td></tr>
          <tr><td>1004 mb / 29.65 in Hg</td></tr>
          <tr><td>Maximum Intensity:</td></tr>
          <tr><td>40 kt / 46 mph / 74 kph</td></tr>
        </table>
      ]]></description>
      <Point><coordinates>-120.3,14</coordinates></Point>
    </Placemark>
    <Placemark>
      <name>1200 UTC OCT 27</name>
      <styleUrl>#ts</styleUrl>
      <description><![CDATA[
        <table>
          <tr><td>TS SONIA (EP182025)</td></tr>
          <tr><td><hr></td></tr>
          <tr><td>1200 UTC OCT 27, 2025</td></tr>
          <tr><td>Storm Location:</td></tr>
          <tr><td><b>13.9 N, 120.8 W</b></td></tr>
          <tr><td>Min Sea Level Pressure:</td></tr>
          <tr><td>1005 mb / 29.68 in Hg</td></tr>
          <tr><td>Maximum Intensity:</td></tr>
          <tr><td>35 kt / 40 mph / 65 kph</td></tr>
        </table>
      ]]></description>
      <Point><coordinates>-120.8,13.9</coordinates></Point>
    </Placemark>
    <Placemark>
      <name>1800 UTC OCT 27</name>
      <styleUrl>#ts</styleUrl>
      <description><![CDATA[
        <table>
          <tr><td>TS SONIA (EP182025)</td></tr>
          <tr><td><hr></td></tr>
          <tr><td>1800 UTC OCT 27, 2025</td></tr>
          <tr><td>Storm Location:</td></tr>
          <tr><td><b>14.0 N, 121.3 W</b></td></tr>
          <tr><td>Min Sea Level Pressure:</td></tr>
          <tr><td>1005 mb / 29.68 in Hg</td></tr>
          <tr><td>Maximum Intensity:</td></tr>
          <tr><td>35 kt / 40 mph / 65 kph</td></tr>
        </table>
      ]]></description>
      <Point><coordinates>-121.3,14</coordinates></Point>
    </Placemark>
    <Placemark>
      <name>0000 UTC OCT 28</name>
      <styleUrl>#ts</styleUrl>
      <description><![CDATA[
        <table>
          <tr><td>TS SONIA (EP182025)</td></tr>
          <tr><td><hr></td></tr>
          <tr><td>0000 UTC OCT 28, 2025</td></tr>
          <tr><td>Storm Location:</td></tr>
          <tr><td><b>14.3 N, 121.8 W</b></td></tr>
          <tr><td>Min Sea Level Pressure:</td></tr>
          <tr><td>1005 mb / 29.68 in Hg</td></tr>
          <tr><td>Maximum Intensity:</td></tr>
          <tr><td>35 kt / 40 mph / 65 kph</td></tr>
        </table>
      ]]></description>
      <Point><coordinates>-121.8,14.3</coordinates></Point>
    </Placemark>
    <Placemark>
      <name>0600 UTC OCT 28</name>
      <styleUrl>#ts</styleUrl>
      <description><![CDATA[
        <table>
          <tr><td>TS SONIA (EP182025)</td></tr>
          <tr><td><hr></td></tr>
          <tr><td>0600 UTC OCT 28, 2025</td></tr>
          <tr><td>Storm Location:</td></tr>
          <tr><td><b>14.7 N, 122.4 W</b></td></tr>
          <tr><td>Min Sea Level Pressure:</td></tr>
          <tr><td>1004 mb / 29.65 in Hg</td></tr>
          <tr><td>Maximum Intensity:</td></tr>
          <tr><td>40 kt / 46 mph / 74 kph</td></tr>
        </table>
      ]]></description>
      <Point><coordinates>-122.4,14.7</coordinates></Point>
    </Placemark>
    <Placemark>
      <name>1200 UTC OCT 28</name>
      <styleUrl>#ts</styleUrl>
      <description><![CDATA[
        <table>
          <tr><td>TS SONIA (EP182025)</td></tr>
          <tr><td><hr></td></tr>
          <tr><td>1200 UTC OCT 28, 2025</td></tr>
          <tr><td>Storm Location:</td></tr>
          <tr><td><b>15.0 N, 123.1 W</b></td></tr>
          <tr><td>Min Sea Level Pressure:</td></tr>
          <tr><td>1004 mb / 29.65 in Hg</td></tr>
          <tr><td>Maximum Intensity:</td></tr>
          <tr><td>40 kt / 46 mph / 74 kph</td></tr>
        </table>
      ]]></description>
      <Point><coordinates>-123.1,15</coordinates></Point>
    </Placemark>
    <Placemark>
      <name>1800 UTC OCT 28</name>
      <styleUrl>#ts</styleUrl>
      <description><![CDATA[
        <table>
          <tr><td>TS SONIA (EP182025)</td></tr>
          <tr><td><hr></td></tr>
          <tr><td>1800 UTC OCT 28, 2025</td></tr>
          <tr><td>Storm Location:</td></tr>
          <tr><td><b>15.2 N, 123.9 W</b></td></tr>
          <tr><td>Min Sea Level Pressure:</td></tr>
          <tr><td>1006 mb / 29.71 in Hg</td></tr>
          <tr><td>Maximum Intensity:</td></tr>
          <tr><td>35 kt / 40 mph / 65 kph</td></tr>
        </table>
      ]]></description>
      <Point><coordinates>-123.9,15.2</coordinates></Point>
    </Placemark>
    <Placemark>
      <name>0000 UTC OCT 29</name>
      <styleUrl>#lo</styleUrl>
      <description><![CDATA[
        <table>
          <tr><td>LO SONIA (EP182025)</td></tr>
          <tr><td><hr></td></tr>
          <tr><td>0000 UTC OCT 29, 2025</td></tr>
          <tr><td>Storm Location:</td></tr>
          <tr><td><b>15.3 N, 124.8 W</b></td></tr>
          <tr><td>Min Sea Level Pressure:</td></tr>
          <tr><td>1007 mb / 29.74 in Hg</td></tr>
          <tr><td>Maximum Intensity:</td></tr>
          <tr><td>30 kt / 35 mph / 56 kph</td></tr>
        </table>
      ]]></description>
      <Point><coordinates>-124.8,15.3</coordinates></Point>
    </Placemark>
    <Placemark>
      <name>0600 UTC OCT 29</name>
      <styleUrl>#lo</styleUrl>
      <description><![CDATA[
        <table>
          <tr><td>LO SONIA (EP182025)</td></tr>
          <tr><td><hr></td></tr>
          <tr><td>0600 UTC OCT 29, 2025</td></tr>
          <tr><td>Storm Location:</td></tr>
          <tr><td><b>15.3 N, 125.6 W</b></td></tr>
          <tr><td>Min Sea Level Pressure:</td></tr>
          <tr><td>1008 mb / 29.77 in Hg</td></tr>
          <tr><td>Maximum Intensity:</td></tr>
          <tr><td>30 kt / 35 mph / 56 kph</td></tr>
        </table>
      ]]></description>
      <Point><coordinates>-125.6,15.3</coordinates></Point>
    </Placemark>
    <Placemark>
      <name>1200 UTC OCT 29</name>
      <styleUrl>#lo</styleUrl>
      <description><![CDATA[
        <table>
          <tr><td>LO SONIA (EP182025)</td></tr>
          <tr><td><hr></td></tr>
          <tr><td>1200 UTC OCT 29, 2025</td></tr>
          <tr><td>Storm Location:</td></tr>
          <tr><td><b>15.4 N, 126.6 W</b></td></tr>
          <tr><td>Min Sea Level Pressure:</td></tr>
          <tr><td>1009 mb / 29.80 in Hg</td></tr>
          <tr><td>Maximum Intensity:</td></tr>
          <tr><td>25 kt / 29 mph / 46 kph</td></tr>
        </table>
      ]]></description>
      <Point><coordinates>-126.6,15.4</coordinates></Point>
    </Placemark>
    <Placemark>
      <name>1800 UTC OCT 29</name>
      <styleUrl>#lo</styleUrl>
      <description><![CDATA[
        <table>
          <tr><td>LO SONIA (EP182025)</td></tr>
          <tr><td><hr></td></tr>
          <tr><td>1800 UTC OCT 29, 2025</td></tr>
          <tr><td>Storm Location:</td></tr>
          <tr><td><b>15.5 N, 127.8 W</b></td></tr>
          <tr><td>Min Sea Level Pressure:</td></tr>
          <tr><td>1009 mb / 29.80 in Hg</td></tr>
          <tr><td>Maximum Intensity:</td></tr>
          <tr><td>25 kt / 29 mph / 46 kph</td></tr>
        </table>
      ]]></description>
      <Point><coordinates>-127.8,15.5</coordinates></Point>
    </Placemark>
  </Document>
</kml>
