<?xml version="1.0" encoding="UTF-8"?>
<kml xmlns="http://www.opengis.net/kml/2.2">
  <Document>
    <name>IO012024</name>
    <open>0</open>

    <!-- =====  Document header ===== -->
    <description><![CDATA[
      <table>
        <tr><td><b>Title:</b> Tropical Cyclone Best Track for IO012024</td></tr>
      </table>
    ]]></description>

    <!-- =====  Styles (ids must be unique)  ===== -->
	<Style id="pt"> 
		<IconStyle> 
			<scale>1.0</scale> 
			<Icon> 
				<href>ex_nhemi.png</href> 
			</Icon> 
             <hotSpot x="15" y="17" xunits="pixels" yunits="pixels"/>
		</IconStyle> 
		<LabelStyle> 
			<scale>1.0</scale> 
		</LabelStyle> 
	</Style>
	<Style id="cat5"> 
		<IconStyle> 
			<scale>1.0</scale> 
			<Icon> 
				<href>cat5_nhemi.png</href> 
			</Icon> 
             <hotSpot x="15" y="17" xunits="pixels" yunits="pixels"/>
		</IconStyle> 
		<LabelStyle> 
			<scale>1.0</scale> 
		</LabelStyle> 
	</Style>
	<Style id="db"> 
		<IconStyle> 
			<scale>1.0</scale> 
			<Icon> 
				<href>ex_nhemi.png</href> 
			</Icon> 
             <hotSpot x="15" y="17" xunits="pixels" yunits="pixels"/>
		</IconStyle> 
		<LabelStyle> 
			<scale>1.0</scale> 
		</LabelStyle> 
	</Style>
	<Style id="cat3"> 
		<IconStyle> 
			<scale>1.0</scale> 
			<Icon> 
				<href>cat3_nhemi.png</href> 
			</Icon> 
             <hotSpot x="15" y="17" xunits="pixels" yunits="pixels"/>
		</IconStyle> 
		<LabelStyle> 
			<scale>1.0</scale> 
		</LabelStyle> 
	</Style>
	<Style id="ss"> 
		<IconStyle> 
			<scale>1.0</scale> 
			<Icon> 
				<href>ts_nhemi.png</href> 
			</Icon> 
             <hotSpot x="15" y="17" xunits="pixels" yunits="pixels"/>
		</IconStyle> 
		<LabelStyle> 
			<scale>1.0</scale> 
		</LabelStyle> 
	</Style>
	<Style id="lo"> 
		<IconStyle> 
			<scale>1.0</scale> 
			<Icon> 
				<href>ex_nhemi.png</href> 
			</Icon> 
             <hotSpot x="15" y="17" xunits="pixels" yunits="pixels"/>
		</IconStyle> 
		<LabelStyle> 
			<scale>1.0</scale> 
		</LabelStyle> 
	</Style>
	<Style id="cat4"> 
		<IconStyle> 
			<scale>1.0</scale> 
			<Icon> 
				<href>cat4_nhemi.png</href> 
			</Icon> 
             <hotSpot x="15" y="17" xunits="pixels" yunits="pixels"/>
		</IconStyle> 
		<LabelStyle> 
			<scale>1.0</scale> 
		</LabelStyle> 
	</Style>
	<Style id="cat2"> 
		<IconStyle> 
			<scale>1.0</scale> 
			<Icon> 
				<href>cat2_nhemi.png</href> 
			</Icon> 
             <hotSpot x="15" y="17" xunits="pixels" yunits="pixels"/>
		</IconStyle> 
		<LabelStyle> 
			<scale>1.0</scale> 
		</LabelStyle> 
	</Style>
	<Style id="ts"> 
		<IconStyle> 
			<scale>1.0</scale> 
			<Icon> 
				<href>ts_nhemi.png</href> 
			</Icon> 
             <hotSpot x="15" y="17" xunits="pixels" yunits="pixels"/>
		</IconStyle> 
		<LabelStyle> 
			<scale>1.0</scale> 
		</LabelStyle> 
	</Style>
	<Style id="cat1"> 
		<IconStyle> 
			<scale>1.0</scale> 
			<Icon> 
				<href>cat1_nhemi.png</href> 
			</Icon> 
             <hotSpot x="15" y="17" xunits="pixels" yunits="pixels"/>
		</IconStyle> 
		<LabelStyle> 
			<scale>1.0</scale> 
		</LabelStyle> 
	</Style>
	<Style id="ex"> 
		<IconStyle> 
			<scale>1.0</scale> 
			<Icon> 
				<href>ex_nhemi.png</href> 
			</Icon> 
             <hotSpot x="15" y="17" xunits="pixels" yunits="pixels"/>
		</IconStyle> 
		<LabelStyle> 
			<scale>1.0</scale> 
		</LabelStyle> 
	</Style>
	<Style id="tc"> 
		<IconStyle> 
			<scale>1.0</scale> 
			<Icon> 
				<href>ex_nhemi.png</href> 
			</Icon> 
             <hotSpot x="15" y="17" xunits="pixels" yunits="pixels"/>
		</IconStyle> 
		<LabelStyle> 
			<scale>1.0</scale> 
		</LabelStyle> 
	</Style>
	<Style id="wv"> 
		<IconStyle> 
			<scale>1.0</scale> 
			<Icon> 
				<href>ex_nhemi.png</href> 
			</Icon> 
             <hotSpot x="15" y="17" xunits="pixels" yunits="pixels"/>
		</IconStyle> 
		<LabelStyle> 
			<scale>1.0</scale> 
		</LabelStyle> 
	</Style>
	<Style id="td"> 
		<IconStyle> 
			<scale>1.0</scale> 
			<Icon> 
				<href>td_nhemi.png</href> 
			</Icon> 
             <hotSpot x="15" y="17" xunits="pixels" yunits="pixels"/>
		</IconStyle> 
		<LabelStyle> 
			<scale>1.0</scale> 
		</LabelStyle> 
	</Style>
	<Style id="sd"> 
		<IconStyle> 
			<scale>1.0</scale> 
			<Icon> 
				<href>ex_nhemi.png</href> 
			</Icon> 
             <hotSpot x="15" y="17" xunits="pixels" yunits="pixels"/>
		</IconStyle> 
		<LabelStyle> 
			<scale>1.0</scale> 
		</LabelStyle> 
	</Style>

    <Placemark>
      <name>1200 UTC MAY 23</name>
      <styleUrl>#pt</styleUrl>
      <description><![CDATA[
        <table>
          <tr><td>XX REMAL (IO012024)</td></tr>
          <tr><td><hr></td></tr>
          <tr><td>1200 UTC MAY 23, 2024</td></tr>
          <tr><td>Storm Location:</td></tr>
          <tr><td><b>13.6 N, 86.6 E</b></td></tr>
          <tr><td>Min Sea Level Pressure:</td></tr>
          <tr><td>1000 mb / 29.53 in Hg</td></tr>
          <tr><td>Maximum Intensity:</td></tr>
          <tr><td>15 kt / 17 mph / 28 kph</td></tr>
        </table>
      ]]></description>
      <Point><coordinates>86.6,13.6</coordinates></Point>
    </Placemark>
    <Placemark>
      <name>1800 UTC MAY 23</name>
      <styleUrl>#pt</styleUrl>
      <description><![CDATA[
        <table>
          <tr><td>XX REMAL (IO012024)</td></tr>
          <tr><td><hr></td></tr>
          <tr><td>1800 UTC MAY 23, 2024</td></tr>
          <tr><td>Storm Location:</td></tr>
          <tr><td><b>14.3 N, 87.7 E</b></td></tr>
          <tr><td>Min Sea Level Pressure:</td></tr>
          <tr><td>998 mb / 29.47 in Hg</td></tr>
          <tr><td>Maximum Intensity:</td></tr>
          <tr><td>15 kt / 17 mph / 28 kph</td></tr>
        </table>
      ]]></description>
      <Point><coordinates>87.7,14.3</coordinates></Point>
    </Placemark>
    <Placemark>
      <name>0000 UTC MAY 24</name>
      <styleUrl>#pt</styleUrl>
      <description><![CDATA[
        <table>
          <tr><td>XX REMAL (IO012024)</td></tr>
          <tr><td><hr></td></tr>
          <tr><td>0000 UTC MAY 24, 2024</td></tr>
          <tr><td>Storm Location:</td></tr>
          <tr><td><b>15.2 N, 88.7 E</b></td></tr>
          <tr><td>Min Sea Level Pressure:</td></tr>
          <tr><td>996 mb / 29.41 in Hg</td></tr>
          <tr><td>Maximum Intensity:</td></tr>
          <tr><td>20 kt / 23 mph / 37 kph</td></tr>
        </table>
      ]]></description>
      <Point><coordinates>88.7,15.2</coordinates></Point>
    </Placemark>
    <Placemark>
      <name>0600 UTC MAY 24</name>
      <styleUrl>#pt</styleUrl>
      <description><![CDATA[
        <table>
          <tr><td>XX REMAL (IO012024)</td></tr>
          <tr><td><hr></td></tr>
          <tr><td>0600 UTC MAY 24, 2024</td></tr>
          <tr><td>Storm Location:</td></tr>
          <tr><td><b>15.9 N, 89.6 E</b></td></tr>
          <tr><td>Min Sea Level Pressure:</td></tr>
          <tr><td>994 mb / 29.35 in Hg</td></tr>
          <tr><td>Maximum Intensity:</td></tr>
          <tr><td>25 kt / 29 mph / 46 kph</td></tr>
        </table>
      ]]></description>
      <Point><coordinates>89.6,15.9</coordinates></Point>
    </Placemark>
    <Placemark>
      <name>1200 UTC MAY 24</name>
      <styleUrl>#pt</styleUrl>
      <description><![CDATA[
        <table>
          <tr><td>XX REMAL (IO012024)</td></tr>
          <tr><td><hr></td></tr>
          <tr><td>1200 UTC MAY 24, 2024</td></tr>
          <tr><td>Storm Location:</td></tr>
          <tr><td><b>16.6 N, 90.0 E</b></td></tr>
          <tr><td>Min Sea Level Pressure:</td></tr>
          <tr><td>993 mb / 29.32 in Hg</td></tr>
          <tr><td>Maximum Intensity:</td></tr>
          <tr><td>25 kt / 29 mph / 46 kph</td></tr>
        </table>
      ]]></description>
      <Point><coordinates>90,16.6</coordinates></Point>
    </Placemark>
    <Placemark>
      <name>1800 UTC MAY 24</name>
      <styleUrl>#pt</styleUrl>
      <description><![CDATA[
        <table>
          <tr><td>XX REMAL (IO012024)</td></tr>
          <tr><td><hr></td></tr>
          <tr><td>1800 UTC MAY 24, 2024</td></tr>
          <tr><td>Storm Location:</td></tr>
          <tr><td><b>17.1 N, 90.3 E</b></td></tr>
          <tr><td>Min Sea Level Pressure:</td></tr>
          <tr><td>992 mb / 29.29 in Hg</td></tr>
          <tr><td>Maximum Intensity:</td></tr>
          <tr><td>25 kt / 29 mph / 46 kph</td></tr>
        </table>
      ]]></description>
      <Point><coordinates>90.3,17.1</coordinates></Point>
    </Placemark>
    <Placemark>
      <name>0000 UTC MAY 25</name>
      <styleUrl>#td</styleUrl>
      <description><![CDATA[
        <table>
          <tr><td>TD REMAL (IO012024)</td></tr>
          <tr><td><hr></td></tr>
          <tr><td>0000 UTC MAY 25, 2024</td></tr>
          <tr><td>Storm Location:</td></tr>
          <tr><td><b>17.5 N, 90.2 E</b></td></tr>
          <tr><td>Min Sea Level Pressure:</td></tr>
          <tr><td>991 mb / 29.26 in Hg</td></tr>
          <tr><td>Maximum Intensity:</td></tr>
          <tr><td>25 kt / 29 mph / 46 kph</td></tr>
        </table>
      ]]></description>
      <Point><coordinates>90.2,17.5</coordinates></Point>
    </Placemark>
    <Placemark>
      <name>0600 UTC MAY 25</name>
      <styleUrl>#td</styleUrl>
      <description><![CDATA[
        <table>
          <tr><td>TD REMAL (IO012024)</td></tr>
          <tr><td><hr></td></tr>
          <tr><td>0600 UTC MAY 25, 2024</td></tr>
          <tr><td>Storm Location:</td></tr>
          <tr><td><b>18.1 N, 89.6 E</b></td></tr>
          <tr><td>Min Sea Level Pressure:</td></tr>
          <tr><td>990 mb / 29.23 in Hg</td></tr>
          <tr><td>Maximum Intensity:</td></tr>
          <tr><td>25 kt / 29 mph / 46 kph</td></tr>
        </table>
      ]]></description>
      <Point><coordinates>89.6,18.1</coordinates></Point>
    </Placemark>
    <Placemark>
      <name>1200 UTC MAY 25</name>
      <styleUrl>#td</styleUrl>
      <description><![CDATA[
        <table>
          <tr><td>TD REMAL (IO012024)</td></tr>
          <tr><td><hr></td></tr>
          <tr><td>1200 UTC MAY 25, 2024</td></tr>
          <tr><td>Storm Location:</td></tr>
          <tr><td><b>18.5 N, 89.1 E</b></td></tr>
          <tr><td>Min Sea Level Pressure:</td></tr>
          <tr><td>987 mb / 29.15 in Hg</td></tr>
          <tr><td>Maximum Intensity:</td></tr>
          <tr><td>30 kt / 35 mph / 56 kph</td></tr>
        </table>
      ]]></description>
      <Point><coordinates>89.1,18.5</coordinates></Point>
    </Placemark>
    <Placemark>
      <name>1800 UTC MAY 25</name>
      <styleUrl>#td</styleUrl>
      <description><![CDATA[
        <table>
          <tr><td>TD REMAL (IO012024)</td></tr>
          <tr><td><hr></td></tr>
          <tr><td>1800 UTC MAY 25, 2024</td></tr>
          <tr><td>Storm Location:</td></tr>
          <tr><td><b>19.1 N, 88.9 E</b></td></tr>
          <tr><td>Min Sea Level Pressure:</td></tr>
          <tr><td>986 mb / 29.12 in Hg</td></tr>
          <tr><td>Maximum Intensity:</td></tr>
          <tr><td>30 kt / 35 mph / 56 kph</td></tr>
        </table>
      ]]></description>
      <Point><coordinates>88.9,19.1</coordinates></Point>
    </Placemark>
    <Placemark>
      <name>0000 UTC MAY 26</name>
      <styleUrl>#ts</styleUrl>
      <description><![CDATA[
        <table>
          <tr><td>TS REMAL (IO012024)</td></tr>
          <tr><td><hr></td></tr>
          <tr><td>0000 UTC MAY 26, 2024</td></tr>
          <tr><td>Storm Location:</td></tr>
          <tr><td><b>19.7 N, 89.0 E</b></td></tr>
          <tr><td>Min Sea Level Pressure:</td></tr>
          <tr><td>985 mb / 29.09 in Hg</td></tr>
          <tr><td>Maximum Intensity:</td></tr>
          <tr><td>40 kt / 46 mph / 74 kph</td></tr>
        </table>
      ]]></description>
      <Point><coordinates>89,19.7</coordinates></Point>
    </Placemark>
    <Placemark>
      <name>0600 UTC MAY 26</name>
      <styleUrl>#ts</styleUrl>
      <description><![CDATA[
        <table>
          <tr><td>TS REMAL (IO012024)</td></tr>
          <tr><td><hr></td></tr>
          <tr><td>0600 UTC MAY 26, 2024</td></tr>
          <tr><td>Storm Location:</td></tr>
          <tr><td><b>20.3 N, 88.9 E</b></td></tr>
          <tr><td>Min Sea Level Pressure:</td></tr>
          <tr><td>983 mb / 29.03 in Hg</td></tr>
          <tr><td>Maximum Intensity:</td></tr>
          <tr><td>50 kt / 58 mph / 93 kph</td></tr>
        </table>
      ]]></description>
      <Point><coordinates>88.9,20.3</coordinates></Point>
    </Placemark>
    <Placemark>
      <name>1200 UTC MAY 26</name>
      <styleUrl>#ts</styleUrl>
      <description><![CDATA[
        <table>
          <tr><td>TS REMAL (IO012024)</td></tr>
          <tr><td><hr></td></tr>
          <tr><td>1200 UTC MAY 26, 2024</td></tr>
          <tr><td>Storm Location:</td></tr>
          <tr><td><b>21.2 N, 89.0 E</b></td></tr>
          <tr><td>Min Sea Level Pressure:</td></tr>
          <tr><td>980 mb / 28.94 in Hg</td></tr>
          <tr><td>Maximum Intensity:</td></tr>
          <tr><td>55 kt / 63 mph / 102 kph</td></tr>
        </table>
      ]]></description>
      <Point><coordinates>89,21.2</coordinates></Point>
    </Placemark>
    <Placemark>
      <name>1400 UTC MAY 26</name>
      <styleUrl>#ts</styleUrl>
      <description><![CDATA[
        <table>
          <tr><td>TS REMAL (IO012024)</td></tr>
          <tr><td><hr></td></tr>
          <tr><td>1400 UTC MAY 26, 2024</td></tr>
          <tr><td>Storm Location:</td></tr>
          <tr><td><b>21.6 N, 88.8 E</b></td></tr>
          <tr><td>Min Sea Level Pressure:</td></tr>
          <tr><td>977 mb / 28.85 in Hg</td></tr>
          <tr><td>Maximum Intensity:</td></tr>
          <tr><td>60 kt / 69 mph / 111 kph</td></tr>
        </table>
      ]]></description>
      <Point><coordinates>88.8,21.6</coordinates></Point>
    </Placemark>
    <Placemark>
      <name>1800 UTC MAY 26</name>
      <styleUrl>#ts</styleUrl>
      <description><![CDATA[
        <table>
          <tr><td>TS REMAL (IO012024)</td></tr>
          <tr><td><hr></td></tr>
          <tr><td>1800 UTC MAY 26, 2024</td></tr>
          <tr><td>Storm Location:</td></tr>
          <tr><td><b>22.2 N, 88.5 E</b></td></tr>
          <tr><td>Min Sea Level Pressure:</td></tr>
          <tr><td>979 mb / 28.91 in Hg</td></tr>
          <tr><td>Maximum Intensity:</td></tr>
          <tr><td>55 kt / 63 mph / 102 kph</td></tr>
        </table>
      ]]></description>
      <Point><coordinates>88.5,22.2</coordinates></Point>
    </Placemark>
    <Placemark>
      <name>0000 UTC MAY 27</name>
      <styleUrl>#ts</styleUrl>
      <description><![CDATA[
        <table>
          <tr><td>TS REMAL (IO012024)</td></tr>
          <tr><td><hr></td></tr>
          <tr><td>0000 UTC MAY 27, 2024</td></tr>
          <tr><td>Storm Location:</td></tr>
          <tr><td><b>22.6 N, 88.8 E</b></td></tr>
          <tr><td>Min Sea Level Pressure:</td></tr>
          <tr><td>980 mb / 28.94 in Hg</td></tr>
          <tr><td>Maximum Intensity:</td></tr>
          <tr><td>50 kt / 58 mph / 93 kph</td></tr>
        </table>
      ]]></description>
      <Point><coordinates>88.8,22.6</coordinates></Point>
    </Placemark>
    <Placemark>
      <name>0600 UTC MAY 27</name>
      <styleUrl>#ts</styleUrl>
      <description><![CDATA[
        <table>
          <tr><td>TS REMAL (IO012024)</td></tr>
          <tr><td><hr></td></tr>
          <tr><td>0600 UTC MAY 27, 2024</td></tr>
          <tr><td>Storm Location:</td></tr>
          <tr><td><b>23.1 N, 89.1 E</b></td></tr>
          <tr><td>Min Sea Level Pressure:</td></tr>
          <tr><td>981 mb / 28.97 in Hg</td></tr>
          <tr><td>Maximum Intensity:</td></tr>
          <tr><td>45 kt / 52 mph / 83 kph</td></tr>
        </table>
      ]]></description>
      <Point><coordinates>89.1,23.1</coordinates></Point>
    </Placemark>
    <Placemark>
      <name>1200 UTC MAY 27</name>
      <styleUrl>#ts</styleUrl>
      <description><![CDATA[
        <table>
          <tr><td>TS REMAL (IO012024)</td></tr>
          <tr><td><hr></td></tr>
          <tr><td>1200 UTC MAY 27, 2024</td></tr>
          <tr><td>Storm Location:</td></tr>
          <tr><td><b>23.5 N, 89.5 E</b></td></tr>
          <tr><td>Min Sea Level Pressure:</td></tr>
          <tr><td>985 mb / 29.09 in Hg</td></tr>
          <tr><td>Maximum Intensity:</td></tr>
          <tr><td>35 kt / 40 mph / 65 kph</td></tr>
        </table>
      ]]></description>
      <Point><coordinates>89.5,23.5</coordinates></Point>
    </Placemark>
    <Placemark>
      <name>1800 UTC MAY 27</name>
      <styleUrl>#td</styleUrl>
      <description><![CDATA[
        <table>
          <tr><td>TD REMAL (IO012024)</td></tr>
          <tr><td><hr></td></tr>
          <tr><td>1800 UTC MAY 27, 2024</td></tr>
          <tr><td>Storm Location:</td></tr>
          <tr><td><b>24.3 N, 90.4 E</b></td></tr>
          <tr><td>Min Sea Level Pressure:</td></tr>
          <tr><td>987 mb / 29.15 in Hg</td></tr>
          <tr><td>Maximum Intensity:</td></tr>
          <tr><td>30 kt / 35 mph / 56 kph</td></tr>
        </table>
      ]]></description>
      <Point><coordinates>90.4,24.3</coordinates></Point>
    </Placemark>
    <Placemark>
      <name>0000 UTC MAY 28</name>
      <styleUrl>#db</styleUrl>
      <description><![CDATA[
        <table>
          <tr><td>DB REMAL (IO012024)</td></tr>
          <tr><td><hr></td></tr>
          <tr><td>0000 UTC MAY 28, 2024</td></tr>
          <tr><td>Storm Location:</td></tr>
          <tr><td><b>24.8 N, 91.0 E</b></td></tr>
          <tr><td>Min Sea Level Pressure:</td></tr>
          <tr><td>995 mb / 29.38 in Hg</td></tr>
          <tr><td>Maximum Intensity:</td></tr>
          <tr><td>20 kt / 23 mph / 37 kph</td></tr>
        </table>
      ]]></description>
      <Point><coordinates>91,24.8</coordinates></Point>
    </Placemark>
  </Document>
</kml>
