<?xml version="1.0" encoding="UTF-8"?>
<kml xmlns="http://www.opengis.net/kml/2.2">
  <Document>
    <name>IO022024</name>
    <open>0</open>

    <!-- =====  Document header ===== -->
    <description><![CDATA[
      <table>
        <tr><td><b>Title:</b> Tropical Cyclone Best Track for IO022024</td></tr>
      </table>
    ]]></description>

    <!-- =====  Styles (ids must be unique)  ===== -->
	<Style id="pt"> 
		<IconStyle> 
			<scale>1.0</scale> 
			<Icon> 
				<href>ex_nhemi.png</href> 
			</Icon> 
             <hotSpot x="15" y="17" xunits="pixels" yunits="pixels"/>
		</IconStyle> 
		<LabelStyle> 
			<scale>1.0</scale> 
		</LabelStyle> 
	</Style>
	<Style id="cat5"> 
		<IconStyle> 
			<scale>1.0</scale> 
			<Icon> 
				<href>cat5_nhemi.png</href> 
			</Icon> 
             <hotSpot x="15" y="17" xunits="pixels" yunits="pixels"/>
		</IconStyle> 
		<LabelStyle> 
			<scale>1.0</scale> 
		</LabelStyle> 
	</Style>
	<Style id="db"> 
		<IconStyle> 
			<scale>1.0</scale> 
			<Icon> 
				<href>ex_nhemi.png</href> 
			</Icon> 
             <hotSpot x="15" y="17" xunits="pixels" yunits="pixels"/>
		</IconStyle> 
		<LabelStyle> 
			<scale>1.0</scale> 
		</LabelStyle> 
	</Style>
	<Style id="cat3"> 
		<IconStyle> 
			<scale>1.0</scale> 
			<Icon> 
				<href>cat3_nhemi.png</href> 
			</Icon> 
             <hotSpot x="15" y="17" xunits="pixels" yunits="pixels"/>
		</IconStyle> 
		<LabelStyle> 
			<scale>1.0</scale> 
		</LabelStyle> 
	</Style>
	<Style id="ss"> 
		<IconStyle> 
			<scale>1.0</scale> 
			<Icon> 
				<href>ts_nhemi.png</href> 
			</Icon> 
             <hotSpot x="15" y="17" xunits="pixels" yunits="pixels"/>
		</IconStyle> 
		<LabelStyle> 
			<scale>1.0</scale> 
		</LabelStyle> 
	</Style>
	<Style id="lo"> 
		<IconStyle> 
			<scale>1.0</scale> 
			<Icon> 
				<href>ex_nhemi.png</href> 
			</Icon> 
             <hotSpot x="15" y="17" xunits="pixels" yunits="pixels"/>
		</IconStyle> 
		<LabelStyle> 
			<scale>1.0</scale> 
		</LabelStyle> 
	</Style>
	<Style id="cat4"> 
		<IconStyle> 
			<scale>1.0</scale> 
			<Icon> 
				<href>cat4_nhemi.png</href> 
			</Icon> 
             <hotSpot x="15" y="17" xunits="pixels" yunits="pixels"/>
		</IconStyle> 
		<LabelStyle> 
			<scale>1.0</scale> 
		</LabelStyle> 
	</Style>
	<Style id="cat2"> 
		<IconStyle> 
			<scale>1.0</scale> 
			<Icon> 
				<href>cat2_nhemi.png</href> 
			</Icon> 
             <hotSpot x="15" y="17" xunits="pixels" yunits="pixels"/>
		</IconStyle> 
		<LabelStyle> 
			<scale>1.0</scale> 
		</LabelStyle> 
	</Style>
	<Style id="ts"> 
		<IconStyle> 
			<scale>1.0</scale> 
			<Icon> 
				<href>ts_nhemi.png</href> 
			</Icon> 
             <hotSpot x="15" y="17" xunits="pixels" yunits="pixels"/>
		</IconStyle> 
		<LabelStyle> 
			<scale>1.0</scale> 
		</LabelStyle> 
	</Style>
	<Style id="cat1"> 
		<IconStyle> 
			<scale>1.0</scale> 
			<Icon> 
				<href>cat1_nhemi.png</href> 
			</Icon> 
             <hotSpot x="15" y="17" xunits="pixels" yunits="pixels"/>
		</IconStyle> 
		<LabelStyle> 
			<scale>1.0</scale> 
		</LabelStyle> 
	</Style>
	<Style id="ex"> 
		<IconStyle> 
			<scale>1.0</scale> 
			<Icon> 
				<href>ex_nhemi.png</href> 
			</Icon> 
             <hotSpot x="15" y="17" xunits="pixels" yunits="pixels"/>
		</IconStyle> 
		<LabelStyle> 
			<scale>1.0</scale> 
		</LabelStyle> 
	</Style>
	<Style id="tc"> 
		<IconStyle> 
			<scale>1.0</scale> 
			<Icon> 
				<href>ex_nhemi.png</href> 
			</Icon> 
             <hotSpot x="15" y="17" xunits="pixels" yunits="pixels"/>
		</IconStyle> 
		<LabelStyle> 
			<scale>1.0</scale> 
		</LabelStyle> 
	</Style>
	<Style id="wv"> 
		<IconStyle> 
			<scale>1.0</scale> 
			<Icon> 
				<href>ex_nhemi.png</href> 
			</Icon> 
             <hotSpot x="15" y="17" xunits="pixels" yunits="pixels"/>
		</IconStyle> 
		<LabelStyle> 
			<scale>1.0</scale> 
		</LabelStyle> 
	</Style>
	<Style id="td"> 
		<IconStyle> 
			<scale>1.0</scale> 
			<Icon> 
				<href>td_nhemi.png</href> 
			</Icon> 
             <hotSpot x="15" y="17" xunits="pixels" yunits="pixels"/>
		</IconStyle> 
		<LabelStyle> 
			<scale>1.0</scale> 
		</LabelStyle> 
	</Style>
	<Style id="sd"> 
		<IconStyle> 
			<scale>1.0</scale> 
			<Icon> 
				<href>ex_nhemi.png</href> 
			</Icon> 
             <hotSpot x="15" y="17" xunits="pixels" yunits="pixels"/>
		</IconStyle> 
		<LabelStyle> 
			<scale>1.0</scale> 
		</LabelStyle> 
	</Style>

    <Placemark>
      <name>1200 UTC AUG 27</name>
      <styleUrl>#td</styleUrl>
      <description><![CDATA[
        <table>
          <tr><td>TD ASNA (IO022024)</td></tr>
          <tr><td><hr></td></tr>
          <tr><td>1200 UTC AUG 27, 2024</td></tr>
          <tr><td>Storm Location:</td></tr>
          <tr><td><b>24.3 N, 70.3 E</b></td></tr>
          <tr><td>Min Sea Level Pressure:</td></tr>
          <tr><td>1000 mb / 29.53 in Hg</td></tr>
          <tr><td>Maximum Intensity:</td></tr>
          <tr><td>30 kt / 35 mph / 56 kph</td></tr>
        </table>
      ]]></description>
      <Point><coordinates>70.3,24.3</coordinates></Point>
    </Placemark>
    <Placemark>
      <name>1800 UTC AUG 27</name>
      <styleUrl>#td</styleUrl>
      <description><![CDATA[
        <table>
          <tr><td>TD ASNA (IO022024)</td></tr>
          <tr><td><hr></td></tr>
          <tr><td>1800 UTC AUG 27, 2024</td></tr>
          <tr><td>Storm Location:</td></tr>
          <tr><td><b>24.3 N, 70.1 E</b></td></tr>
          <tr><td>Min Sea Level Pressure:</td></tr>
          <tr><td>1000 mb / 29.53 in Hg</td></tr>
          <tr><td>Maximum Intensity:</td></tr>
          <tr><td>30 kt / 35 mph / 56 kph</td></tr>
        </table>
      ]]></description>
      <Point><coordinates>70.1,24.3</coordinates></Point>
    </Placemark>
    <Placemark>
      <name>0000 UTC AUG 28</name>
      <styleUrl>#td</styleUrl>
      <description><![CDATA[
        <table>
          <tr><td>TD ASNA (IO022024)</td></tr>
          <tr><td><hr></td></tr>
          <tr><td>0000 UTC AUG 28, 2024</td></tr>
          <tr><td>Storm Location:</td></tr>
          <tr><td><b>24.3 N, 69.9 E</b></td></tr>
          <tr><td>Min Sea Level Pressure:</td></tr>
          <tr><td>1000 mb / 29.53 in Hg</td></tr>
          <tr><td>Maximum Intensity:</td></tr>
          <tr><td>30 kt / 35 mph / 56 kph</td></tr>
        </table>
      ]]></description>
      <Point><coordinates>69.9,24.3</coordinates></Point>
    </Placemark>
    <Placemark>
      <name>0600 UTC AUG 28</name>
      <styleUrl>#td</styleUrl>
      <description><![CDATA[
        <table>
          <tr><td>TD ASNA (IO022024)</td></tr>
          <tr><td><hr></td></tr>
          <tr><td>0600 UTC AUG 28, 2024</td></tr>
          <tr><td>Storm Location:</td></tr>
          <tr><td><b>24.1 N, 69.9 E</b></td></tr>
          <tr><td>Min Sea Level Pressure:</td></tr>
          <tr><td>999 mb / 29.50 in Hg</td></tr>
          <tr><td>Maximum Intensity:</td></tr>
          <tr><td>30 kt / 35 mph / 56 kph</td></tr>
        </table>
      ]]></description>
      <Point><coordinates>69.9,24.1</coordinates></Point>
    </Placemark>
    <Placemark>
      <name>1200 UTC AUG 28</name>
      <styleUrl>#td</styleUrl>
      <description><![CDATA[
        <table>
          <tr><td>TD ASNA (IO022024)</td></tr>
          <tr><td><hr></td></tr>
          <tr><td>1200 UTC AUG 28, 2024</td></tr>
          <tr><td>Storm Location:</td></tr>
          <tr><td><b>23.9 N, 69.9 E</b></td></tr>
          <tr><td>Min Sea Level Pressure:</td></tr>
          <tr><td>998 mb / 29.47 in Hg</td></tr>
          <tr><td>Maximum Intensity:</td></tr>
          <tr><td>30 kt / 35 mph / 56 kph</td></tr>
        </table>
      ]]></description>
      <Point><coordinates>69.9,23.9</coordinates></Point>
    </Placemark>
    <Placemark>
      <name>1800 UTC AUG 28</name>
      <styleUrl>#td</styleUrl>
      <description><![CDATA[
        <table>
          <tr><td>TD ASNA (IO022024)</td></tr>
          <tr><td><hr></td></tr>
          <tr><td>1800 UTC AUG 28, 2024</td></tr>
          <tr><td>Storm Location:</td></tr>
          <tr><td><b>23.8 N, 69.7 E</b></td></tr>
          <tr><td>Min Sea Level Pressure:</td></tr>
          <tr><td>997 mb / 29.44 in Hg</td></tr>
          <tr><td>Maximum Intensity:</td></tr>
          <tr><td>30 kt / 35 mph / 56 kph</td></tr>
        </table>
      ]]></description>
      <Point><coordinates>69.7,23.8</coordinates></Point>
    </Placemark>
    <Placemark>
      <name>0000 UTC AUG 29</name>
      <styleUrl>#td</styleUrl>
      <description><![CDATA[
        <table>
          <tr><td>TD ASNA (IO022024)</td></tr>
          <tr><td><hr></td></tr>
          <tr><td>0000 UTC AUG 29, 2024</td></tr>
          <tr><td>Storm Location:</td></tr>
          <tr><td><b>23.8 N, 69.5 E</b></td></tr>
          <tr><td>Min Sea Level Pressure:</td></tr>
          <tr><td>996 mb / 29.41 in Hg</td></tr>
          <tr><td>Maximum Intensity:</td></tr>
          <tr><td>30 kt / 35 mph / 56 kph</td></tr>
        </table>
      ]]></description>
      <Point><coordinates>69.5,23.8</coordinates></Point>
    </Placemark>
    <Placemark>
      <name>0600 UTC AUG 29</name>
      <styleUrl>#td</styleUrl>
      <description><![CDATA[
        <table>
          <tr><td>TD ASNA (IO022024)</td></tr>
          <tr><td><hr></td></tr>
          <tr><td>0600 UTC AUG 29, 2024</td></tr>
          <tr><td>Storm Location:</td></tr>
          <tr><td><b>23.6 N, 69.5 E</b></td></tr>
          <tr><td>Min Sea Level Pressure:</td></tr>
          <tr><td>992 mb / 29.29 in Hg</td></tr>
          <tr><td>Maximum Intensity:</td></tr>
          <tr><td>30 kt / 35 mph / 56 kph</td></tr>
        </table>
      ]]></description>
      <Point><coordinates>69.5,23.6</coordinates></Point>
    </Placemark>
    <Placemark>
      <name>1200 UTC AUG 29</name>
      <styleUrl>#ts</styleUrl>
      <description><![CDATA[
        <table>
          <tr><td>TS ASNA (IO022024)</td></tr>
          <tr><td><hr></td></tr>
          <tr><td>1200 UTC AUG 29, 2024</td></tr>
          <tr><td>Storm Location:</td></tr>
          <tr><td><b>23.5 N, 69.4 E</b></td></tr>
          <tr><td>Min Sea Level Pressure:</td></tr>
          <tr><td>989 mb / 29.21 in Hg</td></tr>
          <tr><td>Maximum Intensity:</td></tr>
          <tr><td>35 kt / 40 mph / 65 kph</td></tr>
        </table>
      ]]></description>
      <Point><coordinates>69.4,23.5</coordinates></Point>
    </Placemark>
    <Placemark>
      <name>1800 UTC AUG 29</name>
      <styleUrl>#ts</styleUrl>
      <description><![CDATA[
        <table>
          <tr><td>TS ASNA (IO022024)</td></tr>
          <tr><td><hr></td></tr>
          <tr><td>1800 UTC AUG 29, 2024</td></tr>
          <tr><td>Storm Location:</td></tr>
          <tr><td><b>23.3 N, 69.0 E</b></td></tr>
          <tr><td>Min Sea Level Pressure:</td></tr>
          <tr><td>989 mb / 29.21 in Hg</td></tr>
          <tr><td>Maximum Intensity:</td></tr>
          <tr><td>35 kt / 40 mph / 65 kph</td></tr>
        </table>
      ]]></description>
      <Point><coordinates>69,23.3</coordinates></Point>
    </Placemark>
    <Placemark>
      <name>0000 UTC AUG 30</name>
      <styleUrl>#ts</styleUrl>
      <description><![CDATA[
        <table>
          <tr><td>TS ASNA (IO022024)</td></tr>
          <tr><td><hr></td></tr>
          <tr><td>0000 UTC AUG 30, 2024</td></tr>
          <tr><td>Storm Location:</td></tr>
          <tr><td><b>23.1 N, 68.5 E</b></td></tr>
          <tr><td>Min Sea Level Pressure:</td></tr>
          <tr><td>987 mb / 29.15 in Hg</td></tr>
          <tr><td>Maximum Intensity:</td></tr>
          <tr><td>40 kt / 46 mph / 74 kph</td></tr>
        </table>
      ]]></description>
      <Point><coordinates>68.5,23.1</coordinates></Point>
    </Placemark>
    <Placemark>
      <name>0600 UTC AUG 30</name>
      <styleUrl>#ts</styleUrl>
      <description><![CDATA[
        <table>
          <tr><td>TS ASNA (IO022024)</td></tr>
          <tr><td><hr></td></tr>
          <tr><td>0600 UTC AUG 30, 2024</td></tr>
          <tr><td>Storm Location:</td></tr>
          <tr><td><b>23.2 N, 68.0 E</b></td></tr>
          <tr><td>Min Sea Level Pressure:</td></tr>
          <tr><td>987 mb / 29.15 in Hg</td></tr>
          <tr><td>Maximum Intensity:</td></tr>
          <tr><td>40 kt / 46 mph / 74 kph</td></tr>
        </table>
      ]]></description>
      <Point><coordinates>68,23.2</coordinates></Point>
    </Placemark>
    <Placemark>
      <name>1200 UTC AUG 30</name>
      <styleUrl>#ts</styleUrl>
      <description><![CDATA[
        <table>
          <tr><td>TS ASNA (IO022024)</td></tr>
          <tr><td><hr></td></tr>
          <tr><td>1200 UTC AUG 30, 2024</td></tr>
          <tr><td>Storm Location:</td></tr>
          <tr><td><b>23.3 N, 67.1 E</b></td></tr>
          <tr><td>Min Sea Level Pressure:</td></tr>
          <tr><td>988 mb / 29.18 in Hg</td></tr>
          <tr><td>Maximum Intensity:</td></tr>
          <tr><td>40 kt / 46 mph / 74 kph</td></tr>
        </table>
      ]]></description>
      <Point><coordinates>67.1,23.3</coordinates></Point>
    </Placemark>
    <Placemark>
      <name>1800 UTC AUG 30</name>
      <styleUrl>#ts</styleUrl>
      <description><![CDATA[
        <table>
          <tr><td>TS ASNA (IO022024)</td></tr>
          <tr><td><hr></td></tr>
          <tr><td>1800 UTC AUG 30, 2024</td></tr>
          <tr><td>Storm Location:</td></tr>
          <tr><td><b>23.5 N, 66.4 E</b></td></tr>
          <tr><td>Min Sea Level Pressure:</td></tr>
          <tr><td>991 mb / 29.26 in Hg</td></tr>
          <tr><td>Maximum Intensity:</td></tr>
          <tr><td>40 kt / 46 mph / 74 kph</td></tr>
        </table>
      ]]></description>
      <Point><coordinates>66.4,23.5</coordinates></Point>
    </Placemark>
    <Placemark>
      <name>0000 UTC AUG 31</name>
      <styleUrl>#ts</styleUrl>
      <description><![CDATA[
        <table>
          <tr><td>TS ASNA (IO022024)</td></tr>
          <tr><td><hr></td></tr>
          <tr><td>0000 UTC AUG 31, 2024</td></tr>
          <tr><td>Storm Location:</td></tr>
          <tr><td><b>23.4 N, 65.6 E</b></td></tr>
          <tr><td>Min Sea Level Pressure:</td></tr>
          <tr><td>990 mb / 29.23 in Hg</td></tr>
          <tr><td>Maximum Intensity:</td></tr>
          <tr><td>40 kt / 46 mph / 74 kph</td></tr>
        </table>
      ]]></description>
      <Point><coordinates>65.6,23.4</coordinates></Point>
    </Placemark>
    <Placemark>
      <name>0600 UTC AUG 31</name>
      <styleUrl>#ts</styleUrl>
      <description><![CDATA[
        <table>
          <tr><td>TS ASNA (IO022024)</td></tr>
          <tr><td><hr></td></tr>
          <tr><td>0600 UTC AUG 31, 2024</td></tr>
          <tr><td>Storm Location:</td></tr>
          <tr><td><b>23.3 N, 64.8 E</b></td></tr>
          <tr><td>Min Sea Level Pressure:</td></tr>
          <tr><td>995 mb / 29.38 in Hg</td></tr>
          <tr><td>Maximum Intensity:</td></tr>
          <tr><td>35 kt / 40 mph / 65 kph</td></tr>
        </table>
      ]]></description>
      <Point><coordinates>64.8,23.3</coordinates></Point>
    </Placemark>
    <Placemark>
      <name>1200 UTC AUG 31</name>
      <styleUrl>#ts</styleUrl>
      <description><![CDATA[
        <table>
          <tr><td>TS ASNA (IO022024)</td></tr>
          <tr><td><hr></td></tr>
          <tr><td>1200 UTC AUG 31, 2024</td></tr>
          <tr><td>Storm Location:</td></tr>
          <tr><td><b>23.3 N, 64.0 E</b></td></tr>
          <tr><td>Min Sea Level Pressure:</td></tr>
          <tr><td>992 mb / 29.29 in Hg</td></tr>
          <tr><td>Maximum Intensity:</td></tr>
          <tr><td>40 kt / 46 mph / 74 kph</td></tr>
        </table>
      ]]></description>
      <Point><coordinates>64,23.3</coordinates></Point>
    </Placemark>
    <Placemark>
      <name>1800 UTC AUG 31</name>
      <styleUrl>#ts</styleUrl>
      <description><![CDATA[
        <table>
          <tr><td>TS ASNA (IO022024)</td></tr>
          <tr><td><hr></td></tr>
          <tr><td>1800 UTC AUG 31, 2024</td></tr>
          <tr><td>Storm Location:</td></tr>
          <tr><td><b>23.2 N, 63.3 E</b></td></tr>
          <tr><td>Min Sea Level Pressure:</td></tr>
          <tr><td>993 mb / 29.32 in Hg</td></tr>
          <tr><td>Maximum Intensity:</td></tr>
          <tr><td>40 kt / 46 mph / 74 kph</td></tr>
        </table>
      ]]></description>
      <Point><coordinates>63.3,23.2</coordinates></Point>
    </Placemark>
    <Placemark>
      <name>0000 UTC SEP 1</name>
      <styleUrl>#ts</styleUrl>
      <description><![CDATA[
        <table>
          <tr><td>TS ASNA (IO022024)</td></tr>
          <tr><td><hr></td></tr>
          <tr><td>0000 UTC SEP 1, 2024</td></tr>
          <tr><td>Storm Location:</td></tr>
          <tr><td><b>23.0 N, 62.6 E</b></td></tr>
          <tr><td>Min Sea Level Pressure:</td></tr>
          <tr><td>992 mb / 29.29 in Hg</td></tr>
          <tr><td>Maximum Intensity:</td></tr>
          <tr><td>40 kt / 46 mph / 74 kph</td></tr>
        </table>
      ]]></description>
      <Point><coordinates>62.6,23</coordinates></Point>
    </Placemark>
    <Placemark>
      <name>0600 UTC SEP 1</name>
      <styleUrl>#ts</styleUrl>
      <description><![CDATA[
        <table>
          <tr><td>TS ASNA (IO022024)</td></tr>
          <tr><td><hr></td></tr>
          <tr><td>0600 UTC SEP 1, 2024</td></tr>
          <tr><td>Storm Location:</td></tr>
          <tr><td><b>22.7 N, 62.2 E</b></td></tr>
          <tr><td>Min Sea Level Pressure:</td></tr>
          <tr><td>992 mb / 29.29 in Hg</td></tr>
          <tr><td>Maximum Intensity:</td></tr>
          <tr><td>40 kt / 46 mph / 74 kph</td></tr>
        </table>
      ]]></description>
      <Point><coordinates>62.2,22.7</coordinates></Point>
    </Placemark>
    <Placemark>
      <name>1200 UTC SEP 1</name>
      <styleUrl>#td</styleUrl>
      <description><![CDATA[
        <table>
          <tr><td>TD ASNA (IO022024)</td></tr>
          <tr><td><hr></td></tr>
          <tr><td>1200 UTC SEP 1, 2024</td></tr>
          <tr><td>Storm Location:</td></tr>
          <tr><td><b>22.2 N, 61.9 E</b></td></tr>
          <tr><td>Min Sea Level Pressure:</td></tr>
          <tr><td>991 mb / 29.26 in Hg</td></tr>
          <tr><td>Maximum Intensity:</td></tr>
          <tr><td>30 kt / 35 mph / 56 kph</td></tr>
        </table>
      ]]></description>
      <Point><coordinates>61.9,22.2</coordinates></Point>
    </Placemark>
    <Placemark>
      <name>1800 UTC SEP 1</name>
      <styleUrl>#td</styleUrl>
      <description><![CDATA[
        <table>
          <tr><td>TD ASNA (IO022024)</td></tr>
          <tr><td><hr></td></tr>
          <tr><td>1800 UTC SEP 1, 2024</td></tr>
          <tr><td>Storm Location:</td></tr>
          <tr><td><b>21.6 N, 61.6 E</b></td></tr>
          <tr><td>Min Sea Level Pressure:</td></tr>
          <tr><td>989 mb / 29.21 in Hg</td></tr>
          <tr><td>Maximum Intensity:</td></tr>
          <tr><td>25 kt / 29 mph / 46 kph</td></tr>
        </table>
      ]]></description>
      <Point><coordinates>61.6,21.6</coordinates></Point>
    </Placemark>
    <Placemark>
      <name>0000 UTC SEP 2</name>
      <styleUrl>#td</styleUrl>
      <description><![CDATA[
        <table>
          <tr><td>TD ASNA (IO022024)</td></tr>
          <tr><td><hr></td></tr>
          <tr><td>0000 UTC SEP 2, 2024</td></tr>
          <tr><td>Storm Location:</td></tr>
          <tr><td><b>21.2 N, 61.4 E</b></td></tr>
          <tr><td>Min Sea Level Pressure:</td></tr>
          <tr><td>989 mb / 29.21 in Hg</td></tr>
          <tr><td>Maximum Intensity:</td></tr>
          <tr><td>25 kt / 29 mph / 46 kph</td></tr>
        </table>
      ]]></description>
      <Point><coordinates>61.4,21.2</coordinates></Point>
    </Placemark>
    <Placemark>
      <name>0600 UTC SEP 2</name>
      <styleUrl>#td</styleUrl>
      <description><![CDATA[
        <table>
          <tr><td>TD ASNA (IO022024)</td></tr>
          <tr><td><hr></td></tr>
          <tr><td>0600 UTC SEP 2, 2024</td></tr>
          <tr><td>Storm Location:</td></tr>
          <tr><td><b>20.6 N, 61.1 E</b></td></tr>
          <tr><td>Min Sea Level Pressure:</td></tr>
          <tr><td>990 mb / 29.23 in Hg</td></tr>
          <tr><td>Maximum Intensity:</td></tr>
          <tr><td>25 kt / 29 mph / 46 kph</td></tr>
        </table>
      ]]></description>
      <Point><coordinates>61.1,20.6</coordinates></Point>
    </Placemark>
    <Placemark>
      <name>1200 UTC SEP 2</name>
      <styleUrl>#td</styleUrl>
      <description><![CDATA[
        <table>
          <tr><td>TD ASNA (IO022024)</td></tr>
          <tr><td><hr></td></tr>
          <tr><td>1200 UTC SEP 2, 2024</td></tr>
          <tr><td>Storm Location:</td></tr>
          <tr><td><b>20.2 N, 61.0 E</b></td></tr>
          <tr><td>Min Sea Level Pressure:</td></tr>
          <tr><td>990 mb / 29.23 in Hg</td></tr>
          <tr><td>Maximum Intensity:</td></tr>
          <tr><td>25 kt / 29 mph / 46 kph</td></tr>
        </table>
      ]]></description>
      <Point><coordinates>61,20.2</coordinates></Point>
    </Placemark>
    <Placemark>
      <name>1800 UTC SEP 2</name>
      <styleUrl>#db</styleUrl>
      <description><![CDATA[
        <table>
          <tr><td>DB ASNA (IO022024)</td></tr>
          <tr><td><hr></td></tr>
          <tr><td>1800 UTC SEP 2, 2024</td></tr>
          <tr><td>Storm Location:</td></tr>
          <tr><td><b>19.7 N, 60.9 E</b></td></tr>
          <tr><td>Min Sea Level Pressure:</td></tr>
          <tr><td>993 mb / 29.32 in Hg</td></tr>
          <tr><td>Maximum Intensity:</td></tr>
          <tr><td>20 kt / 23 mph / 37 kph</td></tr>
        </table>
      ]]></description>
      <Point><coordinates>60.9,19.7</coordinates></Point>
    </Placemark>
    <Placemark>
      <name>0000 UTC SEP 3</name>
      <styleUrl>#db</styleUrl>
      <description><![CDATA[
        <table>
          <tr><td>DB ASNA (IO022024)</td></tr>
          <tr><td><hr></td></tr>
          <tr><td>0000 UTC SEP 3, 2024</td></tr>
          <tr><td>Storm Location:</td></tr>
          <tr><td><b>19.8 N, 60.8 E</b></td></tr>
          <tr><td>Min Sea Level Pressure:</td></tr>
          <tr><td>995 mb / 29.38 in Hg</td></tr>
          <tr><td>Maximum Intensity:</td></tr>
          <tr><td>15 kt / 17 mph / 28 kph</td></tr>
        </table>
      ]]></description>
      <Point><coordinates>60.8,19.8</coordinates></Point>
    </Placemark>
    <Placemark>
      <name>0600 UTC SEP 3</name>
      <styleUrl>#db</styleUrl>
      <description><![CDATA[
        <table>
          <tr><td>DB ASNA (IO022024)</td></tr>
          <tr><td><hr></td></tr>
          <tr><td>0600 UTC SEP 3, 2024</td></tr>
          <tr><td>Storm Location:</td></tr>
          <tr><td><b>19.9 N, 60.7 E</b></td></tr>
          <tr><td>Min Sea Level Pressure:</td></tr>
          <tr><td>995 mb / 29.38 in Hg</td></tr>
          <tr><td>Maximum Intensity:</td></tr>
          <tr><td>15 kt / 17 mph / 28 kph</td></tr>
        </table>
      ]]></description>
      <Point><coordinates>60.7,19.9</coordinates></Point>
    </Placemark>
  </Document>
</kml>
