<?xml version="1.0" encoding="UTF-8"?>
<kml xmlns="http://www.opengis.net/kml/2.2">
  <Document>
    <name>IO042024</name>
    <open>0</open>

    <!-- =====  Document header ===== -->
    <description><![CDATA[
      <table>
        <tr><td><b>Title:</b> Tropical Cyclone Best Track for IO042024</td></tr>
      </table>
    ]]></description>

    <!-- =====  Styles (ids must be unique)  ===== -->
	<Style id="pt"> 
		<IconStyle> 
			<scale>1.0</scale> 
			<Icon> 
				<href>ex_nhemi.png</href> 
			</Icon> 
             <hotSpot x="15" y="17" xunits="pixels" yunits="pixels"/>
		</IconStyle> 
		<LabelStyle> 
			<scale>1.0</scale> 
		</LabelStyle> 
	</Style>
	<Style id="cat5"> 
		<IconStyle> 
			<scale>1.0</scale> 
			<Icon> 
				<href>cat5_nhemi.png</href> 
			</Icon> 
             <hotSpot x="15" y="17" xunits="pixels" yunits="pixels"/>
		</IconStyle> 
		<LabelStyle> 
			<scale>1.0</scale> 
		</LabelStyle> 
	</Style>
	<Style id="db"> 
		<IconStyle> 
			<scale>1.0</scale> 
			<Icon> 
				<href>ex_nhemi.png</href> 
			</Icon> 
             <hotSpot x="15" y="17" xunits="pixels" yunits="pixels"/>
		</IconStyle> 
		<LabelStyle> 
			<scale>1.0</scale> 
		</LabelStyle> 
	</Style>
	<Style id="cat3"> 
		<IconStyle> 
			<scale>1.0</scale> 
			<Icon> 
				<href>cat3_nhemi.png</href> 
			</Icon> 
             <hotSpot x="15" y="17" xunits="pixels" yunits="pixels"/>
		</IconStyle> 
		<LabelStyle> 
			<scale>1.0</scale> 
		</LabelStyle> 
	</Style>
	<Style id="ss"> 
		<IconStyle> 
			<scale>1.0</scale> 
			<Icon> 
				<href>ts_nhemi.png</href> 
			</Icon> 
             <hotSpot x="15" y="17" xunits="pixels" yunits="pixels"/>
		</IconStyle> 
		<LabelStyle> 
			<scale>1.0</scale> 
		</LabelStyle> 
	</Style>
	<Style id="lo"> 
		<IconStyle> 
			<scale>1.0</scale> 
			<Icon> 
				<href>ex_nhemi.png</href> 
			</Icon> 
             <hotSpot x="15" y="17" xunits="pixels" yunits="pixels"/>
		</IconStyle> 
		<LabelStyle> 
			<scale>1.0</scale> 
		</LabelStyle> 
	</Style>
	<Style id="cat4"> 
		<IconStyle> 
			<scale>1.0</scale> 
			<Icon> 
				<href>cat4_nhemi.png</href> 
			</Icon> 
             <hotSpot x="15" y="17" xunits="pixels" yunits="pixels"/>
		</IconStyle> 
		<LabelStyle> 
			<scale>1.0</scale> 
		</LabelStyle> 
	</Style>
	<Style id="cat2"> 
		<IconStyle> 
			<scale>1.0</scale> 
			<Icon> 
				<href>cat2_nhemi.png</href> 
			</Icon> 
             <hotSpot x="15" y="17" xunits="pixels" yunits="pixels"/>
		</IconStyle> 
		<LabelStyle> 
			<scale>1.0</scale> 
		</LabelStyle> 
	</Style>
	<Style id="ts"> 
		<IconStyle> 
			<scale>1.0</scale> 
			<Icon> 
				<href>ts_nhemi.png</href> 
			</Icon> 
             <hotSpot x="15" y="17" xunits="pixels" yunits="pixels"/>
		</IconStyle> 
		<LabelStyle> 
			<scale>1.0</scale> 
		</LabelStyle> 
	</Style>
	<Style id="cat1"> 
		<IconStyle> 
			<scale>1.0</scale> 
			<Icon> 
				<href>cat1_nhemi.png</href> 
			</Icon> 
             <hotSpot x="15" y="17" xunits="pixels" yunits="pixels"/>
		</IconStyle> 
		<LabelStyle> 
			<scale>1.0</scale> 
		</LabelStyle> 
	</Style>
	<Style id="ex"> 
		<IconStyle> 
			<scale>1.0</scale> 
			<Icon> 
				<href>ex_nhemi.png</href> 
			</Icon> 
             <hotSpot x="15" y="17" xunits="pixels" yunits="pixels"/>
		</IconStyle> 
		<LabelStyle> 
			<scale>1.0</scale> 
		</LabelStyle> 
	</Style>
	<Style id="tc"> 
		<IconStyle> 
			<scale>1.0</scale> 
			<Icon> 
				<href>ex_nhemi.png</href> 
			</Icon> 
             <hotSpot x="15" y="17" xunits="pixels" yunits="pixels"/>
		</IconStyle> 
		<LabelStyle> 
			<scale>1.0</scale> 
		</LabelStyle> 
	</Style>
	<Style id="wv"> 
		<IconStyle> 
			<scale>1.0</scale> 
			<Icon> 
				<href>ex_nhemi.png</href> 
			</Icon> 
             <hotSpot x="15" y="17" xunits="pixels" yunits="pixels"/>
		</IconStyle> 
		<LabelStyle> 
			<scale>1.0</scale> 
		</LabelStyle> 
	</Style>
	<Style id="td"> 
		<IconStyle> 
			<scale>1.0</scale> 
			<Icon> 
				<href>td_nhemi.png</href> 
			</Icon> 
             <hotSpot x="15" y="17" xunits="pixels" yunits="pixels"/>
		</IconStyle> 
		<LabelStyle> 
			<scale>1.0</scale> 
		</LabelStyle> 
	</Style>
	<Style id="sd"> 
		<IconStyle> 
			<scale>1.0</scale> 
			<Icon> 
				<href>ex_nhemi.png</href> 
			</Icon> 
             <hotSpot x="15" y="17" xunits="pixels" yunits="pixels"/>
		</IconStyle> 
		<LabelStyle> 
			<scale>1.0</scale> 
		</LabelStyle> 
	</Style>

    <Placemark>
      <name>1800 UTC NOV 23</name>
      <styleUrl>#td</styleUrl>
      <description><![CDATA[
        <table>
          <tr><td>TD FENGAL (IO042024)</td></tr>
          <tr><td><hr></td></tr>
          <tr><td>1800 UTC NOV 23, 2024</td></tr>
          <tr><td>Storm Location:</td></tr>
          <tr><td><b>3.6 N, 88.9 E</b></td></tr>
          <tr><td>Min Sea Level Pressure:</td></tr>
          <tr><td>998 mb / 29.47 in Hg</td></tr>
          <tr><td>Maximum Intensity:</td></tr>
          <tr><td>25 kt / 29 mph / 46 kph</td></tr>
        </table>
      ]]></description>
      <Point><coordinates>88.9,3.6</coordinates></Point>
    </Placemark>
    <Placemark>
      <name>0000 UTC NOV 24</name>
      <styleUrl>#db</styleUrl>
      <description><![CDATA[
        <table>
          <tr><td>DB FENGAL (IO042024)</td></tr>
          <tr><td><hr></td></tr>
          <tr><td>0000 UTC NOV 24, 2024</td></tr>
          <tr><td>Storm Location:</td></tr>
          <tr><td><b>3.7 N, 87.8 E</b></td></tr>
          <tr><td>Min Sea Level Pressure:</td></tr>
          <tr><td>999 mb / 29.50 in Hg</td></tr>
          <tr><td>Maximum Intensity:</td></tr>
          <tr><td>20 kt / 23 mph / 37 kph</td></tr>
        </table>
      ]]></description>
      <Point><coordinates>87.8,3.7</coordinates></Point>
    </Placemark>
    <Placemark>
      <name>0600 UTC NOV 24</name>
      <styleUrl>#db</styleUrl>
      <description><![CDATA[
        <table>
          <tr><td>DB FENGAL (IO042024)</td></tr>
          <tr><td><hr></td></tr>
          <tr><td>0600 UTC NOV 24, 2024</td></tr>
          <tr><td>Storm Location:</td></tr>
          <tr><td><b>3.8 N, 86.8 E</b></td></tr>
          <tr><td>Min Sea Level Pressure:</td></tr>
          <tr><td>999 mb / 29.50 in Hg</td></tr>
          <tr><td>Maximum Intensity:</td></tr>
          <tr><td>20 kt / 23 mph / 37 kph</td></tr>
        </table>
      ]]></description>
      <Point><coordinates>86.8,3.8</coordinates></Point>
    </Placemark>
    <Placemark>
      <name>1200 UTC NOV 24</name>
      <styleUrl>#db</styleUrl>
      <description><![CDATA[
        <table>
          <tr><td>DB FENGAL (IO042024)</td></tr>
          <tr><td><hr></td></tr>
          <tr><td>1200 UTC NOV 24, 2024</td></tr>
          <tr><td>Storm Location:</td></tr>
          <tr><td><b>4.0 N, 85.6 E</b></td></tr>
          <tr><td>Min Sea Level Pressure:</td></tr>
          <tr><td>999 mb / 29.50 in Hg</td></tr>
          <tr><td>Maximum Intensity:</td></tr>
          <tr><td>20 kt / 23 mph / 37 kph</td></tr>
        </table>
      ]]></description>
      <Point><coordinates>85.6,4</coordinates></Point>
    </Placemark>
    <Placemark>
      <name>1800 UTC NOV 24</name>
      <styleUrl>#td</styleUrl>
      <description><![CDATA[
        <table>
          <tr><td>TD FENGAL (IO042024)</td></tr>
          <tr><td><hr></td></tr>
          <tr><td>1800 UTC NOV 24, 2024</td></tr>
          <tr><td>Storm Location:</td></tr>
          <tr><td><b>4.2 N, 84.7 E</b></td></tr>
          <tr><td>Min Sea Level Pressure:</td></tr>
          <tr><td>997 mb / 29.44 in Hg</td></tr>
          <tr><td>Maximum Intensity:</td></tr>
          <tr><td>25 kt / 29 mph / 46 kph</td></tr>
        </table>
      ]]></description>
      <Point><coordinates>84.7,4.2</coordinates></Point>
    </Placemark>
    <Placemark>
      <name>0000 UTC NOV 25</name>
      <styleUrl>#td</styleUrl>
      <description><![CDATA[
        <table>
          <tr><td>TD FENGAL (IO042024)</td></tr>
          <tr><td><hr></td></tr>
          <tr><td>0000 UTC NOV 25, 2024</td></tr>
          <tr><td>Storm Location:</td></tr>
          <tr><td><b>4.3 N, 83.9 E</b></td></tr>
          <tr><td>Min Sea Level Pressure:</td></tr>
          <tr><td>997 mb / 29.44 in Hg</td></tr>
          <tr><td>Maximum Intensity:</td></tr>
          <tr><td>30 kt / 35 mph / 56 kph</td></tr>
        </table>
      ]]></description>
      <Point><coordinates>83.9,4.3</coordinates></Point>
    </Placemark>
    <Placemark>
      <name>0600 UTC NOV 25</name>
      <styleUrl>#td</styleUrl>
      <description><![CDATA[
        <table>
          <tr><td>TD FENGAL (IO042024)</td></tr>
          <tr><td><hr></td></tr>
          <tr><td>0600 UTC NOV 25, 2024</td></tr>
          <tr><td>Storm Location:</td></tr>
          <tr><td><b>4.4 N, 83.2 E</b></td></tr>
          <tr><td>Min Sea Level Pressure:</td></tr>
          <tr><td>997 mb / 29.44 in Hg</td></tr>
          <tr><td>Maximum Intensity:</td></tr>
          <tr><td>30 kt / 35 mph / 56 kph</td></tr>
        </table>
      ]]></description>
      <Point><coordinates>83.2,4.4</coordinates></Point>
    </Placemark>
    <Placemark>
      <name>1200 UTC NOV 25</name>
      <styleUrl>#td</styleUrl>
      <description><![CDATA[
        <table>
          <tr><td>TD FENGAL (IO042024)</td></tr>
          <tr><td><hr></td></tr>
          <tr><td>1200 UTC NOV 25, 2024</td></tr>
          <tr><td>Storm Location:</td></tr>
          <tr><td><b>5.1 N, 83.0 E</b></td></tr>
          <tr><td>Min Sea Level Pressure:</td></tr>
          <tr><td>996 mb / 29.41 in Hg</td></tr>
          <tr><td>Maximum Intensity:</td></tr>
          <tr><td>25 kt / 29 mph / 46 kph</td></tr>
        </table>
      ]]></description>
      <Point><coordinates>83,5.1</coordinates></Point>
    </Placemark>
    <Placemark>
      <name>1800 UTC NOV 25</name>
      <styleUrl>#td</styleUrl>
      <description><![CDATA[
        <table>
          <tr><td>TD FENGAL (IO042024)</td></tr>
          <tr><td><hr></td></tr>
          <tr><td>1800 UTC NOV 25, 2024</td></tr>
          <tr><td>Storm Location:</td></tr>
          <tr><td><b>5.7 N, 83.0 E</b></td></tr>
          <tr><td>Min Sea Level Pressure:</td></tr>
          <tr><td>996 mb / 29.41 in Hg</td></tr>
          <tr><td>Maximum Intensity:</td></tr>
          <tr><td>30 kt / 35 mph / 56 kph</td></tr>
        </table>
      ]]></description>
      <Point><coordinates>83,5.7</coordinates></Point>
    </Placemark>
    <Placemark>
      <name>0000 UTC NOV 26</name>
      <styleUrl>#td</styleUrl>
      <description><![CDATA[
        <table>
          <tr><td>TD FENGAL (IO042024)</td></tr>
          <tr><td><hr></td></tr>
          <tr><td>0000 UTC NOV 26, 2024</td></tr>
          <tr><td>Storm Location:</td></tr>
          <tr><td><b>6.2 N, 83.2 E</b></td></tr>
          <tr><td>Min Sea Level Pressure:</td></tr>
          <tr><td>996 mb / 29.41 in Hg</td></tr>
          <tr><td>Maximum Intensity:</td></tr>
          <tr><td>30 kt / 35 mph / 56 kph</td></tr>
        </table>
      ]]></description>
      <Point><coordinates>83.2,6.2</coordinates></Point>
    </Placemark>
    <Placemark>
      <name>0600 UTC NOV 26</name>
      <styleUrl>#td</styleUrl>
      <description><![CDATA[
        <table>
          <tr><td>TD FENGAL (IO042024)</td></tr>
          <tr><td><hr></td></tr>
          <tr><td>0600 UTC NOV 26, 2024</td></tr>
          <tr><td>Storm Location:</td></tr>
          <tr><td><b>7.0 N, 82.9 E</b></td></tr>
          <tr><td>Min Sea Level Pressure:</td></tr>
          <tr><td>996 mb / 29.41 in Hg</td></tr>
          <tr><td>Maximum Intensity:</td></tr>
          <tr><td>30 kt / 35 mph / 56 kph</td></tr>
        </table>
      ]]></description>
      <Point><coordinates>82.9,7</coordinates></Point>
    </Placemark>
    <Placemark>
      <name>1200 UTC NOV 26</name>
      <styleUrl>#td</styleUrl>
      <description><![CDATA[
        <table>
          <tr><td>TD FENGAL (IO042024)</td></tr>
          <tr><td><hr></td></tr>
          <tr><td>1200 UTC NOV 26, 2024</td></tr>
          <tr><td>Storm Location:</td></tr>
          <tr><td><b>7.6 N, 82.8 E</b></td></tr>
          <tr><td>Min Sea Level Pressure:</td></tr>
          <tr><td>996 mb / 29.41 in Hg</td></tr>
          <tr><td>Maximum Intensity:</td></tr>
          <tr><td>30 kt / 35 mph / 56 kph</td></tr>
        </table>
      ]]></description>
      <Point><coordinates>82.8,7.6</coordinates></Point>
    </Placemark>
    <Placemark>
      <name>1800 UTC NOV 26</name>
      <styleUrl>#td</styleUrl>
      <description><![CDATA[
        <table>
          <tr><td>TD FENGAL (IO042024)</td></tr>
          <tr><td><hr></td></tr>
          <tr><td>1800 UTC NOV 26, 2024</td></tr>
          <tr><td>Storm Location:</td></tr>
          <tr><td><b>8.1 N, 82.7 E</b></td></tr>
          <tr><td>Min Sea Level Pressure:</td></tr>
          <tr><td>996 mb / 29.41 in Hg</td></tr>
          <tr><td>Maximum Intensity:</td></tr>
          <tr><td>30 kt / 35 mph / 56 kph</td></tr>
        </table>
      ]]></description>
      <Point><coordinates>82.7,8.1</coordinates></Point>
    </Placemark>
    <Placemark>
      <name>0000 UTC NOV 27</name>
      <styleUrl>#td</styleUrl>
      <description><![CDATA[
        <table>
          <tr><td>TD FENGAL (IO042024)</td></tr>
          <tr><td><hr></td></tr>
          <tr><td>0000 UTC NOV 27, 2024</td></tr>
          <tr><td>Storm Location:</td></tr>
          <tr><td><b>8.4 N, 82.4 E</b></td></tr>
          <tr><td>Min Sea Level Pressure:</td></tr>
          <tr><td>995 mb / 29.38 in Hg</td></tr>
          <tr><td>Maximum Intensity:</td></tr>
          <tr><td>30 kt / 35 mph / 56 kph</td></tr>
        </table>
      ]]></description>
      <Point><coordinates>82.4,8.4</coordinates></Point>
    </Placemark>
    <Placemark>
      <name>0600 UTC NOV 27</name>
      <styleUrl>#td</styleUrl>
      <description><![CDATA[
        <table>
          <tr><td>TD FENGAL (IO042024)</td></tr>
          <tr><td><hr></td></tr>
          <tr><td>0600 UTC NOV 27, 2024</td></tr>
          <tr><td>Storm Location:</td></tr>
          <tr><td><b>8.7 N, 82.3 E</b></td></tr>
          <tr><td>Min Sea Level Pressure:</td></tr>
          <tr><td>996 mb / 29.41 in Hg</td></tr>
          <tr><td>Maximum Intensity:</td></tr>
          <tr><td>30 kt / 35 mph / 56 kph</td></tr>
        </table>
      ]]></description>
      <Point><coordinates>82.3,8.7</coordinates></Point>
    </Placemark>
    <Placemark>
      <name>1200 UTC NOV 27</name>
      <styleUrl>#td</styleUrl>
      <description><![CDATA[
        <table>
          <tr><td>TD FENGAL (IO042024)</td></tr>
          <tr><td><hr></td></tr>
          <tr><td>1200 UTC NOV 27, 2024</td></tr>
          <tr><td>Storm Location:</td></tr>
          <tr><td><b>8.7 N, 82.4 E</b></td></tr>
          <tr><td>Min Sea Level Pressure:</td></tr>
          <tr><td>995 mb / 29.38 in Hg</td></tr>
          <tr><td>Maximum Intensity:</td></tr>
          <tr><td>30 kt / 35 mph / 56 kph</td></tr>
        </table>
      ]]></description>
      <Point><coordinates>82.4,8.7</coordinates></Point>
    </Placemark>
    <Placemark>
      <name>1800 UTC NOV 27</name>
      <styleUrl>#td</styleUrl>
      <description><![CDATA[
        <table>
          <tr><td>TD FENGAL (IO042024)</td></tr>
          <tr><td><hr></td></tr>
          <tr><td>1800 UTC NOV 27, 2024</td></tr>
          <tr><td>Storm Location:</td></tr>
          <tr><td><b>8.9 N, 83.2 E</b></td></tr>
          <tr><td>Min Sea Level Pressure:</td></tr>
          <tr><td>996 mb / 29.41 in Hg</td></tr>
          <tr><td>Maximum Intensity:</td></tr>
          <tr><td>30 kt / 35 mph / 56 kph</td></tr>
        </table>
      ]]></description>
      <Point><coordinates>83.2,8.9</coordinates></Point>
    </Placemark>
    <Placemark>
      <name>0000 UTC NOV 28</name>
      <styleUrl>#td</styleUrl>
      <description><![CDATA[
        <table>
          <tr><td>TD FENGAL (IO042024)</td></tr>
          <tr><td><hr></td></tr>
          <tr><td>0000 UTC NOV 28, 2024</td></tr>
          <tr><td>Storm Location:</td></tr>
          <tr><td><b>9.3 N, 83.3 E</b></td></tr>
          <tr><td>Min Sea Level Pressure:</td></tr>
          <tr><td>996 mb / 29.41 in Hg</td></tr>
          <tr><td>Maximum Intensity:</td></tr>
          <tr><td>30 kt / 35 mph / 56 kph</td></tr>
        </table>
      ]]></description>
      <Point><coordinates>83.3,9.3</coordinates></Point>
    </Placemark>
    <Placemark>
      <name>0600 UTC NOV 28</name>
      <styleUrl>#td</styleUrl>
      <description><![CDATA[
        <table>
          <tr><td>TD FENGAL (IO042024)</td></tr>
          <tr><td><hr></td></tr>
          <tr><td>0600 UTC NOV 28, 2024</td></tr>
          <tr><td>Storm Location:</td></tr>
          <tr><td><b>9.3 N, 83.9 E</b></td></tr>
          <tr><td>Min Sea Level Pressure:</td></tr>
          <tr><td>996 mb / 29.41 in Hg</td></tr>
          <tr><td>Maximum Intensity:</td></tr>
          <tr><td>30 kt / 35 mph / 56 kph</td></tr>
        </table>
      ]]></description>
      <Point><coordinates>83.9,9.3</coordinates></Point>
    </Placemark>
    <Placemark>
      <name>1200 UTC NOV 28</name>
      <styleUrl>#td</styleUrl>
      <description><![CDATA[
        <table>
          <tr><td>TD FENGAL (IO042024)</td></tr>
          <tr><td><hr></td></tr>
          <tr><td>1200 UTC NOV 28, 2024</td></tr>
          <tr><td>Storm Location:</td></tr>
          <tr><td><b>9.6 N, 84.0 E</b></td></tr>
          <tr><td>Min Sea Level Pressure:</td></tr>
          <tr><td>996 mb / 29.41 in Hg</td></tr>
          <tr><td>Maximum Intensity:</td></tr>
          <tr><td>30 kt / 35 mph / 56 kph</td></tr>
        </table>
      ]]></description>
      <Point><coordinates>84,9.6</coordinates></Point>
    </Placemark>
    <Placemark>
      <name>1800 UTC NOV 28</name>
      <styleUrl>#td</styleUrl>
      <description><![CDATA[
        <table>
          <tr><td>TD FENGAL (IO042024)</td></tr>
          <tr><td><hr></td></tr>
          <tr><td>1800 UTC NOV 28, 2024</td></tr>
          <tr><td>Storm Location:</td></tr>
          <tr><td><b>10.3 N, 84.2 E</b></td></tr>
          <tr><td>Min Sea Level Pressure:</td></tr>
          <tr><td>996 mb / 29.41 in Hg</td></tr>
          <tr><td>Maximum Intensity:</td></tr>
          <tr><td>30 kt / 35 mph / 56 kph</td></tr>
        </table>
      ]]></description>
      <Point><coordinates>84.2,10.3</coordinates></Point>
    </Placemark>
    <Placemark>
      <name>0000 UTC NOV 29</name>
      <styleUrl>#td</styleUrl>
      <description><![CDATA[
        <table>
          <tr><td>TD FENGAL (IO042024)</td></tr>
          <tr><td><hr></td></tr>
          <tr><td>0000 UTC NOV 29, 2024</td></tr>
          <tr><td>Storm Location:</td></tr>
          <tr><td><b>11.0 N, 83.1 E</b></td></tr>
          <tr><td>Min Sea Level Pressure:</td></tr>
          <tr><td>995 mb / 29.38 in Hg</td></tr>
          <tr><td>Maximum Intensity:</td></tr>
          <tr><td>30 kt / 35 mph / 56 kph</td></tr>
        </table>
      ]]></description>
      <Point><coordinates>83.1,11</coordinates></Point>
    </Placemark>
    <Placemark>
      <name>0600 UTC NOV 29</name>
      <styleUrl>#ts</styleUrl>
      <description><![CDATA[
        <table>
          <tr><td>TS FENGAL (IO042024)</td></tr>
          <tr><td><hr></td></tr>
          <tr><td>0600 UTC NOV 29, 2024</td></tr>
          <tr><td>Storm Location:</td></tr>
          <tr><td><b>11.4 N, 82.6 E</b></td></tr>
          <tr><td>Min Sea Level Pressure:</td></tr>
          <tr><td>994 mb / 29.35 in Hg</td></tr>
          <tr><td>Maximum Intensity:</td></tr>
          <tr><td>35 kt / 40 mph / 65 kph</td></tr>
        </table>
      ]]></description>
      <Point><coordinates>82.6,11.4</coordinates></Point>
    </Placemark>
    <Placemark>
      <name>1200 UTC NOV 29</name>
      <styleUrl>#ts</styleUrl>
      <description><![CDATA[
        <table>
          <tr><td>TS FENGAL (IO042024)</td></tr>
          <tr><td><hr></td></tr>
          <tr><td>1200 UTC NOV 29, 2024</td></tr>
          <tr><td>Storm Location:</td></tr>
          <tr><td><b>11.9 N, 82.2 E</b></td></tr>
          <tr><td>Min Sea Level Pressure:</td></tr>
          <tr><td>994 mb / 29.35 in Hg</td></tr>
          <tr><td>Maximum Intensity:</td></tr>
          <tr><td>35 kt / 40 mph / 65 kph</td></tr>
        </table>
      ]]></description>
      <Point><coordinates>82.2,11.9</coordinates></Point>
    </Placemark>
    <Placemark>
      <name>1800 UTC NOV 29</name>
      <styleUrl>#ts</styleUrl>
      <description><![CDATA[
        <table>
          <tr><td>TS FENGAL (IO042024)</td></tr>
          <tr><td><hr></td></tr>
          <tr><td>1800 UTC NOV 29, 2024</td></tr>
          <tr><td>Storm Location:</td></tr>
          <tr><td><b>12.3 N, 81.8 E</b></td></tr>
          <tr><td>Min Sea Level Pressure:</td></tr>
          <tr><td>993 mb / 29.32 in Hg</td></tr>
          <tr><td>Maximum Intensity:</td></tr>
          <tr><td>40 kt / 46 mph / 74 kph</td></tr>
        </table>
      ]]></description>
      <Point><coordinates>81.8,12.3</coordinates></Point>
    </Placemark>
    <Placemark>
      <name>0000 UTC NOV 30</name>
      <styleUrl>#ts</styleUrl>
      <description><![CDATA[
        <table>
          <tr><td>TS FENGAL (IO042024)</td></tr>
          <tr><td><hr></td></tr>
          <tr><td>0000 UTC NOV 30, 2024</td></tr>
          <tr><td>Storm Location:</td></tr>
          <tr><td><b>12.5 N, 81.4 E</b></td></tr>
          <tr><td>Min Sea Level Pressure:</td></tr>
          <tr><td>992 mb / 29.29 in Hg</td></tr>
          <tr><td>Maximum Intensity:</td></tr>
          <tr><td>45 kt / 52 mph / 83 kph</td></tr>
        </table>
      ]]></description>
      <Point><coordinates>81.4,12.5</coordinates></Point>
    </Placemark>
    <Placemark>
      <name>0600 UTC NOV 30</name>
      <styleUrl>#ts</styleUrl>
      <description><![CDATA[
        <table>
          <tr><td>TS FENGAL (IO042024)</td></tr>
          <tr><td><hr></td></tr>
          <tr><td>0600 UTC NOV 30, 2024</td></tr>
          <tr><td>Storm Location:</td></tr>
          <tr><td><b>12.4 N, 81.0 E</b></td></tr>
          <tr><td>Min Sea Level Pressure:</td></tr>
          <tr><td>992 mb / 29.29 in Hg</td></tr>
          <tr><td>Maximum Intensity:</td></tr>
          <tr><td>45 kt / 52 mph / 83 kph</td></tr>
        </table>
      ]]></description>
      <Point><coordinates>81,12.4</coordinates></Point>
    </Placemark>
    <Placemark>
      <name>1200 UTC NOV 30</name>
      <styleUrl>#ts</styleUrl>
      <description><![CDATA[
        <table>
          <tr><td>TS FENGAL (IO042024)</td></tr>
          <tr><td><hr></td></tr>
          <tr><td>1200 UTC NOV 30, 2024</td></tr>
          <tr><td>Storm Location:</td></tr>
          <tr><td><b>12.3 N, 80.7 E</b></td></tr>
          <tr><td>Min Sea Level Pressure:</td></tr>
          <tr><td>992 mb / 29.29 in Hg</td></tr>
          <tr><td>Maximum Intensity:</td></tr>
          <tr><td>45 kt / 52 mph / 83 kph</td></tr>
        </table>
      ]]></description>
      <Point><coordinates>80.7,12.3</coordinates></Point>
    </Placemark>
    <Placemark>
      <name>1800 UTC NOV 30</name>
      <styleUrl>#ts</styleUrl>
      <description><![CDATA[
        <table>
          <tr><td>TS FENGAL (IO042024)</td></tr>
          <tr><td><hr></td></tr>
          <tr><td>1800 UTC NOV 30, 2024</td></tr>
          <tr><td>Storm Location:</td></tr>
          <tr><td><b>12.2 N, 80.4 E</b></td></tr>
          <tr><td>Min Sea Level Pressure:</td></tr>
          <tr><td>994 mb / 29.35 in Hg</td></tr>
          <tr><td>Maximum Intensity:</td></tr>
          <tr><td>40 kt / 46 mph / 74 kph</td></tr>
        </table>
      ]]></description>
      <Point><coordinates>80.4,12.2</coordinates></Point>
    </Placemark>
    <Placemark>
      <name>0000 UTC DEC 1</name>
      <styleUrl>#ts</styleUrl>
      <description><![CDATA[
        <table>
          <tr><td>TS FENGAL (IO042024)</td></tr>
          <tr><td><hr></td></tr>
          <tr><td>0000 UTC DEC 1, 2024</td></tr>
          <tr><td>Storm Location:</td></tr>
          <tr><td><b>12.1 N, 80.0 E</b></td></tr>
          <tr><td>Min Sea Level Pressure:</td></tr>
          <tr><td>991 mb / 29.26 in Hg</td></tr>
          <tr><td>Maximum Intensity:</td></tr>
          <tr><td>45 kt / 52 mph / 83 kph</td></tr>
        </table>
      ]]></description>
      <Point><coordinates>80,12.1</coordinates></Point>
    </Placemark>
    <Placemark>
      <name>0600 UTC DEC 1</name>
      <styleUrl>#ts</styleUrl>
      <description><![CDATA[
        <table>
          <tr><td>TS FENGAL (IO042024)</td></tr>
          <tr><td><hr></td></tr>
          <tr><td>0600 UTC DEC 1, 2024</td></tr>
          <tr><td>Storm Location:</td></tr>
          <tr><td><b>12.1 N, 79.7 E</b></td></tr>
          <tr><td>Min Sea Level Pressure:</td></tr>
          <tr><td>995 mb / 29.38 in Hg</td></tr>
          <tr><td>Maximum Intensity:</td></tr>
          <tr><td>35 kt / 40 mph / 65 kph</td></tr>
        </table>
      ]]></description>
      <Point><coordinates>79.7,12.1</coordinates></Point>
    </Placemark>
    <Placemark>
      <name>1200 UTC DEC 1</name>
      <styleUrl>#td</styleUrl>
      <description><![CDATA[
        <table>
          <tr><td>TD FENGAL (IO042024)</td></tr>
          <tr><td><hr></td></tr>
          <tr><td>1200 UTC DEC 1, 2024</td></tr>
          <tr><td>Storm Location:</td></tr>
          <tr><td><b>12.1 N, 79.5 E</b></td></tr>
          <tr><td>Min Sea Level Pressure:</td></tr>
          <tr><td>998 mb / 29.47 in Hg</td></tr>
          <tr><td>Maximum Intensity:</td></tr>
          <tr><td>30 kt / 35 mph / 56 kph</td></tr>
        </table>
      ]]></description>
      <Point><coordinates>79.5,12.1</coordinates></Point>
    </Placemark>
    <Placemark>
      <name>1800 UTC DEC 1</name>
      <styleUrl>#td</styleUrl>
      <description><![CDATA[
        <table>
          <tr><td>TD FENGAL (IO042024)</td></tr>
          <tr><td><hr></td></tr>
          <tr><td>1800 UTC DEC 1, 2024</td></tr>
          <tr><td>Storm Location:</td></tr>
          <tr><td><b>12.2 N, 79.3 E</b></td></tr>
          <tr><td>Min Sea Level Pressure:</td></tr>
          <tr><td>999 mb / 29.50 in Hg</td></tr>
          <tr><td>Maximum Intensity:</td></tr>
          <tr><td>25 kt / 29 mph / 46 kph</td></tr>
        </table>
      ]]></description>
      <Point><coordinates>79.3,12.2</coordinates></Point>
    </Placemark>
    <Placemark>
      <name>0000 UTC DEC 2</name>
      <styleUrl>#db</styleUrl>
      <description><![CDATA[
        <table>
          <tr><td>DB FENGAL (IO042024)</td></tr>
          <tr><td><hr></td></tr>
          <tr><td>0000 UTC DEC 2, 2024</td></tr>
          <tr><td>Storm Location:</td></tr>
          <tr><td><b>12.1 N, 79.1 E</b></td></tr>
          <tr><td>Min Sea Level Pressure:</td></tr>
          <tr><td>1000 mb / 29.53 in Hg</td></tr>
          <tr><td>Maximum Intensity:</td></tr>
          <tr><td>20 kt / 23 mph / 37 kph</td></tr>
        </table>
      ]]></description>
      <Point><coordinates>79.1,12.1</coordinates></Point>
    </Placemark>
    <Placemark>
      <name>0600 UTC DEC 2</name>
      <styleUrl>#db</styleUrl>
      <description><![CDATA[
        <table>
          <tr><td>DB FENGAL (IO042024)</td></tr>
          <tr><td><hr></td></tr>
          <tr><td>0600 UTC DEC 2, 2024</td></tr>
          <tr><td>Storm Location:</td></tr>
          <tr><td><b>12.2 N, 78.6 E</b></td></tr>
          <tr><td>Min Sea Level Pressure:</td></tr>
          <tr><td>1000 mb / 29.53 in Hg</td></tr>
          <tr><td>Maximum Intensity:</td></tr>
          <tr><td>20 kt / 23 mph / 37 kph</td></tr>
        </table>
      ]]></description>
      <Point><coordinates>78.6,12.2</coordinates></Point>
    </Placemark>
    <Placemark>
      <name>1200 UTC DEC 2</name>
      <styleUrl>#db</styleUrl>
      <description><![CDATA[
        <table>
          <tr><td>DB FENGAL (IO042024)</td></tr>
          <tr><td><hr></td></tr>
          <tr><td>1200 UTC DEC 2, 2024</td></tr>
          <tr><td>Storm Location:</td></tr>
          <tr><td><b>12.5 N, 77.9 E</b></td></tr>
          <tr><td>Min Sea Level Pressure:</td></tr>
          <tr><td>1000 mb / 29.53 in Hg</td></tr>
          <tr><td>Maximum Intensity:</td></tr>
          <tr><td>20 kt / 23 mph / 37 kph</td></tr>
        </table>
      ]]></description>
      <Point><coordinates>77.9,12.5</coordinates></Point>
    </Placemark>
    <Placemark>
      <name>1800 UTC DEC 2</name>
      <styleUrl>#db</styleUrl>
      <description><![CDATA[
        <table>
          <tr><td>DB FENGAL (IO042024)</td></tr>
          <tr><td><hr></td></tr>
          <tr><td>1800 UTC DEC 2, 2024</td></tr>
          <tr><td>Storm Location:</td></tr>
          <tr><td><b>12.9 N, 76.9 E</b></td></tr>
          <tr><td>Min Sea Level Pressure:</td></tr>
          <tr><td>1003 mb / 29.62 in Hg</td></tr>
          <tr><td>Maximum Intensity:</td></tr>
          <tr><td>15 kt / 17 mph / 28 kph</td></tr>
        </table>
      ]]></description>
      <Point><coordinates>76.9,12.9</coordinates></Point>
    </Placemark>
    <Placemark>
      <name>0000 UTC DEC 3</name>
      <styleUrl>#db</styleUrl>
      <description><![CDATA[
        <table>
          <tr><td>DB FENGAL (IO042024)</td></tr>
          <tr><td><hr></td></tr>
          <tr><td>0000 UTC DEC 3, 2024</td></tr>
          <tr><td>Storm Location:</td></tr>
          <tr><td><b>13.1 N, 75.5 E</b></td></tr>
          <tr><td>Min Sea Level Pressure:</td></tr>
          <tr><td>1003 mb / 29.62 in Hg</td></tr>
          <tr><td>Maximum Intensity:</td></tr>
          <tr><td>15 kt / 17 mph / 28 kph</td></tr>
        </table>
      ]]></description>
      <Point><coordinates>75.5,13.1</coordinates></Point>
    </Placemark>
    <Placemark>
      <name>0600 UTC DEC 3</name>
      <styleUrl>#db</styleUrl>
      <description><![CDATA[
        <table>
          <tr><td>DB FENGAL (IO042024)</td></tr>
          <tr><td><hr></td></tr>
          <tr><td>0600 UTC DEC 3, 2024</td></tr>
          <tr><td>Storm Location:</td></tr>
          <tr><td><b>13.3 N, 73.7 E</b></td></tr>
          <tr><td>Min Sea Level Pressure:</td></tr>
          <tr><td>1001 mb / 29.56 in Hg</td></tr>
          <tr><td>Maximum Intensity:</td></tr>
          <tr><td>20 kt / 23 mph / 37 kph</td></tr>
        </table>
      ]]></description>
      <Point><coordinates>73.7,13.3</coordinates></Point>
    </Placemark>
    <Placemark>
      <name>1200 UTC DEC 3</name>
      <styleUrl>#db</styleUrl>
      <description><![CDATA[
        <table>
          <tr><td>DB FENGAL (IO042024)</td></tr>
          <tr><td><hr></td></tr>
          <tr><td>1200 UTC DEC 3, 2024</td></tr>
          <tr><td>Storm Location:</td></tr>
          <tr><td><b>13.5 N, 71.8 E</b></td></tr>
          <tr><td>Min Sea Level Pressure:</td></tr>
          <tr><td>1001 mb / 29.56 in Hg</td></tr>
          <tr><td>Maximum Intensity:</td></tr>
          <tr><td>20 kt / 23 mph / 37 kph</td></tr>
        </table>
      ]]></description>
      <Point><coordinates>71.8,13.5</coordinates></Point>
    </Placemark>
    <Placemark>
      <name>1800 UTC DEC 3</name>
      <styleUrl>#db</styleUrl>
      <description><![CDATA[
        <table>
          <tr><td>DB FENGAL (IO042024)</td></tr>
          <tr><td><hr></td></tr>
          <tr><td>1800 UTC DEC 3, 2024</td></tr>
          <tr><td>Storm Location:</td></tr>
          <tr><td><b>12.8 N, 71.2 E</b></td></tr>
          <tr><td>Min Sea Level Pressure:</td></tr>
          <tr><td>1001 mb / 29.56 in Hg</td></tr>
          <tr><td>Maximum Intensity:</td></tr>
          <tr><td>20 kt / 23 mph / 37 kph</td></tr>
        </table>
      ]]></description>
      <Point><coordinates>71.2,12.8</coordinates></Point>
    </Placemark>
    <Placemark>
      <name>0000 UTC DEC 4</name>
      <styleUrl>#db</styleUrl>
      <description><![CDATA[
        <table>
          <tr><td>DB FENGAL (IO042024)</td></tr>
          <tr><td><hr></td></tr>
          <tr><td>0000 UTC DEC 4, 2024</td></tr>
          <tr><td>Storm Location:</td></tr>
          <tr><td><b>12.3 N, 70.9 E</b></td></tr>
          <tr><td>Min Sea Level Pressure:</td></tr>
          <tr><td>1001 mb / 29.56 in Hg</td></tr>
          <tr><td>Maximum Intensity:</td></tr>
          <tr><td>20 kt / 23 mph / 37 kph</td></tr>
        </table>
      ]]></description>
      <Point><coordinates>70.9,12.3</coordinates></Point>
    </Placemark>
    <Placemark>
      <name>0600 UTC DEC 4</name>
      <styleUrl>#db</styleUrl>
      <description><![CDATA[
        <table>
          <tr><td>DB FENGAL (IO042024)</td></tr>
          <tr><td><hr></td></tr>
          <tr><td>0600 UTC DEC 4, 2024</td></tr>
          <tr><td>Storm Location:</td></tr>
          <tr><td><b>12.0 N, 70.4 E</b></td></tr>
          <tr><td>Min Sea Level Pressure:</td></tr>
          <tr><td>1001 mb / 29.56 in Hg</td></tr>
          <tr><td>Maximum Intensity:</td></tr>
          <tr><td>20 kt / 23 mph / 37 kph</td></tr>
        </table>
      ]]></description>
      <Point><coordinates>70.4,12</coordinates></Point>
    </Placemark>
    <Placemark>
      <name>1200 UTC DEC 4</name>
      <styleUrl>#db</styleUrl>
      <description><![CDATA[
        <table>
          <tr><td>DB FENGAL (IO042024)</td></tr>
          <tr><td><hr></td></tr>
          <tr><td>1200 UTC DEC 4, 2024</td></tr>
          <tr><td>Storm Location:</td></tr>
          <tr><td><b>11.2 N, 69.9 E</b></td></tr>
          <tr><td>Min Sea Level Pressure:</td></tr>
          <tr><td>1004 mb / 29.65 in Hg</td></tr>
          <tr><td>Maximum Intensity:</td></tr>
          <tr><td>15 kt / 17 mph / 28 kph</td></tr>
        </table>
      ]]></description>
      <Point><coordinates>69.9,11.2</coordinates></Point>
    </Placemark>
  </Document>
</kml>
