<?xml version="1.0" encoding="UTF-8"?>
<kml xmlns="http://www.opengis.net/kml/2.2">
  <Document>
    <name>SH012024</name>
    <open>0</open>

    <!-- =====  Document header ===== -->
    <description><![CDATA[
      <table>
        <tr><td><b>Title:</b> Tropical Cyclone Best Track for SH012024</td></tr>
      </table>
    ]]></description>

    <!-- =====  Styles (ids must be unique)  ===== -->
	<Style id="pt"> 
		<IconStyle> 
			<scale>1.0</scale> 
			<Icon> 
				<href>ex_nhemi.png</href> 
			</Icon> 
             <hotSpot x="15" y="17" xunits="pixels" yunits="pixels"/>
		</IconStyle> 
		<LabelStyle> 
			<scale>1.0</scale> 
		</LabelStyle> 
	</Style>
	<Style id="cat5"> 
		<IconStyle> 
			<scale>1.0</scale> 
			<Icon> 
				<href>cat5_nhemi.png</href> 
			</Icon> 
             <hotSpot x="15" y="17" xunits="pixels" yunits="pixels"/>
		</IconStyle> 
		<LabelStyle> 
			<scale>1.0</scale> 
		</LabelStyle> 
	</Style>
	<Style id="db"> 
		<IconStyle> 
			<scale>1.0</scale> 
			<Icon> 
				<href>ex_nhemi.png</href> 
			</Icon> 
             <hotSpot x="15" y="17" xunits="pixels" yunits="pixels"/>
		</IconStyle> 
		<LabelStyle> 
			<scale>1.0</scale> 
		</LabelStyle> 
	</Style>
	<Style id="cat3"> 
		<IconStyle> 
			<scale>1.0</scale> 
			<Icon> 
				<href>cat3_nhemi.png</href> 
			</Icon> 
             <hotSpot x="15" y="17" xunits="pixels" yunits="pixels"/>
		</IconStyle> 
		<LabelStyle> 
			<scale>1.0</scale> 
		</LabelStyle> 
	</Style>
	<Style id="ss"> 
		<IconStyle> 
			<scale>1.0</scale> 
			<Icon> 
				<href>ts_nhemi.png</href> 
			</Icon> 
             <hotSpot x="15" y="17" xunits="pixels" yunits="pixels"/>
		</IconStyle> 
		<LabelStyle> 
			<scale>1.0</scale> 
		</LabelStyle> 
	</Style>
	<Style id="lo"> 
		<IconStyle> 
			<scale>1.0</scale> 
			<Icon> 
				<href>ex_nhemi.png</href> 
			</Icon> 
             <hotSpot x="15" y="17" xunits="pixels" yunits="pixels"/>
		</IconStyle> 
		<LabelStyle> 
			<scale>1.0</scale> 
		</LabelStyle> 
	</Style>
	<Style id="cat4"> 
		<IconStyle> 
			<scale>1.0</scale> 
			<Icon> 
				<href>cat4_nhemi.png</href> 
			</Icon> 
             <hotSpot x="15" y="17" xunits="pixels" yunits="pixels"/>
		</IconStyle> 
		<LabelStyle> 
			<scale>1.0</scale> 
		</LabelStyle> 
	</Style>
	<Style id="cat2"> 
		<IconStyle> 
			<scale>1.0</scale> 
			<Icon> 
				<href>cat2_nhemi.png</href> 
			</Icon> 
             <hotSpot x="15" y="17" xunits="pixels" yunits="pixels"/>
		</IconStyle> 
		<LabelStyle> 
			<scale>1.0</scale> 
		</LabelStyle> 
	</Style>
	<Style id="ts"> 
		<IconStyle> 
			<scale>1.0</scale> 
			<Icon> 
				<href>ts_nhemi.png</href> 
			</Icon> 
             <hotSpot x="15" y="17" xunits="pixels" yunits="pixels"/>
		</IconStyle> 
		<LabelStyle> 
			<scale>1.0</scale> 
		</LabelStyle> 
	</Style>
	<Style id="cat1"> 
		<IconStyle> 
			<scale>1.0</scale> 
			<Icon> 
				<href>cat1_nhemi.png</href> 
			</Icon> 
             <hotSpot x="15" y="17" xunits="pixels" yunits="pixels"/>
		</IconStyle> 
		<LabelStyle> 
			<scale>1.0</scale> 
		</LabelStyle> 
	</Style>
	<Style id="ex"> 
		<IconStyle> 
			<scale>1.0</scale> 
			<Icon> 
				<href>ex_nhemi.png</href> 
			</Icon> 
             <hotSpot x="15" y="17" xunits="pixels" yunits="pixels"/>
		</IconStyle> 
		<LabelStyle> 
			<scale>1.0</scale> 
		</LabelStyle> 
	</Style>
	<Style id="tc"> 
		<IconStyle> 
			<scale>1.0</scale> 
			<Icon> 
				<href>ex_nhemi.png</href> 
			</Icon> 
             <hotSpot x="15" y="17" xunits="pixels" yunits="pixels"/>
		</IconStyle> 
		<LabelStyle> 
			<scale>1.0</scale> 
		</LabelStyle> 
	</Style>
	<Style id="wv"> 
		<IconStyle> 
			<scale>1.0</scale> 
			<Icon> 
				<href>ex_nhemi.png</href> 
			</Icon> 
             <hotSpot x="15" y="17" xunits="pixels" yunits="pixels"/>
		</IconStyle> 
		<LabelStyle> 
			<scale>1.0</scale> 
		</LabelStyle> 
	</Style>
	<Style id="td"> 
		<IconStyle> 
			<scale>1.0</scale> 
			<Icon> 
				<href>td_nhemi.png</href> 
			</Icon> 
             <hotSpot x="15" y="17" xunits="pixels" yunits="pixels"/>
		</IconStyle> 
		<LabelStyle> 
			<scale>1.0</scale> 
		</LabelStyle> 
	</Style>
	<Style id="sd"> 
		<IconStyle> 
			<scale>1.0</scale> 
			<Icon> 
				<href>ex_nhemi.png</href> 
			</Icon> 
             <hotSpot x="15" y="17" xunits="pixels" yunits="pixels"/>
		</IconStyle> 
		<LabelStyle> 
			<scale>1.0</scale> 
		</LabelStyle> 
	</Style>

    <Placemark>
      <name>1800 UTC OCT 20</name>
      <styleUrl>#td</styleUrl>
      <description><![CDATA[
        <table>
          <tr><td>TD LOLA (SH012024)</td></tr>
          <tr><td><hr></td></tr>
          <tr><td>1800 UTC OCT 20, 2023</td></tr>
          <tr><td>Storm Location:</td></tr>
          <tr><td><b>6.8 S, 168.7 E</b></td></tr>
          <tr><td>Min Sea Level Pressure:</td></tr>
          <tr><td>1004 mb / 29.65 in Hg</td></tr>
          <tr><td>Maximum Intensity:</td></tr>
          <tr><td>25 kt / 29 mph / 46 kph</td></tr>
        </table>
      ]]></description>
      <Point><coordinates>168.7,-6.8</coordinates></Point>
    </Placemark>
    <Placemark>
      <name>0000 UTC OCT 21</name>
      <styleUrl>#td</styleUrl>
      <description><![CDATA[
        <table>
          <tr><td>TD LOLA (SH012024)</td></tr>
          <tr><td><hr></td></tr>
          <tr><td>0000 UTC OCT 21, 2023</td></tr>
          <tr><td>Storm Location:</td></tr>
          <tr><td><b>7.4 S, 168.4 E</b></td></tr>
          <tr><td>Min Sea Level Pressure:</td></tr>
          <tr><td>1001 mb / 29.56 in Hg</td></tr>
          <tr><td>Maximum Intensity:</td></tr>
          <tr><td>30 kt / 35 mph / 56 kph</td></tr>
        </table>
      ]]></description>
      <Point><coordinates>168.4,-7.4</coordinates></Point>
    </Placemark>
    <Placemark>
      <name>0600 UTC OCT 21</name>
      <styleUrl>#td</styleUrl>
      <description><![CDATA[
        <table>
          <tr><td>TD LOLA (SH012024)</td></tr>
          <tr><td><hr></td></tr>
          <tr><td>0600 UTC OCT 21, 2023</td></tr>
          <tr><td>Storm Location:</td></tr>
          <tr><td><b>8.0 S, 168.0 E</b></td></tr>
          <tr><td>Min Sea Level Pressure:</td></tr>
          <tr><td>1001 mb / 29.56 in Hg</td></tr>
          <tr><td>Maximum Intensity:</td></tr>
          <tr><td>30 kt / 35 mph / 56 kph</td></tr>
        </table>
      ]]></description>
      <Point><coordinates>168,-8</coordinates></Point>
    </Placemark>
    <Placemark>
      <name>1200 UTC OCT 21</name>
      <styleUrl>#td</styleUrl>
      <description><![CDATA[
        <table>
          <tr><td>TD LOLA (SH012024)</td></tr>
          <tr><td><hr></td></tr>
          <tr><td>1200 UTC OCT 21, 2023</td></tr>
          <tr><td>Storm Location:</td></tr>
          <tr><td><b>8.9 S, 168.0 E</b></td></tr>
          <tr><td>Min Sea Level Pressure:</td></tr>
          <tr><td>1001 mb / 29.56 in Hg</td></tr>
          <tr><td>Maximum Intensity:</td></tr>
          <tr><td>30 kt / 35 mph / 56 kph</td></tr>
        </table>
      ]]></description>
      <Point><coordinates>168,-8.9</coordinates></Point>
    </Placemark>
    <Placemark>
      <name>1800 UTC OCT 21</name>
      <styleUrl>#ts</styleUrl>
      <description><![CDATA[
        <table>
          <tr><td>TS LOLA (SH012024)</td></tr>
          <tr><td><hr></td></tr>
          <tr><td>1800 UTC OCT 21, 2023</td></tr>
          <tr><td>Storm Location:</td></tr>
          <tr><td><b>9.7 S, 168.4 E</b></td></tr>
          <tr><td>Min Sea Level Pressure:</td></tr>
          <tr><td>998 mb / 29.47 in Hg</td></tr>
          <tr><td>Maximum Intensity:</td></tr>
          <tr><td>35 kt / 40 mph / 65 kph</td></tr>
        </table>
      ]]></description>
      <Point><coordinates>168.4,-9.7</coordinates></Point>
    </Placemark>
    <Placemark>
      <name>0000 UTC OCT 22</name>
      <styleUrl>#ts</styleUrl>
      <description><![CDATA[
        <table>
          <tr><td>TS LOLA (SH012024)</td></tr>
          <tr><td><hr></td></tr>
          <tr><td>0000 UTC OCT 22, 2023</td></tr>
          <tr><td>Storm Location:</td></tr>
          <tr><td><b>10.1 S, 168.4 E</b></td></tr>
          <tr><td>Min Sea Level Pressure:</td></tr>
          <tr><td>995 mb / 29.38 in Hg</td></tr>
          <tr><td>Maximum Intensity:</td></tr>
          <tr><td>45 kt / 52 mph / 83 kph</td></tr>
        </table>
      ]]></description>
      <Point><coordinates>168.4,-10.1</coordinates></Point>
    </Placemark>
    <Placemark>
      <name>0600 UTC OCT 22</name>
      <styleUrl>#ts</styleUrl>
      <description><![CDATA[
        <table>
          <tr><td>TS LOLA (SH012024)</td></tr>
          <tr><td><hr></td></tr>
          <tr><td>0600 UTC OCT 22, 2023</td></tr>
          <tr><td>Storm Location:</td></tr>
          <tr><td><b>10.5 S, 168.4 E</b></td></tr>
          <tr><td>Min Sea Level Pressure:</td></tr>
          <tr><td>991 mb / 29.26 in Hg</td></tr>
          <tr><td>Maximum Intensity:</td></tr>
          <tr><td>55 kt / 63 mph / 102 kph</td></tr>
        </table>
      ]]></description>
      <Point><coordinates>168.4,-10.5</coordinates></Point>
    </Placemark>
    <Placemark>
      <name>1200 UTC OCT 22</name>
      <styleUrl>#ts</styleUrl>
      <description><![CDATA[
        <table>
          <tr><td>TS LOLA (SH012024)</td></tr>
          <tr><td><hr></td></tr>
          <tr><td>1200 UTC OCT 22, 2023</td></tr>
          <tr><td>Storm Location:</td></tr>
          <tr><td><b>11.3 S, 168.7 E</b></td></tr>
          <tr><td>Min Sea Level Pressure:</td></tr>
          <tr><td>988 mb / 29.18 in Hg</td></tr>
          <tr><td>Maximum Intensity:</td></tr>
          <tr><td>60 kt / 69 mph / 111 kph</td></tr>
        </table>
      ]]></description>
      <Point><coordinates>168.7,-11.3</coordinates></Point>
    </Placemark>
    <Placemark>
      <name>1800 UTC OCT 22</name>
      <styleUrl>#cat1</styleUrl>
      <description><![CDATA[
        <table>
          <tr><td>HU LOLA (SH012024)</td></tr>
          <tr><td><hr></td></tr>
          <tr><td>1800 UTC OCT 22, 2023</td></tr>
          <tr><td>Storm Location:</td></tr>
          <tr><td><b>12.0 S, 169.1 E</b></td></tr>
          <tr><td>Min Sea Level Pressure:</td></tr>
          <tr><td>986 mb / 29.12 in Hg</td></tr>
          <tr><td>Maximum Intensity:</td></tr>
          <tr><td>65 kt / 75 mph / 120 kph</td></tr>
        </table>
      ]]></description>
      <Point><coordinates>169.1,-12</coordinates></Point>
    </Placemark>
    <Placemark>
      <name>0000 UTC OCT 23</name>
      <styleUrl>#cat1</styleUrl>
      <description><![CDATA[
        <table>
          <tr><td>HU LOLA (SH012024)</td></tr>
          <tr><td><hr></td></tr>
          <tr><td>0000 UTC OCT 23, 2023</td></tr>
          <tr><td>Storm Location:</td></tr>
          <tr><td><b>12.5 S, 169.3 E</b></td></tr>
          <tr><td>Min Sea Level Pressure:</td></tr>
          <tr><td>979 mb / 28.91 in Hg</td></tr>
          <tr><td>Maximum Intensity:</td></tr>
          <tr><td>75 kt / 86 mph / 139 kph</td></tr>
        </table>
      ]]></description>
      <Point><coordinates>169.3,-12.5</coordinates></Point>
    </Placemark>
    <Placemark>
      <name>0600 UTC OCT 23</name>
      <styleUrl>#cat2</styleUrl>
      <description><![CDATA[
        <table>
          <tr><td>HU LOLA (SH012024)</td></tr>
          <tr><td><hr></td></tr>
          <tr><td>0600 UTC OCT 23, 2023</td></tr>
          <tr><td>Storm Location:</td></tr>
          <tr><td><b>13.0 S, 169.4 E</b></td></tr>
          <tr><td>Min Sea Level Pressure:</td></tr>
          <tr><td>965 mb / 28.50 in Hg</td></tr>
          <tr><td>Maximum Intensity:</td></tr>
          <tr><td>95 kt / 109 mph / 176 kph</td></tr>
        </table>
      ]]></description>
      <Point><coordinates>169.4,-13</coordinates></Point>
    </Placemark>
    <Placemark>
      <name>1200 UTC OCT 23</name>
      <styleUrl>#cat4</styleUrl>
      <description><![CDATA[
        <table>
          <tr><td>HU LOLA (SH012024)</td></tr>
          <tr><td><hr></td></tr>
          <tr><td>1200 UTC OCT 23, 2023</td></tr>
          <tr><td>Storm Location:</td></tr>
          <tr><td><b>13.4 S, 169.4 E</b></td></tr>
          <tr><td>Min Sea Level Pressure:</td></tr>
          <tr><td>947 mb / 27.97 in Hg</td></tr>
          <tr><td>Maximum Intensity:</td></tr>
          <tr><td>115 kt / 132 mph / 213 kph</td></tr>
        </table>
      ]]></description>
      <Point><coordinates>169.4,-13.4</coordinates></Point>
    </Placemark>
    <Placemark>
      <name>1800 UTC OCT 23</name>
      <styleUrl>#cat4</styleUrl>
      <description><![CDATA[
        <table>
          <tr><td>HU LOLA (SH012024)</td></tr>
          <tr><td><hr></td></tr>
          <tr><td>1800 UTC OCT 23, 2023</td></tr>
          <tr><td>Storm Location:</td></tr>
          <tr><td><b>14.0 S, 169.1 E</b></td></tr>
          <tr><td>Min Sea Level Pressure:</td></tr>
          <tr><td>940 mb / 27.76 in Hg</td></tr>
          <tr><td>Maximum Intensity:</td></tr>
          <tr><td>120 kt / 138 mph / 222 kph</td></tr>
        </table>
      ]]></description>
      <Point><coordinates>169.1,-14</coordinates></Point>
    </Placemark>
    <Placemark>
      <name>0000 UTC OCT 24</name>
      <styleUrl>#cat4</styleUrl>
      <description><![CDATA[
        <table>
          <tr><td>HU LOLA (SH012024)</td></tr>
          <tr><td><hr></td></tr>
          <tr><td>0000 UTC OCT 24, 2023</td></tr>
          <tr><td>Storm Location:</td></tr>
          <tr><td><b>14.5 S, 169.0 E</b></td></tr>
          <tr><td>Min Sea Level Pressure:</td></tr>
          <tr><td>937 mb / 27.67 in Hg</td></tr>
          <tr><td>Maximum Intensity:</td></tr>
          <tr><td>125 kt / 144 mph / 232 kph</td></tr>
        </table>
      ]]></description>
      <Point><coordinates>169,-14.5</coordinates></Point>
    </Placemark>
    <Placemark>
      <name>0600 UTC OCT 24</name>
      <styleUrl>#cat4</styleUrl>
      <description><![CDATA[
        <table>
          <tr><td>HU LOLA (SH012024)</td></tr>
          <tr><td><hr></td></tr>
          <tr><td>0600 UTC OCT 24, 2023</td></tr>
          <tr><td>Storm Location:</td></tr>
          <tr><td><b>15.1 S, 168.7 E</b></td></tr>
          <tr><td>Min Sea Level Pressure:</td></tr>
          <tr><td>942 mb / 27.82 in Hg</td></tr>
          <tr><td>Maximum Intensity:</td></tr>
          <tr><td>120 kt / 138 mph / 222 kph</td></tr>
        </table>
      ]]></description>
      <Point><coordinates>168.7,-15.1</coordinates></Point>
    </Placemark>
    <Placemark>
      <name>1200 UTC OCT 24</name>
      <styleUrl>#cat3</styleUrl>
      <description><![CDATA[
        <table>
          <tr><td>HU LOLA (SH012024)</td></tr>
          <tr><td><hr></td></tr>
          <tr><td>1200 UTC OCT 24, 2023</td></tr>
          <tr><td>Storm Location:</td></tr>
          <tr><td><b>15.6 S, 168.4 E</b></td></tr>
          <tr><td>Min Sea Level Pressure:</td></tr>
          <tr><td>951 mb / 28.08 in Hg</td></tr>
          <tr><td>Maximum Intensity:</td></tr>
          <tr><td>110 kt / 127 mph / 204 kph</td></tr>
        </table>
      ]]></description>
      <Point><coordinates>168.4,-15.6</coordinates></Point>
    </Placemark>
    <Placemark>
      <name>1800 UTC OCT 24</name>
      <styleUrl>#cat3</styleUrl>
      <description><![CDATA[
        <table>
          <tr><td>HU LOLA (SH012024)</td></tr>
          <tr><td><hr></td></tr>
          <tr><td>1800 UTC OCT 24, 2023</td></tr>
          <tr><td>Storm Location:</td></tr>
          <tr><td><b>16.1 S, 168.2 E</b></td></tr>
          <tr><td>Min Sea Level Pressure:</td></tr>
          <tr><td>961 mb / 28.38 in Hg</td></tr>
          <tr><td>Maximum Intensity:</td></tr>
          <tr><td>100 kt / 115 mph / 185 kph</td></tr>
        </table>
      ]]></description>
      <Point><coordinates>168.2,-16.1</coordinates></Point>
    </Placemark>
    <Placemark>
      <name>0000 UTC OCT 25</name>
      <styleUrl>#cat2</styleUrl>
      <description><![CDATA[
        <table>
          <tr><td>HU LOLA (SH012024)</td></tr>
          <tr><td><hr></td></tr>
          <tr><td>0000 UTC OCT 25, 2023</td></tr>
          <tr><td>Storm Location:</td></tr>
          <tr><td><b>16.5 S, 167.6 E</b></td></tr>
          <tr><td>Min Sea Level Pressure:</td></tr>
          <tr><td>973 mb / 28.73 in Hg</td></tr>
          <tr><td>Maximum Intensity:</td></tr>
          <tr><td>85 kt / 98 mph / 157 kph</td></tr>
        </table>
      ]]></description>
      <Point><coordinates>167.6,-16.5</coordinates></Point>
    </Placemark>
    <Placemark>
      <name>0600 UTC OCT 25</name>
      <styleUrl>#ts</styleUrl>
      <description><![CDATA[
        <table>
          <tr><td>TS LOLA (SH012024)</td></tr>
          <tr><td><hr></td></tr>
          <tr><td>0600 UTC OCT 25, 2023</td></tr>
          <tr><td>Storm Location:</td></tr>
          <tr><td><b>16.7 S, 167.1 E</b></td></tr>
          <tr><td>Min Sea Level Pressure:</td></tr>
          <tr><td>993 mb / 29.32 in Hg</td></tr>
          <tr><td>Maximum Intensity:</td></tr>
          <tr><td>55 kt / 63 mph / 102 kph</td></tr>
        </table>
      ]]></description>
      <Point><coordinates>167.1,-16.7</coordinates></Point>
    </Placemark>
    <Placemark>
      <name>1200 UTC OCT 25</name>
      <styleUrl>#ts</styleUrl>
      <description><![CDATA[
        <table>
          <tr><td>TS LOLA (SH012024)</td></tr>
          <tr><td><hr></td></tr>
          <tr><td>1200 UTC OCT 25, 2023</td></tr>
          <tr><td>Storm Location:</td></tr>
          <tr><td><b>17.0 S, 166.7 E</b></td></tr>
          <tr><td>Min Sea Level Pressure:</td></tr>
          <tr><td>1001 mb / 29.56 in Hg</td></tr>
          <tr><td>Maximum Intensity:</td></tr>
          <tr><td>45 kt / 52 mph / 83 kph</td></tr>
        </table>
      ]]></description>
      <Point><coordinates>166.7,-17</coordinates></Point>
    </Placemark>
    <Placemark>
      <name>1800 UTC OCT 25</name>
      <styleUrl>#ts</styleUrl>
      <description><![CDATA[
        <table>
          <tr><td>TS LOLA (SH012024)</td></tr>
          <tr><td><hr></td></tr>
          <tr><td>1800 UTC OCT 25, 2023</td></tr>
          <tr><td>Storm Location:</td></tr>
          <tr><td><b>17.3 S, 166.2 E</b></td></tr>
          <tr><td>Min Sea Level Pressure:</td></tr>
          <tr><td>1004 mb / 29.65 in Hg</td></tr>
          <tr><td>Maximum Intensity:</td></tr>
          <tr><td>35 kt / 40 mph / 65 kph</td></tr>
        </table>
      ]]></description>
      <Point><coordinates>166.2,-17.3</coordinates></Point>
    </Placemark>
    <Placemark>
      <name>0000 UTC OCT 26</name>
      <styleUrl>#db</styleUrl>
      <description><![CDATA[
        <table>
          <tr><td>DB LOLA (SH012024)</td></tr>
          <tr><td><hr></td></tr>
          <tr><td>0000 UTC OCT 26, 2023</td></tr>
          <tr><td>Storm Location:</td></tr>
          <tr><td><b>17.5 S, 165.6 E</b></td></tr>
          <tr><td>Min Sea Level Pressure:</td></tr>
          <tr><td>1004 mb / 29.65 in Hg</td></tr>
          <tr><td>Maximum Intensity:</td></tr>
          <tr><td>20 kt / 23 mph / 37 kph</td></tr>
        </table>
      ]]></description>
      <Point><coordinates>165.6,-17.5</coordinates></Point>
    </Placemark>
    <Placemark>
      <name>0600 UTC OCT 26</name>
      <styleUrl>#db</styleUrl>
      <description><![CDATA[
        <table>
          <tr><td>DB LOLA (SH012024)</td></tr>
          <tr><td><hr></td></tr>
          <tr><td>0600 UTC OCT 26, 2023</td></tr>
          <tr><td>Storm Location:</td></tr>
          <tr><td><b>17.8 S, 165.7 E</b></td></tr>
          <tr><td>Min Sea Level Pressure:</td></tr>
          <tr><td>1004 mb / 29.65 in Hg</td></tr>
          <tr><td>Maximum Intensity:</td></tr>
          <tr><td>20 kt / 23 mph / 37 kph</td></tr>
        </table>
      ]]></description>
      <Point><coordinates>165.7,-17.8</coordinates></Point>
    </Placemark>
    <Placemark>
      <name>1200 UTC OCT 26</name>
      <styleUrl>#db</styleUrl>
      <description><![CDATA[
        <table>
          <tr><td>DB LOLA (SH012024)</td></tr>
          <tr><td><hr></td></tr>
          <tr><td>1200 UTC OCT 26, 2023</td></tr>
          <tr><td>Storm Location:</td></tr>
          <tr><td><b>18.4 S, 165.8 E</b></td></tr>
          <tr><td>Min Sea Level Pressure:</td></tr>
          <tr><td>1006 mb / 29.71 in Hg</td></tr>
          <tr><td>Maximum Intensity:</td></tr>
          <tr><td>15 kt / 17 mph / 28 kph</td></tr>
        </table>
      ]]></description>
      <Point><coordinates>165.8,-18.4</coordinates></Point>
    </Placemark>
    <Placemark>
      <name>1800 UTC OCT 26</name>
      <styleUrl>#db</styleUrl>
      <description><![CDATA[
        <table>
          <tr><td>DB LOLA (SH012024)</td></tr>
          <tr><td><hr></td></tr>
          <tr><td>1800 UTC OCT 26, 2023</td></tr>
          <tr><td>Storm Location:</td></tr>
          <tr><td><b>19.5 S, 166.5 E</b></td></tr>
          <tr><td>Min Sea Level Pressure:</td></tr>
          <tr><td>1006 mb / 29.71 in Hg</td></tr>
          <tr><td>Maximum Intensity:</td></tr>
          <tr><td>15 kt / 17 mph / 28 kph</td></tr>
        </table>
      ]]></description>
      <Point><coordinates>166.5,-19.5</coordinates></Point>
    </Placemark>
  </Document>
</kml>
