<?xml version="1.0" encoding="UTF-8"?>
<kml xmlns="http://www.opengis.net/kml/2.2">
  <Document>
    <name>SH022024</name>
    <open>0</open>

    <!-- =====  Document header ===== -->
    <description><![CDATA[
      <table>
        <tr><td><b>Title:</b> Tropical Cyclone Best Track for SH022024</td></tr>
      </table>
    ]]></description>

    <!-- =====  Styles (ids must be unique)  ===== -->
	<Style id="pt"> 
		<IconStyle> 
			<scale>1.0</scale> 
			<Icon> 
				<href>ex_nhemi.png</href> 
			</Icon> 
             <hotSpot x="15" y="17" xunits="pixels" yunits="pixels"/>
		</IconStyle> 
		<LabelStyle> 
			<scale>1.0</scale> 
		</LabelStyle> 
	</Style>
	<Style id="cat5"> 
		<IconStyle> 
			<scale>1.0</scale> 
			<Icon> 
				<href>cat5_nhemi.png</href> 
			</Icon> 
             <hotSpot x="15" y="17" xunits="pixels" yunits="pixels"/>
		</IconStyle> 
		<LabelStyle> 
			<scale>1.0</scale> 
		</LabelStyle> 
	</Style>
	<Style id="db"> 
		<IconStyle> 
			<scale>1.0</scale> 
			<Icon> 
				<href>ex_nhemi.png</href> 
			</Icon> 
             <hotSpot x="15" y="17" xunits="pixels" yunits="pixels"/>
		</IconStyle> 
		<LabelStyle> 
			<scale>1.0</scale> 
		</LabelStyle> 
	</Style>
	<Style id="cat3"> 
		<IconStyle> 
			<scale>1.0</scale> 
			<Icon> 
				<href>cat3_nhemi.png</href> 
			</Icon> 
             <hotSpot x="15" y="17" xunits="pixels" yunits="pixels"/>
		</IconStyle> 
		<LabelStyle> 
			<scale>1.0</scale> 
		</LabelStyle> 
	</Style>
	<Style id="ss"> 
		<IconStyle> 
			<scale>1.0</scale> 
			<Icon> 
				<href>ts_nhemi.png</href> 
			</Icon> 
             <hotSpot x="15" y="17" xunits="pixels" yunits="pixels"/>
		</IconStyle> 
		<LabelStyle> 
			<scale>1.0</scale> 
		</LabelStyle> 
	</Style>
	<Style id="lo"> 
		<IconStyle> 
			<scale>1.0</scale> 
			<Icon> 
				<href>ex_nhemi.png</href> 
			</Icon> 
             <hotSpot x="15" y="17" xunits="pixels" yunits="pixels"/>
		</IconStyle> 
		<LabelStyle> 
			<scale>1.0</scale> 
		</LabelStyle> 
	</Style>
	<Style id="cat4"> 
		<IconStyle> 
			<scale>1.0</scale> 
			<Icon> 
				<href>cat4_nhemi.png</href> 
			</Icon> 
             <hotSpot x="15" y="17" xunits="pixels" yunits="pixels"/>
		</IconStyle> 
		<LabelStyle> 
			<scale>1.0</scale> 
		</LabelStyle> 
	</Style>
	<Style id="cat2"> 
		<IconStyle> 
			<scale>1.0</scale> 
			<Icon> 
				<href>cat2_nhemi.png</href> 
			</Icon> 
             <hotSpot x="15" y="17" xunits="pixels" yunits="pixels"/>
		</IconStyle> 
		<LabelStyle> 
			<scale>1.0</scale> 
		</LabelStyle> 
	</Style>
	<Style id="ts"> 
		<IconStyle> 
			<scale>1.0</scale> 
			<Icon> 
				<href>ts_nhemi.png</href> 
			</Icon> 
             <hotSpot x="15" y="17" xunits="pixels" yunits="pixels"/>
		</IconStyle> 
		<LabelStyle> 
			<scale>1.0</scale> 
		</LabelStyle> 
	</Style>
	<Style id="cat1"> 
		<IconStyle> 
			<scale>1.0</scale> 
			<Icon> 
				<href>cat1_nhemi.png</href> 
			</Icon> 
             <hotSpot x="15" y="17" xunits="pixels" yunits="pixels"/>
		</IconStyle> 
		<LabelStyle> 
			<scale>1.0</scale> 
		</LabelStyle> 
	</Style>
	<Style id="ex"> 
		<IconStyle> 
			<scale>1.0</scale> 
			<Icon> 
				<href>ex_nhemi.png</href> 
			</Icon> 
             <hotSpot x="15" y="17" xunits="pixels" yunits="pixels"/>
		</IconStyle> 
		<LabelStyle> 
			<scale>1.0</scale> 
		</LabelStyle> 
	</Style>
	<Style id="tc"> 
		<IconStyle> 
			<scale>1.0</scale> 
			<Icon> 
				<href>ex_nhemi.png</href> 
			</Icon> 
             <hotSpot x="15" y="17" xunits="pixels" yunits="pixels"/>
		</IconStyle> 
		<LabelStyle> 
			<scale>1.0</scale> 
		</LabelStyle> 
	</Style>
	<Style id="wv"> 
		<IconStyle> 
			<scale>1.0</scale> 
			<Icon> 
				<href>ex_nhemi.png</href> 
			</Icon> 
             <hotSpot x="15" y="17" xunits="pixels" yunits="pixels"/>
		</IconStyle> 
		<LabelStyle> 
			<scale>1.0</scale> 
		</LabelStyle> 
	</Style>
	<Style id="td"> 
		<IconStyle> 
			<scale>1.0</scale> 
			<Icon> 
				<href>td_nhemi.png</href> 
			</Icon> 
             <hotSpot x="15" y="17" xunits="pixels" yunits="pixels"/>
		</IconStyle> 
		<LabelStyle> 
			<scale>1.0</scale> 
		</LabelStyle> 
	</Style>
	<Style id="sd"> 
		<IconStyle> 
			<scale>1.0</scale> 
			<Icon> 
				<href>ex_nhemi.png</href> 
			</Icon> 
             <hotSpot x="15" y="17" xunits="pixels" yunits="pixels"/>
		</IconStyle> 
		<LabelStyle> 
			<scale>1.0</scale> 
		</LabelStyle> 
	</Style>

    <Placemark>
      <name>0000 UTC NOV 12</name>
      <styleUrl>#td</styleUrl>
      <description><![CDATA[
        <table>
          <tr><td>TD MAL (SH022024)</td></tr>
          <tr><td><hr></td></tr>
          <tr><td>0000 UTC NOV 12, 2023</td></tr>
          <tr><td>Storm Location:</td></tr>
          <tr><td><b>7.0 S, 167.8 E</b></td></tr>
          <tr><td>Min Sea Level Pressure:</td></tr>
          <tr><td>1004 mb / 29.65 in Hg</td></tr>
          <tr><td>Maximum Intensity:</td></tr>
          <tr><td>25 kt / 29 mph / 46 kph</td></tr>
        </table>
      ]]></description>
      <Point><coordinates>167.8,-7</coordinates></Point>
    </Placemark>
    <Placemark>
      <name>0600 UTC NOV 12</name>
      <styleUrl>#td</styleUrl>
      <description><![CDATA[
        <table>
          <tr><td>TD MAL (SH022024)</td></tr>
          <tr><td><hr></td></tr>
          <tr><td>0600 UTC NOV 12, 2023</td></tr>
          <tr><td>Storm Location:</td></tr>
          <tr><td><b>7.5 S, 168.8 E</b></td></tr>
          <tr><td>Min Sea Level Pressure:</td></tr>
          <tr><td>1004 mb / 29.65 in Hg</td></tr>
          <tr><td>Maximum Intensity:</td></tr>
          <tr><td>25 kt / 29 mph / 46 kph</td></tr>
        </table>
      ]]></description>
      <Point><coordinates>168.8,-7.5</coordinates></Point>
    </Placemark>
    <Placemark>
      <name>1200 UTC NOV 12</name>
      <styleUrl>#td</styleUrl>
      <description><![CDATA[
        <table>
          <tr><td>TD MAL (SH022024)</td></tr>
          <tr><td><hr></td></tr>
          <tr><td>1200 UTC NOV 12, 2023</td></tr>
          <tr><td>Storm Location:</td></tr>
          <tr><td><b>8.0 S, 169.7 E</b></td></tr>
          <tr><td>Min Sea Level Pressure:</td></tr>
          <tr><td>995 mb / 29.38 in Hg</td></tr>
          <tr><td>Maximum Intensity:</td></tr>
          <tr><td>25 kt / 29 mph / 46 kph</td></tr>
        </table>
      ]]></description>
      <Point><coordinates>169.7,-8</coordinates></Point>
    </Placemark>
    <Placemark>
      <name>1800 UTC NOV 12</name>
      <styleUrl>#td</styleUrl>
      <description><![CDATA[
        <table>
          <tr><td>TD MAL (SH022024)</td></tr>
          <tr><td><hr></td></tr>
          <tr><td>1800 UTC NOV 12, 2023</td></tr>
          <tr><td>Storm Location:</td></tr>
          <tr><td><b>8.6 S, 170.5 E</b></td></tr>
          <tr><td>Min Sea Level Pressure:</td></tr>
          <tr><td>994 mb / 29.35 in Hg</td></tr>
          <tr><td>Maximum Intensity:</td></tr>
          <tr><td>30 kt / 35 mph / 56 kph</td></tr>
        </table>
      ]]></description>
      <Point><coordinates>170.5,-8.6</coordinates></Point>
    </Placemark>
    <Placemark>
      <name>0000 UTC NOV 13</name>
      <styleUrl>#ts</styleUrl>
      <description><![CDATA[
        <table>
          <tr><td>TS MAL (SH022024)</td></tr>
          <tr><td><hr></td></tr>
          <tr><td>0000 UTC NOV 13, 2023</td></tr>
          <tr><td>Storm Location:</td></tr>
          <tr><td><b>9.6 S, 171.1 E</b></td></tr>
          <tr><td>Min Sea Level Pressure:</td></tr>
          <tr><td>991 mb / 29.26 in Hg</td></tr>
          <tr><td>Maximum Intensity:</td></tr>
          <tr><td>35 kt / 40 mph / 65 kph</td></tr>
        </table>
      ]]></description>
      <Point><coordinates>171.1,-9.6</coordinates></Point>
    </Placemark>
    <Placemark>
      <name>0600 UTC NOV 13</name>
      <styleUrl>#ts</styleUrl>
      <description><![CDATA[
        <table>
          <tr><td>TS MAL (SH022024)</td></tr>
          <tr><td><hr></td></tr>
          <tr><td>0600 UTC NOV 13, 2023</td></tr>
          <tr><td>Storm Location:</td></tr>
          <tr><td><b>11.1 S, 172.1 E</b></td></tr>
          <tr><td>Min Sea Level Pressure:</td></tr>
          <tr><td>991 mb / 29.26 in Hg</td></tr>
          <tr><td>Maximum Intensity:</td></tr>
          <tr><td>50 kt / 58 mph / 93 kph</td></tr>
        </table>
      ]]></description>
      <Point><coordinates>172.1,-11.1</coordinates></Point>
    </Placemark>
    <Placemark>
      <name>1200 UTC NOV 13</name>
      <styleUrl>#ts</styleUrl>
      <description><![CDATA[
        <table>
          <tr><td>TS MAL (SH022024)</td></tr>
          <tr><td><hr></td></tr>
          <tr><td>1200 UTC NOV 13, 2023</td></tr>
          <tr><td>Storm Location:</td></tr>
          <tr><td><b>12.3 S, 173.0 E</b></td></tr>
          <tr><td>Min Sea Level Pressure:</td></tr>
          <tr><td>991 mb / 29.26 in Hg</td></tr>
          <tr><td>Maximum Intensity:</td></tr>
          <tr><td>55 kt / 63 mph / 102 kph</td></tr>
        </table>
      ]]></description>
      <Point><coordinates>173,-12.3</coordinates></Point>
    </Placemark>
    <Placemark>
      <name>1800 UTC NOV 13</name>
      <styleUrl>#ts</styleUrl>
      <description><![CDATA[
        <table>
          <tr><td>TS MAL (SH022024)</td></tr>
          <tr><td><hr></td></tr>
          <tr><td>1800 UTC NOV 13, 2023</td></tr>
          <tr><td>Storm Location:</td></tr>
          <tr><td><b>12.3 S, 173.0 E</b></td></tr>
          <tr><td>Min Sea Level Pressure:</td></tr>
          <tr><td>989 mb / 29.21 in Hg</td></tr>
          <tr><td>Maximum Intensity:</td></tr>
          <tr><td>60 kt / 69 mph / 111 kph</td></tr>
        </table>
      ]]></description>
      <Point><coordinates>173,-12.3</coordinates></Point>
    </Placemark>
    <Placemark>
      <name>0000 UTC NOV 14</name>
      <styleUrl>#ts</styleUrl>
      <description><![CDATA[
        <table>
          <tr><td>TS MAL (SH022024)</td></tr>
          <tr><td><hr></td></tr>
          <tr><td>0000 UTC NOV 14, 2023</td></tr>
          <tr><td>Storm Location:</td></tr>
          <tr><td><b>14.7 S, 174.3 E</b></td></tr>
          <tr><td>Min Sea Level Pressure:</td></tr>
          <tr><td>989 mb / 29.21 in Hg</td></tr>
          <tr><td>Maximum Intensity:</td></tr>
          <tr><td>60 kt / 69 mph / 111 kph</td></tr>
        </table>
      ]]></description>
      <Point><coordinates>174.3,-14.7</coordinates></Point>
    </Placemark>
    <Placemark>
      <name>0600 UTC NOV 14</name>
      <styleUrl>#cat1</styleUrl>
      <description><![CDATA[
        <table>
          <tr><td>HU MAL (SH022024)</td></tr>
          <tr><td><hr></td></tr>
          <tr><td>0600 UTC NOV 14, 2023</td></tr>
          <tr><td>Storm Location:</td></tr>
          <tr><td><b>16.1 S, 175.2 E</b></td></tr>
          <tr><td>Min Sea Level Pressure:</td></tr>
          <tr><td>984 mb / 29.06 in Hg</td></tr>
          <tr><td>Maximum Intensity:</td></tr>
          <tr><td>65 kt / 75 mph / 120 kph</td></tr>
        </table>
      ]]></description>
      <Point><coordinates>175.2,-16.1</coordinates></Point>
    </Placemark>
    <Placemark>
      <name>1200 UTC NOV 14</name>
      <styleUrl>#cat1</styleUrl>
      <description><![CDATA[
        <table>
          <tr><td>HU MAL (SH022024)</td></tr>
          <tr><td><hr></td></tr>
          <tr><td>1200 UTC NOV 14, 2023</td></tr>
          <tr><td>Storm Location:</td></tr>
          <tr><td><b>17.4 S, 175.7 E</b></td></tr>
          <tr><td>Min Sea Level Pressure:</td></tr>
          <tr><td>985 mb / 29.09 in Hg</td></tr>
          <tr><td>Maximum Intensity:</td></tr>
          <tr><td>65 kt / 75 mph / 120 kph</td></tr>
        </table>
      ]]></description>
      <Point><coordinates>175.7,-17.4</coordinates></Point>
    </Placemark>
    <Placemark>
      <name>1800 UTC NOV 14</name>
      <styleUrl>#cat1</styleUrl>
      <description><![CDATA[
        <table>
          <tr><td>HU MAL (SH022024)</td></tr>
          <tr><td><hr></td></tr>
          <tr><td>1800 UTC NOV 14, 2023</td></tr>
          <tr><td>Storm Location:</td></tr>
          <tr><td><b>18.6 S, 176.5 E</b></td></tr>
          <tr><td>Min Sea Level Pressure:</td></tr>
          <tr><td>975 mb / 28.79 in Hg</td></tr>
          <tr><td>Maximum Intensity:</td></tr>
          <tr><td>75 kt / 86 mph / 139 kph</td></tr>
        </table>
      ]]></description>
      <Point><coordinates>176.5,-18.6</coordinates></Point>
    </Placemark>
    <Placemark>
      <name>0000 UTC NOV 15</name>
      <styleUrl>#cat1</styleUrl>
      <description><![CDATA[
        <table>
          <tr><td>HU MAL (SH022024)</td></tr>
          <tr><td><hr></td></tr>
          <tr><td>0000 UTC NOV 15, 2023</td></tr>
          <tr><td>Storm Location:</td></tr>
          <tr><td><b>20.2 S, 177.9 E</b></td></tr>
          <tr><td>Min Sea Level Pressure:</td></tr>
          <tr><td>983 mb / 29.03 in Hg</td></tr>
          <tr><td>Maximum Intensity:</td></tr>
          <tr><td>70 kt / 81 mph / 130 kph</td></tr>
        </table>
      ]]></description>
      <Point><coordinates>177.9,-20.2</coordinates></Point>
    </Placemark>
    <Placemark>
      <name>0600 UTC NOV 15</name>
      <styleUrl>#cat1</styleUrl>
      <description><![CDATA[
        <table>
          <tr><td>HU MAL (SH022024)</td></tr>
          <tr><td><hr></td></tr>
          <tr><td>0600 UTC NOV 15, 2023</td></tr>
          <tr><td>Storm Location:</td></tr>
          <tr><td><b>21.4 S, 178.2 E</b></td></tr>
          <tr><td>Min Sea Level Pressure:</td></tr>
          <tr><td>985 mb / 29.09 in Hg</td></tr>
          <tr><td>Maximum Intensity:</td></tr>
          <tr><td>65 kt / 75 mph / 120 kph</td></tr>
        </table>
      ]]></description>
      <Point><coordinates>178.2,-21.4</coordinates></Point>
    </Placemark>
    <Placemark>
      <name>1200 UTC NOV 15</name>
      <styleUrl>#ts</styleUrl>
      <description><![CDATA[
        <table>
          <tr><td>TS MAL (SH022024)</td></tr>
          <tr><td><hr></td></tr>
          <tr><td>1200 UTC NOV 15, 2023</td></tr>
          <tr><td>Storm Location:</td></tr>
          <tr><td><b>22.2 S, 178.5 E</b></td></tr>
          <tr><td>Min Sea Level Pressure:</td></tr>
          <tr><td>987 mb / 29.15 in Hg</td></tr>
          <tr><td>Maximum Intensity:</td></tr>
          <tr><td>60 kt / 69 mph / 111 kph</td></tr>
        </table>
      ]]></description>
      <Point><coordinates>178.5,-22.2</coordinates></Point>
    </Placemark>
    <Placemark>
      <name>1800 UTC NOV 15</name>
      <styleUrl>#ts</styleUrl>
      <description><![CDATA[
        <table>
          <tr><td>TS MAL (SH022024)</td></tr>
          <tr><td><hr></td></tr>
          <tr><td>1800 UTC NOV 15, 2023</td></tr>
          <tr><td>Storm Location:</td></tr>
          <tr><td><b>23.5 S, 178.9 E</b></td></tr>
          <tr><td>Min Sea Level Pressure:</td></tr>
          <tr><td>992 mb / 29.29 in Hg</td></tr>
          <tr><td>Maximum Intensity:</td></tr>
          <tr><td>55 kt / 63 mph / 102 kph</td></tr>
        </table>
      ]]></description>
      <Point><coordinates>178.9,-23.5</coordinates></Point>
    </Placemark>
    <Placemark>
      <name>0000 UTC NOV 16</name>
      <styleUrl>#ts</styleUrl>
      <description><![CDATA[
        <table>
          <tr><td>TS MAL (SH022024)</td></tr>
          <tr><td><hr></td></tr>
          <tr><td>0000 UTC NOV 16, 2023</td></tr>
          <tr><td>Storm Location:</td></tr>
          <tr><td><b>24.8 S, 179.8 W</b></td></tr>
          <tr><td>Min Sea Level Pressure:</td></tr>
          <tr><td>999 mb / 29.50 in Hg</td></tr>
          <tr><td>Maximum Intensity:</td></tr>
          <tr><td>40 kt / 46 mph / 74 kph</td></tr>
        </table>
      ]]></description>
      <Point><coordinates>-179.8,-24.8</coordinates></Point>
    </Placemark>
    <Placemark>
      <name>0600 UTC NOV 16</name>
      <styleUrl>#pt</styleUrl>
      <description><![CDATA[
        <table>
          <tr><td>XX MAL (SH022024)</td></tr>
          <tr><td><hr></td></tr>
          <tr><td>0600 UTC NOV 16, 2023</td></tr>
          <tr><td>Storm Location:</td></tr>
          <tr><td><b>25.8 S, 178.5 W</b></td></tr>
          <tr><td>Min Sea Level Pressure:</td></tr>
          <tr><td>989 mb / 29.21 in Hg</td></tr>
          <tr><td>Maximum Intensity:</td></tr>
          <tr><td>35 kt / 40 mph / 65 kph</td></tr>
        </table>
      ]]></description>
      <Point><coordinates>-178.5,-25.8</coordinates></Point>
    </Placemark>
    <Placemark>
      <name>1200 UTC NOV 16</name>
      <styleUrl>#pt</styleUrl>
      <description><![CDATA[
        <table>
          <tr><td>XX MAL (SH022024)</td></tr>
          <tr><td><hr></td></tr>
          <tr><td>1200 UTC NOV 16, 2023</td></tr>
          <tr><td>Storm Location:</td></tr>
          <tr><td><b>26.8 S, 177.3 W</b></td></tr>
          <tr><td>Min Sea Level Pressure:</td></tr>
          <tr><td>1001 mb / 29.56 in Hg</td></tr>
          <tr><td>Maximum Intensity:</td></tr>
          <tr><td>35 kt / 40 mph / 65 kph</td></tr>
        </table>
      ]]></description>
      <Point><coordinates>-177.3,-26.8</coordinates></Point>
    </Placemark>
    <Placemark>
      <name>1800 UTC NOV 16</name>
      <styleUrl>#pt</styleUrl>
      <description><![CDATA[
        <table>
          <tr><td>XX MAL (SH022024)</td></tr>
          <tr><td><hr></td></tr>
          <tr><td>1800 UTC NOV 16, 2023</td></tr>
          <tr><td>Storm Location:</td></tr>
          <tr><td><b>27.9 S, 176.3 W</b></td></tr>
          <tr><td>Min Sea Level Pressure:</td></tr>
          <tr><td>1004 mb / 29.65 in Hg</td></tr>
          <tr><td>Maximum Intensity:</td></tr>
          <tr><td>35 kt / 40 mph / 65 kph</td></tr>
        </table>
      ]]></description>
      <Point><coordinates>-176.3,-27.9</coordinates></Point>
    </Placemark>
  </Document>
</kml>
