<?xml version="1.0" encoding="UTF-8"?>
<kml xmlns="http://www.opengis.net/kml/2.2">
  <Document>
    <name>SH032024</name>
    <open>0</open>

    <!-- =====  Document header ===== -->
    <description><![CDATA[
      <table>
        <tr><td><b>Title:</b> Tropical Cyclone Best Track for SH032024</td></tr>
      </table>
    ]]></description>

    <!-- =====  Styles (ids must be unique)  ===== -->
	<Style id="pt"> 
		<IconStyle> 
			<scale>1.0</scale> 
			<Icon> 
				<href>ex_nhemi.png</href> 
			</Icon> 
             <hotSpot x="15" y="17" xunits="pixels" yunits="pixels"/>
		</IconStyle> 
		<LabelStyle> 
			<scale>1.0</scale> 
		</LabelStyle> 
	</Style>
	<Style id="cat5"> 
		<IconStyle> 
			<scale>1.0</scale> 
			<Icon> 
				<href>cat5_nhemi.png</href> 
			</Icon> 
             <hotSpot x="15" y="17" xunits="pixels" yunits="pixels"/>
		</IconStyle> 
		<LabelStyle> 
			<scale>1.0</scale> 
		</LabelStyle> 
	</Style>
	<Style id="db"> 
		<IconStyle> 
			<scale>1.0</scale> 
			<Icon> 
				<href>ex_nhemi.png</href> 
			</Icon> 
             <hotSpot x="15" y="17" xunits="pixels" yunits="pixels"/>
		</IconStyle> 
		<LabelStyle> 
			<scale>1.0</scale> 
		</LabelStyle> 
	</Style>
	<Style id="cat3"> 
		<IconStyle> 
			<scale>1.0</scale> 
			<Icon> 
				<href>cat3_nhemi.png</href> 
			</Icon> 
             <hotSpot x="15" y="17" xunits="pixels" yunits="pixels"/>
		</IconStyle> 
		<LabelStyle> 
			<scale>1.0</scale> 
		</LabelStyle> 
	</Style>
	<Style id="ss"> 
		<IconStyle> 
			<scale>1.0</scale> 
			<Icon> 
				<href>ts_nhemi.png</href> 
			</Icon> 
             <hotSpot x="15" y="17" xunits="pixels" yunits="pixels"/>
		</IconStyle> 
		<LabelStyle> 
			<scale>1.0</scale> 
		</LabelStyle> 
	</Style>
	<Style id="lo"> 
		<IconStyle> 
			<scale>1.0</scale> 
			<Icon> 
				<href>ex_nhemi.png</href> 
			</Icon> 
             <hotSpot x="15" y="17" xunits="pixels" yunits="pixels"/>
		</IconStyle> 
		<LabelStyle> 
			<scale>1.0</scale> 
		</LabelStyle> 
	</Style>
	<Style id="cat4"> 
		<IconStyle> 
			<scale>1.0</scale> 
			<Icon> 
				<href>cat4_nhemi.png</href> 
			</Icon> 
             <hotSpot x="15" y="17" xunits="pixels" yunits="pixels"/>
		</IconStyle> 
		<LabelStyle> 
			<scale>1.0</scale> 
		</LabelStyle> 
	</Style>
	<Style id="cat2"> 
		<IconStyle> 
			<scale>1.0</scale> 
			<Icon> 
				<href>cat2_nhemi.png</href> 
			</Icon> 
             <hotSpot x="15" y="17" xunits="pixels" yunits="pixels"/>
		</IconStyle> 
		<LabelStyle> 
			<scale>1.0</scale> 
		</LabelStyle> 
	</Style>
	<Style id="ts"> 
		<IconStyle> 
			<scale>1.0</scale> 
			<Icon> 
				<href>ts_nhemi.png</href> 
			</Icon> 
             <hotSpot x="15" y="17" xunits="pixels" yunits="pixels"/>
		</IconStyle> 
		<LabelStyle> 
			<scale>1.0</scale> 
		</LabelStyle> 
	</Style>
	<Style id="cat1"> 
		<IconStyle> 
			<scale>1.0</scale> 
			<Icon> 
				<href>cat1_nhemi.png</href> 
			</Icon> 
             <hotSpot x="15" y="17" xunits="pixels" yunits="pixels"/>
		</IconStyle> 
		<LabelStyle> 
			<scale>1.0</scale> 
		</LabelStyle> 
	</Style>
	<Style id="ex"> 
		<IconStyle> 
			<scale>1.0</scale> 
			<Icon> 
				<href>ex_nhemi.png</href> 
			</Icon> 
             <hotSpot x="15" y="17" xunits="pixels" yunits="pixels"/>
		</IconStyle> 
		<LabelStyle> 
			<scale>1.0</scale> 
		</LabelStyle> 
	</Style>
	<Style id="tc"> 
		<IconStyle> 
			<scale>1.0</scale> 
			<Icon> 
				<href>ex_nhemi.png</href> 
			</Icon> 
             <hotSpot x="15" y="17" xunits="pixels" yunits="pixels"/>
		</IconStyle> 
		<LabelStyle> 
			<scale>1.0</scale> 
		</LabelStyle> 
	</Style>
	<Style id="wv"> 
		<IconStyle> 
			<scale>1.0</scale> 
			<Icon> 
				<href>ex_nhemi.png</href> 
			</Icon> 
             <hotSpot x="15" y="17" xunits="pixels" yunits="pixels"/>
		</IconStyle> 
		<LabelStyle> 
			<scale>1.0</scale> 
		</LabelStyle> 
	</Style>
	<Style id="td"> 
		<IconStyle> 
			<scale>1.0</scale> 
			<Icon> 
				<href>td_nhemi.png</href> 
			</Icon> 
             <hotSpot x="15" y="17" xunits="pixels" yunits="pixels"/>
		</IconStyle> 
		<LabelStyle> 
			<scale>1.0</scale> 
		</LabelStyle> 
	</Style>
	<Style id="sd"> 
		<IconStyle> 
			<scale>1.0</scale> 
			<Icon> 
				<href>ex_nhemi.png</href> 
			</Icon> 
             <hotSpot x="15" y="17" xunits="pixels" yunits="pixels"/>
		</IconStyle> 
		<LabelStyle> 
			<scale>1.0</scale> 
		</LabelStyle> 
	</Style>

    <Placemark>
      <name>1200 UTC DEC 3</name>
      <styleUrl>#db</styleUrl>
      <description><![CDATA[
        <table>
          <tr><td>DB JASPER (SH032024)</td></tr>
          <tr><td><hr></td></tr>
          <tr><td>1200 UTC DEC 3, 2023</td></tr>
          <tr><td>Storm Location:</td></tr>
          <tr><td><b>7.8 S, 160.9 E</b></td></tr>
          <tr><td>Min Sea Level Pressure:</td></tr>
          <tr><td>1010 mb / 29.83 in Hg</td></tr>
          <tr><td>Maximum Intensity:</td></tr>
          <tr><td>15 kt / 17 mph / 28 kph</td></tr>
        </table>
      ]]></description>
      <Point><coordinates>160.9,-7.8</coordinates></Point>
    </Placemark>
    <Placemark>
      <name>1800 UTC DEC 3</name>
      <styleUrl>#db</styleUrl>
      <description><![CDATA[
        <table>
          <tr><td>DB JASPER (SH032024)</td></tr>
          <tr><td><hr></td></tr>
          <tr><td>1800 UTC DEC 3, 2023</td></tr>
          <tr><td>Storm Location:</td></tr>
          <tr><td><b>7.4 S, 159.8 E</b></td></tr>
          <tr><td>Min Sea Level Pressure:</td></tr>
          <tr><td>1010 mb / 29.83 in Hg</td></tr>
          <tr><td>Maximum Intensity:</td></tr>
          <tr><td>15 kt / 17 mph / 28 kph</td></tr>
        </table>
      ]]></description>
      <Point><coordinates>159.8,-7.4</coordinates></Point>
    </Placemark>
    <Placemark>
      <name>0000 UTC DEC 4</name>
      <styleUrl>#db</styleUrl>
      <description><![CDATA[
        <table>
          <tr><td>DB JASPER (SH032024)</td></tr>
          <tr><td><hr></td></tr>
          <tr><td>0000 UTC DEC 4, 2023</td></tr>
          <tr><td>Storm Location:</td></tr>
          <tr><td><b>7.7 S, 158.7 E</b></td></tr>
          <tr><td>Min Sea Level Pressure:</td></tr>
          <tr><td>998 mb / 29.47 in Hg</td></tr>
          <tr><td>Maximum Intensity:</td></tr>
          <tr><td>20 kt / 23 mph / 37 kph</td></tr>
        </table>
      ]]></description>
      <Point><coordinates>158.7,-7.7</coordinates></Point>
    </Placemark>
    <Placemark>
      <name>0600 UTC DEC 4</name>
      <styleUrl>#db</styleUrl>
      <description><![CDATA[
        <table>
          <tr><td>DB JASPER (SH032024)</td></tr>
          <tr><td><hr></td></tr>
          <tr><td>0600 UTC DEC 4, 2023</td></tr>
          <tr><td>Storm Location:</td></tr>
          <tr><td><b>8.1 S, 158.4 E</b></td></tr>
          <tr><td>Min Sea Level Pressure:</td></tr>
          <tr><td>997 mb / 29.44 in Hg</td></tr>
          <tr><td>Maximum Intensity:</td></tr>
          <tr><td>20 kt / 23 mph / 37 kph</td></tr>
        </table>
      ]]></description>
      <Point><coordinates>158.4,-8.1</coordinates></Point>
    </Placemark>
    <Placemark>
      <name>1200 UTC DEC 4</name>
      <styleUrl>#td</styleUrl>
      <description><![CDATA[
        <table>
          <tr><td>TD JASPER (SH032024)</td></tr>
          <tr><td><hr></td></tr>
          <tr><td>1200 UTC DEC 4, 2023</td></tr>
          <tr><td>Storm Location:</td></tr>
          <tr><td><b>8.5 S, 158.0 E</b></td></tr>
          <tr><td>Min Sea Level Pressure:</td></tr>
          <tr><td>995 mb / 29.38 in Hg</td></tr>
          <tr><td>Maximum Intensity:</td></tr>
          <tr><td>25 kt / 29 mph / 46 kph</td></tr>
        </table>
      ]]></description>
      <Point><coordinates>158,-8.5</coordinates></Point>
    </Placemark>
    <Placemark>
      <name>1800 UTC DEC 4</name>
      <styleUrl>#td</styleUrl>
      <description><![CDATA[
        <table>
          <tr><td>TD JASPER (SH032024)</td></tr>
          <tr><td><hr></td></tr>
          <tr><td>1800 UTC DEC 4, 2023</td></tr>
          <tr><td>Storm Location:</td></tr>
          <tr><td><b>8.8 S, 157.6 E</b></td></tr>
          <tr><td>Min Sea Level Pressure:</td></tr>
          <tr><td>994 mb / 29.35 in Hg</td></tr>
          <tr><td>Maximum Intensity:</td></tr>
          <tr><td>30 kt / 35 mph / 56 kph</td></tr>
        </table>
      ]]></description>
      <Point><coordinates>157.6,-8.8</coordinates></Point>
    </Placemark>
    <Placemark>
      <name>0000 UTC DEC 5</name>
      <styleUrl>#ts</styleUrl>
      <description><![CDATA[
        <table>
          <tr><td>TS JASPER (SH032024)</td></tr>
          <tr><td><hr></td></tr>
          <tr><td>0000 UTC DEC 5, 2023</td></tr>
          <tr><td>Storm Location:</td></tr>
          <tr><td><b>9.1 S, 157.4 E</b></td></tr>
          <tr><td>Min Sea Level Pressure:</td></tr>
          <tr><td>997 mb / 29.44 in Hg</td></tr>
          <tr><td>Maximum Intensity:</td></tr>
          <tr><td>40 kt / 46 mph / 74 kph</td></tr>
        </table>
      ]]></description>
      <Point><coordinates>157.4,-9.1</coordinates></Point>
    </Placemark>
    <Placemark>
      <name>0600 UTC DEC 5</name>
      <styleUrl>#ts</styleUrl>
      <description><![CDATA[
        <table>
          <tr><td>TS JASPER (SH032024)</td></tr>
          <tr><td><hr></td></tr>
          <tr><td>0600 UTC DEC 5, 2023</td></tr>
          <tr><td>Storm Location:</td></tr>
          <tr><td><b>9.4 S, 157.2 E</b></td></tr>
          <tr><td>Min Sea Level Pressure:</td></tr>
          <tr><td>996 mb / 29.41 in Hg</td></tr>
          <tr><td>Maximum Intensity:</td></tr>
          <tr><td>40 kt / 46 mph / 74 kph</td></tr>
        </table>
      ]]></description>
      <Point><coordinates>157.2,-9.4</coordinates></Point>
    </Placemark>
    <Placemark>
      <name>1200 UTC DEC 5</name>
      <styleUrl>#ts</styleUrl>
      <description><![CDATA[
        <table>
          <tr><td>TS JASPER (SH032024)</td></tr>
          <tr><td><hr></td></tr>
          <tr><td>1200 UTC DEC 5, 2023</td></tr>
          <tr><td>Storm Location:</td></tr>
          <tr><td><b>9.5 S, 157.3 E</b></td></tr>
          <tr><td>Min Sea Level Pressure:</td></tr>
          <tr><td>995 mb / 29.38 in Hg</td></tr>
          <tr><td>Maximum Intensity:</td></tr>
          <tr><td>45 kt / 52 mph / 83 kph</td></tr>
        </table>
      ]]></description>
      <Point><coordinates>157.3,-9.5</coordinates></Point>
    </Placemark>
    <Placemark>
      <name>1800 UTC DEC 5</name>
      <styleUrl>#ts</styleUrl>
      <description><![CDATA[
        <table>
          <tr><td>TS JASPER (SH032024)</td></tr>
          <tr><td><hr></td></tr>
          <tr><td>1800 UTC DEC 5, 2023</td></tr>
          <tr><td>Storm Location:</td></tr>
          <tr><td><b>10.1 S, 157.3 E</b></td></tr>
          <tr><td>Min Sea Level Pressure:</td></tr>
          <tr><td>991 mb / 29.26 in Hg</td></tr>
          <tr><td>Maximum Intensity:</td></tr>
          <tr><td>50 kt / 58 mph / 93 kph</td></tr>
        </table>
      ]]></description>
      <Point><coordinates>157.3,-10.1</coordinates></Point>
    </Placemark>
    <Placemark>
      <name>0000 UTC DEC 6</name>
      <styleUrl>#ts</styleUrl>
      <description><![CDATA[
        <table>
          <tr><td>TS JASPER (SH032024)</td></tr>
          <tr><td><hr></td></tr>
          <tr><td>0000 UTC DEC 6, 2023</td></tr>
          <tr><td>Storm Location:</td></tr>
          <tr><td><b>10.6 S, 157.3 E</b></td></tr>
          <tr><td>Min Sea Level Pressure:</td></tr>
          <tr><td>986 mb / 29.12 in Hg</td></tr>
          <tr><td>Maximum Intensity:</td></tr>
          <tr><td>60 kt / 69 mph / 111 kph</td></tr>
        </table>
      ]]></description>
      <Point><coordinates>157.3,-10.6</coordinates></Point>
    </Placemark>
    <Placemark>
      <name>0600 UTC DEC 6</name>
      <styleUrl>#cat1</styleUrl>
      <description><![CDATA[
        <table>
          <tr><td>HU JASPER (SH032024)</td></tr>
          <tr><td><hr></td></tr>
          <tr><td>0600 UTC DEC 6, 2023</td></tr>
          <tr><td>Storm Location:</td></tr>
          <tr><td><b>11.1 S, 157.2 E</b></td></tr>
          <tr><td>Min Sea Level Pressure:</td></tr>
          <tr><td>978 mb / 28.88 in Hg</td></tr>
          <tr><td>Maximum Intensity:</td></tr>
          <tr><td>70 kt / 81 mph / 130 kph</td></tr>
        </table>
      ]]></description>
      <Point><coordinates>157.2,-11.1</coordinates></Point>
    </Placemark>
    <Placemark>
      <name>1200 UTC DEC 6</name>
      <styleUrl>#cat1</styleUrl>
      <description><![CDATA[
        <table>
          <tr><td>HU JASPER (SH032024)</td></tr>
          <tr><td><hr></td></tr>
          <tr><td>1200 UTC DEC 6, 2023</td></tr>
          <tr><td>Storm Location:</td></tr>
          <tr><td><b>11.5 S, 157.1 E</b></td></tr>
          <tr><td>Min Sea Level Pressure:</td></tr>
          <tr><td>977 mb / 28.85 in Hg</td></tr>
          <tr><td>Maximum Intensity:</td></tr>
          <tr><td>75 kt / 86 mph / 139 kph</td></tr>
        </table>
      ]]></description>
      <Point><coordinates>157.1,-11.5</coordinates></Point>
    </Placemark>
    <Placemark>
      <name>1800 UTC DEC 6</name>
      <styleUrl>#cat1</styleUrl>
      <description><![CDATA[
        <table>
          <tr><td>HU JASPER (SH032024)</td></tr>
          <tr><td><hr></td></tr>
          <tr><td>1800 UTC DEC 6, 2023</td></tr>
          <tr><td>Storm Location:</td></tr>
          <tr><td><b>11.7 S, 157.0 E</b></td></tr>
          <tr><td>Min Sea Level Pressure:</td></tr>
          <tr><td>974 mb / 28.76 in Hg</td></tr>
          <tr><td>Maximum Intensity:</td></tr>
          <tr><td>80 kt / 92 mph / 148 kph</td></tr>
        </table>
      ]]></description>
      <Point><coordinates>157,-11.7</coordinates></Point>
    </Placemark>
    <Placemark>
      <name>0000 UTC DEC 7</name>
      <styleUrl>#cat2</styleUrl>
      <description><![CDATA[
        <table>
          <tr><td>HU JASPER (SH032024)</td></tr>
          <tr><td><hr></td></tr>
          <tr><td>0000 UTC DEC 7, 2023</td></tr>
          <tr><td>Storm Location:</td></tr>
          <tr><td><b>12.2 S, 156.9 E</b></td></tr>
          <tr><td>Min Sea Level Pressure:</td></tr>
          <tr><td>967 mb / 28.56 in Hg</td></tr>
          <tr><td>Maximum Intensity:</td></tr>
          <tr><td>85 kt / 98 mph / 157 kph</td></tr>
        </table>
      ]]></description>
      <Point><coordinates>156.9,-12.2</coordinates></Point>
    </Placemark>
    <Placemark>
      <name>0600 UTC DEC 7</name>
      <styleUrl>#cat2</styleUrl>
      <description><![CDATA[
        <table>
          <tr><td>HU JASPER (SH032024)</td></tr>
          <tr><td><hr></td></tr>
          <tr><td>0600 UTC DEC 7, 2023</td></tr>
          <tr><td>Storm Location:</td></tr>
          <tr><td><b>12.6 S, 156.8 E</b></td></tr>
          <tr><td>Min Sea Level Pressure:</td></tr>
          <tr><td>959 mb / 28.32 in Hg</td></tr>
          <tr><td>Maximum Intensity:</td></tr>
          <tr><td>95 kt / 109 mph / 176 kph</td></tr>
        </table>
      ]]></description>
      <Point><coordinates>156.8,-12.6</coordinates></Point>
    </Placemark>
    <Placemark>
      <name>1200 UTC DEC 7</name>
      <styleUrl>#cat3</styleUrl>
      <description><![CDATA[
        <table>
          <tr><td>HU JASPER (SH032024)</td></tr>
          <tr><td><hr></td></tr>
          <tr><td>1200 UTC DEC 7, 2023</td></tr>
          <tr><td>Storm Location:</td></tr>
          <tr><td><b>13.1 S, 156.8 E</b></td></tr>
          <tr><td>Min Sea Level Pressure:</td></tr>
          <tr><td>950 mb / 28.05 in Hg</td></tr>
          <tr><td>Maximum Intensity:</td></tr>
          <tr><td>105 kt / 121 mph / 194 kph</td></tr>
        </table>
      ]]></description>
      <Point><coordinates>156.8,-13.1</coordinates></Point>
    </Placemark>
    <Placemark>
      <name>1800 UTC DEC 7</name>
      <styleUrl>#cat4</styleUrl>
      <description><![CDATA[
        <table>
          <tr><td>HU JASPER (SH032024)</td></tr>
          <tr><td><hr></td></tr>
          <tr><td>1800 UTC DEC 7, 2023</td></tr>
          <tr><td>Storm Location:</td></tr>
          <tr><td><b>13.5 S, 156.8 E</b></td></tr>
          <tr><td>Min Sea Level Pressure:</td></tr>
          <tr><td>940 mb / 27.76 in Hg</td></tr>
          <tr><td>Maximum Intensity:</td></tr>
          <tr><td>115 kt / 132 mph / 213 kph</td></tr>
        </table>
      ]]></description>
      <Point><coordinates>156.8,-13.5</coordinates></Point>
    </Placemark>
    <Placemark>
      <name>0000 UTC DEC 8</name>
      <styleUrl>#cat4</styleUrl>
      <description><![CDATA[
        <table>
          <tr><td>HU JASPER (SH032024)</td></tr>
          <tr><td><hr></td></tr>
          <tr><td>0000 UTC DEC 8, 2023</td></tr>
          <tr><td>Storm Location:</td></tr>
          <tr><td><b>14.2 S, 156.6 E</b></td></tr>
          <tr><td>Min Sea Level Pressure:</td></tr>
          <tr><td>937 mb / 27.67 in Hg</td></tr>
          <tr><td>Maximum Intensity:</td></tr>
          <tr><td>120 kt / 138 mph / 222 kph</td></tr>
        </table>
      ]]></description>
      <Point><coordinates>156.6,-14.2</coordinates></Point>
    </Placemark>
    <Placemark>
      <name>0600 UTC DEC 8</name>
      <styleUrl>#cat4</styleUrl>
      <description><![CDATA[
        <table>
          <tr><td>HU JASPER (SH032024)</td></tr>
          <tr><td><hr></td></tr>
          <tr><td>0600 UTC DEC 8, 2023</td></tr>
          <tr><td>Storm Location:</td></tr>
          <tr><td><b>14.6 S, 156.5 E</b></td></tr>
          <tr><td>Min Sea Level Pressure:</td></tr>
          <tr><td>943 mb / 27.85 in Hg</td></tr>
          <tr><td>Maximum Intensity:</td></tr>
          <tr><td>115 kt / 132 mph / 213 kph</td></tr>
        </table>
      ]]></description>
      <Point><coordinates>156.5,-14.6</coordinates></Point>
    </Placemark>
    <Placemark>
      <name>1200 UTC DEC 8</name>
      <styleUrl>#cat3</styleUrl>
      <description><![CDATA[
        <table>
          <tr><td>HU JASPER (SH032024)</td></tr>
          <tr><td><hr></td></tr>
          <tr><td>1200 UTC DEC 8, 2023</td></tr>
          <tr><td>Storm Location:</td></tr>
          <tr><td><b>15.1 S, 156.6 E</b></td></tr>
          <tr><td>Min Sea Level Pressure:</td></tr>
          <tr><td>952 mb / 28.11 in Hg</td></tr>
          <tr><td>Maximum Intensity:</td></tr>
          <tr><td>105 kt / 121 mph / 194 kph</td></tr>
        </table>
      ]]></description>
      <Point><coordinates>156.6,-15.1</coordinates></Point>
    </Placemark>
    <Placemark>
      <name>1800 UTC DEC 8</name>
      <styleUrl>#cat2</styleUrl>
      <description><![CDATA[
        <table>
          <tr><td>HU JASPER (SH032024)</td></tr>
          <tr><td><hr></td></tr>
          <tr><td>1800 UTC DEC 8, 2023</td></tr>
          <tr><td>Storm Location:</td></tr>
          <tr><td><b>15.3 S, 156.2 E</b></td></tr>
          <tr><td>Min Sea Level Pressure:</td></tr>
          <tr><td>959 mb / 28.32 in Hg</td></tr>
          <tr><td>Maximum Intensity:</td></tr>
          <tr><td>95 kt / 109 mph / 176 kph</td></tr>
        </table>
      ]]></description>
      <Point><coordinates>156.2,-15.3</coordinates></Point>
    </Placemark>
    <Placemark>
      <name>0000 UTC DEC 9</name>
      <styleUrl>#cat2</styleUrl>
      <description><![CDATA[
        <table>
          <tr><td>HU JASPER (SH032024)</td></tr>
          <tr><td><hr></td></tr>
          <tr><td>0000 UTC DEC 9, 2023</td></tr>
          <tr><td>Storm Location:</td></tr>
          <tr><td><b>15.4 S, 155.8 E</b></td></tr>
          <tr><td>Min Sea Level Pressure:</td></tr>
          <tr><td>964 mb / 28.47 in Hg</td></tr>
          <tr><td>Maximum Intensity:</td></tr>
          <tr><td>90 kt / 104 mph / 167 kph</td></tr>
        </table>
      ]]></description>
      <Point><coordinates>155.8,-15.4</coordinates></Point>
    </Placemark>
    <Placemark>
      <name>0600 UTC DEC 9</name>
      <styleUrl>#cat1</styleUrl>
      <description><![CDATA[
        <table>
          <tr><td>HU JASPER (SH032024)</td></tr>
          <tr><td><hr></td></tr>
          <tr><td>0600 UTC DEC 9, 2023</td></tr>
          <tr><td>Storm Location:</td></tr>
          <tr><td><b>15.6 S, 155.5 E</b></td></tr>
          <tr><td>Min Sea Level Pressure:</td></tr>
          <tr><td>973 mb / 28.73 in Hg</td></tr>
          <tr><td>Maximum Intensity:</td></tr>
          <tr><td>75 kt / 86 mph / 139 kph</td></tr>
        </table>
      ]]></description>
      <Point><coordinates>155.5,-15.6</coordinates></Point>
    </Placemark>
    <Placemark>
      <name>1200 UTC DEC 9</name>
      <styleUrl>#cat1</styleUrl>
      <description><![CDATA[
        <table>
          <tr><td>HU JASPER (SH032024)</td></tr>
          <tr><td><hr></td></tr>
          <tr><td>1200 UTC DEC 9, 2023</td></tr>
          <tr><td>Storm Location:</td></tr>
          <tr><td><b>15.9 S, 155.0 E</b></td></tr>
          <tr><td>Min Sea Level Pressure:</td></tr>
          <tr><td>977 mb / 28.85 in Hg</td></tr>
          <tr><td>Maximum Intensity:</td></tr>
          <tr><td>70 kt / 81 mph / 130 kph</td></tr>
        </table>
      ]]></description>
      <Point><coordinates>155,-15.9</coordinates></Point>
    </Placemark>
    <Placemark>
      <name>1800 UTC DEC 9</name>
      <styleUrl>#ts</styleUrl>
      <description><![CDATA[
        <table>
          <tr><td>TS JASPER (SH032024)</td></tr>
          <tr><td><hr></td></tr>
          <tr><td>1800 UTC DEC 9, 2023</td></tr>
          <tr><td>Storm Location:</td></tr>
          <tr><td><b>16.0 S, 154.8 E</b></td></tr>
          <tr><td>Min Sea Level Pressure:</td></tr>
          <tr><td>983 mb / 29.03 in Hg</td></tr>
          <tr><td>Maximum Intensity:</td></tr>
          <tr><td>60 kt / 69 mph / 111 kph</td></tr>
        </table>
      ]]></description>
      <Point><coordinates>154.8,-16</coordinates></Point>
    </Placemark>
    <Placemark>
      <name>0000 UTC DEC 10</name>
      <styleUrl>#ts</styleUrl>
      <description><![CDATA[
        <table>
          <tr><td>TS JASPER (SH032024)</td></tr>
          <tr><td><hr></td></tr>
          <tr><td>0000 UTC DEC 10, 2023</td></tr>
          <tr><td>Storm Location:</td></tr>
          <tr><td><b>16.3 S, 154.3 E</b></td></tr>
          <tr><td>Min Sea Level Pressure:</td></tr>
          <tr><td>982 mb / 29.00 in Hg</td></tr>
          <tr><td>Maximum Intensity:</td></tr>
          <tr><td>60 kt / 69 mph / 111 kph</td></tr>
        </table>
      ]]></description>
      <Point><coordinates>154.3,-16.3</coordinates></Point>
    </Placemark>
    <Placemark>
      <name>0600 UTC DEC 10</name>
      <styleUrl>#ts</styleUrl>
      <description><![CDATA[
        <table>
          <tr><td>TS JASPER (SH032024)</td></tr>
          <tr><td><hr></td></tr>
          <tr><td>0600 UTC DEC 10, 2023</td></tr>
          <tr><td>Storm Location:</td></tr>
          <tr><td><b>16.7 S, 153.6 E</b></td></tr>
          <tr><td>Min Sea Level Pressure:</td></tr>
          <tr><td>983 mb / 29.03 in Hg</td></tr>
          <tr><td>Maximum Intensity:</td></tr>
          <tr><td>60 kt / 69 mph / 111 kph</td></tr>
        </table>
      ]]></description>
      <Point><coordinates>153.6,-16.7</coordinates></Point>
    </Placemark>
    <Placemark>
      <name>1200 UTC DEC 10</name>
      <styleUrl>#ts</styleUrl>
      <description><![CDATA[
        <table>
          <tr><td>TS JASPER (SH032024)</td></tr>
          <tr><td><hr></td></tr>
          <tr><td>1200 UTC DEC 10, 2023</td></tr>
          <tr><td>Storm Location:</td></tr>
          <tr><td><b>17.2 S, 152.7 E</b></td></tr>
          <tr><td>Min Sea Level Pressure:</td></tr>
          <tr><td>986 mb / 29.12 in Hg</td></tr>
          <tr><td>Maximum Intensity:</td></tr>
          <tr><td>55 kt / 63 mph / 102 kph</td></tr>
        </table>
      ]]></description>
      <Point><coordinates>152.7,-17.2</coordinates></Point>
    </Placemark>
    <Placemark>
      <name>1800 UTC DEC 10</name>
      <styleUrl>#ts</styleUrl>
      <description><![CDATA[
        <table>
          <tr><td>TS JASPER (SH032024)</td></tr>
          <tr><td><hr></td></tr>
          <tr><td>1800 UTC DEC 10, 2023</td></tr>
          <tr><td>Storm Location:</td></tr>
          <tr><td><b>17.4 S, 151.6 E</b></td></tr>
          <tr><td>Min Sea Level Pressure:</td></tr>
          <tr><td>990 mb / 29.23 in Hg</td></tr>
          <tr><td>Maximum Intensity:</td></tr>
          <tr><td>50 kt / 58 mph / 93 kph</td></tr>
        </table>
      ]]></description>
      <Point><coordinates>151.6,-17.4</coordinates></Point>
    </Placemark>
    <Placemark>
      <name>0000 UTC DEC 11</name>
      <styleUrl>#ts</styleUrl>
      <description><![CDATA[
        <table>
          <tr><td>TS JASPER (SH032024)</td></tr>
          <tr><td><hr></td></tr>
          <tr><td>0000 UTC DEC 11, 2023</td></tr>
          <tr><td>Storm Location:</td></tr>
          <tr><td><b>17.8 S, 150.3 E</b></td></tr>
          <tr><td>Min Sea Level Pressure:</td></tr>
          <tr><td>994 mb / 29.35 in Hg</td></tr>
          <tr><td>Maximum Intensity:</td></tr>
          <tr><td>40 kt / 46 mph / 74 kph</td></tr>
        </table>
      ]]></description>
      <Point><coordinates>150.3,-17.8</coordinates></Point>
    </Placemark>
    <Placemark>
      <name>0600 UTC DEC 11</name>
      <styleUrl>#ts</styleUrl>
      <description><![CDATA[
        <table>
          <tr><td>TS JASPER (SH032024)</td></tr>
          <tr><td><hr></td></tr>
          <tr><td>0600 UTC DEC 11, 2023</td></tr>
          <tr><td>Storm Location:</td></tr>
          <tr><td><b>17.4 S, 149.7 E</b></td></tr>
          <tr><td>Min Sea Level Pressure:</td></tr>
          <tr><td>994 mb / 29.35 in Hg</td></tr>
          <tr><td>Maximum Intensity:</td></tr>
          <tr><td>40 kt / 46 mph / 74 kph</td></tr>
        </table>
      ]]></description>
      <Point><coordinates>149.7,-17.4</coordinates></Point>
    </Placemark>
    <Placemark>
      <name>1200 UTC DEC 11</name>
      <styleUrl>#ts</styleUrl>
      <description><![CDATA[
        <table>
          <tr><td>TS JASPER (SH032024)</td></tr>
          <tr><td><hr></td></tr>
          <tr><td>1200 UTC DEC 11, 2023</td></tr>
          <tr><td>Storm Location:</td></tr>
          <tr><td><b>17.0 S, 149.0 E</b></td></tr>
          <tr><td>Min Sea Level Pressure:</td></tr>
          <tr><td>994 mb / 29.35 in Hg</td></tr>
          <tr><td>Maximum Intensity:</td></tr>
          <tr><td>40 kt / 46 mph / 74 kph</td></tr>
        </table>
      ]]></description>
      <Point><coordinates>149,-17</coordinates></Point>
    </Placemark>
    <Placemark>
      <name>1800 UTC DEC 11</name>
      <styleUrl>#ts</styleUrl>
      <description><![CDATA[
        <table>
          <tr><td>TS JASPER (SH032024)</td></tr>
          <tr><td><hr></td></tr>
          <tr><td>1800 UTC DEC 11, 2023</td></tr>
          <tr><td>Storm Location:</td></tr>
          <tr><td><b>16.5 S, 148.2 E</b></td></tr>
          <tr><td>Min Sea Level Pressure:</td></tr>
          <tr><td>992 mb / 29.29 in Hg</td></tr>
          <tr><td>Maximum Intensity:</td></tr>
          <tr><td>45 kt / 52 mph / 83 kph</td></tr>
        </table>
      ]]></description>
      <Point><coordinates>148.2,-16.5</coordinates></Point>
    </Placemark>
    <Placemark>
      <name>0000 UTC DEC 12</name>
      <styleUrl>#ts</styleUrl>
      <description><![CDATA[
        <table>
          <tr><td>TS JASPER (SH032024)</td></tr>
          <tr><td><hr></td></tr>
          <tr><td>0000 UTC DEC 12, 2023</td></tr>
          <tr><td>Storm Location:</td></tr>
          <tr><td><b>16.2 S, 147.9 E</b></td></tr>
          <tr><td>Min Sea Level Pressure:</td></tr>
          <tr><td>993 mb / 29.32 in Hg</td></tr>
          <tr><td>Maximum Intensity:</td></tr>
          <tr><td>45 kt / 52 mph / 83 kph</td></tr>
        </table>
      ]]></description>
      <Point><coordinates>147.9,-16.2</coordinates></Point>
    </Placemark>
    <Placemark>
      <name>0600 UTC DEC 12</name>
      <styleUrl>#ts</styleUrl>
      <description><![CDATA[
        <table>
          <tr><td>TS JASPER (SH032024)</td></tr>
          <tr><td><hr></td></tr>
          <tr><td>0600 UTC DEC 12, 2023</td></tr>
          <tr><td>Storm Location:</td></tr>
          <tr><td><b>15.9 S, 147.6 E</b></td></tr>
          <tr><td>Min Sea Level Pressure:</td></tr>
          <tr><td>993 mb / 29.32 in Hg</td></tr>
          <tr><td>Maximum Intensity:</td></tr>
          <tr><td>45 kt / 52 mph / 83 kph</td></tr>
        </table>
      ]]></description>
      <Point><coordinates>147.6,-15.9</coordinates></Point>
    </Placemark>
    <Placemark>
      <name>1200 UTC DEC 12</name>
      <styleUrl>#ts</styleUrl>
      <description><![CDATA[
        <table>
          <tr><td>TS JASPER (SH032024)</td></tr>
          <tr><td><hr></td></tr>
          <tr><td>1200 UTC DEC 12, 2023</td></tr>
          <tr><td>Storm Location:</td></tr>
          <tr><td><b>15.6 S, 147.4 E</b></td></tr>
          <tr><td>Min Sea Level Pressure:</td></tr>
          <tr><td>992 mb / 29.29 in Hg</td></tr>
          <tr><td>Maximum Intensity:</td></tr>
          <tr><td>50 kt / 58 mph / 93 kph</td></tr>
        </table>
      ]]></description>
      <Point><coordinates>147.4,-15.6</coordinates></Point>
    </Placemark>
    <Placemark>
      <name>1800 UTC DEC 12</name>
      <styleUrl>#ts</styleUrl>
      <description><![CDATA[
        <table>
          <tr><td>TS JASPER (SH032024)</td></tr>
          <tr><td><hr></td></tr>
          <tr><td>1800 UTC DEC 12, 2023</td></tr>
          <tr><td>Storm Location:</td></tr>
          <tr><td><b>15.4 S, 147.0 E</b></td></tr>
          <tr><td>Min Sea Level Pressure:</td></tr>
          <tr><td>990 mb / 29.23 in Hg</td></tr>
          <tr><td>Maximum Intensity:</td></tr>
          <tr><td>50 kt / 58 mph / 93 kph</td></tr>
        </table>
      ]]></description>
      <Point><coordinates>147,-15.4</coordinates></Point>
    </Placemark>
    <Placemark>
      <name>0000 UTC DEC 13</name>
      <styleUrl>#ts</styleUrl>
      <description><![CDATA[
        <table>
          <tr><td>TS JASPER (SH032024)</td></tr>
          <tr><td><hr></td></tr>
          <tr><td>0000 UTC DEC 13, 2023</td></tr>
          <tr><td>Storm Location:</td></tr>
          <tr><td><b>15.7 S, 146.4 E</b></td></tr>
          <tr><td>Min Sea Level Pressure:</td></tr>
          <tr><td>990 mb / 29.23 in Hg</td></tr>
          <tr><td>Maximum Intensity:</td></tr>
          <tr><td>50 kt / 58 mph / 93 kph</td></tr>
        </table>
      ]]></description>
      <Point><coordinates>146.4,-15.7</coordinates></Point>
    </Placemark>
    <Placemark>
      <name>0600 UTC DEC 13</name>
      <styleUrl>#ts</styleUrl>
      <description><![CDATA[
        <table>
          <tr><td>TS JASPER (SH032024)</td></tr>
          <tr><td><hr></td></tr>
          <tr><td>0600 UTC DEC 13, 2023</td></tr>
          <tr><td>Storm Location:</td></tr>
          <tr><td><b>15.8 S, 145.7 E</b></td></tr>
          <tr><td>Min Sea Level Pressure:</td></tr>
          <tr><td>988 mb / 29.18 in Hg</td></tr>
          <tr><td>Maximum Intensity:</td></tr>
          <tr><td>50 kt / 58 mph / 93 kph</td></tr>
        </table>
      ]]></description>
      <Point><coordinates>145.7,-15.8</coordinates></Point>
    </Placemark>
    <Placemark>
      <name>1200 UTC DEC 13</name>
      <styleUrl>#ts</styleUrl>
      <description><![CDATA[
        <table>
          <tr><td>TS JASPER (SH032024)</td></tr>
          <tr><td><hr></td></tr>
          <tr><td>1200 UTC DEC 13, 2023</td></tr>
          <tr><td>Storm Location:</td></tr>
          <tr><td><b>15.9 S, 145.3 E</b></td></tr>
          <tr><td>Min Sea Level Pressure:</td></tr>
          <tr><td>995 mb / 29.38 in Hg</td></tr>
          <tr><td>Maximum Intensity:</td></tr>
          <tr><td>45 kt / 52 mph / 83 kph</td></tr>
        </table>
      ]]></description>
      <Point><coordinates>145.3,-15.9</coordinates></Point>
    </Placemark>
    <Placemark>
      <name>1800 UTC DEC 13</name>
      <styleUrl>#ts</styleUrl>
      <description><![CDATA[
        <table>
          <tr><td>TS JASPER (SH032024)</td></tr>
          <tr><td><hr></td></tr>
          <tr><td>1800 UTC DEC 13, 2023</td></tr>
          <tr><td>Storm Location:</td></tr>
          <tr><td><b>16.0 S, 144.4 E</b></td></tr>
          <tr><td>Min Sea Level Pressure:</td></tr>
          <tr><td>1000 mb / 29.53 in Hg</td></tr>
          <tr><td>Maximum Intensity:</td></tr>
          <tr><td>35 kt / 40 mph / 65 kph</td></tr>
        </table>
      ]]></description>
      <Point><coordinates>144.4,-16</coordinates></Point>
    </Placemark>
    <Placemark>
      <name>0000 UTC DEC 14</name>
      <styleUrl>#td</styleUrl>
      <description><![CDATA[
        <table>
          <tr><td>TD JASPER (SH032024)</td></tr>
          <tr><td><hr></td></tr>
          <tr><td>0000 UTC DEC 14, 2023</td></tr>
          <tr><td>Storm Location:</td></tr>
          <tr><td><b>16.0 S, 144.0 E</b></td></tr>
          <tr><td>Min Sea Level Pressure:</td></tr>
          <tr><td>997 mb / 29.44 in Hg</td></tr>
          <tr><td>Maximum Intensity:</td></tr>
          <tr><td>25 kt / 29 mph / 46 kph</td></tr>
        </table>
      ]]></description>
      <Point><coordinates>144,-16</coordinates></Point>
    </Placemark>
    <Placemark>
      <name>0600 UTC DEC 14</name>
      <styleUrl>#td</styleUrl>
      <description><![CDATA[
        <table>
          <tr><td>TD JASPER (SH032024)</td></tr>
          <tr><td><hr></td></tr>
          <tr><td>0600 UTC DEC 14, 2023</td></tr>
          <tr><td>Storm Location:</td></tr>
          <tr><td><b>16.0 S, 143.7 E</b></td></tr>
          <tr><td>Min Sea Level Pressure:</td></tr>
          <tr><td>996 mb / 29.41 in Hg</td></tr>
          <tr><td>Maximum Intensity:</td></tr>
          <tr><td>25 kt / 29 mph / 46 kph</td></tr>
        </table>
      ]]></description>
      <Point><coordinates>143.7,-16</coordinates></Point>
    </Placemark>
    <Placemark>
      <name>1200 UTC DEC 14</name>
      <styleUrl>#td</styleUrl>
      <description><![CDATA[
        <table>
          <tr><td>TD JASPER (SH032024)</td></tr>
          <tr><td><hr></td></tr>
          <tr><td>1200 UTC DEC 14, 2023</td></tr>
          <tr><td>Storm Location:</td></tr>
          <tr><td><b>15.9 S, 143.4 E</b></td></tr>
          <tr><td>Min Sea Level Pressure:</td></tr>
          <tr><td>996 mb / 29.41 in Hg</td></tr>
          <tr><td>Maximum Intensity:</td></tr>
          <tr><td>25 kt / 29 mph / 46 kph</td></tr>
        </table>
      ]]></description>
      <Point><coordinates>143.4,-15.9</coordinates></Point>
    </Placemark>
    <Placemark>
      <name>1800 UTC DEC 14</name>
      <styleUrl>#td</styleUrl>
      <description><![CDATA[
        <table>
          <tr><td>TD JASPER (SH032024)</td></tr>
          <tr><td><hr></td></tr>
          <tr><td>1800 UTC DEC 14, 2023</td></tr>
          <tr><td>Storm Location:</td></tr>
          <tr><td><b>15.9 S, 143.2 E</b></td></tr>
          <tr><td>Min Sea Level Pressure:</td></tr>
          <tr><td>995 mb / 29.38 in Hg</td></tr>
          <tr><td>Maximum Intensity:</td></tr>
          <tr><td>25 kt / 29 mph / 46 kph</td></tr>
        </table>
      ]]></description>
      <Point><coordinates>143.2,-15.9</coordinates></Point>
    </Placemark>
    <Placemark>
      <name>0000 UTC DEC 15</name>
      <styleUrl>#db</styleUrl>
      <description><![CDATA[
        <table>
          <tr><td>DB JASPER (SH032024)</td></tr>
          <tr><td><hr></td></tr>
          <tr><td>0000 UTC DEC 15, 2023</td></tr>
          <tr><td>Storm Location:</td></tr>
          <tr><td><b>15.9 S, 143.0 E</b></td></tr>
          <tr><td>Min Sea Level Pressure:</td></tr>
          <tr><td>995 mb / 29.38 in Hg</td></tr>
          <tr><td>Maximum Intensity:</td></tr>
          <tr><td>20 kt / 23 mph / 37 kph</td></tr>
        </table>
      ]]></description>
      <Point><coordinates>143,-15.9</coordinates></Point>
    </Placemark>
    <Placemark>
      <name>0600 UTC DEC 15</name>
      <styleUrl>#db</styleUrl>
      <description><![CDATA[
        <table>
          <tr><td>DB JASPER (SH032024)</td></tr>
          <tr><td><hr></td></tr>
          <tr><td>0600 UTC DEC 15, 2023</td></tr>
          <tr><td>Storm Location:</td></tr>
          <tr><td><b>15.8 S, 142.5 E</b></td></tr>
          <tr><td>Min Sea Level Pressure:</td></tr>
          <tr><td>995 mb / 29.38 in Hg</td></tr>
          <tr><td>Maximum Intensity:</td></tr>
          <tr><td>20 kt / 23 mph / 37 kph</td></tr>
        </table>
      ]]></description>
      <Point><coordinates>142.5,-15.8</coordinates></Point>
    </Placemark>
    <Placemark>
      <name>1200 UTC DEC 15</name>
      <styleUrl>#db</styleUrl>
      <description><![CDATA[
        <table>
          <tr><td>DB JASPER (SH032024)</td></tr>
          <tr><td><hr></td></tr>
          <tr><td>1200 UTC DEC 15, 2023</td></tr>
          <tr><td>Storm Location:</td></tr>
          <tr><td><b>15.7 S, 142.3 E</b></td></tr>
          <tr><td>Min Sea Level Pressure:</td></tr>
          <tr><td>996 mb / 29.41 in Hg</td></tr>
          <tr><td>Maximum Intensity:</td></tr>
          <tr><td>20 kt / 23 mph / 37 kph</td></tr>
        </table>
      ]]></description>
      <Point><coordinates>142.3,-15.7</coordinates></Point>
    </Placemark>
    <Placemark>
      <name>1800 UTC DEC 15</name>
      <styleUrl>#db</styleUrl>
      <description><![CDATA[
        <table>
          <tr><td>DB JASPER (SH032024)</td></tr>
          <tr><td><hr></td></tr>
          <tr><td>1800 UTC DEC 15, 2023</td></tr>
          <tr><td>Storm Location:</td></tr>
          <tr><td><b>15.8 S, 142.0 E</b></td></tr>
          <tr><td>Min Sea Level Pressure:</td></tr>
          <tr><td>996 mb / 29.41 in Hg</td></tr>
          <tr><td>Maximum Intensity:</td></tr>
          <tr><td>20 kt / 23 mph / 37 kph</td></tr>
        </table>
      ]]></description>
      <Point><coordinates>142,-15.8</coordinates></Point>
    </Placemark>
    <Placemark>
      <name>0000 UTC DEC 16</name>
      <styleUrl>#db</styleUrl>
      <description><![CDATA[
        <table>
          <tr><td>DB JASPER (SH032024)</td></tr>
          <tr><td><hr></td></tr>
          <tr><td>0000 UTC DEC 16, 2023</td></tr>
          <tr><td>Storm Location:</td></tr>
          <tr><td><b>15.8 S, 141.7 E</b></td></tr>
          <tr><td>Min Sea Level Pressure:</td></tr>
          <tr><td>996 mb / 29.41 in Hg</td></tr>
          <tr><td>Maximum Intensity:</td></tr>
          <tr><td>20 kt / 23 mph / 37 kph</td></tr>
        </table>
      ]]></description>
      <Point><coordinates>141.7,-15.8</coordinates></Point>
    </Placemark>
    <Placemark>
      <name>0600 UTC DEC 16</name>
      <styleUrl>#db</styleUrl>
      <description><![CDATA[
        <table>
          <tr><td>DB JASPER (SH032024)</td></tr>
          <tr><td><hr></td></tr>
          <tr><td>0600 UTC DEC 16, 2023</td></tr>
          <tr><td>Storm Location:</td></tr>
          <tr><td><b>15.6 S, 141.6 E</b></td></tr>
          <tr><td>Min Sea Level Pressure:</td></tr>
          <tr><td>996 mb / 29.41 in Hg</td></tr>
          <tr><td>Maximum Intensity:</td></tr>
          <tr><td>20 kt / 23 mph / 37 kph</td></tr>
        </table>
      ]]></description>
      <Point><coordinates>141.6,-15.6</coordinates></Point>
    </Placemark>
    <Placemark>
      <name>1200 UTC DEC 16</name>
      <styleUrl>#db</styleUrl>
      <description><![CDATA[
        <table>
          <tr><td>DB JASPER (SH032024)</td></tr>
          <tr><td><hr></td></tr>
          <tr><td>1200 UTC DEC 16, 2023</td></tr>
          <tr><td>Storm Location:</td></tr>
          <tr><td><b>15.4 S, 141.5 E</b></td></tr>
          <tr><td>Min Sea Level Pressure:</td></tr>
          <tr><td>996 mb / 29.41 in Hg</td></tr>
          <tr><td>Maximum Intensity:</td></tr>
          <tr><td>20 kt / 23 mph / 37 kph</td></tr>
        </table>
      ]]></description>
      <Point><coordinates>141.5,-15.4</coordinates></Point>
    </Placemark>
  </Document>
</kml>
