<?xml version="1.0" encoding="UTF-8"?>
<kml xmlns="http://www.opengis.net/kml/2.2">
  <Document>
    <name>SH042024</name>
    <open>0</open>

    <!-- =====  Document header ===== -->
    <description><![CDATA[
      <table>
        <tr><td><b>Title:</b> Tropical Cyclone Best Track for SH042024</td></tr>
      </table>
    ]]></description>

    <!-- =====  Styles (ids must be unique)  ===== -->
	<Style id="pt"> 
		<IconStyle> 
			<scale>1.0</scale> 
			<Icon> 
				<href>ex_nhemi.png</href> 
			</Icon> 
             <hotSpot x="15" y="17" xunits="pixels" yunits="pixels"/>
		</IconStyle> 
		<LabelStyle> 
			<scale>1.0</scale> 
		</LabelStyle> 
	</Style>
	<Style id="cat5"> 
		<IconStyle> 
			<scale>1.0</scale> 
			<Icon> 
				<href>cat5_nhemi.png</href> 
			</Icon> 
             <hotSpot x="15" y="17" xunits="pixels" yunits="pixels"/>
		</IconStyle> 
		<LabelStyle> 
			<scale>1.0</scale> 
		</LabelStyle> 
	</Style>
	<Style id="db"> 
		<IconStyle> 
			<scale>1.0</scale> 
			<Icon> 
				<href>ex_nhemi.png</href> 
			</Icon> 
             <hotSpot x="15" y="17" xunits="pixels" yunits="pixels"/>
		</IconStyle> 
		<LabelStyle> 
			<scale>1.0</scale> 
		</LabelStyle> 
	</Style>
	<Style id="cat3"> 
		<IconStyle> 
			<scale>1.0</scale> 
			<Icon> 
				<href>cat3_nhemi.png</href> 
			</Icon> 
             <hotSpot x="15" y="17" xunits="pixels" yunits="pixels"/>
		</IconStyle> 
		<LabelStyle> 
			<scale>1.0</scale> 
		</LabelStyle> 
	</Style>
	<Style id="ss"> 
		<IconStyle> 
			<scale>1.0</scale> 
			<Icon> 
				<href>ts_nhemi.png</href> 
			</Icon> 
             <hotSpot x="15" y="17" xunits="pixels" yunits="pixels"/>
		</IconStyle> 
		<LabelStyle> 
			<scale>1.0</scale> 
		</LabelStyle> 
	</Style>
	<Style id="lo"> 
		<IconStyle> 
			<scale>1.0</scale> 
			<Icon> 
				<href>ex_nhemi.png</href> 
			</Icon> 
             <hotSpot x="15" y="17" xunits="pixels" yunits="pixels"/>
		</IconStyle> 
		<LabelStyle> 
			<scale>1.0</scale> 
		</LabelStyle> 
	</Style>
	<Style id="cat4"> 
		<IconStyle> 
			<scale>1.0</scale> 
			<Icon> 
				<href>cat4_nhemi.png</href> 
			</Icon> 
             <hotSpot x="15" y="17" xunits="pixels" yunits="pixels"/>
		</IconStyle> 
		<LabelStyle> 
			<scale>1.0</scale> 
		</LabelStyle> 
	</Style>
	<Style id="cat2"> 
		<IconStyle> 
			<scale>1.0</scale> 
			<Icon> 
				<href>cat2_nhemi.png</href> 
			</Icon> 
             <hotSpot x="15" y="17" xunits="pixels" yunits="pixels"/>
		</IconStyle> 
		<LabelStyle> 
			<scale>1.0</scale> 
		</LabelStyle> 
	</Style>
	<Style id="ts"> 
		<IconStyle> 
			<scale>1.0</scale> 
			<Icon> 
				<href>ts_nhemi.png</href> 
			</Icon> 
             <hotSpot x="15" y="17" xunits="pixels" yunits="pixels"/>
		</IconStyle> 
		<LabelStyle> 
			<scale>1.0</scale> 
		</LabelStyle> 
	</Style>
	<Style id="cat1"> 
		<IconStyle> 
			<scale>1.0</scale> 
			<Icon> 
				<href>cat1_nhemi.png</href> 
			</Icon> 
             <hotSpot x="15" y="17" xunits="pixels" yunits="pixels"/>
		</IconStyle> 
		<LabelStyle> 
			<scale>1.0</scale> 
		</LabelStyle> 
	</Style>
	<Style id="ex"> 
		<IconStyle> 
			<scale>1.0</scale> 
			<Icon> 
				<href>ex_nhemi.png</href> 
			</Icon> 
             <hotSpot x="15" y="17" xunits="pixels" yunits="pixels"/>
		</IconStyle> 
		<LabelStyle> 
			<scale>1.0</scale> 
		</LabelStyle> 
	</Style>
	<Style id="tc"> 
		<IconStyle> 
			<scale>1.0</scale> 
			<Icon> 
				<href>ex_nhemi.png</href> 
			</Icon> 
             <hotSpot x="15" y="17" xunits="pixels" yunits="pixels"/>
		</IconStyle> 
		<LabelStyle> 
			<scale>1.0</scale> 
		</LabelStyle> 
	</Style>
	<Style id="wv"> 
		<IconStyle> 
			<scale>1.0</scale> 
			<Icon> 
				<href>ex_nhemi.png</href> 
			</Icon> 
             <hotSpot x="15" y="17" xunits="pixels" yunits="pixels"/>
		</IconStyle> 
		<LabelStyle> 
			<scale>1.0</scale> 
		</LabelStyle> 
	</Style>
	<Style id="td"> 
		<IconStyle> 
			<scale>1.0</scale> 
			<Icon> 
				<href>td_nhemi.png</href> 
			</Icon> 
             <hotSpot x="15" y="17" xunits="pixels" yunits="pixels"/>
		</IconStyle> 
		<LabelStyle> 
			<scale>1.0</scale> 
		</LabelStyle> 
	</Style>
	<Style id="sd"> 
		<IconStyle> 
			<scale>1.0</scale> 
			<Icon> 
				<href>ex_nhemi.png</href> 
			</Icon> 
             <hotSpot x="15" y="17" xunits="pixels" yunits="pixels"/>
		</IconStyle> 
		<LabelStyle> 
			<scale>1.0</scale> 
		</LabelStyle> 
	</Style>

    <Placemark>
      <name>0600 UTC DEC 30</name>
      <styleUrl>#db</styleUrl>
      <description><![CDATA[
        <table>
          <tr><td>DB ALVARO (SH042024)</td></tr>
          <tr><td><hr></td></tr>
          <tr><td>0600 UTC DEC 30, 2023</td></tr>
          <tr><td>Storm Location:</td></tr>
          <tr><td><b>19.4 S, 35.8 E</b></td></tr>
          <tr><td>Min Sea Level Pressure:</td></tr>
          <tr><td>1010 mb / 29.83 in Hg</td></tr>
          <tr><td>Maximum Intensity:</td></tr>
          <tr><td>15 kt / 17 mph / 28 kph</td></tr>
        </table>
      ]]></description>
      <Point><coordinates>35.8,-19.4</coordinates></Point>
    </Placemark>
    <Placemark>
      <name>1200 UTC DEC 30</name>
      <styleUrl>#db</styleUrl>
      <description><![CDATA[
        <table>
          <tr><td>DB ALVARO (SH042024)</td></tr>
          <tr><td><hr></td></tr>
          <tr><td>1200 UTC DEC 30, 2023</td></tr>
          <tr><td>Storm Location:</td></tr>
          <tr><td><b>19.7 S, 36.6 E</b></td></tr>
          <tr><td>Min Sea Level Pressure:</td></tr>
          <tr><td>1007 mb / 29.74 in Hg</td></tr>
          <tr><td>Maximum Intensity:</td></tr>
          <tr><td>20 kt / 23 mph / 37 kph</td></tr>
        </table>
      ]]></description>
      <Point><coordinates>36.6,-19.7</coordinates></Point>
    </Placemark>
    <Placemark>
      <name>1800 UTC DEC 30</name>
      <styleUrl>#db</styleUrl>
      <description><![CDATA[
        <table>
          <tr><td>DB ALVARO (SH042024)</td></tr>
          <tr><td><hr></td></tr>
          <tr><td>1800 UTC DEC 30, 2023</td></tr>
          <tr><td>Storm Location:</td></tr>
          <tr><td><b>19.9 S, 37.4 E</b></td></tr>
          <tr><td>Min Sea Level Pressure:</td></tr>
          <tr><td>1006 mb / 29.71 in Hg</td></tr>
          <tr><td>Maximum Intensity:</td></tr>
          <tr><td>20 kt / 23 mph / 37 kph</td></tr>
        </table>
      ]]></description>
      <Point><coordinates>37.4,-19.9</coordinates></Point>
    </Placemark>
    <Placemark>
      <name>0000 UTC DEC 31</name>
      <styleUrl>#td</styleUrl>
      <description><![CDATA[
        <table>
          <tr><td>TD ALVARO (SH042024)</td></tr>
          <tr><td><hr></td></tr>
          <tr><td>0000 UTC DEC 31, 2023</td></tr>
          <tr><td>Storm Location:</td></tr>
          <tr><td><b>20.0 S, 37.9 E</b></td></tr>
          <tr><td>Min Sea Level Pressure:</td></tr>
          <tr><td>1004 mb / 29.65 in Hg</td></tr>
          <tr><td>Maximum Intensity:</td></tr>
          <tr><td>30 kt / 35 mph / 56 kph</td></tr>
        </table>
      ]]></description>
      <Point><coordinates>37.9,-20</coordinates></Point>
    </Placemark>
    <Placemark>
      <name>0600 UTC DEC 31</name>
      <styleUrl>#ts</styleUrl>
      <description><![CDATA[
        <table>
          <tr><td>TS ALVARO (SH042024)</td></tr>
          <tr><td><hr></td></tr>
          <tr><td>0600 UTC DEC 31, 2023</td></tr>
          <tr><td>Storm Location:</td></tr>
          <tr><td><b>20.2 S, 38.5 E</b></td></tr>
          <tr><td>Min Sea Level Pressure:</td></tr>
          <tr><td>1002 mb / 29.59 in Hg</td></tr>
          <tr><td>Maximum Intensity:</td></tr>
          <tr><td>35 kt / 40 mph / 65 kph</td></tr>
        </table>
      ]]></description>
      <Point><coordinates>38.5,-20.2</coordinates></Point>
    </Placemark>
    <Placemark>
      <name>1200 UTC DEC 31</name>
      <styleUrl>#ts</styleUrl>
      <description><![CDATA[
        <table>
          <tr><td>TS ALVARO (SH042024)</td></tr>
          <tr><td><hr></td></tr>
          <tr><td>1200 UTC DEC 31, 2023</td></tr>
          <tr><td>Storm Location:</td></tr>
          <tr><td><b>20.5 S, 39.2 E</b></td></tr>
          <tr><td>Min Sea Level Pressure:</td></tr>
          <tr><td>998 mb / 29.47 in Hg</td></tr>
          <tr><td>Maximum Intensity:</td></tr>
          <tr><td>40 kt / 46 mph / 74 kph</td></tr>
        </table>
      ]]></description>
      <Point><coordinates>39.2,-20.5</coordinates></Point>
    </Placemark>
    <Placemark>
      <name>1800 UTC DEC 31</name>
      <styleUrl>#ts</styleUrl>
      <description><![CDATA[
        <table>
          <tr><td>TS ALVARO (SH042024)</td></tr>
          <tr><td><hr></td></tr>
          <tr><td>1800 UTC DEC 31, 2023</td></tr>
          <tr><td>Storm Location:</td></tr>
          <tr><td><b>20.7 S, 39.9 E</b></td></tr>
          <tr><td>Min Sea Level Pressure:</td></tr>
          <tr><td>997 mb / 29.44 in Hg</td></tr>
          <tr><td>Maximum Intensity:</td></tr>
          <tr><td>45 kt / 52 mph / 83 kph</td></tr>
        </table>
      ]]></description>
      <Point><coordinates>39.9,-20.7</coordinates></Point>
    </Placemark>
    <Placemark>
      <name>0000 UTC JAN 1</name>
      <styleUrl>#ts</styleUrl>
      <description><![CDATA[
        <table>
          <tr><td>TS ALVARO (SH042024)</td></tr>
          <tr><td><hr></td></tr>
          <tr><td>0000 UTC JAN 1, 2024</td></tr>
          <tr><td>Storm Location:</td></tr>
          <tr><td><b>21.0 S, 40.7 E</b></td></tr>
          <tr><td>Min Sea Level Pressure:</td></tr>
          <tr><td>994 mb / 29.35 in Hg</td></tr>
          <tr><td>Maximum Intensity:</td></tr>
          <tr><td>50 kt / 58 mph / 93 kph</td></tr>
        </table>
      ]]></description>
      <Point><coordinates>40.7,-21</coordinates></Point>
    </Placemark>
    <Placemark>
      <name>0600 UTC JAN 1</name>
      <styleUrl>#ts</styleUrl>
      <description><![CDATA[
        <table>
          <tr><td>TS ALVARO (SH042024)</td></tr>
          <tr><td><hr></td></tr>
          <tr><td>0600 UTC JAN 1, 2024</td></tr>
          <tr><td>Storm Location:</td></tr>
          <tr><td><b>21.4 S, 41.8 E</b></td></tr>
          <tr><td>Min Sea Level Pressure:</td></tr>
          <tr><td>989 mb / 29.21 in Hg</td></tr>
          <tr><td>Maximum Intensity:</td></tr>
          <tr><td>60 kt / 69 mph / 111 kph</td></tr>
        </table>
      ]]></description>
      <Point><coordinates>41.8,-21.4</coordinates></Point>
    </Placemark>
    <Placemark>
      <name>1200 UTC JAN 1</name>
      <styleUrl>#cat1</styleUrl>
      <description><![CDATA[
        <table>
          <tr><td>HU ALVARO (SH042024)</td></tr>
          <tr><td><hr></td></tr>
          <tr><td>1200 UTC JAN 1, 2024</td></tr>
          <tr><td>Storm Location:</td></tr>
          <tr><td><b>21.5 S, 42.7 E</b></td></tr>
          <tr><td>Min Sea Level Pressure:</td></tr>
          <tr><td>986 mb / 29.12 in Hg</td></tr>
          <tr><td>Maximum Intensity:</td></tr>
          <tr><td>65 kt / 75 mph / 120 kph</td></tr>
        </table>
      ]]></description>
      <Point><coordinates>42.7,-21.5</coordinates></Point>
    </Placemark>
    <Placemark>
      <name>1800 UTC JAN 1</name>
      <styleUrl>#ts</styleUrl>
      <description><![CDATA[
        <table>
          <tr><td>TS ALVARO (SH042024)</td></tr>
          <tr><td><hr></td></tr>
          <tr><td>1800 UTC JAN 1, 2024</td></tr>
          <tr><td>Storm Location:</td></tr>
          <tr><td><b>21.4 S, 43.9 E</b></td></tr>
          <tr><td>Min Sea Level Pressure:</td></tr>
          <tr><td>989 mb / 29.21 in Hg</td></tr>
          <tr><td>Maximum Intensity:</td></tr>
          <tr><td>60 kt / 69 mph / 111 kph</td></tr>
        </table>
      ]]></description>
      <Point><coordinates>43.9,-21.4</coordinates></Point>
    </Placemark>
    <Placemark>
      <name>0000 UTC JAN 2</name>
      <styleUrl>#ts</styleUrl>
      <description><![CDATA[
        <table>
          <tr><td>TS ALVARO (SH042024)</td></tr>
          <tr><td><hr></td></tr>
          <tr><td>0000 UTC JAN 2, 2024</td></tr>
          <tr><td>Storm Location:</td></tr>
          <tr><td><b>21.5 S, 45.0 E</b></td></tr>
          <tr><td>Min Sea Level Pressure:</td></tr>
          <tr><td>997 mb / 29.44 in Hg</td></tr>
          <tr><td>Maximum Intensity:</td></tr>
          <tr><td>45 kt / 52 mph / 83 kph</td></tr>
        </table>
      ]]></description>
      <Point><coordinates>45,-21.5</coordinates></Point>
    </Placemark>
    <Placemark>
      <name>0600 UTC JAN 2</name>
      <styleUrl>#ts</styleUrl>
      <description><![CDATA[
        <table>
          <tr><td>TS ALVARO (SH042024)</td></tr>
          <tr><td><hr></td></tr>
          <tr><td>0600 UTC JAN 2, 2024</td></tr>
          <tr><td>Storm Location:</td></tr>
          <tr><td><b>21.8 S, 46.4 E</b></td></tr>
          <tr><td>Min Sea Level Pressure:</td></tr>
          <tr><td>1004 mb / 29.65 in Hg</td></tr>
          <tr><td>Maximum Intensity:</td></tr>
          <tr><td>35 kt / 40 mph / 65 kph</td></tr>
        </table>
      ]]></description>
      <Point><coordinates>46.4,-21.8</coordinates></Point>
    </Placemark>
    <Placemark>
      <name>1200 UTC JAN 2</name>
      <styleUrl>#td</styleUrl>
      <description><![CDATA[
        <table>
          <tr><td>TD ALVARO (SH042024)</td></tr>
          <tr><td><hr></td></tr>
          <tr><td>1200 UTC JAN 2, 2024</td></tr>
          <tr><td>Storm Location:</td></tr>
          <tr><td><b>21.9 S, 47.5 E</b></td></tr>
          <tr><td>Min Sea Level Pressure:</td></tr>
          <tr><td>1006 mb / 29.71 in Hg</td></tr>
          <tr><td>Maximum Intensity:</td></tr>
          <tr><td>25 kt / 29 mph / 46 kph</td></tr>
        </table>
      ]]></description>
      <Point><coordinates>47.5,-21.9</coordinates></Point>
    </Placemark>
    <Placemark>
      <name>1800 UTC JAN 2</name>
      <styleUrl>#ts</styleUrl>
      <description><![CDATA[
        <table>
          <tr><td>TS ALVARO (SH042024)</td></tr>
          <tr><td><hr></td></tr>
          <tr><td>1800 UTC JAN 2, 2024</td></tr>
          <tr><td>Storm Location:</td></tr>
          <tr><td><b>22.1 S, 48.8 E</b></td></tr>
          <tr><td>Min Sea Level Pressure:</td></tr>
          <tr><td>1003 mb / 29.62 in Hg</td></tr>
          <tr><td>Maximum Intensity:</td></tr>
          <tr><td>35 kt / 40 mph / 65 kph</td></tr>
        </table>
      ]]></description>
      <Point><coordinates>48.8,-22.1</coordinates></Point>
    </Placemark>
    <Placemark>
      <name>0000 UTC JAN 3</name>
      <styleUrl>#ts</styleUrl>
      <description><![CDATA[
        <table>
          <tr><td>TS ALVARO (SH042024)</td></tr>
          <tr><td><hr></td></tr>
          <tr><td>0000 UTC JAN 3, 2024</td></tr>
          <tr><td>Storm Location:</td></tr>
          <tr><td><b>22.7 S, 50.0 E</b></td></tr>
          <tr><td>Min Sea Level Pressure:</td></tr>
          <tr><td>996 mb / 29.41 in Hg</td></tr>
          <tr><td>Maximum Intensity:</td></tr>
          <tr><td>45 kt / 52 mph / 83 kph</td></tr>
        </table>
      ]]></description>
      <Point><coordinates>50,-22.7</coordinates></Point>
    </Placemark>
    <Placemark>
      <name>0600 UTC JAN 3</name>
      <styleUrl>#ts</styleUrl>
      <description><![CDATA[
        <table>
          <tr><td>TS ALVARO (SH042024)</td></tr>
          <tr><td><hr></td></tr>
          <tr><td>0600 UTC JAN 3, 2024</td></tr>
          <tr><td>Storm Location:</td></tr>
          <tr><td><b>23.3 S, 50.8 E</b></td></tr>
          <tr><td>Min Sea Level Pressure:</td></tr>
          <tr><td>996 mb / 29.41 in Hg</td></tr>
          <tr><td>Maximum Intensity:</td></tr>
          <tr><td>45 kt / 52 mph / 83 kph</td></tr>
        </table>
      ]]></description>
      <Point><coordinates>50.8,-23.3</coordinates></Point>
    </Placemark>
    <Placemark>
      <name>1200 UTC JAN 3</name>
      <styleUrl>#ts</styleUrl>
      <description><![CDATA[
        <table>
          <tr><td>TS ALVARO (SH042024)</td></tr>
          <tr><td><hr></td></tr>
          <tr><td>1200 UTC JAN 3, 2024</td></tr>
          <tr><td>Storm Location:</td></tr>
          <tr><td><b>24.2 S, 51.7 E</b></td></tr>
          <tr><td>Min Sea Level Pressure:</td></tr>
          <tr><td>993 mb / 29.32 in Hg</td></tr>
          <tr><td>Maximum Intensity:</td></tr>
          <tr><td>45 kt / 52 mph / 83 kph</td></tr>
        </table>
      ]]></description>
      <Point><coordinates>51.7,-24.2</coordinates></Point>
    </Placemark>
    <Placemark>
      <name>1800 UTC JAN 3</name>
      <styleUrl>#ts</styleUrl>
      <description><![CDATA[
        <table>
          <tr><td>TS ALVARO (SH042024)</td></tr>
          <tr><td><hr></td></tr>
          <tr><td>1800 UTC JAN 3, 2024</td></tr>
          <tr><td>Storm Location:</td></tr>
          <tr><td><b>25.1 S, 52.7 E</b></td></tr>
          <tr><td>Min Sea Level Pressure:</td></tr>
          <tr><td>995 mb / 29.38 in Hg</td></tr>
          <tr><td>Maximum Intensity:</td></tr>
          <tr><td>45 kt / 52 mph / 83 kph</td></tr>
        </table>
      ]]></description>
      <Point><coordinates>52.7,-25.1</coordinates></Point>
    </Placemark>
    <Placemark>
      <name>0000 UTC JAN 4</name>
      <styleUrl>#ts</styleUrl>
      <description><![CDATA[
        <table>
          <tr><td>TS ALVARO (SH042024)</td></tr>
          <tr><td><hr></td></tr>
          <tr><td>0000 UTC JAN 4, 2024</td></tr>
          <tr><td>Storm Location:</td></tr>
          <tr><td><b>26.2 S, 54.0 E</b></td></tr>
          <tr><td>Min Sea Level Pressure:</td></tr>
          <tr><td>994 mb / 29.35 in Hg</td></tr>
          <tr><td>Maximum Intensity:</td></tr>
          <tr><td>45 kt / 52 mph / 83 kph</td></tr>
        </table>
      ]]></description>
      <Point><coordinates>54,-26.2</coordinates></Point>
    </Placemark>
    <Placemark>
      <name>0600 UTC JAN 4</name>
      <styleUrl>#pt</styleUrl>
      <description><![CDATA[
        <table>
          <tr><td>XX ALVARO (SH042024)</td></tr>
          <tr><td><hr></td></tr>
          <tr><td>0600 UTC JAN 4, 2024</td></tr>
          <tr><td>Storm Location:</td></tr>
          <tr><td><b>28.1 S, 55.7 E</b></td></tr>
          <tr><td>Min Sea Level Pressure:</td></tr>
          <tr><td>994 mb / 29.35 in Hg</td></tr>
          <tr><td>Maximum Intensity:</td></tr>
          <tr><td>45 kt / 52 mph / 83 kph</td></tr>
        </table>
      ]]></description>
      <Point><coordinates>55.7,-28.1</coordinates></Point>
    </Placemark>
    <Placemark>
      <name>1200 UTC JAN 4</name>
      <styleUrl>#pt</styleUrl>
      <description><![CDATA[
        <table>
          <tr><td>XX ALVARO (SH042024)</td></tr>
          <tr><td><hr></td></tr>
          <tr><td>1200 UTC JAN 4, 2024</td></tr>
          <tr><td>Storm Location:</td></tr>
          <tr><td><b>29.1 S, 57.5 E</b></td></tr>
          <tr><td>Min Sea Level Pressure:</td></tr>
          <tr><td>997 mb / 29.44 in Hg</td></tr>
          <tr><td>Maximum Intensity:</td></tr>
          <tr><td>40 kt / 46 mph / 74 kph</td></tr>
        </table>
      ]]></description>
      <Point><coordinates>57.5,-29.1</coordinates></Point>
    </Placemark>
    <Placemark>
      <name>1800 UTC JAN 4</name>
      <styleUrl>#pt</styleUrl>
      <description><![CDATA[
        <table>
          <tr><td>XX ALVARO (SH042024)</td></tr>
          <tr><td><hr></td></tr>
          <tr><td>1800 UTC JAN 4, 2024</td></tr>
          <tr><td>Storm Location:</td></tr>
          <tr><td><b>29.8 S, 58.9 E</b></td></tr>
          <tr><td>Min Sea Level Pressure:</td></tr>
          <tr><td>1001 mb / 29.56 in Hg</td></tr>
          <tr><td>Maximum Intensity:</td></tr>
          <tr><td>40 kt / 46 mph / 74 kph</td></tr>
        </table>
      ]]></description>
      <Point><coordinates>58.9,-29.8</coordinates></Point>
    </Placemark>
  </Document>
</kml>
