<?xml version="1.0" encoding="UTF-8"?>
<kml xmlns="http://www.opengis.net/kml/2.2">
  <Document>
    <name>SH052024</name>
    <open>0</open>

    <!-- =====  Document header ===== -->
    <description><![CDATA[
      <table>
        <tr><td><b>Title:</b> Tropical Cyclone Best Track for SH052024</td></tr>
      </table>
    ]]></description>

    <!-- =====  Styles (ids must be unique)  ===== -->
	<Style id="pt"> 
		<IconStyle> 
			<scale>1.0</scale> 
			<Icon> 
				<href>ex_nhemi.png</href> 
			</Icon> 
             <hotSpot x="15" y="17" xunits="pixels" yunits="pixels"/>
		</IconStyle> 
		<LabelStyle> 
			<scale>1.0</scale> 
		</LabelStyle> 
	</Style>
	<Style id="cat5"> 
		<IconStyle> 
			<scale>1.0</scale> 
			<Icon> 
				<href>cat5_nhemi.png</href> 
			</Icon> 
             <hotSpot x="15" y="17" xunits="pixels" yunits="pixels"/>
		</IconStyle> 
		<LabelStyle> 
			<scale>1.0</scale> 
		</LabelStyle> 
	</Style>
	<Style id="db"> 
		<IconStyle> 
			<scale>1.0</scale> 
			<Icon> 
				<href>ex_nhemi.png</href> 
			</Icon> 
             <hotSpot x="15" y="17" xunits="pixels" yunits="pixels"/>
		</IconStyle> 
		<LabelStyle> 
			<scale>1.0</scale> 
		</LabelStyle> 
	</Style>
	<Style id="cat3"> 
		<IconStyle> 
			<scale>1.0</scale> 
			<Icon> 
				<href>cat3_nhemi.png</href> 
			</Icon> 
             <hotSpot x="15" y="17" xunits="pixels" yunits="pixels"/>
		</IconStyle> 
		<LabelStyle> 
			<scale>1.0</scale> 
		</LabelStyle> 
	</Style>
	<Style id="ss"> 
		<IconStyle> 
			<scale>1.0</scale> 
			<Icon> 
				<href>ts_nhemi.png</href> 
			</Icon> 
             <hotSpot x="15" y="17" xunits="pixels" yunits="pixels"/>
		</IconStyle> 
		<LabelStyle> 
			<scale>1.0</scale> 
		</LabelStyle> 
	</Style>
	<Style id="lo"> 
		<IconStyle> 
			<scale>1.0</scale> 
			<Icon> 
				<href>ex_nhemi.png</href> 
			</Icon> 
             <hotSpot x="15" y="17" xunits="pixels" yunits="pixels"/>
		</IconStyle> 
		<LabelStyle> 
			<scale>1.0</scale> 
		</LabelStyle> 
	</Style>
	<Style id="cat4"> 
		<IconStyle> 
			<scale>1.0</scale> 
			<Icon> 
				<href>cat4_nhemi.png</href> 
			</Icon> 
             <hotSpot x="15" y="17" xunits="pixels" yunits="pixels"/>
		</IconStyle> 
		<LabelStyle> 
			<scale>1.0</scale> 
		</LabelStyle> 
	</Style>
	<Style id="cat2"> 
		<IconStyle> 
			<scale>1.0</scale> 
			<Icon> 
				<href>cat2_nhemi.png</href> 
			</Icon> 
             <hotSpot x="15" y="17" xunits="pixels" yunits="pixels"/>
		</IconStyle> 
		<LabelStyle> 
			<scale>1.0</scale> 
		</LabelStyle> 
	</Style>
	<Style id="ts"> 
		<IconStyle> 
			<scale>1.0</scale> 
			<Icon> 
				<href>ts_nhemi.png</href> 
			</Icon> 
             <hotSpot x="15" y="17" xunits="pixels" yunits="pixels"/>
		</IconStyle> 
		<LabelStyle> 
			<scale>1.0</scale> 
		</LabelStyle> 
	</Style>
	<Style id="cat1"> 
		<IconStyle> 
			<scale>1.0</scale> 
			<Icon> 
				<href>cat1_nhemi.png</href> 
			</Icon> 
             <hotSpot x="15" y="17" xunits="pixels" yunits="pixels"/>
		</IconStyle> 
		<LabelStyle> 
			<scale>1.0</scale> 
		</LabelStyle> 
	</Style>
	<Style id="ex"> 
		<IconStyle> 
			<scale>1.0</scale> 
			<Icon> 
				<href>ex_nhemi.png</href> 
			</Icon> 
             <hotSpot x="15" y="17" xunits="pixels" yunits="pixels"/>
		</IconStyle> 
		<LabelStyle> 
			<scale>1.0</scale> 
		</LabelStyle> 
	</Style>
	<Style id="tc"> 
		<IconStyle> 
			<scale>1.0</scale> 
			<Icon> 
				<href>ex_nhemi.png</href> 
			</Icon> 
             <hotSpot x="15" y="17" xunits="pixels" yunits="pixels"/>
		</IconStyle> 
		<LabelStyle> 
			<scale>1.0</scale> 
		</LabelStyle> 
	</Style>
	<Style id="wv"> 
		<IconStyle> 
			<scale>1.0</scale> 
			<Icon> 
				<href>ex_nhemi.png</href> 
			</Icon> 
             <hotSpot x="15" y="17" xunits="pixels" yunits="pixels"/>
		</IconStyle> 
		<LabelStyle> 
			<scale>1.0</scale> 
		</LabelStyle> 
	</Style>
	<Style id="td"> 
		<IconStyle> 
			<scale>1.0</scale> 
			<Icon> 
				<href>td_nhemi.png</href> 
			</Icon> 
             <hotSpot x="15" y="17" xunits="pixels" yunits="pixels"/>
		</IconStyle> 
		<LabelStyle> 
			<scale>1.0</scale> 
		</LabelStyle> 
	</Style>
	<Style id="sd"> 
		<IconStyle> 
			<scale>1.0</scale> 
			<Icon> 
				<href>ex_nhemi.png</href> 
			</Icon> 
             <hotSpot x="15" y="17" xunits="pixels" yunits="pixels"/>
		</IconStyle> 
		<LabelStyle> 
			<scale>1.0</scale> 
		</LabelStyle> 
	</Style>

    <Placemark>
      <name>1800 UTC JAN 11</name>
      <styleUrl>#db</styleUrl>
      <description><![CDATA[
        <table>
          <tr><td>DB BELAL (SH052024)</td></tr>
          <tr><td><hr></td></tr>
          <tr><td>1800 UTC JAN 11, 2024</td></tr>
          <tr><td>Storm Location:</td></tr>
          <tr><td><b>13.0 S, 58.5 E</b></td></tr>
          <tr><td>Min Sea Level Pressure:</td></tr>
          <tr><td>1007 mb / 29.74 in Hg</td></tr>
          <tr><td>Maximum Intensity:</td></tr>
          <tr><td>20 kt / 23 mph / 37 kph</td></tr>
        </table>
      ]]></description>
      <Point><coordinates>58.5,-13</coordinates></Point>
    </Placemark>
    <Placemark>
      <name>0000 UTC JAN 12</name>
      <styleUrl>#td</styleUrl>
      <description><![CDATA[
        <table>
          <tr><td>TD BELAL (SH052024)</td></tr>
          <tr><td><hr></td></tr>
          <tr><td>0000 UTC JAN 12, 2024</td></tr>
          <tr><td>Storm Location:</td></tr>
          <tr><td><b>13.0 S, 57.7 E</b></td></tr>
          <tr><td>Min Sea Level Pressure:</td></tr>
          <tr><td>1004 mb / 29.65 in Hg</td></tr>
          <tr><td>Maximum Intensity:</td></tr>
          <tr><td>25 kt / 29 mph / 46 kph</td></tr>
        </table>
      ]]></description>
      <Point><coordinates>57.7,-13</coordinates></Point>
    </Placemark>
    <Placemark>
      <name>0600 UTC JAN 12</name>
      <styleUrl>#td</styleUrl>
      <description><![CDATA[
        <table>
          <tr><td>TD BELAL (SH052024)</td></tr>
          <tr><td><hr></td></tr>
          <tr><td>0600 UTC JAN 12, 2024</td></tr>
          <tr><td>Storm Location:</td></tr>
          <tr><td><b>13.0 S, 57.0 E</b></td></tr>
          <tr><td>Min Sea Level Pressure:</td></tr>
          <tr><td>1000 mb / 29.53 in Hg</td></tr>
          <tr><td>Maximum Intensity:</td></tr>
          <tr><td>25 kt / 29 mph / 46 kph</td></tr>
        </table>
      ]]></description>
      <Point><coordinates>57,-13</coordinates></Point>
    </Placemark>
    <Placemark>
      <name>1200 UTC JAN 12</name>
      <styleUrl>#ts</styleUrl>
      <description><![CDATA[
        <table>
          <tr><td>TS BELAL (SH052024)</td></tr>
          <tr><td><hr></td></tr>
          <tr><td>1200 UTC JAN 12, 2024</td></tr>
          <tr><td>Storm Location:</td></tr>
          <tr><td><b>13.4 S, 56.6 E</b></td></tr>
          <tr><td>Min Sea Level Pressure:</td></tr>
          <tr><td>1001 mb / 29.56 in Hg</td></tr>
          <tr><td>Maximum Intensity:</td></tr>
          <tr><td>35 kt / 40 mph / 65 kph</td></tr>
        </table>
      ]]></description>
      <Point><coordinates>56.6,-13.4</coordinates></Point>
    </Placemark>
    <Placemark>
      <name>1800 UTC JAN 12</name>
      <styleUrl>#ts</styleUrl>
      <description><![CDATA[
        <table>
          <tr><td>TS BELAL (SH052024)</td></tr>
          <tr><td><hr></td></tr>
          <tr><td>1800 UTC JAN 12, 2024</td></tr>
          <tr><td>Storm Location:</td></tr>
          <tr><td><b>13.7 S, 56.4 E</b></td></tr>
          <tr><td>Min Sea Level Pressure:</td></tr>
          <tr><td>1004 mb / 29.65 in Hg</td></tr>
          <tr><td>Maximum Intensity:</td></tr>
          <tr><td>35 kt / 40 mph / 65 kph</td></tr>
        </table>
      ]]></description>
      <Point><coordinates>56.4,-13.7</coordinates></Point>
    </Placemark>
    <Placemark>
      <name>0000 UTC JAN 13</name>
      <styleUrl>#ts</styleUrl>
      <description><![CDATA[
        <table>
          <tr><td>TS BELAL (SH052024)</td></tr>
          <tr><td><hr></td></tr>
          <tr><td>0000 UTC JAN 13, 2024</td></tr>
          <tr><td>Storm Location:</td></tr>
          <tr><td><b>14.4 S, 55.8 E</b></td></tr>
          <tr><td>Min Sea Level Pressure:</td></tr>
          <tr><td>998 mb / 29.47 in Hg</td></tr>
          <tr><td>Maximum Intensity:</td></tr>
          <tr><td>45 kt / 52 mph / 83 kph</td></tr>
        </table>
      ]]></description>
      <Point><coordinates>55.8,-14.4</coordinates></Point>
    </Placemark>
    <Placemark>
      <name>0600 UTC JAN 13</name>
      <styleUrl>#ts</styleUrl>
      <description><![CDATA[
        <table>
          <tr><td>TS BELAL (SH052024)</td></tr>
          <tr><td><hr></td></tr>
          <tr><td>0600 UTC JAN 13, 2024</td></tr>
          <tr><td>Storm Location:</td></tr>
          <tr><td><b>15.4 S, 55.0 E</b></td></tr>
          <tr><td>Min Sea Level Pressure:</td></tr>
          <tr><td>997 mb / 29.44 in Hg</td></tr>
          <tr><td>Maximum Intensity:</td></tr>
          <tr><td>50 kt / 58 mph / 93 kph</td></tr>
        </table>
      ]]></description>
      <Point><coordinates>55,-15.4</coordinates></Point>
    </Placemark>
    <Placemark>
      <name>1200 UTC JAN 13</name>
      <styleUrl>#ts</styleUrl>
      <description><![CDATA[
        <table>
          <tr><td>TS BELAL (SH052024)</td></tr>
          <tr><td><hr></td></tr>
          <tr><td>1200 UTC JAN 13, 2024</td></tr>
          <tr><td>Storm Location:</td></tr>
          <tr><td><b>16.5 S, 54.1 E</b></td></tr>
          <tr><td>Min Sea Level Pressure:</td></tr>
          <tr><td>993 mb / 29.32 in Hg</td></tr>
          <tr><td>Maximum Intensity:</td></tr>
          <tr><td>55 kt / 63 mph / 102 kph</td></tr>
        </table>
      ]]></description>
      <Point><coordinates>54.1,-16.5</coordinates></Point>
    </Placemark>
    <Placemark>
      <name>1800 UTC JAN 13</name>
      <styleUrl>#cat1</styleUrl>
      <description><![CDATA[
        <table>
          <tr><td>HU BELAL (SH052024)</td></tr>
          <tr><td><hr></td></tr>
          <tr><td>1800 UTC JAN 13, 2024</td></tr>
          <tr><td>Storm Location:</td></tr>
          <tr><td><b>17.5 S, 53.7 E</b></td></tr>
          <tr><td>Min Sea Level Pressure:</td></tr>
          <tr><td>989 mb / 29.21 in Hg</td></tr>
          <tr><td>Maximum Intensity:</td></tr>
          <tr><td>65 kt / 75 mph / 120 kph</td></tr>
        </table>
      ]]></description>
      <Point><coordinates>53.7,-17.5</coordinates></Point>
    </Placemark>
    <Placemark>
      <name>0000 UTC JAN 14</name>
      <styleUrl>#cat1</styleUrl>
      <description><![CDATA[
        <table>
          <tr><td>HU BELAL (SH052024)</td></tr>
          <tr><td><hr></td></tr>
          <tr><td>0000 UTC JAN 14, 2024</td></tr>
          <tr><td>Storm Location:</td></tr>
          <tr><td><b>18.3 S, 53.5 E</b></td></tr>
          <tr><td>Min Sea Level Pressure:</td></tr>
          <tr><td>980 mb / 28.94 in Hg</td></tr>
          <tr><td>Maximum Intensity:</td></tr>
          <tr><td>75 kt / 86 mph / 139 kph</td></tr>
        </table>
      ]]></description>
      <Point><coordinates>53.5,-18.3</coordinates></Point>
    </Placemark>
    <Placemark>
      <name>0600 UTC JAN 14</name>
      <styleUrl>#cat1</styleUrl>
      <description><![CDATA[
        <table>
          <tr><td>HU BELAL (SH052024)</td></tr>
          <tr><td><hr></td></tr>
          <tr><td>0600 UTC JAN 14, 2024</td></tr>
          <tr><td>Storm Location:</td></tr>
          <tr><td><b>19.2 S, 53.4 E</b></td></tr>
          <tr><td>Min Sea Level Pressure:</td></tr>
          <tr><td>976 mb / 28.82 in Hg</td></tr>
          <tr><td>Maximum Intensity:</td></tr>
          <tr><td>80 kt / 92 mph / 148 kph</td></tr>
        </table>
      ]]></description>
      <Point><coordinates>53.4,-19.2</coordinates></Point>
    </Placemark>
    <Placemark>
      <name>1200 UTC JAN 14</name>
      <styleUrl>#cat2</styleUrl>
      <description><![CDATA[
        <table>
          <tr><td>HU BELAL (SH052024)</td></tr>
          <tr><td><hr></td></tr>
          <tr><td>1200 UTC JAN 14, 2024</td></tr>
          <tr><td>Storm Location:</td></tr>
          <tr><td><b>19.7 S, 53.4 E</b></td></tr>
          <tr><td>Min Sea Level Pressure:</td></tr>
          <tr><td>973 mb / 28.73 in Hg</td></tr>
          <tr><td>Maximum Intensity:</td></tr>
          <tr><td>85 kt / 98 mph / 157 kph</td></tr>
        </table>
      ]]></description>
      <Point><coordinates>53.4,-19.7</coordinates></Point>
    </Placemark>
    <Placemark>
      <name>1800 UTC JAN 14</name>
      <styleUrl>#cat2</styleUrl>
      <description><![CDATA[
        <table>
          <tr><td>HU BELAL (SH052024)</td></tr>
          <tr><td><hr></td></tr>
          <tr><td>1800 UTC JAN 14, 2024</td></tr>
          <tr><td>Storm Location:</td></tr>
          <tr><td><b>20.1 S, 53.8 E</b></td></tr>
          <tr><td>Min Sea Level Pressure:</td></tr>
          <tr><td>969 mb / 28.61 in Hg</td></tr>
          <tr><td>Maximum Intensity:</td></tr>
          <tr><td>90 kt / 104 mph / 167 kph</td></tr>
        </table>
      ]]></description>
      <Point><coordinates>53.8,-20.1</coordinates></Point>
    </Placemark>
    <Placemark>
      <name>0000 UTC JAN 15</name>
      <styleUrl>#cat2</styleUrl>
      <description><![CDATA[
        <table>
          <tr><td>HU BELAL (SH052024)</td></tr>
          <tr><td><hr></td></tr>
          <tr><td>0000 UTC JAN 15, 2024</td></tr>
          <tr><td>Storm Location:</td></tr>
          <tr><td><b>20.5 S, 54.5 E</b></td></tr>
          <tr><td>Min Sea Level Pressure:</td></tr>
          <tr><td>970 mb / 28.64 in Hg</td></tr>
          <tr><td>Maximum Intensity:</td></tr>
          <tr><td>85 kt / 98 mph / 157 kph</td></tr>
        </table>
      ]]></description>
      <Point><coordinates>54.5,-20.5</coordinates></Point>
    </Placemark>
    <Placemark>
      <name>0600 UTC JAN 15</name>
      <styleUrl>#cat1</styleUrl>
      <description><![CDATA[
        <table>
          <tr><td>HU BELAL (SH052024)</td></tr>
          <tr><td><hr></td></tr>
          <tr><td>0600 UTC JAN 15, 2024</td></tr>
          <tr><td>Storm Location:</td></tr>
          <tr><td><b>20.8 S, 55.5 E</b></td></tr>
          <tr><td>Min Sea Level Pressure:</td></tr>
          <tr><td>973 mb / 28.73 in Hg</td></tr>
          <tr><td>Maximum Intensity:</td></tr>
          <tr><td>80 kt / 92 mph / 148 kph</td></tr>
        </table>
      ]]></description>
      <Point><coordinates>55.5,-20.8</coordinates></Point>
    </Placemark>
    <Placemark>
      <name>1200 UTC JAN 15</name>
      <styleUrl>#cat1</styleUrl>
      <description><![CDATA[
        <table>
          <tr><td>HU BELAL (SH052024)</td></tr>
          <tr><td><hr></td></tr>
          <tr><td>1200 UTC JAN 15, 2024</td></tr>
          <tr><td>Storm Location:</td></tr>
          <tr><td><b>21.2 S, 56.3 E</b></td></tr>
          <tr><td>Min Sea Level Pressure:</td></tr>
          <tr><td>975 mb / 28.79 in Hg</td></tr>
          <tr><td>Maximum Intensity:</td></tr>
          <tr><td>75 kt / 86 mph / 139 kph</td></tr>
        </table>
      ]]></description>
      <Point><coordinates>56.3,-21.2</coordinates></Point>
    </Placemark>
    <Placemark>
      <name>1800 UTC JAN 15</name>
      <styleUrl>#cat1</styleUrl>
      <description><![CDATA[
        <table>
          <tr><td>HU BELAL (SH052024)</td></tr>
          <tr><td><hr></td></tr>
          <tr><td>1800 UTC JAN 15, 2024</td></tr>
          <tr><td>Storm Location:</td></tr>
          <tr><td><b>21.5 S, 56.9 E</b></td></tr>
          <tr><td>Min Sea Level Pressure:</td></tr>
          <tr><td>978 mb / 28.88 in Hg</td></tr>
          <tr><td>Maximum Intensity:</td></tr>
          <tr><td>70 kt / 81 mph / 130 kph</td></tr>
        </table>
      ]]></description>
      <Point><coordinates>56.9,-21.5</coordinates></Point>
    </Placemark>
    <Placemark>
      <name>0000 UTC JAN 16</name>
      <styleUrl>#cat1</styleUrl>
      <description><![CDATA[
        <table>
          <tr><td>HU BELAL (SH052024)</td></tr>
          <tr><td><hr></td></tr>
          <tr><td>0000 UTC JAN 16, 2024</td></tr>
          <tr><td>Storm Location:</td></tr>
          <tr><td><b>22.1 S, 57.9 E</b></td></tr>
          <tr><td>Min Sea Level Pressure:</td></tr>
          <tr><td>981 mb / 28.97 in Hg</td></tr>
          <tr><td>Maximum Intensity:</td></tr>
          <tr><td>65 kt / 75 mph / 120 kph</td></tr>
        </table>
      ]]></description>
      <Point><coordinates>57.9,-22.1</coordinates></Point>
    </Placemark>
    <Placemark>
      <name>0600 UTC JAN 16</name>
      <styleUrl>#ts</styleUrl>
      <description><![CDATA[
        <table>
          <tr><td>TS BELAL (SH052024)</td></tr>
          <tr><td><hr></td></tr>
          <tr><td>0600 UTC JAN 16, 2024</td></tr>
          <tr><td>Storm Location:</td></tr>
          <tr><td><b>22.9 S, 59.1 E</b></td></tr>
          <tr><td>Min Sea Level Pressure:</td></tr>
          <tr><td>983 mb / 29.03 in Hg</td></tr>
          <tr><td>Maximum Intensity:</td></tr>
          <tr><td>60 kt / 69 mph / 111 kph</td></tr>
        </table>
      ]]></description>
      <Point><coordinates>59.1,-22.9</coordinates></Point>
    </Placemark>
    <Placemark>
      <name>1200 UTC JAN 16</name>
      <styleUrl>#ts</styleUrl>
      <description><![CDATA[
        <table>
          <tr><td>TS BELAL (SH052024)</td></tr>
          <tr><td><hr></td></tr>
          <tr><td>1200 UTC JAN 16, 2024</td></tr>
          <tr><td>Storm Location:</td></tr>
          <tr><td><b>23.1 S, 59.9 E</b></td></tr>
          <tr><td>Min Sea Level Pressure:</td></tr>
          <tr><td>985 mb / 29.09 in Hg</td></tr>
          <tr><td>Maximum Intensity:</td></tr>
          <tr><td>55 kt / 63 mph / 102 kph</td></tr>
        </table>
      ]]></description>
      <Point><coordinates>59.9,-23.1</coordinates></Point>
    </Placemark>
    <Placemark>
      <name>1800 UTC JAN 16</name>
      <styleUrl>#ts</styleUrl>
      <description><![CDATA[
        <table>
          <tr><td>TS BELAL (SH052024)</td></tr>
          <tr><td><hr></td></tr>
          <tr><td>1800 UTC JAN 16, 2024</td></tr>
          <tr><td>Storm Location:</td></tr>
          <tr><td><b>23.4 S, 61.2 E</b></td></tr>
          <tr><td>Min Sea Level Pressure:</td></tr>
          <tr><td>981 mb / 28.97 in Hg</td></tr>
          <tr><td>Maximum Intensity:</td></tr>
          <tr><td>60 kt / 69 mph / 111 kph</td></tr>
        </table>
      ]]></description>
      <Point><coordinates>61.2,-23.4</coordinates></Point>
    </Placemark>
    <Placemark>
      <name>0000 UTC JAN 17</name>
      <styleUrl>#ts</styleUrl>
      <description><![CDATA[
        <table>
          <tr><td>TS BELAL (SH052024)</td></tr>
          <tr><td><hr></td></tr>
          <tr><td>0000 UTC JAN 17, 2024</td></tr>
          <tr><td>Storm Location:</td></tr>
          <tr><td><b>23.7 S, 62.2 E</b></td></tr>
          <tr><td>Min Sea Level Pressure:</td></tr>
          <tr><td>986 mb / 29.12 in Hg</td></tr>
          <tr><td>Maximum Intensity:</td></tr>
          <tr><td>55 kt / 63 mph / 102 kph</td></tr>
        </table>
      ]]></description>
      <Point><coordinates>62.2,-23.7</coordinates></Point>
    </Placemark>
    <Placemark>
      <name>0600 UTC JAN 17</name>
      <styleUrl>#ts</styleUrl>
      <description><![CDATA[
        <table>
          <tr><td>TS BELAL (SH052024)</td></tr>
          <tr><td><hr></td></tr>
          <tr><td>0600 UTC JAN 17, 2024</td></tr>
          <tr><td>Storm Location:</td></tr>
          <tr><td><b>23.9 S, 63.0 E</b></td></tr>
          <tr><td>Min Sea Level Pressure:</td></tr>
          <tr><td>989 mb / 29.21 in Hg</td></tr>
          <tr><td>Maximum Intensity:</td></tr>
          <tr><td>50 kt / 58 mph / 93 kph</td></tr>
        </table>
      ]]></description>
      <Point><coordinates>63,-23.9</coordinates></Point>
    </Placemark>
    <Placemark>
      <name>1200 UTC JAN 17</name>
      <styleUrl>#ts</styleUrl>
      <description><![CDATA[
        <table>
          <tr><td>TS BELAL (SH052024)</td></tr>
          <tr><td><hr></td></tr>
          <tr><td>1200 UTC JAN 17, 2024</td></tr>
          <tr><td>Storm Location:</td></tr>
          <tr><td><b>24.1 S, 63.8 E</b></td></tr>
          <tr><td>Min Sea Level Pressure:</td></tr>
          <tr><td>989 mb / 29.21 in Hg</td></tr>
          <tr><td>Maximum Intensity:</td></tr>
          <tr><td>50 kt / 58 mph / 93 kph</td></tr>
        </table>
      ]]></description>
      <Point><coordinates>63.8,-24.1</coordinates></Point>
    </Placemark>
    <Placemark>
      <name>1800 UTC JAN 17</name>
      <styleUrl>#ts</styleUrl>
      <description><![CDATA[
        <table>
          <tr><td>TS BELAL (SH052024)</td></tr>
          <tr><td><hr></td></tr>
          <tr><td>1800 UTC JAN 17, 2024</td></tr>
          <tr><td>Storm Location:</td></tr>
          <tr><td><b>24.1 S, 64.7 E</b></td></tr>
          <tr><td>Min Sea Level Pressure:</td></tr>
          <tr><td>989 mb / 29.21 in Hg</td></tr>
          <tr><td>Maximum Intensity:</td></tr>
          <tr><td>50 kt / 58 mph / 93 kph</td></tr>
        </table>
      ]]></description>
      <Point><coordinates>64.7,-24.1</coordinates></Point>
    </Placemark>
    <Placemark>
      <name>0000 UTC JAN 18</name>
      <styleUrl>#ts</styleUrl>
      <description><![CDATA[
        <table>
          <tr><td>TS BELAL (SH052024)</td></tr>
          <tr><td><hr></td></tr>
          <tr><td>0000 UTC JAN 18, 2024</td></tr>
          <tr><td>Storm Location:</td></tr>
          <tr><td><b>23.9 S, 65.0 E</b></td></tr>
          <tr><td>Min Sea Level Pressure:</td></tr>
          <tr><td>991 mb / 29.26 in Hg</td></tr>
          <tr><td>Maximum Intensity:</td></tr>
          <tr><td>45 kt / 52 mph / 83 kph</td></tr>
        </table>
      ]]></description>
      <Point><coordinates>65,-23.9</coordinates></Point>
    </Placemark>
    <Placemark>
      <name>0600 UTC JAN 18</name>
      <styleUrl>#ts</styleUrl>
      <description><![CDATA[
        <table>
          <tr><td>TS BELAL (SH052024)</td></tr>
          <tr><td><hr></td></tr>
          <tr><td>0600 UTC JAN 18, 2024</td></tr>
          <tr><td>Storm Location:</td></tr>
          <tr><td><b>23.7 S, 65.7 E</b></td></tr>
          <tr><td>Min Sea Level Pressure:</td></tr>
          <tr><td>990 mb / 29.23 in Hg</td></tr>
          <tr><td>Maximum Intensity:</td></tr>
          <tr><td>50 kt / 58 mph / 93 kph</td></tr>
        </table>
      ]]></description>
      <Point><coordinates>65.7,-23.7</coordinates></Point>
    </Placemark>
    <Placemark>
      <name>1200 UTC JAN 18</name>
      <styleUrl>#ts</styleUrl>
      <description><![CDATA[
        <table>
          <tr><td>TS BELAL (SH052024)</td></tr>
          <tr><td><hr></td></tr>
          <tr><td>1200 UTC JAN 18, 2024</td></tr>
          <tr><td>Storm Location:</td></tr>
          <tr><td><b>23.9 S, 65.7 E</b></td></tr>
          <tr><td>Min Sea Level Pressure:</td></tr>
          <tr><td>990 mb / 29.23 in Hg</td></tr>
          <tr><td>Maximum Intensity:</td></tr>
          <tr><td>50 kt / 58 mph / 93 kph</td></tr>
        </table>
      ]]></description>
      <Point><coordinates>65.7,-23.9</coordinates></Point>
    </Placemark>
    <Placemark>
      <name>1800 UTC JAN 18</name>
      <styleUrl>#ts</styleUrl>
      <description><![CDATA[
        <table>
          <tr><td>TS BELAL (SH052024)</td></tr>
          <tr><td><hr></td></tr>
          <tr><td>1800 UTC JAN 18, 2024</td></tr>
          <tr><td>Storm Location:</td></tr>
          <tr><td><b>23.7 S, 65.2 E</b></td></tr>
          <tr><td>Min Sea Level Pressure:</td></tr>
          <tr><td>989 mb / 29.21 in Hg</td></tr>
          <tr><td>Maximum Intensity:</td></tr>
          <tr><td>50 kt / 58 mph / 93 kph</td></tr>
        </table>
      ]]></description>
      <Point><coordinates>65.2,-23.7</coordinates></Point>
    </Placemark>
    <Placemark>
      <name>0000 UTC JAN 19</name>
      <styleUrl>#ts</styleUrl>
      <description><![CDATA[
        <table>
          <tr><td>TS BELAL (SH052024)</td></tr>
          <tr><td><hr></td></tr>
          <tr><td>0000 UTC JAN 19, 2024</td></tr>
          <tr><td>Storm Location:</td></tr>
          <tr><td><b>23.4 S, 64.5 E</b></td></tr>
          <tr><td>Min Sea Level Pressure:</td></tr>
          <tr><td>989 mb / 29.21 in Hg</td></tr>
          <tr><td>Maximum Intensity:</td></tr>
          <tr><td>35 kt / 40 mph / 65 kph</td></tr>
        </table>
      ]]></description>
      <Point><coordinates>64.5,-23.4</coordinates></Point>
    </Placemark>
    <Placemark>
      <name>0600 UTC JAN 19</name>
      <styleUrl>#td</styleUrl>
      <description><![CDATA[
        <table>
          <tr><td>TD BELAL (SH052024)</td></tr>
          <tr><td><hr></td></tr>
          <tr><td>0600 UTC JAN 19, 2024</td></tr>
          <tr><td>Storm Location:</td></tr>
          <tr><td><b>23.2 S, 64.0 E</b></td></tr>
          <tr><td>Min Sea Level Pressure:</td></tr>
          <tr><td>987 mb / 29.15 in Hg</td></tr>
          <tr><td>Maximum Intensity:</td></tr>
          <tr><td>30 kt / 35 mph / 56 kph</td></tr>
        </table>
      ]]></description>
      <Point><coordinates>64,-23.2</coordinates></Point>
    </Placemark>
    <Placemark>
      <name>1200 UTC JAN 19</name>
      <styleUrl>#td</styleUrl>
      <description><![CDATA[
        <table>
          <tr><td>TD BELAL (SH052024)</td></tr>
          <tr><td><hr></td></tr>
          <tr><td>1200 UTC JAN 19, 2024</td></tr>
          <tr><td>Storm Location:</td></tr>
          <tr><td><b>23.6 S, 63.5 E</b></td></tr>
          <tr><td>Min Sea Level Pressure:</td></tr>
          <tr><td>998 mb / 29.47 in Hg</td></tr>
          <tr><td>Maximum Intensity:</td></tr>
          <tr><td>25 kt / 29 mph / 46 kph</td></tr>
        </table>
      ]]></description>
      <Point><coordinates>63.5,-23.6</coordinates></Point>
    </Placemark>
    <Placemark>
      <name>1800 UTC JAN 19</name>
      <styleUrl>#td</styleUrl>
      <description><![CDATA[
        <table>
          <tr><td>TD BELAL (SH052024)</td></tr>
          <tr><td><hr></td></tr>
          <tr><td>1800 UTC JAN 19, 2024</td></tr>
          <tr><td>Storm Location:</td></tr>
          <tr><td><b>23.9 S, 63.1 E</b></td></tr>
          <tr><td>Min Sea Level Pressure:</td></tr>
          <tr><td>988 mb / 29.18 in Hg</td></tr>
          <tr><td>Maximum Intensity:</td></tr>
          <tr><td>25 kt / 29 mph / 46 kph</td></tr>
        </table>
      ]]></description>
      <Point><coordinates>63.1,-23.9</coordinates></Point>
    </Placemark>
    <Placemark>
      <name>0000 UTC JAN 20</name>
      <styleUrl>#td</styleUrl>
      <description><![CDATA[
        <table>
          <tr><td>TD BELAL (SH052024)</td></tr>
          <tr><td><hr></td></tr>
          <tr><td>0000 UTC JAN 20, 2024</td></tr>
          <tr><td>Storm Location:</td></tr>
          <tr><td><b>24.4 S, 62.5 E</b></td></tr>
          <tr><td>Min Sea Level Pressure:</td></tr>
          <tr><td>986 mb / 29.12 in Hg</td></tr>
          <tr><td>Maximum Intensity:</td></tr>
          <tr><td>25 kt / 29 mph / 46 kph</td></tr>
        </table>
      ]]></description>
      <Point><coordinates>62.5,-24.4</coordinates></Point>
    </Placemark>
    <Placemark>
      <name>0600 UTC JAN 20</name>
      <styleUrl>#td</styleUrl>
      <description><![CDATA[
        <table>
          <tr><td>TD BELAL (SH052024)</td></tr>
          <tr><td><hr></td></tr>
          <tr><td>0600 UTC JAN 20, 2024</td></tr>
          <tr><td>Storm Location:</td></tr>
          <tr><td><b>24.8 S, 61.9 E</b></td></tr>
          <tr><td>Min Sea Level Pressure:</td></tr>
          <tr><td>985 mb / 29.09 in Hg</td></tr>
          <tr><td>Maximum Intensity:</td></tr>
          <tr><td>25 kt / 29 mph / 46 kph</td></tr>
        </table>
      ]]></description>
      <Point><coordinates>61.9,-24.8</coordinates></Point>
    </Placemark>
    <Placemark>
      <name>1200 UTC JAN 20</name>
      <styleUrl>#td</styleUrl>
      <description><![CDATA[
        <table>
          <tr><td>TD BELAL (SH052024)</td></tr>
          <tr><td><hr></td></tr>
          <tr><td>1200 UTC JAN 20, 2024</td></tr>
          <tr><td>Storm Location:</td></tr>
          <tr><td><b>25.2 S, 61.4 E</b></td></tr>
          <tr><td>Min Sea Level Pressure:</td></tr>
          <tr><td>985 mb / 29.09 in Hg</td></tr>
          <tr><td>Maximum Intensity:</td></tr>
          <tr><td>25 kt / 29 mph / 46 kph</td></tr>
        </table>
      ]]></description>
      <Point><coordinates>61.4,-25.2</coordinates></Point>
    </Placemark>
    <Placemark>
      <name>1800 UTC JAN 20</name>
      <styleUrl>#db</styleUrl>
      <description><![CDATA[
        <table>
          <tr><td>DB BELAL (SH052024)</td></tr>
          <tr><td><hr></td></tr>
          <tr><td>1800 UTC JAN 20, 2024</td></tr>
          <tr><td>Storm Location:</td></tr>
          <tr><td><b>25.5 S, 60.6 E</b></td></tr>
          <tr><td>Min Sea Level Pressure:</td></tr>
          <tr><td>988 mb / 29.18 in Hg</td></tr>
          <tr><td>Maximum Intensity:</td></tr>
          <tr><td>20 kt / 23 mph / 37 kph</td></tr>
        </table>
      ]]></description>
      <Point><coordinates>60.6,-25.5</coordinates></Point>
    </Placemark>
  </Document>
</kml>
