<?xml version="1.0" encoding="UTF-8"?>
<kml xmlns="http://www.opengis.net/kml/2.2">
  <Document>
    <name>SH062024</name>
    <open>0</open>

    <!-- =====  Document header ===== -->
    <description><![CDATA[
      <table>
        <tr><td><b>Title:</b> Tropical Cyclone Best Track for SH062024</td></tr>
      </table>
    ]]></description>

    <!-- =====  Styles (ids must be unique)  ===== -->
	<Style id="pt"> 
		<IconStyle> 
			<scale>1.0</scale> 
			<Icon> 
				<href>ex_nhemi.png</href> 
			</Icon> 
             <hotSpot x="15" y="17" xunits="pixels" yunits="pixels"/>
		</IconStyle> 
		<LabelStyle> 
			<scale>1.0</scale> 
		</LabelStyle> 
	</Style>
	<Style id="cat5"> 
		<IconStyle> 
			<scale>1.0</scale> 
			<Icon> 
				<href>cat5_nhemi.png</href> 
			</Icon> 
             <hotSpot x="15" y="17" xunits="pixels" yunits="pixels"/>
		</IconStyle> 
		<LabelStyle> 
			<scale>1.0</scale> 
		</LabelStyle> 
	</Style>
	<Style id="db"> 
		<IconStyle> 
			<scale>1.0</scale> 
			<Icon> 
				<href>ex_nhemi.png</href> 
			</Icon> 
             <hotSpot x="15" y="17" xunits="pixels" yunits="pixels"/>
		</IconStyle> 
		<LabelStyle> 
			<scale>1.0</scale> 
		</LabelStyle> 
	</Style>
	<Style id="cat3"> 
		<IconStyle> 
			<scale>1.0</scale> 
			<Icon> 
				<href>cat3_nhemi.png</href> 
			</Icon> 
             <hotSpot x="15" y="17" xunits="pixels" yunits="pixels"/>
		</IconStyle> 
		<LabelStyle> 
			<scale>1.0</scale> 
		</LabelStyle> 
	</Style>
	<Style id="ss"> 
		<IconStyle> 
			<scale>1.0</scale> 
			<Icon> 
				<href>ts_nhemi.png</href> 
			</Icon> 
             <hotSpot x="15" y="17" xunits="pixels" yunits="pixels"/>
		</IconStyle> 
		<LabelStyle> 
			<scale>1.0</scale> 
		</LabelStyle> 
	</Style>
	<Style id="lo"> 
		<IconStyle> 
			<scale>1.0</scale> 
			<Icon> 
				<href>ex_nhemi.png</href> 
			</Icon> 
             <hotSpot x="15" y="17" xunits="pixels" yunits="pixels"/>
		</IconStyle> 
		<LabelStyle> 
			<scale>1.0</scale> 
		</LabelStyle> 
	</Style>
	<Style id="cat4"> 
		<IconStyle> 
			<scale>1.0</scale> 
			<Icon> 
				<href>cat4_nhemi.png</href> 
			</Icon> 
             <hotSpot x="15" y="17" xunits="pixels" yunits="pixels"/>
		</IconStyle> 
		<LabelStyle> 
			<scale>1.0</scale> 
		</LabelStyle> 
	</Style>
	<Style id="cat2"> 
		<IconStyle> 
			<scale>1.0</scale> 
			<Icon> 
				<href>cat2_nhemi.png</href> 
			</Icon> 
             <hotSpot x="15" y="17" xunits="pixels" yunits="pixels"/>
		</IconStyle> 
		<LabelStyle> 
			<scale>1.0</scale> 
		</LabelStyle> 
	</Style>
	<Style id="ts"> 
		<IconStyle> 
			<scale>1.0</scale> 
			<Icon> 
				<href>ts_nhemi.png</href> 
			</Icon> 
             <hotSpot x="15" y="17" xunits="pixels" yunits="pixels"/>
		</IconStyle> 
		<LabelStyle> 
			<scale>1.0</scale> 
		</LabelStyle> 
	</Style>
	<Style id="cat1"> 
		<IconStyle> 
			<scale>1.0</scale> 
			<Icon> 
				<href>cat1_nhemi.png</href> 
			</Icon> 
             <hotSpot x="15" y="17" xunits="pixels" yunits="pixels"/>
		</IconStyle> 
		<LabelStyle> 
			<scale>1.0</scale> 
		</LabelStyle> 
	</Style>
	<Style id="ex"> 
		<IconStyle> 
			<scale>1.0</scale> 
			<Icon> 
				<href>ex_nhemi.png</href> 
			</Icon> 
             <hotSpot x="15" y="17" xunits="pixels" yunits="pixels"/>
		</IconStyle> 
		<LabelStyle> 
			<scale>1.0</scale> 
		</LabelStyle> 
	</Style>
	<Style id="tc"> 
		<IconStyle> 
			<scale>1.0</scale> 
			<Icon> 
				<href>ex_nhemi.png</href> 
			</Icon> 
             <hotSpot x="15" y="17" xunits="pixels" yunits="pixels"/>
		</IconStyle> 
		<LabelStyle> 
			<scale>1.0</scale> 
		</LabelStyle> 
	</Style>
	<Style id="wv"> 
		<IconStyle> 
			<scale>1.0</scale> 
			<Icon> 
				<href>ex_nhemi.png</href> 
			</Icon> 
             <hotSpot x="15" y="17" xunits="pixels" yunits="pixels"/>
		</IconStyle> 
		<LabelStyle> 
			<scale>1.0</scale> 
		</LabelStyle> 
	</Style>
	<Style id="td"> 
		<IconStyle> 
			<scale>1.0</scale> 
			<Icon> 
				<href>td_nhemi.png</href> 
			</Icon> 
             <hotSpot x="15" y="17" xunits="pixels" yunits="pixels"/>
		</IconStyle> 
		<LabelStyle> 
			<scale>1.0</scale> 
		</LabelStyle> 
	</Style>
	<Style id="sd"> 
		<IconStyle> 
			<scale>1.0</scale> 
			<Icon> 
				<href>ex_nhemi.png</href> 
			</Icon> 
             <hotSpot x="15" y="17" xunits="pixels" yunits="pixels"/>
		</IconStyle> 
		<LabelStyle> 
			<scale>1.0</scale> 
		</LabelStyle> 
	</Style>

    <Placemark>
      <name>1200 UTC JAN 11</name>
      <styleUrl>#db</styleUrl>
      <description><![CDATA[
        <table>
          <tr><td>DB ANGGREK (SH062024)</td></tr>
          <tr><td><hr></td></tr>
          <tr><td>1200 UTC JAN 11, 2024</td></tr>
          <tr><td>Storm Location:</td></tr>
          <tr><td><b>8.6 S, 93.1 E</b></td></tr>
          <tr><td>Min Sea Level Pressure:</td></tr>
          <tr><td>1009 mb / 29.80 in Hg</td></tr>
          <tr><td>Maximum Intensity:</td></tr>
          <tr><td>20 kt / 23 mph / 37 kph</td></tr>
        </table>
      ]]></description>
      <Point><coordinates>93.1,-8.6</coordinates></Point>
    </Placemark>
    <Placemark>
      <name>1800 UTC JAN 11</name>
      <styleUrl>#db</styleUrl>
      <description><![CDATA[
        <table>
          <tr><td>DB ANGGREK (SH062024)</td></tr>
          <tr><td><hr></td></tr>
          <tr><td>1800 UTC JAN 11, 2024</td></tr>
          <tr><td>Storm Location:</td></tr>
          <tr><td><b>9.0 S, 92.8 E</b></td></tr>
          <tr><td>Min Sea Level Pressure:</td></tr>
          <tr><td>1008 mb / 29.77 in Hg</td></tr>
          <tr><td>Maximum Intensity:</td></tr>
          <tr><td>20 kt / 23 mph / 37 kph</td></tr>
        </table>
      ]]></description>
      <Point><coordinates>92.8,-9</coordinates></Point>
    </Placemark>
    <Placemark>
      <name>0000 UTC JAN 12</name>
      <styleUrl>#db</styleUrl>
      <description><![CDATA[
        <table>
          <tr><td>DB ANGGREK (SH062024)</td></tr>
          <tr><td><hr></td></tr>
          <tr><td>0000 UTC JAN 12, 2024</td></tr>
          <tr><td>Storm Location:</td></tr>
          <tr><td><b>9.5 S, 92.5 E</b></td></tr>
          <tr><td>Min Sea Level Pressure:</td></tr>
          <tr><td>1008 mb / 29.77 in Hg</td></tr>
          <tr><td>Maximum Intensity:</td></tr>
          <tr><td>20 kt / 23 mph / 37 kph</td></tr>
        </table>
      ]]></description>
      <Point><coordinates>92.5,-9.5</coordinates></Point>
    </Placemark>
    <Placemark>
      <name>0600 UTC JAN 12</name>
      <styleUrl>#db</styleUrl>
      <description><![CDATA[
        <table>
          <tr><td>DB ANGGREK (SH062024)</td></tr>
          <tr><td><hr></td></tr>
          <tr><td>0600 UTC JAN 12, 2024</td></tr>
          <tr><td>Storm Location:</td></tr>
          <tr><td><b>9.8 S, 92.5 E</b></td></tr>
          <tr><td>Min Sea Level Pressure:</td></tr>
          <tr><td>1008 mb / 29.77 in Hg</td></tr>
          <tr><td>Maximum Intensity:</td></tr>
          <tr><td>20 kt / 23 mph / 37 kph</td></tr>
        </table>
      ]]></description>
      <Point><coordinates>92.5,-9.8</coordinates></Point>
    </Placemark>
    <Placemark>
      <name>1200 UTC JAN 12</name>
      <styleUrl>#db</styleUrl>
      <description><![CDATA[
        <table>
          <tr><td>DB ANGGREK (SH062024)</td></tr>
          <tr><td><hr></td></tr>
          <tr><td>1200 UTC JAN 12, 2024</td></tr>
          <tr><td>Storm Location:</td></tr>
          <tr><td><b>10.1 S, 92.6 E</b></td></tr>
          <tr><td>Min Sea Level Pressure:</td></tr>
          <tr><td>1007 mb / 29.74 in Hg</td></tr>
          <tr><td>Maximum Intensity:</td></tr>
          <tr><td>20 kt / 23 mph / 37 kph</td></tr>
        </table>
      ]]></description>
      <Point><coordinates>92.6,-10.1</coordinates></Point>
    </Placemark>
    <Placemark>
      <name>1800 UTC JAN 12</name>
      <styleUrl>#db</styleUrl>
      <description><![CDATA[
        <table>
          <tr><td>DB ANGGREK (SH062024)</td></tr>
          <tr><td><hr></td></tr>
          <tr><td>1800 UTC JAN 12, 2024</td></tr>
          <tr><td>Storm Location:</td></tr>
          <tr><td><b>10.4 S, 92.8 E</b></td></tr>
          <tr><td>Min Sea Level Pressure:</td></tr>
          <tr><td>1007 mb / 29.74 in Hg</td></tr>
          <tr><td>Maximum Intensity:</td></tr>
          <tr><td>20 kt / 23 mph / 37 kph</td></tr>
        </table>
      ]]></description>
      <Point><coordinates>92.8,-10.4</coordinates></Point>
    </Placemark>
    <Placemark>
      <name>0000 UTC JAN 13</name>
      <styleUrl>#db</styleUrl>
      <description><![CDATA[
        <table>
          <tr><td>DB ANGGREK (SH062024)</td></tr>
          <tr><td><hr></td></tr>
          <tr><td>0000 UTC JAN 13, 2024</td></tr>
          <tr><td>Storm Location:</td></tr>
          <tr><td><b>10.6 S, 93.1 E</b></td></tr>
          <tr><td>Min Sea Level Pressure:</td></tr>
          <tr><td>1007 mb / 29.74 in Hg</td></tr>
          <tr><td>Maximum Intensity:</td></tr>
          <tr><td>20 kt / 23 mph / 37 kph</td></tr>
        </table>
      ]]></description>
      <Point><coordinates>93.1,-10.6</coordinates></Point>
    </Placemark>
    <Placemark>
      <name>0600 UTC JAN 13</name>
      <styleUrl>#db</styleUrl>
      <description><![CDATA[
        <table>
          <tr><td>DB ANGGREK (SH062024)</td></tr>
          <tr><td><hr></td></tr>
          <tr><td>0600 UTC JAN 13, 2024</td></tr>
          <tr><td>Storm Location:</td></tr>
          <tr><td><b>10.8 S, 93.3 E</b></td></tr>
          <tr><td>Min Sea Level Pressure:</td></tr>
          <tr><td>1007 mb / 29.74 in Hg</td></tr>
          <tr><td>Maximum Intensity:</td></tr>
          <tr><td>20 kt / 23 mph / 37 kph</td></tr>
        </table>
      ]]></description>
      <Point><coordinates>93.3,-10.8</coordinates></Point>
    </Placemark>
    <Placemark>
      <name>1200 UTC JAN 13</name>
      <styleUrl>#td</styleUrl>
      <description><![CDATA[
        <table>
          <tr><td>TD ANGGREK (SH062024)</td></tr>
          <tr><td><hr></td></tr>
          <tr><td>1200 UTC JAN 13, 2024</td></tr>
          <tr><td>Storm Location:</td></tr>
          <tr><td><b>11.3 S, 94.1 E</b></td></tr>
          <tr><td>Min Sea Level Pressure:</td></tr>
          <tr><td>1006 mb / 29.71 in Hg</td></tr>
          <tr><td>Maximum Intensity:</td></tr>
          <tr><td>25 kt / 29 mph / 46 kph</td></tr>
        </table>
      ]]></description>
      <Point><coordinates>94.1,-11.3</coordinates></Point>
    </Placemark>
    <Placemark>
      <name>1800 UTC JAN 13</name>
      <styleUrl>#td</styleUrl>
      <description><![CDATA[
        <table>
          <tr><td>TD ANGGREK (SH062024)</td></tr>
          <tr><td><hr></td></tr>
          <tr><td>1800 UTC JAN 13, 2024</td></tr>
          <tr><td>Storm Location:</td></tr>
          <tr><td><b>11.6 S, 93.8 E</b></td></tr>
          <tr><td>Min Sea Level Pressure:</td></tr>
          <tr><td>1005 mb / 29.68 in Hg</td></tr>
          <tr><td>Maximum Intensity:</td></tr>
          <tr><td>25 kt / 29 mph / 46 kph</td></tr>
        </table>
      ]]></description>
      <Point><coordinates>93.8,-11.6</coordinates></Point>
    </Placemark>
    <Placemark>
      <name>0000 UTC JAN 14</name>
      <styleUrl>#td</styleUrl>
      <description><![CDATA[
        <table>
          <tr><td>TD ANGGREK (SH062024)</td></tr>
          <tr><td><hr></td></tr>
          <tr><td>0000 UTC JAN 14, 2024</td></tr>
          <tr><td>Storm Location:</td></tr>
          <tr><td><b>11.3 S, 93.7 E</b></td></tr>
          <tr><td>Min Sea Level Pressure:</td></tr>
          <tr><td>1003 mb / 29.62 in Hg</td></tr>
          <tr><td>Maximum Intensity:</td></tr>
          <tr><td>30 kt / 35 mph / 56 kph</td></tr>
        </table>
      ]]></description>
      <Point><coordinates>93.7,-11.3</coordinates></Point>
    </Placemark>
    <Placemark>
      <name>0600 UTC JAN 14</name>
      <styleUrl>#td</styleUrl>
      <description><![CDATA[
        <table>
          <tr><td>TD ANGGREK (SH062024)</td></tr>
          <tr><td><hr></td></tr>
          <tr><td>0600 UTC JAN 14, 2024</td></tr>
          <tr><td>Storm Location:</td></tr>
          <tr><td><b>10.8 S, 94.0 E</b></td></tr>
          <tr><td>Min Sea Level Pressure:</td></tr>
          <tr><td>1003 mb / 29.62 in Hg</td></tr>
          <tr><td>Maximum Intensity:</td></tr>
          <tr><td>30 kt / 35 mph / 56 kph</td></tr>
        </table>
      ]]></description>
      <Point><coordinates>94,-10.8</coordinates></Point>
    </Placemark>
    <Placemark>
      <name>1200 UTC JAN 14</name>
      <styleUrl>#td</styleUrl>
      <description><![CDATA[
        <table>
          <tr><td>TD ANGGREK (SH062024)</td></tr>
          <tr><td><hr></td></tr>
          <tr><td>1200 UTC JAN 14, 2024</td></tr>
          <tr><td>Storm Location:</td></tr>
          <tr><td><b>10.6 S, 93.8 E</b></td></tr>
          <tr><td>Min Sea Level Pressure:</td></tr>
          <tr><td>1003 mb / 29.62 in Hg</td></tr>
          <tr><td>Maximum Intensity:</td></tr>
          <tr><td>30 kt / 35 mph / 56 kph</td></tr>
        </table>
      ]]></description>
      <Point><coordinates>93.8,-10.6</coordinates></Point>
    </Placemark>
    <Placemark>
      <name>1800 UTC JAN 14</name>
      <styleUrl>#td</styleUrl>
      <description><![CDATA[
        <table>
          <tr><td>TD ANGGREK (SH062024)</td></tr>
          <tr><td><hr></td></tr>
          <tr><td>1800 UTC JAN 14, 2024</td></tr>
          <tr><td>Storm Location:</td></tr>
          <tr><td><b>10.4 S, 93.6 E</b></td></tr>
          <tr><td>Min Sea Level Pressure:</td></tr>
          <tr><td>1003 mb / 29.62 in Hg</td></tr>
          <tr><td>Maximum Intensity:</td></tr>
          <tr><td>30 kt / 35 mph / 56 kph</td></tr>
        </table>
      ]]></description>
      <Point><coordinates>93.6,-10.4</coordinates></Point>
    </Placemark>
    <Placemark>
      <name>0000 UTC JAN 15</name>
      <styleUrl>#td</styleUrl>
      <description><![CDATA[
        <table>
          <tr><td>TD ANGGREK (SH062024)</td></tr>
          <tr><td><hr></td></tr>
          <tr><td>0000 UTC JAN 15, 2024</td></tr>
          <tr><td>Storm Location:</td></tr>
          <tr><td><b>9.8 S, 93.6 E</b></td></tr>
          <tr><td>Min Sea Level Pressure:</td></tr>
          <tr><td>1003 mb / 29.62 in Hg</td></tr>
          <tr><td>Maximum Intensity:</td></tr>
          <tr><td>30 kt / 35 mph / 56 kph</td></tr>
        </table>
      ]]></description>
      <Point><coordinates>93.6,-9.8</coordinates></Point>
    </Placemark>
    <Placemark>
      <name>0600 UTC JAN 15</name>
      <styleUrl>#ts</styleUrl>
      <description><![CDATA[
        <table>
          <tr><td>TS ANGGREK (SH062024)</td></tr>
          <tr><td><hr></td></tr>
          <tr><td>0600 UTC JAN 15, 2024</td></tr>
          <tr><td>Storm Location:</td></tr>
          <tr><td><b>9.4 S, 93.4 E</b></td></tr>
          <tr><td>Min Sea Level Pressure:</td></tr>
          <tr><td>1001 mb / 29.56 in Hg</td></tr>
          <tr><td>Maximum Intensity:</td></tr>
          <tr><td>35 kt / 40 mph / 65 kph</td></tr>
        </table>
      ]]></description>
      <Point><coordinates>93.4,-9.4</coordinates></Point>
    </Placemark>
    <Placemark>
      <name>1200 UTC JAN 15</name>
      <styleUrl>#ts</styleUrl>
      <description><![CDATA[
        <table>
          <tr><td>TS ANGGREK (SH062024)</td></tr>
          <tr><td><hr></td></tr>
          <tr><td>1200 UTC JAN 15, 2024</td></tr>
          <tr><td>Storm Location:</td></tr>
          <tr><td><b>9.5 S, 93.7 E</b></td></tr>
          <tr><td>Min Sea Level Pressure:</td></tr>
          <tr><td>999 mb / 29.50 in Hg</td></tr>
          <tr><td>Maximum Intensity:</td></tr>
          <tr><td>40 kt / 46 mph / 74 kph</td></tr>
        </table>
      ]]></description>
      <Point><coordinates>93.7,-9.5</coordinates></Point>
    </Placemark>
    <Placemark>
      <name>1800 UTC JAN 15</name>
      <styleUrl>#ts</styleUrl>
      <description><![CDATA[
        <table>
          <tr><td>TS ANGGREK (SH062024)</td></tr>
          <tr><td><hr></td></tr>
          <tr><td>1800 UTC JAN 15, 2024</td></tr>
          <tr><td>Storm Location:</td></tr>
          <tr><td><b>9.8 S, 94.0 E</b></td></tr>
          <tr><td>Min Sea Level Pressure:</td></tr>
          <tr><td>995 mb / 29.38 in Hg</td></tr>
          <tr><td>Maximum Intensity:</td></tr>
          <tr><td>45 kt / 52 mph / 83 kph</td></tr>
        </table>
      ]]></description>
      <Point><coordinates>94,-9.8</coordinates></Point>
    </Placemark>
    <Placemark>
      <name>0000 UTC JAN 16</name>
      <styleUrl>#ts</styleUrl>
      <description><![CDATA[
        <table>
          <tr><td>TS ANGGREK (SH062024)</td></tr>
          <tr><td><hr></td></tr>
          <tr><td>0000 UTC JAN 16, 2024</td></tr>
          <tr><td>Storm Location:</td></tr>
          <tr><td><b>9.7 S, 93.8 E</b></td></tr>
          <tr><td>Min Sea Level Pressure:</td></tr>
          <tr><td>993 mb / 29.32 in Hg</td></tr>
          <tr><td>Maximum Intensity:</td></tr>
          <tr><td>50 kt / 58 mph / 93 kph</td></tr>
        </table>
      ]]></description>
      <Point><coordinates>93.8,-9.7</coordinates></Point>
    </Placemark>
    <Placemark>
      <name>0600 UTC JAN 16</name>
      <styleUrl>#ts</styleUrl>
      <description><![CDATA[
        <table>
          <tr><td>TS ANGGREK (SH062024)</td></tr>
          <tr><td><hr></td></tr>
          <tr><td>0600 UTC JAN 16, 2024</td></tr>
          <tr><td>Storm Location:</td></tr>
          <tr><td><b>9.5 S, 93.9 E</b></td></tr>
          <tr><td>Min Sea Level Pressure:</td></tr>
          <tr><td>993 mb / 29.32 in Hg</td></tr>
          <tr><td>Maximum Intensity:</td></tr>
          <tr><td>50 kt / 58 mph / 93 kph</td></tr>
        </table>
      ]]></description>
      <Point><coordinates>93.9,-9.5</coordinates></Point>
    </Placemark>
    <Placemark>
      <name>1200 UTC JAN 16</name>
      <styleUrl>#ts</styleUrl>
      <description><![CDATA[
        <table>
          <tr><td>TS ANGGREK (SH062024)</td></tr>
          <tr><td><hr></td></tr>
          <tr><td>1200 UTC JAN 16, 2024</td></tr>
          <tr><td>Storm Location:</td></tr>
          <tr><td><b>9.5 S, 94.0 E</b></td></tr>
          <tr><td>Min Sea Level Pressure:</td></tr>
          <tr><td>994 mb / 29.35 in Hg</td></tr>
          <tr><td>Maximum Intensity:</td></tr>
          <tr><td>45 kt / 52 mph / 83 kph</td></tr>
        </table>
      ]]></description>
      <Point><coordinates>94,-9.5</coordinates></Point>
    </Placemark>
    <Placemark>
      <name>1800 UTC JAN 16</name>
      <styleUrl>#ts</styleUrl>
      <description><![CDATA[
        <table>
          <tr><td>TS ANGGREK (SH062024)</td></tr>
          <tr><td><hr></td></tr>
          <tr><td>1800 UTC JAN 16, 2024</td></tr>
          <tr><td>Storm Location:</td></tr>
          <tr><td><b>9.5 S, 94.1 E</b></td></tr>
          <tr><td>Min Sea Level Pressure:</td></tr>
          <tr><td>994 mb / 29.35 in Hg</td></tr>
          <tr><td>Maximum Intensity:</td></tr>
          <tr><td>45 kt / 52 mph / 83 kph</td></tr>
        </table>
      ]]></description>
      <Point><coordinates>94.1,-9.5</coordinates></Point>
    </Placemark>
    <Placemark>
      <name>0000 UTC JAN 17</name>
      <styleUrl>#ts</styleUrl>
      <description><![CDATA[
        <table>
          <tr><td>TS ANGGREK (SH062024)</td></tr>
          <tr><td><hr></td></tr>
          <tr><td>0000 UTC JAN 17, 2024</td></tr>
          <tr><td>Storm Location:</td></tr>
          <tr><td><b>9.6 S, 94.2 E</b></td></tr>
          <tr><td>Min Sea Level Pressure:</td></tr>
          <tr><td>994 mb / 29.35 in Hg</td></tr>
          <tr><td>Maximum Intensity:</td></tr>
          <tr><td>45 kt / 52 mph / 83 kph</td></tr>
        </table>
      ]]></description>
      <Point><coordinates>94.2,-9.6</coordinates></Point>
    </Placemark>
    <Placemark>
      <name>0600 UTC JAN 17</name>
      <styleUrl>#ts</styleUrl>
      <description><![CDATA[
        <table>
          <tr><td>TS ANGGREK (SH062024)</td></tr>
          <tr><td><hr></td></tr>
          <tr><td>0600 UTC JAN 17, 2024</td></tr>
          <tr><td>Storm Location:</td></tr>
          <tr><td><b>9.9 S, 94.2 E</b></td></tr>
          <tr><td>Min Sea Level Pressure:</td></tr>
          <tr><td>994 mb / 29.35 in Hg</td></tr>
          <tr><td>Maximum Intensity:</td></tr>
          <tr><td>45 kt / 52 mph / 83 kph</td></tr>
        </table>
      ]]></description>
      <Point><coordinates>94.2,-9.9</coordinates></Point>
    </Placemark>
    <Placemark>
      <name>1200 UTC JAN 17</name>
      <styleUrl>#ts</styleUrl>
      <description><![CDATA[
        <table>
          <tr><td>TS ANGGREK (SH062024)</td></tr>
          <tr><td><hr></td></tr>
          <tr><td>1200 UTC JAN 17, 2024</td></tr>
          <tr><td>Storm Location:</td></tr>
          <tr><td><b>10.2 S, 94.2 E</b></td></tr>
          <tr><td>Min Sea Level Pressure:</td></tr>
          <tr><td>998 mb / 29.47 in Hg</td></tr>
          <tr><td>Maximum Intensity:</td></tr>
          <tr><td>40 kt / 46 mph / 74 kph</td></tr>
        </table>
      ]]></description>
      <Point><coordinates>94.2,-10.2</coordinates></Point>
    </Placemark>
    <Placemark>
      <name>1800 UTC JAN 17</name>
      <styleUrl>#ts</styleUrl>
      <description><![CDATA[
        <table>
          <tr><td>TS ANGGREK (SH062024)</td></tr>
          <tr><td><hr></td></tr>
          <tr><td>1800 UTC JAN 17, 2024</td></tr>
          <tr><td>Storm Location:</td></tr>
          <tr><td><b>10.7 S, 94.0 E</b></td></tr>
          <tr><td>Min Sea Level Pressure:</td></tr>
          <tr><td>998 mb / 29.47 in Hg</td></tr>
          <tr><td>Maximum Intensity:</td></tr>
          <tr><td>40 kt / 46 mph / 74 kph</td></tr>
        </table>
      ]]></description>
      <Point><coordinates>94,-10.7</coordinates></Point>
    </Placemark>
    <Placemark>
      <name>0000 UTC JAN 18</name>
      <styleUrl>#ts</styleUrl>
      <description><![CDATA[
        <table>
          <tr><td>TS ANGGREK (SH062024)</td></tr>
          <tr><td><hr></td></tr>
          <tr><td>0000 UTC JAN 18, 2024</td></tr>
          <tr><td>Storm Location:</td></tr>
          <tr><td><b>11.4 S, 93.9 E</b></td></tr>
          <tr><td>Min Sea Level Pressure:</td></tr>
          <tr><td>997 mb / 29.44 in Hg</td></tr>
          <tr><td>Maximum Intensity:</td></tr>
          <tr><td>45 kt / 52 mph / 83 kph</td></tr>
        </table>
      ]]></description>
      <Point><coordinates>93.9,-11.4</coordinates></Point>
    </Placemark>
    <Placemark>
      <name>0600 UTC JAN 18</name>
      <styleUrl>#ts</styleUrl>
      <description><![CDATA[
        <table>
          <tr><td>TS ANGGREK (SH062024)</td></tr>
          <tr><td><hr></td></tr>
          <tr><td>0600 UTC JAN 18, 2024</td></tr>
          <tr><td>Storm Location:</td></tr>
          <tr><td><b>11.6 S, 93.8 E</b></td></tr>
          <tr><td>Min Sea Level Pressure:</td></tr>
          <tr><td>997 mb / 29.44 in Hg</td></tr>
          <tr><td>Maximum Intensity:</td></tr>
          <tr><td>45 kt / 52 mph / 83 kph</td></tr>
        </table>
      ]]></description>
      <Point><coordinates>93.8,-11.6</coordinates></Point>
    </Placemark>
    <Placemark>
      <name>1200 UTC JAN 18</name>
      <styleUrl>#ts</styleUrl>
      <description><![CDATA[
        <table>
          <tr><td>TS ANGGREK (SH062024)</td></tr>
          <tr><td><hr></td></tr>
          <tr><td>1200 UTC JAN 18, 2024</td></tr>
          <tr><td>Storm Location:</td></tr>
          <tr><td><b>11.9 S, 93.7 E</b></td></tr>
          <tr><td>Min Sea Level Pressure:</td></tr>
          <tr><td>997 mb / 29.44 in Hg</td></tr>
          <tr><td>Maximum Intensity:</td></tr>
          <tr><td>45 kt / 52 mph / 83 kph</td></tr>
        </table>
      ]]></description>
      <Point><coordinates>93.7,-11.9</coordinates></Point>
    </Placemark>
    <Placemark>
      <name>1800 UTC JAN 18</name>
      <styleUrl>#ts</styleUrl>
      <description><![CDATA[
        <table>
          <tr><td>TS ANGGREK (SH062024)</td></tr>
          <tr><td><hr></td></tr>
          <tr><td>1800 UTC JAN 18, 2024</td></tr>
          <tr><td>Storm Location:</td></tr>
          <tr><td><b>12.2 S, 93.5 E</b></td></tr>
          <tr><td>Min Sea Level Pressure:</td></tr>
          <tr><td>994 mb / 29.35 in Hg</td></tr>
          <tr><td>Maximum Intensity:</td></tr>
          <tr><td>55 kt / 63 mph / 102 kph</td></tr>
        </table>
      ]]></description>
      <Point><coordinates>93.5,-12.2</coordinates></Point>
    </Placemark>
    <Placemark>
      <name>0000 UTC JAN 19</name>
      <styleUrl>#ts</styleUrl>
      <description><![CDATA[
        <table>
          <tr><td>TS ANGGREK (SH062024)</td></tr>
          <tr><td><hr></td></tr>
          <tr><td>0000 UTC JAN 19, 2024</td></tr>
          <tr><td>Storm Location:</td></tr>
          <tr><td><b>12.4 S, 93.3 E</b></td></tr>
          <tr><td>Min Sea Level Pressure:</td></tr>
          <tr><td>988 mb / 29.18 in Hg</td></tr>
          <tr><td>Maximum Intensity:</td></tr>
          <tr><td>60 kt / 69 mph / 111 kph</td></tr>
        </table>
      ]]></description>
      <Point><coordinates>93.3,-12.4</coordinates></Point>
    </Placemark>
    <Placemark>
      <name>0600 UTC JAN 19</name>
      <styleUrl>#cat1</styleUrl>
      <description><![CDATA[
        <table>
          <tr><td>HU ANGGREK (SH062024)</td></tr>
          <tr><td><hr></td></tr>
          <tr><td>0600 UTC JAN 19, 2024</td></tr>
          <tr><td>Storm Location:</td></tr>
          <tr><td><b>12.5 S, 93.2 E</b></td></tr>
          <tr><td>Min Sea Level Pressure:</td></tr>
          <tr><td>985 mb / 29.09 in Hg</td></tr>
          <tr><td>Maximum Intensity:</td></tr>
          <tr><td>65 kt / 75 mph / 120 kph</td></tr>
        </table>
      ]]></description>
      <Point><coordinates>93.2,-12.5</coordinates></Point>
    </Placemark>
    <Placemark>
      <name>1200 UTC JAN 19</name>
      <styleUrl>#cat1</styleUrl>
      <description><![CDATA[
        <table>
          <tr><td>HU ANGGREK (SH062024)</td></tr>
          <tr><td><hr></td></tr>
          <tr><td>1200 UTC JAN 19, 2024</td></tr>
          <tr><td>Storm Location:</td></tr>
          <tr><td><b>12.5 S, 92.9 E</b></td></tr>
          <tr><td>Min Sea Level Pressure:</td></tr>
          <tr><td>985 mb / 29.09 in Hg</td></tr>
          <tr><td>Maximum Intensity:</td></tr>
          <tr><td>65 kt / 75 mph / 120 kph</td></tr>
        </table>
      ]]></description>
      <Point><coordinates>92.9,-12.5</coordinates></Point>
    </Placemark>
    <Placemark>
      <name>1800 UTC JAN 19</name>
      <styleUrl>#cat1</styleUrl>
      <description><![CDATA[
        <table>
          <tr><td>HU ANGGREK (SH062024)</td></tr>
          <tr><td><hr></td></tr>
          <tr><td>1800 UTC JAN 19, 2024</td></tr>
          <tr><td>Storm Location:</td></tr>
          <tr><td><b>12.4 S, 92.8 E</b></td></tr>
          <tr><td>Min Sea Level Pressure:</td></tr>
          <tr><td>984 mb / 29.06 in Hg</td></tr>
          <tr><td>Maximum Intensity:</td></tr>
          <tr><td>65 kt / 75 mph / 120 kph</td></tr>
        </table>
      ]]></description>
      <Point><coordinates>92.8,-12.4</coordinates></Point>
    </Placemark>
    <Placemark>
      <name>0000 UTC JAN 20</name>
      <styleUrl>#cat1</styleUrl>
      <description><![CDATA[
        <table>
          <tr><td>HU ANGGREK (SH062024)</td></tr>
          <tr><td><hr></td></tr>
          <tr><td>0000 UTC JAN 20, 2024</td></tr>
          <tr><td>Storm Location:</td></tr>
          <tr><td><b>12.4 S, 92.7 E</b></td></tr>
          <tr><td>Min Sea Level Pressure:</td></tr>
          <tr><td>980 mb / 28.94 in Hg</td></tr>
          <tr><td>Maximum Intensity:</td></tr>
          <tr><td>70 kt / 81 mph / 130 kph</td></tr>
        </table>
      ]]></description>
      <Point><coordinates>92.7,-12.4</coordinates></Point>
    </Placemark>
    <Placemark>
      <name>0600 UTC JAN 20</name>
      <styleUrl>#cat1</styleUrl>
      <description><![CDATA[
        <table>
          <tr><td>HU ANGGREK (SH062024)</td></tr>
          <tr><td><hr></td></tr>
          <tr><td>0600 UTC JAN 20, 2024</td></tr>
          <tr><td>Storm Location:</td></tr>
          <tr><td><b>12.4 S, 92.6 E</b></td></tr>
          <tr><td>Min Sea Level Pressure:</td></tr>
          <tr><td>980 mb / 28.94 in Hg</td></tr>
          <tr><td>Maximum Intensity:</td></tr>
          <tr><td>70 kt / 81 mph / 130 kph</td></tr>
        </table>
      ]]></description>
      <Point><coordinates>92.6,-12.4</coordinates></Point>
    </Placemark>
    <Placemark>
      <name>1200 UTC JAN 20</name>
      <styleUrl>#cat1</styleUrl>
      <description><![CDATA[
        <table>
          <tr><td>HU ANGGREK (SH062024)</td></tr>
          <tr><td><hr></td></tr>
          <tr><td>1200 UTC JAN 20, 2024</td></tr>
          <tr><td>Storm Location:</td></tr>
          <tr><td><b>12.3 S, 92.5 E</b></td></tr>
          <tr><td>Min Sea Level Pressure:</td></tr>
          <tr><td>980 mb / 28.94 in Hg</td></tr>
          <tr><td>Maximum Intensity:</td></tr>
          <tr><td>70 kt / 81 mph / 130 kph</td></tr>
        </table>
      ]]></description>
      <Point><coordinates>92.5,-12.3</coordinates></Point>
    </Placemark>
    <Placemark>
      <name>1800 UTC JAN 20</name>
      <styleUrl>#cat1</styleUrl>
      <description><![CDATA[
        <table>
          <tr><td>HU ANGGREK (SH062024)</td></tr>
          <tr><td><hr></td></tr>
          <tr><td>1800 UTC JAN 20, 2024</td></tr>
          <tr><td>Storm Location:</td></tr>
          <tr><td><b>12.2 S, 92.4 E</b></td></tr>
          <tr><td>Min Sea Level Pressure:</td></tr>
          <tr><td>980 mb / 28.94 in Hg</td></tr>
          <tr><td>Maximum Intensity:</td></tr>
          <tr><td>70 kt / 81 mph / 130 kph</td></tr>
        </table>
      ]]></description>
      <Point><coordinates>92.4,-12.2</coordinates></Point>
    </Placemark>
    <Placemark>
      <name>0000 UTC JAN 21</name>
      <styleUrl>#cat1</styleUrl>
      <description><![CDATA[
        <table>
          <tr><td>HU ANGGREK (SH062024)</td></tr>
          <tr><td><hr></td></tr>
          <tr><td>0000 UTC JAN 21, 2024</td></tr>
          <tr><td>Storm Location:</td></tr>
          <tr><td><b>12.1 S, 92.3 E</b></td></tr>
          <tr><td>Min Sea Level Pressure:</td></tr>
          <tr><td>980 mb / 28.94 in Hg</td></tr>
          <tr><td>Maximum Intensity:</td></tr>
          <tr><td>70 kt / 81 mph / 130 kph</td></tr>
        </table>
      ]]></description>
      <Point><coordinates>92.3,-12.1</coordinates></Point>
    </Placemark>
    <Placemark>
      <name>0600 UTC JAN 21</name>
      <styleUrl>#ts</styleUrl>
      <description><![CDATA[
        <table>
          <tr><td>TS ANGGREK (SH062024)</td></tr>
          <tr><td><hr></td></tr>
          <tr><td>0600 UTC JAN 21, 2024</td></tr>
          <tr><td>Storm Location:</td></tr>
          <tr><td><b>12.1 S, 92.1 E</b></td></tr>
          <tr><td>Min Sea Level Pressure:</td></tr>
          <tr><td>990 mb / 29.23 in Hg</td></tr>
          <tr><td>Maximum Intensity:</td></tr>
          <tr><td>55 kt / 63 mph / 102 kph</td></tr>
        </table>
      ]]></description>
      <Point><coordinates>92.1,-12.1</coordinates></Point>
    </Placemark>
    <Placemark>
      <name>1200 UTC JAN 21</name>
      <styleUrl>#ts</styleUrl>
      <description><![CDATA[
        <table>
          <tr><td>TS ANGGREK (SH062024)</td></tr>
          <tr><td><hr></td></tr>
          <tr><td>1200 UTC JAN 21, 2024</td></tr>
          <tr><td>Storm Location:</td></tr>
          <tr><td><b>12.2 S, 91.9 E</b></td></tr>
          <tr><td>Min Sea Level Pressure:</td></tr>
          <tr><td>994 mb / 29.35 in Hg</td></tr>
          <tr><td>Maximum Intensity:</td></tr>
          <tr><td>50 kt / 58 mph / 93 kph</td></tr>
        </table>
      ]]></description>
      <Point><coordinates>91.9,-12.2</coordinates></Point>
    </Placemark>
    <Placemark>
      <name>1800 UTC JAN 21</name>
      <styleUrl>#ts</styleUrl>
      <description><![CDATA[
        <table>
          <tr><td>TS ANGGREK (SH062024)</td></tr>
          <tr><td><hr></td></tr>
          <tr><td>1800 UTC JAN 21, 2024</td></tr>
          <tr><td>Storm Location:</td></tr>
          <tr><td><b>12.3 S, 91.8 E</b></td></tr>
          <tr><td>Min Sea Level Pressure:</td></tr>
          <tr><td>997 mb / 29.44 in Hg</td></tr>
          <tr><td>Maximum Intensity:</td></tr>
          <tr><td>45 kt / 52 mph / 83 kph</td></tr>
        </table>
      ]]></description>
      <Point><coordinates>91.8,-12.3</coordinates></Point>
    </Placemark>
    <Placemark>
      <name>0000 UTC JAN 22</name>
      <styleUrl>#ts</styleUrl>
      <description><![CDATA[
        <table>
          <tr><td>TS ANGGREK (SH062024)</td></tr>
          <tr><td><hr></td></tr>
          <tr><td>0000 UTC JAN 22, 2024</td></tr>
          <tr><td>Storm Location:</td></tr>
          <tr><td><b>12.4 S, 91.7 E</b></td></tr>
          <tr><td>Min Sea Level Pressure:</td></tr>
          <tr><td>998 mb / 29.47 in Hg</td></tr>
          <tr><td>Maximum Intensity:</td></tr>
          <tr><td>45 kt / 52 mph / 83 kph</td></tr>
        </table>
      ]]></description>
      <Point><coordinates>91.7,-12.4</coordinates></Point>
    </Placemark>
    <Placemark>
      <name>0600 UTC JAN 22</name>
      <styleUrl>#ts</styleUrl>
      <description><![CDATA[
        <table>
          <tr><td>TS ANGGREK (SH062024)</td></tr>
          <tr><td><hr></td></tr>
          <tr><td>0600 UTC JAN 22, 2024</td></tr>
          <tr><td>Storm Location:</td></tr>
          <tr><td><b>12.4 S, 91.6 E</b></td></tr>
          <tr><td>Min Sea Level Pressure:</td></tr>
          <tr><td>998 mb / 29.47 in Hg</td></tr>
          <tr><td>Maximum Intensity:</td></tr>
          <tr><td>45 kt / 52 mph / 83 kph</td></tr>
        </table>
      ]]></description>
      <Point><coordinates>91.6,-12.4</coordinates></Point>
    </Placemark>
    <Placemark>
      <name>1200 UTC JAN 22</name>
      <styleUrl>#ts</styleUrl>
      <description><![CDATA[
        <table>
          <tr><td>TS ANGGREK (SH062024)</td></tr>
          <tr><td><hr></td></tr>
          <tr><td>1200 UTC JAN 22, 2024</td></tr>
          <tr><td>Storm Location:</td></tr>
          <tr><td><b>12.4 S, 91.5 E</b></td></tr>
          <tr><td>Min Sea Level Pressure:</td></tr>
          <tr><td>998 mb / 29.47 in Hg</td></tr>
          <tr><td>Maximum Intensity:</td></tr>
          <tr><td>45 kt / 52 mph / 83 kph</td></tr>
        </table>
      ]]></description>
      <Point><coordinates>91.5,-12.4</coordinates></Point>
    </Placemark>
    <Placemark>
      <name>1800 UTC JAN 22</name>
      <styleUrl>#ts</styleUrl>
      <description><![CDATA[
        <table>
          <tr><td>TS ANGGREK (SH062024)</td></tr>
          <tr><td><hr></td></tr>
          <tr><td>1800 UTC JAN 22, 2024</td></tr>
          <tr><td>Storm Location:</td></tr>
          <tr><td><b>12.5 S, 91.5 E</b></td></tr>
          <tr><td>Min Sea Level Pressure:</td></tr>
          <tr><td>998 mb / 29.47 in Hg</td></tr>
          <tr><td>Maximum Intensity:</td></tr>
          <tr><td>45 kt / 52 mph / 83 kph</td></tr>
        </table>
      ]]></description>
      <Point><coordinates>91.5,-12.5</coordinates></Point>
    </Placemark>
    <Placemark>
      <name>0000 UTC JAN 23</name>
      <styleUrl>#ts</styleUrl>
      <description><![CDATA[
        <table>
          <tr><td>TS ANGGREK (SH062024)</td></tr>
          <tr><td><hr></td></tr>
          <tr><td>0000 UTC JAN 23, 2024</td></tr>
          <tr><td>Storm Location:</td></tr>
          <tr><td><b>12.7 S, 91.5 E</b></td></tr>
          <tr><td>Min Sea Level Pressure:</td></tr>
          <tr><td>998 mb / 29.47 in Hg</td></tr>
          <tr><td>Maximum Intensity:</td></tr>
          <tr><td>45 kt / 52 mph / 83 kph</td></tr>
        </table>
      ]]></description>
      <Point><coordinates>91.5,-12.7</coordinates></Point>
    </Placemark>
    <Placemark>
      <name>0600 UTC JAN 23</name>
      <styleUrl>#ts</styleUrl>
      <description><![CDATA[
        <table>
          <tr><td>TS ANGGREK (SH062024)</td></tr>
          <tr><td><hr></td></tr>
          <tr><td>0600 UTC JAN 23, 2024</td></tr>
          <tr><td>Storm Location:</td></tr>
          <tr><td><b>13.0 S, 91.6 E</b></td></tr>
          <tr><td>Min Sea Level Pressure:</td></tr>
          <tr><td>998 mb / 29.47 in Hg</td></tr>
          <tr><td>Maximum Intensity:</td></tr>
          <tr><td>45 kt / 52 mph / 83 kph</td></tr>
        </table>
      ]]></description>
      <Point><coordinates>91.6,-13</coordinates></Point>
    </Placemark>
    <Placemark>
      <name>1200 UTC JAN 23</name>
      <styleUrl>#ts</styleUrl>
      <description><![CDATA[
        <table>
          <tr><td>TS ANGGREK (SH062024)</td></tr>
          <tr><td><hr></td></tr>
          <tr><td>1200 UTC JAN 23, 2024</td></tr>
          <tr><td>Storm Location:</td></tr>
          <tr><td><b>13.4 S, 91.6 E</b></td></tr>
          <tr><td>Min Sea Level Pressure:</td></tr>
          <tr><td>996 mb / 29.41 in Hg</td></tr>
          <tr><td>Maximum Intensity:</td></tr>
          <tr><td>50 kt / 58 mph / 93 kph</td></tr>
        </table>
      ]]></description>
      <Point><coordinates>91.6,-13.4</coordinates></Point>
    </Placemark>
    <Placemark>
      <name>1800 UTC JAN 23</name>
      <styleUrl>#ts</styleUrl>
      <description><![CDATA[
        <table>
          <tr><td>TS ANGGREK (SH062024)</td></tr>
          <tr><td><hr></td></tr>
          <tr><td>1800 UTC JAN 23, 2024</td></tr>
          <tr><td>Storm Location:</td></tr>
          <tr><td><b>13.6 S, 91.5 E</b></td></tr>
          <tr><td>Min Sea Level Pressure:</td></tr>
          <tr><td>996 mb / 29.41 in Hg</td></tr>
          <tr><td>Maximum Intensity:</td></tr>
          <tr><td>50 kt / 58 mph / 93 kph</td></tr>
        </table>
      ]]></description>
      <Point><coordinates>91.5,-13.6</coordinates></Point>
    </Placemark>
    <Placemark>
      <name>0000 UTC JAN 24</name>
      <styleUrl>#ts</styleUrl>
      <description><![CDATA[
        <table>
          <tr><td>TS ANGGREK (SH062024)</td></tr>
          <tr><td><hr></td></tr>
          <tr><td>0000 UTC JAN 24, 2024</td></tr>
          <tr><td>Storm Location:</td></tr>
          <tr><td><b>13.9 S, 91.3 E</b></td></tr>
          <tr><td>Min Sea Level Pressure:</td></tr>
          <tr><td>996 mb / 29.41 in Hg</td></tr>
          <tr><td>Maximum Intensity:</td></tr>
          <tr><td>50 kt / 58 mph / 93 kph</td></tr>
        </table>
      ]]></description>
      <Point><coordinates>91.3,-13.9</coordinates></Point>
    </Placemark>
    <Placemark>
      <name>0600 UTC JAN 24</name>
      <styleUrl>#ts</styleUrl>
      <description><![CDATA[
        <table>
          <tr><td>TS ANGGREK (SH062024)</td></tr>
          <tr><td><hr></td></tr>
          <tr><td>0600 UTC JAN 24, 2024</td></tr>
          <tr><td>Storm Location:</td></tr>
          <tr><td><b>14.0 S, 91.2 E</b></td></tr>
          <tr><td>Min Sea Level Pressure:</td></tr>
          <tr><td>989 mb / 29.21 in Hg</td></tr>
          <tr><td>Maximum Intensity:</td></tr>
          <tr><td>60 kt / 69 mph / 111 kph</td></tr>
        </table>
      ]]></description>
      <Point><coordinates>91.2,-14</coordinates></Point>
    </Placemark>
    <Placemark>
      <name>1200 UTC JAN 24</name>
      <styleUrl>#cat1</styleUrl>
      <description><![CDATA[
        <table>
          <tr><td>HU ANGGREK (SH062024)</td></tr>
          <tr><td><hr></td></tr>
          <tr><td>1200 UTC JAN 24, 2024</td></tr>
          <tr><td>Storm Location:</td></tr>
          <tr><td><b>14.1 S, 91.1 E</b></td></tr>
          <tr><td>Min Sea Level Pressure:</td></tr>
          <tr><td>979 mb / 28.91 in Hg</td></tr>
          <tr><td>Maximum Intensity:</td></tr>
          <tr><td>75 kt / 86 mph / 139 kph</td></tr>
        </table>
      ]]></description>
      <Point><coordinates>91.1,-14.1</coordinates></Point>
    </Placemark>
    <Placemark>
      <name>1800 UTC JAN 24</name>
      <styleUrl>#cat1</styleUrl>
      <description><![CDATA[
        <table>
          <tr><td>HU ANGGREK (SH062024)</td></tr>
          <tr><td><hr></td></tr>
          <tr><td>1800 UTC JAN 24, 2024</td></tr>
          <tr><td>Storm Location:</td></tr>
          <tr><td><b>14.3 S, 90.9 E</b></td></tr>
          <tr><td>Min Sea Level Pressure:</td></tr>
          <tr><td>979 mb / 28.91 in Hg</td></tr>
          <tr><td>Maximum Intensity:</td></tr>
          <tr><td>75 kt / 86 mph / 139 kph</td></tr>
        </table>
      ]]></description>
      <Point><coordinates>90.9,-14.3</coordinates></Point>
    </Placemark>
    <Placemark>
      <name>0000 UTC JAN 25</name>
      <styleUrl>#cat1</styleUrl>
      <description><![CDATA[
        <table>
          <tr><td>HU ANGGREK (SH062024)</td></tr>
          <tr><td><hr></td></tr>
          <tr><td>0000 UTC JAN 25, 2024</td></tr>
          <tr><td>Storm Location:</td></tr>
          <tr><td><b>14.6 S, 90.7 E</b></td></tr>
          <tr><td>Min Sea Level Pressure:</td></tr>
          <tr><td>979 mb / 28.91 in Hg</td></tr>
          <tr><td>Maximum Intensity:</td></tr>
          <tr><td>75 kt / 86 mph / 139 kph</td></tr>
        </table>
      ]]></description>
      <Point><coordinates>90.7,-14.6</coordinates></Point>
    </Placemark>
    <Placemark>
      <name>0600 UTC JAN 25</name>
      <styleUrl>#cat1</styleUrl>
      <description><![CDATA[
        <table>
          <tr><td>HU ANGGREK (SH062024)</td></tr>
          <tr><td><hr></td></tr>
          <tr><td>0600 UTC JAN 25, 2024</td></tr>
          <tr><td>Storm Location:</td></tr>
          <tr><td><b>15.1 S, 90.0 E</b></td></tr>
          <tr><td>Min Sea Level Pressure:</td></tr>
          <tr><td>977 mb / 28.85 in Hg</td></tr>
          <tr><td>Maximum Intensity:</td></tr>
          <tr><td>80 kt / 92 mph / 148 kph</td></tr>
        </table>
      ]]></description>
      <Point><coordinates>90,-15.1</coordinates></Point>
    </Placemark>
    <Placemark>
      <name>1200 UTC JAN 25</name>
      <styleUrl>#cat1</styleUrl>
      <description><![CDATA[
        <table>
          <tr><td>HU ANGGREK (SH062024)</td></tr>
          <tr><td><hr></td></tr>
          <tr><td>1200 UTC JAN 25, 2024</td></tr>
          <tr><td>Storm Location:</td></tr>
          <tr><td><b>15.5 S, 89.3 E</b></td></tr>
          <tr><td>Min Sea Level Pressure:</td></tr>
          <tr><td>977 mb / 28.85 in Hg</td></tr>
          <tr><td>Maximum Intensity:</td></tr>
          <tr><td>80 kt / 92 mph / 148 kph</td></tr>
        </table>
      ]]></description>
      <Point><coordinates>89.3,-15.5</coordinates></Point>
    </Placemark>
    <Placemark>
      <name>1800 UTC JAN 25</name>
      <styleUrl>#cat2</styleUrl>
      <description><![CDATA[
        <table>
          <tr><td>HU ANGGREK (SH062024)</td></tr>
          <tr><td><hr></td></tr>
          <tr><td>1800 UTC JAN 25, 2024</td></tr>
          <tr><td>Storm Location:</td></tr>
          <tr><td><b>15.9 S, 88.5 E</b></td></tr>
          <tr><td>Min Sea Level Pressure:</td></tr>
          <tr><td>972 mb / 28.70 in Hg</td></tr>
          <tr><td>Maximum Intensity:</td></tr>
          <tr><td>90 kt / 104 mph / 167 kph</td></tr>
        </table>
      ]]></description>
      <Point><coordinates>88.5,-15.9</coordinates></Point>
    </Placemark>
    <Placemark>
      <name>0000 UTC JAN 26</name>
      <styleUrl>#cat3</styleUrl>
      <description><![CDATA[
        <table>
          <tr><td>HU ANGGREK (SH062024)</td></tr>
          <tr><td><hr></td></tr>
          <tr><td>0000 UTC JAN 26, 2024</td></tr>
          <tr><td>Storm Location:</td></tr>
          <tr><td><b>16.5 S, 87.5 E</b></td></tr>
          <tr><td>Min Sea Level Pressure:</td></tr>
          <tr><td>964 mb / 28.47 in Hg</td></tr>
          <tr><td>Maximum Intensity:</td></tr>
          <tr><td>105 kt / 121 mph / 194 kph</td></tr>
        </table>
      ]]></description>
      <Point><coordinates>87.5,-16.5</coordinates></Point>
    </Placemark>
    <Placemark>
      <name>0600 UTC JAN 26</name>
      <styleUrl>#cat3</styleUrl>
      <description><![CDATA[
        <table>
          <tr><td>HU ANGGREK (SH062024)</td></tr>
          <tr><td><hr></td></tr>
          <tr><td>0600 UTC JAN 26, 2024</td></tr>
          <tr><td>Storm Location:</td></tr>
          <tr><td><b>17.0 S, 86.4 E</b></td></tr>
          <tr><td>Min Sea Level Pressure:</td></tr>
          <tr><td>964 mb / 28.47 in Hg</td></tr>
          <tr><td>Maximum Intensity:</td></tr>
          <tr><td>105 kt / 121 mph / 194 kph</td></tr>
        </table>
      ]]></description>
      <Point><coordinates>86.4,-17</coordinates></Point>
    </Placemark>
    <Placemark>
      <name>1200 UTC JAN 26</name>
      <styleUrl>#cat3</styleUrl>
      <description><![CDATA[
        <table>
          <tr><td>HU ANGGREK (SH062024)</td></tr>
          <tr><td><hr></td></tr>
          <tr><td>1200 UTC JAN 26, 2024</td></tr>
          <tr><td>Storm Location:</td></tr>
          <tr><td><b>17.6 S, 85.3 E</b></td></tr>
          <tr><td>Min Sea Level Pressure:</td></tr>
          <tr><td>966 mb / 28.53 in Hg</td></tr>
          <tr><td>Maximum Intensity:</td></tr>
          <tr><td>100 kt / 115 mph / 185 kph</td></tr>
        </table>
      ]]></description>
      <Point><coordinates>85.3,-17.6</coordinates></Point>
    </Placemark>
    <Placemark>
      <name>1800 UTC JAN 26</name>
      <styleUrl>#cat2</styleUrl>
      <description><![CDATA[
        <table>
          <tr><td>HU ANGGREK (SH062024)</td></tr>
          <tr><td><hr></td></tr>
          <tr><td>1800 UTC JAN 26, 2024</td></tr>
          <tr><td>Storm Location:</td></tr>
          <tr><td><b>18.1 S, 84.1 E</b></td></tr>
          <tr><td>Min Sea Level Pressure:</td></tr>
          <tr><td>968 mb / 28.59 in Hg</td></tr>
          <tr><td>Maximum Intensity:</td></tr>
          <tr><td>95 kt / 109 mph / 176 kph</td></tr>
        </table>
      ]]></description>
      <Point><coordinates>84.1,-18.1</coordinates></Point>
    </Placemark>
    <Placemark>
      <name>0000 UTC JAN 27</name>
      <styleUrl>#cat2</styleUrl>
      <description><![CDATA[
        <table>
          <tr><td>HU ANGGREK (SH062024)</td></tr>
          <tr><td><hr></td></tr>
          <tr><td>0000 UTC JAN 27, 2024</td></tr>
          <tr><td>Storm Location:</td></tr>
          <tr><td><b>18.6 S, 83.1 E</b></td></tr>
          <tr><td>Min Sea Level Pressure:</td></tr>
          <tr><td>972 mb / 28.70 in Hg</td></tr>
          <tr><td>Maximum Intensity:</td></tr>
          <tr><td>90 kt / 104 mph / 167 kph</td></tr>
        </table>
      ]]></description>
      <Point><coordinates>83.1,-18.6</coordinates></Point>
    </Placemark>
    <Placemark>
      <name>0600 UTC JAN 27</name>
      <styleUrl>#cat2</styleUrl>
      <description><![CDATA[
        <table>
          <tr><td>HU ANGGREK (SH062024)</td></tr>
          <tr><td><hr></td></tr>
          <tr><td>0600 UTC JAN 27, 2024</td></tr>
          <tr><td>Storm Location:</td></tr>
          <tr><td><b>19.0 S, 81.9 E</b></td></tr>
          <tr><td>Min Sea Level Pressure:</td></tr>
          <tr><td>972 mb / 28.70 in Hg</td></tr>
          <tr><td>Maximum Intensity:</td></tr>
          <tr><td>90 kt / 104 mph / 167 kph</td></tr>
        </table>
      ]]></description>
      <Point><coordinates>81.9,-19</coordinates></Point>
    </Placemark>
    <Placemark>
      <name>1200 UTC JAN 27</name>
      <styleUrl>#cat3</styleUrl>
      <description><![CDATA[
        <table>
          <tr><td>HU ANGGREK (SH062024)</td></tr>
          <tr><td><hr></td></tr>
          <tr><td>1200 UTC JAN 27, 2024</td></tr>
          <tr><td>Storm Location:</td></tr>
          <tr><td><b>19.4 S, 80.7 E</b></td></tr>
          <tr><td>Min Sea Level Pressure:</td></tr>
          <tr><td>963 mb / 28.44 in Hg</td></tr>
          <tr><td>Maximum Intensity:</td></tr>
          <tr><td>100 kt / 115 mph / 185 kph</td></tr>
        </table>
      ]]></description>
      <Point><coordinates>80.7,-19.4</coordinates></Point>
    </Placemark>
    <Placemark>
      <name>1800 UTC JAN 27</name>
      <styleUrl>#cat2</styleUrl>
      <description><![CDATA[
        <table>
          <tr><td>HU ANGGREK (SH062024)</td></tr>
          <tr><td><hr></td></tr>
          <tr><td>1800 UTC JAN 27, 2024</td></tr>
          <tr><td>Storm Location:</td></tr>
          <tr><td><b>19.6 S, 79.4 E</b></td></tr>
          <tr><td>Min Sea Level Pressure:</td></tr>
          <tr><td>969 mb / 28.61 in Hg</td></tr>
          <tr><td>Maximum Intensity:</td></tr>
          <tr><td>95 kt / 109 mph / 176 kph</td></tr>
        </table>
      ]]></description>
      <Point><coordinates>79.4,-19.6</coordinates></Point>
    </Placemark>
    <Placemark>
      <name>0000 UTC JAN 28</name>
      <styleUrl>#cat2</styleUrl>
      <description><![CDATA[
        <table>
          <tr><td>HU ANGGREK (SH062024)</td></tr>
          <tr><td><hr></td></tr>
          <tr><td>0000 UTC JAN 28, 2024</td></tr>
          <tr><td>Storm Location:</td></tr>
          <tr><td><b>19.9 S, 77.9 E</b></td></tr>
          <tr><td>Min Sea Level Pressure:</td></tr>
          <tr><td>969 mb / 28.61 in Hg</td></tr>
          <tr><td>Maximum Intensity:</td></tr>
          <tr><td>95 kt / 109 mph / 176 kph</td></tr>
        </table>
      ]]></description>
      <Point><coordinates>77.9,-19.9</coordinates></Point>
    </Placemark>
    <Placemark>
      <name>0600 UTC JAN 28</name>
      <styleUrl>#cat3</styleUrl>
      <description><![CDATA[
        <table>
          <tr><td>HU ANGGREK (SH062024)</td></tr>
          <tr><td><hr></td></tr>
          <tr><td>0600 UTC JAN 28, 2024</td></tr>
          <tr><td>Storm Location:</td></tr>
          <tr><td><b>20.4 S, 76.3 E</b></td></tr>
          <tr><td>Min Sea Level Pressure:</td></tr>
          <tr><td>963 mb / 28.44 in Hg</td></tr>
          <tr><td>Maximum Intensity:</td></tr>
          <tr><td>100 kt / 115 mph / 185 kph</td></tr>
        </table>
      ]]></description>
      <Point><coordinates>76.3,-20.4</coordinates></Point>
    </Placemark>
    <Placemark>
      <name>1200 UTC JAN 28</name>
      <styleUrl>#cat3</styleUrl>
      <description><![CDATA[
        <table>
          <tr><td>HU ANGGREK (SH062024)</td></tr>
          <tr><td><hr></td></tr>
          <tr><td>1200 UTC JAN 28, 2024</td></tr>
          <tr><td>Storm Location:</td></tr>
          <tr><td><b>21.0 S, 74.7 E</b></td></tr>
          <tr><td>Min Sea Level Pressure:</td></tr>
          <tr><td>957 mb / 28.26 in Hg</td></tr>
          <tr><td>Maximum Intensity:</td></tr>
          <tr><td>105 kt / 121 mph / 194 kph</td></tr>
        </table>
      ]]></description>
      <Point><coordinates>74.7,-21</coordinates></Point>
    </Placemark>
    <Placemark>
      <name>1800 UTC JAN 28</name>
      <styleUrl>#cat4</styleUrl>
      <description><![CDATA[
        <table>
          <tr><td>HU ANGGREK (SH062024)</td></tr>
          <tr><td><hr></td></tr>
          <tr><td>1800 UTC JAN 28, 2024</td></tr>
          <tr><td>Storm Location:</td></tr>
          <tr><td><b>21.7 S, 73.1 E</b></td></tr>
          <tr><td>Min Sea Level Pressure:</td></tr>
          <tr><td>950 mb / 28.05 in Hg</td></tr>
          <tr><td>Maximum Intensity:</td></tr>
          <tr><td>115 kt / 132 mph / 213 kph</td></tr>
        </table>
      ]]></description>
      <Point><coordinates>73.1,-21.7</coordinates></Point>
    </Placemark>
    <Placemark>
      <name>0000 UTC JAN 29</name>
      <styleUrl>#cat3</styleUrl>
      <description><![CDATA[
        <table>
          <tr><td>HU ANGGREK (SH062024)</td></tr>
          <tr><td><hr></td></tr>
          <tr><td>0000 UTC JAN 29, 2024</td></tr>
          <tr><td>Storm Location:</td></tr>
          <tr><td><b>22.7 S, 72.0 E</b></td></tr>
          <tr><td>Min Sea Level Pressure:</td></tr>
          <tr><td>952 mb / 28.11 in Hg</td></tr>
          <tr><td>Maximum Intensity:</td></tr>
          <tr><td>110 kt / 127 mph / 204 kph</td></tr>
        </table>
      ]]></description>
      <Point><coordinates>72,-22.7</coordinates></Point>
    </Placemark>
    <Placemark>
      <name>0600 UTC JAN 29</name>
      <styleUrl>#cat3</styleUrl>
      <description><![CDATA[
        <table>
          <tr><td>HU ANGGREK (SH062024)</td></tr>
          <tr><td><hr></td></tr>
          <tr><td>0600 UTC JAN 29, 2024</td></tr>
          <tr><td>Storm Location:</td></tr>
          <tr><td><b>23.9 S, 71.0 E</b></td></tr>
          <tr><td>Min Sea Level Pressure:</td></tr>
          <tr><td>952 mb / 28.11 in Hg</td></tr>
          <tr><td>Maximum Intensity:</td></tr>
          <tr><td>110 kt / 127 mph / 204 kph</td></tr>
        </table>
      ]]></description>
      <Point><coordinates>71,-23.9</coordinates></Point>
    </Placemark>
    <Placemark>
      <name>1200 UTC JAN 29</name>
      <styleUrl>#cat4</styleUrl>
      <description><![CDATA[
        <table>
          <tr><td>HU ANGGREK (SH062024)</td></tr>
          <tr><td><hr></td></tr>
          <tr><td>1200 UTC JAN 29, 2024</td></tr>
          <tr><td>Storm Location:</td></tr>
          <tr><td><b>25.3 S, 70.7 E</b></td></tr>
          <tr><td>Min Sea Level Pressure:</td></tr>
          <tr><td>948 mb / 27.99 in Hg</td></tr>
          <tr><td>Maximum Intensity:</td></tr>
          <tr><td>115 kt / 132 mph / 213 kph</td></tr>
        </table>
      ]]></description>
      <Point><coordinates>70.7,-25.3</coordinates></Point>
    </Placemark>
    <Placemark>
      <name>1800 UTC JAN 29</name>
      <styleUrl>#cat3</styleUrl>
      <description><![CDATA[
        <table>
          <tr><td>HU ANGGREK (SH062024)</td></tr>
          <tr><td><hr></td></tr>
          <tr><td>1800 UTC JAN 29, 2024</td></tr>
          <tr><td>Storm Location:</td></tr>
          <tr><td><b>26.6 S, 70.9 E</b></td></tr>
          <tr><td>Min Sea Level Pressure:</td></tr>
          <tr><td>950 mb / 28.05 in Hg</td></tr>
          <tr><td>Maximum Intensity:</td></tr>
          <tr><td>110 kt / 127 mph / 204 kph</td></tr>
        </table>
      ]]></description>
      <Point><coordinates>70.9,-26.6</coordinates></Point>
    </Placemark>
    <Placemark>
      <name>0000 UTC JAN 30</name>
      <styleUrl>#cat3</styleUrl>
      <description><![CDATA[
        <table>
          <tr><td>HU ANGGREK (SH062024)</td></tr>
          <tr><td><hr></td></tr>
          <tr><td>0000 UTC JAN 30, 2024</td></tr>
          <tr><td>Storm Location:</td></tr>
          <tr><td><b>28.2 S, 71.8 E</b></td></tr>
          <tr><td>Min Sea Level Pressure:</td></tr>
          <tr><td>952 mb / 28.11 in Hg</td></tr>
          <tr><td>Maximum Intensity:</td></tr>
          <tr><td>105 kt / 121 mph / 194 kph</td></tr>
        </table>
      ]]></description>
      <Point><coordinates>71.8,-28.2</coordinates></Point>
    </Placemark>
    <Placemark>
      <name>0600 UTC JAN 30</name>
      <styleUrl>#cat2</styleUrl>
      <description><![CDATA[
        <table>
          <tr><td>HU ANGGREK (SH062024)</td></tr>
          <tr><td><hr></td></tr>
          <tr><td>0600 UTC JAN 30, 2024</td></tr>
          <tr><td>Storm Location:</td></tr>
          <tr><td><b>29.0 S, 72.7 E</b></td></tr>
          <tr><td>Min Sea Level Pressure:</td></tr>
          <tr><td>965 mb / 28.50 in Hg</td></tr>
          <tr><td>Maximum Intensity:</td></tr>
          <tr><td>90 kt / 104 mph / 167 kph</td></tr>
        </table>
      ]]></description>
      <Point><coordinates>72.7,-29</coordinates></Point>
    </Placemark>
    <Placemark>
      <name>1200 UTC JAN 30</name>
      <styleUrl>#cat2</styleUrl>
      <description><![CDATA[
        <table>
          <tr><td>HU ANGGREK (SH062024)</td></tr>
          <tr><td><hr></td></tr>
          <tr><td>1200 UTC JAN 30, 2024</td></tr>
          <tr><td>Storm Location:</td></tr>
          <tr><td><b>30.1 S, 74.4 E</b></td></tr>
          <tr><td>Min Sea Level Pressure:</td></tr>
          <tr><td>968 mb / 28.59 in Hg</td></tr>
          <tr><td>Maximum Intensity:</td></tr>
          <tr><td>85 kt / 98 mph / 157 kph</td></tr>
        </table>
      ]]></description>
      <Point><coordinates>74.4,-30.1</coordinates></Point>
    </Placemark>
    <Placemark>
      <name>1800 UTC JAN 30</name>
      <styleUrl>#cat2</styleUrl>
      <description><![CDATA[
        <table>
          <tr><td>HU ANGGREK (SH062024)</td></tr>
          <tr><td><hr></td></tr>
          <tr><td>1800 UTC JAN 30, 2024</td></tr>
          <tr><td>Storm Location:</td></tr>
          <tr><td><b>30.8 S, 76.2 E</b></td></tr>
          <tr><td>Min Sea Level Pressure:</td></tr>
          <tr><td>968 mb / 28.59 in Hg</td></tr>
          <tr><td>Maximum Intensity:</td></tr>
          <tr><td>85 kt / 98 mph / 157 kph</td></tr>
        </table>
      ]]></description>
      <Point><coordinates>76.2,-30.8</coordinates></Point>
    </Placemark>
    <Placemark>
      <name>0000 UTC JAN 31</name>
      <styleUrl>#cat1</styleUrl>
      <description><![CDATA[
        <table>
          <tr><td>HU ANGGREK (SH062024)</td></tr>
          <tr><td><hr></td></tr>
          <tr><td>0000 UTC JAN 31, 2024</td></tr>
          <tr><td>Storm Location:</td></tr>
          <tr><td><b>31.4 S, 78.8 E</b></td></tr>
          <tr><td>Min Sea Level Pressure:</td></tr>
          <tr><td>981 mb / 28.97 in Hg</td></tr>
          <tr><td>Maximum Intensity:</td></tr>
          <tr><td>70 kt / 81 mph / 130 kph</td></tr>
        </table>
      ]]></description>
      <Point><coordinates>78.8,-31.4</coordinates></Point>
    </Placemark>
    <Placemark>
      <name>0600 UTC JAN 31</name>
      <styleUrl>#ts</styleUrl>
      <description><![CDATA[
        <table>
          <tr><td>TS ANGGREK (SH062024)</td></tr>
          <tr><td><hr></td></tr>
          <tr><td>0600 UTC JAN 31, 2024</td></tr>
          <tr><td>Storm Location:</td></tr>
          <tr><td><b>32.6 S, 83.1 E</b></td></tr>
          <tr><td>Min Sea Level Pressure:</td></tr>
          <tr><td>987 mb / 29.15 in Hg</td></tr>
          <tr><td>Maximum Intensity:</td></tr>
          <tr><td>60 kt / 69 mph / 111 kph</td></tr>
        </table>
      ]]></description>
      <Point><coordinates>83.1,-32.6</coordinates></Point>
    </Placemark>
    <Placemark>
      <name>1200 UTC JAN 31</name>
      <styleUrl>#ex</styleUrl>
      <description><![CDATA[
        <table>
          <tr><td>EX ANGGREK (SH062024)</td></tr>
          <tr><td><hr></td></tr>
          <tr><td>1200 UTC JAN 31, 2024</td></tr>
          <tr><td>Storm Location:</td></tr>
          <tr><td><b>34.4 S, 87.4 E</b></td></tr>
          <tr><td>Min Sea Level Pressure:</td></tr>
          <tr><td>987 mb / 29.15 in Hg</td></tr>
          <tr><td>Maximum Intensity:</td></tr>
          <tr><td>60 kt / 69 mph / 111 kph</td></tr>
        </table>
      ]]></description>
      <Point><coordinates>87.4,-34.4</coordinates></Point>
    </Placemark>
  </Document>
</kml>
