<?xml version="1.0" encoding="UTF-8"?>
<kml xmlns="http://www.opengis.net/kml/2.2">
  <Document>
    <name>SH072024</name>
    <open>0</open>

    <!-- =====  Document header ===== -->
    <description><![CDATA[
      <table>
        <tr><td><b>Title:</b> Tropical Cyclone Best Track for SH072024</td></tr>
      </table>
    ]]></description>

    <!-- =====  Styles (ids must be unique)  ===== -->
	<Style id="pt"> 
		<IconStyle> 
			<scale>1.0</scale> 
			<Icon> 
				<href>ex_nhemi.png</href> 
			</Icon> 
             <hotSpot x="15" y="17" xunits="pixels" yunits="pixels"/>
		</IconStyle> 
		<LabelStyle> 
			<scale>1.0</scale> 
		</LabelStyle> 
	</Style>
	<Style id="cat5"> 
		<IconStyle> 
			<scale>1.0</scale> 
			<Icon> 
				<href>cat5_nhemi.png</href> 
			</Icon> 
             <hotSpot x="15" y="17" xunits="pixels" yunits="pixels"/>
		</IconStyle> 
		<LabelStyle> 
			<scale>1.0</scale> 
		</LabelStyle> 
	</Style>
	<Style id="db"> 
		<IconStyle> 
			<scale>1.0</scale> 
			<Icon> 
				<href>ex_nhemi.png</href> 
			</Icon> 
             <hotSpot x="15" y="17" xunits="pixels" yunits="pixels"/>
		</IconStyle> 
		<LabelStyle> 
			<scale>1.0</scale> 
		</LabelStyle> 
	</Style>
	<Style id="cat3"> 
		<IconStyle> 
			<scale>1.0</scale> 
			<Icon> 
				<href>cat3_nhemi.png</href> 
			</Icon> 
             <hotSpot x="15" y="17" xunits="pixels" yunits="pixels"/>
		</IconStyle> 
		<LabelStyle> 
			<scale>1.0</scale> 
		</LabelStyle> 
	</Style>
	<Style id="ss"> 
		<IconStyle> 
			<scale>1.0</scale> 
			<Icon> 
				<href>ts_nhemi.png</href> 
			</Icon> 
             <hotSpot x="15" y="17" xunits="pixels" yunits="pixels"/>
		</IconStyle> 
		<LabelStyle> 
			<scale>1.0</scale> 
		</LabelStyle> 
	</Style>
	<Style id="lo"> 
		<IconStyle> 
			<scale>1.0</scale> 
			<Icon> 
				<href>ex_nhemi.png</href> 
			</Icon> 
             <hotSpot x="15" y="17" xunits="pixels" yunits="pixels"/>
		</IconStyle> 
		<LabelStyle> 
			<scale>1.0</scale> 
		</LabelStyle> 
	</Style>
	<Style id="cat4"> 
		<IconStyle> 
			<scale>1.0</scale> 
			<Icon> 
				<href>cat4_nhemi.png</href> 
			</Icon> 
             <hotSpot x="15" y="17" xunits="pixels" yunits="pixels"/>
		</IconStyle> 
		<LabelStyle> 
			<scale>1.0</scale> 
		</LabelStyle> 
	</Style>
	<Style id="cat2"> 
		<IconStyle> 
			<scale>1.0</scale> 
			<Icon> 
				<href>cat2_nhemi.png</href> 
			</Icon> 
             <hotSpot x="15" y="17" xunits="pixels" yunits="pixels"/>
		</IconStyle> 
		<LabelStyle> 
			<scale>1.0</scale> 
		</LabelStyle> 
	</Style>
	<Style id="ts"> 
		<IconStyle> 
			<scale>1.0</scale> 
			<Icon> 
				<href>ts_nhemi.png</href> 
			</Icon> 
             <hotSpot x="15" y="17" xunits="pixels" yunits="pixels"/>
		</IconStyle> 
		<LabelStyle> 
			<scale>1.0</scale> 
		</LabelStyle> 
	</Style>
	<Style id="cat1"> 
		<IconStyle> 
			<scale>1.0</scale> 
			<Icon> 
				<href>cat1_nhemi.png</href> 
			</Icon> 
             <hotSpot x="15" y="17" xunits="pixels" yunits="pixels"/>
		</IconStyle> 
		<LabelStyle> 
			<scale>1.0</scale> 
		</LabelStyle> 
	</Style>
	<Style id="ex"> 
		<IconStyle> 
			<scale>1.0</scale> 
			<Icon> 
				<href>ex_nhemi.png</href> 
			</Icon> 
             <hotSpot x="15" y="17" xunits="pixels" yunits="pixels"/>
		</IconStyle> 
		<LabelStyle> 
			<scale>1.0</scale> 
		</LabelStyle> 
	</Style>
	<Style id="tc"> 
		<IconStyle> 
			<scale>1.0</scale> 
			<Icon> 
				<href>ex_nhemi.png</href> 
			</Icon> 
             <hotSpot x="15" y="17" xunits="pixels" yunits="pixels"/>
		</IconStyle> 
		<LabelStyle> 
			<scale>1.0</scale> 
		</LabelStyle> 
	</Style>
	<Style id="wv"> 
		<IconStyle> 
			<scale>1.0</scale> 
			<Icon> 
				<href>ex_nhemi.png</href> 
			</Icon> 
             <hotSpot x="15" y="17" xunits="pixels" yunits="pixels"/>
		</IconStyle> 
		<LabelStyle> 
			<scale>1.0</scale> 
		</LabelStyle> 
	</Style>
	<Style id="td"> 
		<IconStyle> 
			<scale>1.0</scale> 
			<Icon> 
				<href>td_nhemi.png</href> 
			</Icon> 
             <hotSpot x="15" y="17" xunits="pixels" yunits="pixels"/>
		</IconStyle> 
		<LabelStyle> 
			<scale>1.0</scale> 
		</LabelStyle> 
	</Style>
	<Style id="sd"> 
		<IconStyle> 
			<scale>1.0</scale> 
			<Icon> 
				<href>ex_nhemi.png</href> 
			</Icon> 
             <hotSpot x="15" y="17" xunits="pixels" yunits="pixels"/>
		</IconStyle> 
		<LabelStyle> 
			<scale>1.0</scale> 
		</LabelStyle> 
	</Style>

    <Placemark>
      <name>0000 UTC JAN 18</name>
      <styleUrl>#db</styleUrl>
      <description><![CDATA[
        <table>
          <tr><td>DB KIRRILY (SH072024)</td></tr>
          <tr><td><hr></td></tr>
          <tr><td>0000 UTC JAN 18, 2024</td></tr>
          <tr><td>Storm Location:</td></tr>
          <tr><td><b>14.5 S, 154.5 E</b></td></tr>
          <tr><td>Min Sea Level Pressure:</td></tr>
          <tr><td>1004 mb / 29.65 in Hg</td></tr>
          <tr><td>Maximum Intensity:</td></tr>
          <tr><td>20 kt / 23 mph / 37 kph</td></tr>
        </table>
      ]]></description>
      <Point><coordinates>154.5,-14.5</coordinates></Point>
    </Placemark>
    <Placemark>
      <name>0600 UTC JAN 18</name>
      <styleUrl>#db</styleUrl>
      <description><![CDATA[
        <table>
          <tr><td>DB KIRRILY (SH072024)</td></tr>
          <tr><td><hr></td></tr>
          <tr><td>0600 UTC JAN 18, 2024</td></tr>
          <tr><td>Storm Location:</td></tr>
          <tr><td><b>14.4 S, 154.9 E</b></td></tr>
          <tr><td>Min Sea Level Pressure:</td></tr>
          <tr><td>1001 mb / 29.56 in Hg</td></tr>
          <tr><td>Maximum Intensity:</td></tr>
          <tr><td>20 kt / 23 mph / 37 kph</td></tr>
        </table>
      ]]></description>
      <Point><coordinates>154.9,-14.4</coordinates></Point>
    </Placemark>
    <Placemark>
      <name>1200 UTC JAN 18</name>
      <styleUrl>#db</styleUrl>
      <description><![CDATA[
        <table>
          <tr><td>DB KIRRILY (SH072024)</td></tr>
          <tr><td><hr></td></tr>
          <tr><td>1200 UTC JAN 18, 2024</td></tr>
          <tr><td>Storm Location:</td></tr>
          <tr><td><b>14.2 S, 155.4 E</b></td></tr>
          <tr><td>Min Sea Level Pressure:</td></tr>
          <tr><td>998 mb / 29.47 in Hg</td></tr>
          <tr><td>Maximum Intensity:</td></tr>
          <tr><td>20 kt / 23 mph / 37 kph</td></tr>
        </table>
      ]]></description>
      <Point><coordinates>155.4,-14.2</coordinates></Point>
    </Placemark>
    <Placemark>
      <name>1800 UTC JAN 18</name>
      <styleUrl>#db</styleUrl>
      <description><![CDATA[
        <table>
          <tr><td>DB KIRRILY (SH072024)</td></tr>
          <tr><td><hr></td></tr>
          <tr><td>1800 UTC JAN 18, 2024</td></tr>
          <tr><td>Storm Location:</td></tr>
          <tr><td><b>13.9 S, 156.0 E</b></td></tr>
          <tr><td>Min Sea Level Pressure:</td></tr>
          <tr><td>996 mb / 29.41 in Hg</td></tr>
          <tr><td>Maximum Intensity:</td></tr>
          <tr><td>20 kt / 23 mph / 37 kph</td></tr>
        </table>
      ]]></description>
      <Point><coordinates>156,-13.9</coordinates></Point>
    </Placemark>
    <Placemark>
      <name>0000 UTC JAN 19</name>
      <styleUrl>#db</styleUrl>
      <description><![CDATA[
        <table>
          <tr><td>DB KIRRILY (SH072024)</td></tr>
          <tr><td><hr></td></tr>
          <tr><td>0000 UTC JAN 19, 2024</td></tr>
          <tr><td>Storm Location:</td></tr>
          <tr><td><b>13.8 S, 156.1 E</b></td></tr>
          <tr><td>Min Sea Level Pressure:</td></tr>
          <tr><td>993 mb / 29.32 in Hg</td></tr>
          <tr><td>Maximum Intensity:</td></tr>
          <tr><td>20 kt / 23 mph / 37 kph</td></tr>
        </table>
      ]]></description>
      <Point><coordinates>156.1,-13.8</coordinates></Point>
    </Placemark>
    <Placemark>
      <name>0600 UTC JAN 19</name>
      <styleUrl>#td</styleUrl>
      <description><![CDATA[
        <table>
          <tr><td>TD KIRRILY (SH072024)</td></tr>
          <tr><td><hr></td></tr>
          <tr><td>0600 UTC JAN 19, 2024</td></tr>
          <tr><td>Storm Location:</td></tr>
          <tr><td><b>13.8 S, 156.2 E</b></td></tr>
          <tr><td>Min Sea Level Pressure:</td></tr>
          <tr><td>990 mb / 29.23 in Hg</td></tr>
          <tr><td>Maximum Intensity:</td></tr>
          <tr><td>25 kt / 29 mph / 46 kph</td></tr>
        </table>
      ]]></description>
      <Point><coordinates>156.2,-13.8</coordinates></Point>
    </Placemark>
    <Placemark>
      <name>1200 UTC JAN 19</name>
      <styleUrl>#td</styleUrl>
      <description><![CDATA[
        <table>
          <tr><td>TD KIRRILY (SH072024)</td></tr>
          <tr><td><hr></td></tr>
          <tr><td>1200 UTC JAN 19, 2024</td></tr>
          <tr><td>Storm Location:</td></tr>
          <tr><td><b>13.8 S, 156.3 E</b></td></tr>
          <tr><td>Min Sea Level Pressure:</td></tr>
          <tr><td>988 mb / 29.18 in Hg</td></tr>
          <tr><td>Maximum Intensity:</td></tr>
          <tr><td>30 kt / 35 mph / 56 kph</td></tr>
        </table>
      ]]></description>
      <Point><coordinates>156.3,-13.8</coordinates></Point>
    </Placemark>
    <Placemark>
      <name>1800 UTC JAN 19</name>
      <styleUrl>#td</styleUrl>
      <description><![CDATA[
        <table>
          <tr><td>TD KIRRILY (SH072024)</td></tr>
          <tr><td><hr></td></tr>
          <tr><td>1800 UTC JAN 19, 2024</td></tr>
          <tr><td>Storm Location:</td></tr>
          <tr><td><b>13.9 S, 156.4 E</b></td></tr>
          <tr><td>Min Sea Level Pressure:</td></tr>
          <tr><td>990 mb / 29.23 in Hg</td></tr>
          <tr><td>Maximum Intensity:</td></tr>
          <tr><td>25 kt / 29 mph / 46 kph</td></tr>
        </table>
      ]]></description>
      <Point><coordinates>156.4,-13.9</coordinates></Point>
    </Placemark>
    <Placemark>
      <name>0000 UTC JAN 20</name>
      <styleUrl>#td</styleUrl>
      <description><![CDATA[
        <table>
          <tr><td>TD KIRRILY (SH072024)</td></tr>
          <tr><td><hr></td></tr>
          <tr><td>0000 UTC JAN 20, 2024</td></tr>
          <tr><td>Storm Location:</td></tr>
          <tr><td><b>14.4 S, 156.1 E</b></td></tr>
          <tr><td>Min Sea Level Pressure:</td></tr>
          <tr><td>991 mb / 29.26 in Hg</td></tr>
          <tr><td>Maximum Intensity:</td></tr>
          <tr><td>25 kt / 29 mph / 46 kph</td></tr>
        </table>
      ]]></description>
      <Point><coordinates>156.1,-14.4</coordinates></Point>
    </Placemark>
    <Placemark>
      <name>0600 UTC JAN 20</name>
      <styleUrl>#td</styleUrl>
      <description><![CDATA[
        <table>
          <tr><td>TD KIRRILY (SH072024)</td></tr>
          <tr><td><hr></td></tr>
          <tr><td>0600 UTC JAN 20, 2024</td></tr>
          <tr><td>Storm Location:</td></tr>
          <tr><td><b>14.8 S, 155.7 E</b></td></tr>
          <tr><td>Min Sea Level Pressure:</td></tr>
          <tr><td>992 mb / 29.29 in Hg</td></tr>
          <tr><td>Maximum Intensity:</td></tr>
          <tr><td>25 kt / 29 mph / 46 kph</td></tr>
        </table>
      ]]></description>
      <Point><coordinates>155.7,-14.8</coordinates></Point>
    </Placemark>
    <Placemark>
      <name>1200 UTC JAN 20</name>
      <styleUrl>#td</styleUrl>
      <description><![CDATA[
        <table>
          <tr><td>TD KIRRILY (SH072024)</td></tr>
          <tr><td><hr></td></tr>
          <tr><td>1200 UTC JAN 20, 2024</td></tr>
          <tr><td>Storm Location:</td></tr>
          <tr><td><b>15.2 S, 154.8 E</b></td></tr>
          <tr><td>Min Sea Level Pressure:</td></tr>
          <tr><td>994 mb / 29.35 in Hg</td></tr>
          <tr><td>Maximum Intensity:</td></tr>
          <tr><td>25 kt / 29 mph / 46 kph</td></tr>
        </table>
      ]]></description>
      <Point><coordinates>154.8,-15.2</coordinates></Point>
    </Placemark>
    <Placemark>
      <name>1800 UTC JAN 20</name>
      <styleUrl>#td</styleUrl>
      <description><![CDATA[
        <table>
          <tr><td>TD KIRRILY (SH072024)</td></tr>
          <tr><td><hr></td></tr>
          <tr><td>1800 UTC JAN 20, 2024</td></tr>
          <tr><td>Storm Location:</td></tr>
          <tr><td><b>15.2 S, 154.6 E</b></td></tr>
          <tr><td>Min Sea Level Pressure:</td></tr>
          <tr><td>995 mb / 29.38 in Hg</td></tr>
          <tr><td>Maximum Intensity:</td></tr>
          <tr><td>25 kt / 29 mph / 46 kph</td></tr>
        </table>
      ]]></description>
      <Point><coordinates>154.6,-15.2</coordinates></Point>
    </Placemark>
    <Placemark>
      <name>0000 UTC JAN 21</name>
      <styleUrl>#td</styleUrl>
      <description><![CDATA[
        <table>
          <tr><td>TD KIRRILY (SH072024)</td></tr>
          <tr><td><hr></td></tr>
          <tr><td>0000 UTC JAN 21, 2024</td></tr>
          <tr><td>Storm Location:</td></tr>
          <tr><td><b>15.2 S, 154.4 E</b></td></tr>
          <tr><td>Min Sea Level Pressure:</td></tr>
          <tr><td>995 mb / 29.38 in Hg</td></tr>
          <tr><td>Maximum Intensity:</td></tr>
          <tr><td>25 kt / 29 mph / 46 kph</td></tr>
        </table>
      ]]></description>
      <Point><coordinates>154.4,-15.2</coordinates></Point>
    </Placemark>
    <Placemark>
      <name>0600 UTC JAN 21</name>
      <styleUrl>#td</styleUrl>
      <description><![CDATA[
        <table>
          <tr><td>TD KIRRILY (SH072024)</td></tr>
          <tr><td><hr></td></tr>
          <tr><td>0600 UTC JAN 21, 2024</td></tr>
          <tr><td>Storm Location:</td></tr>
          <tr><td><b>15.3 S, 154.2 E</b></td></tr>
          <tr><td>Min Sea Level Pressure:</td></tr>
          <tr><td>995 mb / 29.38 in Hg</td></tr>
          <tr><td>Maximum Intensity:</td></tr>
          <tr><td>25 kt / 29 mph / 46 kph</td></tr>
        </table>
      ]]></description>
      <Point><coordinates>154.2,-15.3</coordinates></Point>
    </Placemark>
    <Placemark>
      <name>1200 UTC JAN 21</name>
      <styleUrl>#td</styleUrl>
      <description><![CDATA[
        <table>
          <tr><td>TD KIRRILY (SH072024)</td></tr>
          <tr><td><hr></td></tr>
          <tr><td>1200 UTC JAN 21, 2024</td></tr>
          <tr><td>Storm Location:</td></tr>
          <tr><td><b>15.4 S, 154.0 E</b></td></tr>
          <tr><td>Min Sea Level Pressure:</td></tr>
          <tr><td>995 mb / 29.38 in Hg</td></tr>
          <tr><td>Maximum Intensity:</td></tr>
          <tr><td>25 kt / 29 mph / 46 kph</td></tr>
        </table>
      ]]></description>
      <Point><coordinates>154,-15.4</coordinates></Point>
    </Placemark>
    <Placemark>
      <name>1800 UTC JAN 21</name>
      <styleUrl>#td</styleUrl>
      <description><![CDATA[
        <table>
          <tr><td>TD KIRRILY (SH072024)</td></tr>
          <tr><td><hr></td></tr>
          <tr><td>1800 UTC JAN 21, 2024</td></tr>
          <tr><td>Storm Location:</td></tr>
          <tr><td><b>15.4 S, 153.6 E</b></td></tr>
          <tr><td>Min Sea Level Pressure:</td></tr>
          <tr><td>994 mb / 29.35 in Hg</td></tr>
          <tr><td>Maximum Intensity:</td></tr>
          <tr><td>25 kt / 29 mph / 46 kph</td></tr>
        </table>
      ]]></description>
      <Point><coordinates>153.6,-15.4</coordinates></Point>
    </Placemark>
    <Placemark>
      <name>0000 UTC JAN 22</name>
      <styleUrl>#td</styleUrl>
      <description><![CDATA[
        <table>
          <tr><td>TD KIRRILY (SH072024)</td></tr>
          <tr><td><hr></td></tr>
          <tr><td>0000 UTC JAN 22, 2024</td></tr>
          <tr><td>Storm Location:</td></tr>
          <tr><td><b>15.5 S, 153.2 E</b></td></tr>
          <tr><td>Min Sea Level Pressure:</td></tr>
          <tr><td>994 mb / 29.35 in Hg</td></tr>
          <tr><td>Maximum Intensity:</td></tr>
          <tr><td>25 kt / 29 mph / 46 kph</td></tr>
        </table>
      ]]></description>
      <Point><coordinates>153.2,-15.5</coordinates></Point>
    </Placemark>
    <Placemark>
      <name>0600 UTC JAN 22</name>
      <styleUrl>#td</styleUrl>
      <description><![CDATA[
        <table>
          <tr><td>TD KIRRILY (SH072024)</td></tr>
          <tr><td><hr></td></tr>
          <tr><td>0600 UTC JAN 22, 2024</td></tr>
          <tr><td>Storm Location:</td></tr>
          <tr><td><b>15.9 S, 153.2 E</b></td></tr>
          <tr><td>Min Sea Level Pressure:</td></tr>
          <tr><td>994 mb / 29.35 in Hg</td></tr>
          <tr><td>Maximum Intensity:</td></tr>
          <tr><td>25 kt / 29 mph / 46 kph</td></tr>
        </table>
      ]]></description>
      <Point><coordinates>153.2,-15.9</coordinates></Point>
    </Placemark>
    <Placemark>
      <name>1200 UTC JAN 22</name>
      <styleUrl>#td</styleUrl>
      <description><![CDATA[
        <table>
          <tr><td>TD KIRRILY (SH072024)</td></tr>
          <tr><td><hr></td></tr>
          <tr><td>1200 UTC JAN 22, 2024</td></tr>
          <tr><td>Storm Location:</td></tr>
          <tr><td><b>16.7 S, 154.1 E</b></td></tr>
          <tr><td>Min Sea Level Pressure:</td></tr>
          <tr><td>992 mb / 29.29 in Hg</td></tr>
          <tr><td>Maximum Intensity:</td></tr>
          <tr><td>30 kt / 35 mph / 56 kph</td></tr>
        </table>
      ]]></description>
      <Point><coordinates>154.1,-16.7</coordinates></Point>
    </Placemark>
    <Placemark>
      <name>1800 UTC JAN 22</name>
      <styleUrl>#td</styleUrl>
      <description><![CDATA[
        <table>
          <tr><td>TD KIRRILY (SH072024)</td></tr>
          <tr><td><hr></td></tr>
          <tr><td>1800 UTC JAN 22, 2024</td></tr>
          <tr><td>Storm Location:</td></tr>
          <tr><td><b>16.3 S, 154.0 E</b></td></tr>
          <tr><td>Min Sea Level Pressure:</td></tr>
          <tr><td>992 mb / 29.29 in Hg</td></tr>
          <tr><td>Maximum Intensity:</td></tr>
          <tr><td>30 kt / 35 mph / 56 kph</td></tr>
        </table>
      ]]></description>
      <Point><coordinates>154,-16.3</coordinates></Point>
    </Placemark>
    <Placemark>
      <name>0000 UTC JAN 23</name>
      <styleUrl>#ts</styleUrl>
      <description><![CDATA[
        <table>
          <tr><td>TS KIRRILY (SH072024)</td></tr>
          <tr><td><hr></td></tr>
          <tr><td>0000 UTC JAN 23, 2024</td></tr>
          <tr><td>Storm Location:</td></tr>
          <tr><td><b>16.4 S, 153.5 E</b></td></tr>
          <tr><td>Min Sea Level Pressure:</td></tr>
          <tr><td>989 mb / 29.21 in Hg</td></tr>
          <tr><td>Maximum Intensity:</td></tr>
          <tr><td>35 kt / 40 mph / 65 kph</td></tr>
        </table>
      ]]></description>
      <Point><coordinates>153.5,-16.4</coordinates></Point>
    </Placemark>
    <Placemark>
      <name>0600 UTC JAN 23</name>
      <styleUrl>#ts</styleUrl>
      <description><![CDATA[
        <table>
          <tr><td>TS KIRRILY (SH072024)</td></tr>
          <tr><td><hr></td></tr>
          <tr><td>0600 UTC JAN 23, 2024</td></tr>
          <tr><td>Storm Location:</td></tr>
          <tr><td><b>16.8 S, 153.7 E</b></td></tr>
          <tr><td>Min Sea Level Pressure:</td></tr>
          <tr><td>989 mb / 29.21 in Hg</td></tr>
          <tr><td>Maximum Intensity:</td></tr>
          <tr><td>35 kt / 40 mph / 65 kph</td></tr>
        </table>
      ]]></description>
      <Point><coordinates>153.7,-16.8</coordinates></Point>
    </Placemark>
    <Placemark>
      <name>1200 UTC JAN 23</name>
      <styleUrl>#ts</styleUrl>
      <description><![CDATA[
        <table>
          <tr><td>TS KIRRILY (SH072024)</td></tr>
          <tr><td><hr></td></tr>
          <tr><td>1200 UTC JAN 23, 2024</td></tr>
          <tr><td>Storm Location:</td></tr>
          <tr><td><b>17.2 S, 153.7 E</b></td></tr>
          <tr><td>Min Sea Level Pressure:</td></tr>
          <tr><td>989 mb / 29.21 in Hg</td></tr>
          <tr><td>Maximum Intensity:</td></tr>
          <tr><td>35 kt / 40 mph / 65 kph</td></tr>
        </table>
      ]]></description>
      <Point><coordinates>153.7,-17.2</coordinates></Point>
    </Placemark>
    <Placemark>
      <name>1800 UTC JAN 23</name>
      <styleUrl>#ts</styleUrl>
      <description><![CDATA[
        <table>
          <tr><td>TS KIRRILY (SH072024)</td></tr>
          <tr><td><hr></td></tr>
          <tr><td>1800 UTC JAN 23, 2024</td></tr>
          <tr><td>Storm Location:</td></tr>
          <tr><td><b>17.4 S, 153.1 E</b></td></tr>
          <tr><td>Min Sea Level Pressure:</td></tr>
          <tr><td>989 mb / 29.21 in Hg</td></tr>
          <tr><td>Maximum Intensity:</td></tr>
          <tr><td>35 kt / 40 mph / 65 kph</td></tr>
        </table>
      ]]></description>
      <Point><coordinates>153.1,-17.4</coordinates></Point>
    </Placemark>
    <Placemark>
      <name>0000 UTC JAN 24</name>
      <styleUrl>#ts</styleUrl>
      <description><![CDATA[
        <table>
          <tr><td>TS KIRRILY (SH072024)</td></tr>
          <tr><td><hr></td></tr>
          <tr><td>0000 UTC JAN 24, 2024</td></tr>
          <tr><td>Storm Location:</td></tr>
          <tr><td><b>17.5 S, 152.4 E</b></td></tr>
          <tr><td>Min Sea Level Pressure:</td></tr>
          <tr><td>989 mb / 29.21 in Hg</td></tr>
          <tr><td>Maximum Intensity:</td></tr>
          <tr><td>35 kt / 40 mph / 65 kph</td></tr>
        </table>
      ]]></description>
      <Point><coordinates>152.4,-17.5</coordinates></Point>
    </Placemark>
    <Placemark>
      <name>0600 UTC JAN 24</name>
      <styleUrl>#ts</styleUrl>
      <description><![CDATA[
        <table>
          <tr><td>TS KIRRILY (SH072024)</td></tr>
          <tr><td><hr></td></tr>
          <tr><td>0600 UTC JAN 24, 2024</td></tr>
          <tr><td>Storm Location:</td></tr>
          <tr><td><b>17.5 S, 151.7 E</b></td></tr>
          <tr><td>Min Sea Level Pressure:</td></tr>
          <tr><td>987 mb / 29.15 in Hg</td></tr>
          <tr><td>Maximum Intensity:</td></tr>
          <tr><td>40 kt / 46 mph / 74 kph</td></tr>
        </table>
      ]]></description>
      <Point><coordinates>151.7,-17.5</coordinates></Point>
    </Placemark>
    <Placemark>
      <name>1200 UTC JAN 24</name>
      <styleUrl>#ts</styleUrl>
      <description><![CDATA[
        <table>
          <tr><td>TS KIRRILY (SH072024)</td></tr>
          <tr><td><hr></td></tr>
          <tr><td>1200 UTC JAN 24, 2024</td></tr>
          <tr><td>Storm Location:</td></tr>
          <tr><td><b>17.6 S, 151.1 E</b></td></tr>
          <tr><td>Min Sea Level Pressure:</td></tr>
          <tr><td>986 mb / 29.12 in Hg</td></tr>
          <tr><td>Maximum Intensity:</td></tr>
          <tr><td>45 kt / 52 mph / 83 kph</td></tr>
        </table>
      ]]></description>
      <Point><coordinates>151.1,-17.6</coordinates></Point>
    </Placemark>
    <Placemark>
      <name>1800 UTC JAN 24</name>
      <styleUrl>#ts</styleUrl>
      <description><![CDATA[
        <table>
          <tr><td>TS KIRRILY (SH072024)</td></tr>
          <tr><td><hr></td></tr>
          <tr><td>1800 UTC JAN 24, 2024</td></tr>
          <tr><td>Storm Location:</td></tr>
          <tr><td><b>17.9 S, 150.1 E</b></td></tr>
          <tr><td>Min Sea Level Pressure:</td></tr>
          <tr><td>986 mb / 29.12 in Hg</td></tr>
          <tr><td>Maximum Intensity:</td></tr>
          <tr><td>50 kt / 58 mph / 93 kph</td></tr>
        </table>
      ]]></description>
      <Point><coordinates>150.1,-17.9</coordinates></Point>
    </Placemark>
    <Placemark>
      <name>0000 UTC JAN 25</name>
      <styleUrl>#ts</styleUrl>
      <description><![CDATA[
        <table>
          <tr><td>TS KIRRILY (SH072024)</td></tr>
          <tr><td><hr></td></tr>
          <tr><td>0000 UTC JAN 25, 2024</td></tr>
          <tr><td>Storm Location:</td></tr>
          <tr><td><b>18.1 S, 149.2 E</b></td></tr>
          <tr><td>Min Sea Level Pressure:</td></tr>
          <tr><td>986 mb / 29.12 in Hg</td></tr>
          <tr><td>Maximum Intensity:</td></tr>
          <tr><td>50 kt / 58 mph / 93 kph</td></tr>
        </table>
      ]]></description>
      <Point><coordinates>149.2,-18.1</coordinates></Point>
    </Placemark>
    <Placemark>
      <name>0600 UTC JAN 25</name>
      <styleUrl>#ts</styleUrl>
      <description><![CDATA[
        <table>
          <tr><td>TS KIRRILY (SH072024)</td></tr>
          <tr><td><hr></td></tr>
          <tr><td>0600 UTC JAN 25, 2024</td></tr>
          <tr><td>Storm Location:</td></tr>
          <tr><td><b>18.6 S, 147.7 E</b></td></tr>
          <tr><td>Min Sea Level Pressure:</td></tr>
          <tr><td>985 mb / 29.09 in Hg</td></tr>
          <tr><td>Maximum Intensity:</td></tr>
          <tr><td>55 kt / 63 mph / 102 kph</td></tr>
        </table>
      ]]></description>
      <Point><coordinates>147.7,-18.6</coordinates></Point>
    </Placemark>
    <Placemark>
      <name>1200 UTC JAN 25</name>
      <styleUrl>#ts</styleUrl>
      <description><![CDATA[
        <table>
          <tr><td>TS KIRRILY (SH072024)</td></tr>
          <tr><td><hr></td></tr>
          <tr><td>1200 UTC JAN 25, 2024</td></tr>
          <tr><td>Storm Location:</td></tr>
          <tr><td><b>19.2 S, 146.4 E</b></td></tr>
          <tr><td>Min Sea Level Pressure:</td></tr>
          <tr><td>988 mb / 29.18 in Hg</td></tr>
          <tr><td>Maximum Intensity:</td></tr>
          <tr><td>50 kt / 58 mph / 93 kph</td></tr>
        </table>
      ]]></description>
      <Point><coordinates>146.4,-19.2</coordinates></Point>
    </Placemark>
    <Placemark>
      <name>1800 UTC JAN 25</name>
      <styleUrl>#ts</styleUrl>
      <description><![CDATA[
        <table>
          <tr><td>TS KIRRILY (SH072024)</td></tr>
          <tr><td><hr></td></tr>
          <tr><td>1800 UTC JAN 25, 2024</td></tr>
          <tr><td>Storm Location:</td></tr>
          <tr><td><b>19.7 S, 145.1 E</b></td></tr>
          <tr><td>Min Sea Level Pressure:</td></tr>
          <tr><td>989 mb / 29.21 in Hg</td></tr>
          <tr><td>Maximum Intensity:</td></tr>
          <tr><td>35 kt / 40 mph / 65 kph</td></tr>
        </table>
      ]]></description>
      <Point><coordinates>145.1,-19.7</coordinates></Point>
    </Placemark>
    <Placemark>
      <name>0000 UTC JAN 26</name>
      <styleUrl>#td</styleUrl>
      <description><![CDATA[
        <table>
          <tr><td>TD KIRRILY (SH072024)</td></tr>
          <tr><td><hr></td></tr>
          <tr><td>0000 UTC JAN 26, 2024</td></tr>
          <tr><td>Storm Location:</td></tr>
          <tr><td><b>20.4 S, 144.6 E</b></td></tr>
          <tr><td>Min Sea Level Pressure:</td></tr>
          <tr><td>990 mb / 29.23 in Hg</td></tr>
          <tr><td>Maximum Intensity:</td></tr>
          <tr><td>25 kt / 29 mph / 46 kph</td></tr>
        </table>
      ]]></description>
      <Point><coordinates>144.6,-20.4</coordinates></Point>
    </Placemark>
    <Placemark>
      <name>0600 UTC JAN 26</name>
      <styleUrl>#td</styleUrl>
      <description><![CDATA[
        <table>
          <tr><td>TD KIRRILY (SH072024)</td></tr>
          <tr><td><hr></td></tr>
          <tr><td>0600 UTC JAN 26, 2024</td></tr>
          <tr><td>Storm Location:</td></tr>
          <tr><td><b>21.2 S, 144.3 E</b></td></tr>
          <tr><td>Min Sea Level Pressure:</td></tr>
          <tr><td>990 mb / 29.23 in Hg</td></tr>
          <tr><td>Maximum Intensity:</td></tr>
          <tr><td>25 kt / 29 mph / 46 kph</td></tr>
        </table>
      ]]></description>
      <Point><coordinates>144.3,-21.2</coordinates></Point>
    </Placemark>
    <Placemark>
      <name>1200 UTC JAN 26</name>
      <styleUrl>#td</styleUrl>
      <description><![CDATA[
        <table>
          <tr><td>TD KIRRILY (SH072024)</td></tr>
          <tr><td><hr></td></tr>
          <tr><td>1200 UTC JAN 26, 2024</td></tr>
          <tr><td>Storm Location:</td></tr>
          <tr><td><b>22.4 S, 143.5 E</b></td></tr>
          <tr><td>Min Sea Level Pressure:</td></tr>
          <tr><td>990 mb / 29.23 in Hg</td></tr>
          <tr><td>Maximum Intensity:</td></tr>
          <tr><td>25 kt / 29 mph / 46 kph</td></tr>
        </table>
      ]]></description>
      <Point><coordinates>143.5,-22.4</coordinates></Point>
    </Placemark>
    <Placemark>
      <name>1800 UTC JAN 26</name>
      <styleUrl>#td</styleUrl>
      <description><![CDATA[
        <table>
          <tr><td>TD KIRRILY (SH072024)</td></tr>
          <tr><td><hr></td></tr>
          <tr><td>1800 UTC JAN 26, 2024</td></tr>
          <tr><td>Storm Location:</td></tr>
          <tr><td><b>22.4 S, 142.0 E</b></td></tr>
          <tr><td>Min Sea Level Pressure:</td></tr>
          <tr><td>989 mb / 29.21 in Hg</td></tr>
          <tr><td>Maximum Intensity:</td></tr>
          <tr><td>30 kt / 35 mph / 56 kph</td></tr>
        </table>
      ]]></description>
      <Point><coordinates>142,-22.4</coordinates></Point>
    </Placemark>
    <Placemark>
      <name>0000 UTC JAN 27</name>
      <styleUrl>#td</styleUrl>
      <description><![CDATA[
        <table>
          <tr><td>TD KIRRILY (SH072024)</td></tr>
          <tr><td><hr></td></tr>
          <tr><td>0000 UTC JAN 27, 2024</td></tr>
          <tr><td>Storm Location:</td></tr>
          <tr><td><b>22.3 S, 141.9 E</b></td></tr>
          <tr><td>Min Sea Level Pressure:</td></tr>
          <tr><td>989 mb / 29.21 in Hg</td></tr>
          <tr><td>Maximum Intensity:</td></tr>
          <tr><td>30 kt / 35 mph / 56 kph</td></tr>
        </table>
      ]]></description>
      <Point><coordinates>141.9,-22.3</coordinates></Point>
    </Placemark>
    <Placemark>
      <name>0600 UTC JAN 27</name>
      <styleUrl>#td</styleUrl>
      <description><![CDATA[
        <table>
          <tr><td>TD KIRRILY (SH072024)</td></tr>
          <tr><td><hr></td></tr>
          <tr><td>0600 UTC JAN 27, 2024</td></tr>
          <tr><td>Storm Location:</td></tr>
          <tr><td><b>22.0 S, 141.8 E</b></td></tr>
          <tr><td>Min Sea Level Pressure:</td></tr>
          <tr><td>990 mb / 29.23 in Hg</td></tr>
          <tr><td>Maximum Intensity:</td></tr>
          <tr><td>25 kt / 29 mph / 46 kph</td></tr>
        </table>
      ]]></description>
      <Point><coordinates>141.8,-22</coordinates></Point>
    </Placemark>
    <Placemark>
      <name>1200 UTC JAN 27</name>
      <styleUrl>#td</styleUrl>
      <description><![CDATA[
        <table>
          <tr><td>TD KIRRILY (SH072024)</td></tr>
          <tr><td><hr></td></tr>
          <tr><td>1200 UTC JAN 27, 2024</td></tr>
          <tr><td>Storm Location:</td></tr>
          <tr><td><b>21.7 S, 141.9 E</b></td></tr>
          <tr><td>Min Sea Level Pressure:</td></tr>
          <tr><td>990 mb / 29.23 in Hg</td></tr>
          <tr><td>Maximum Intensity:</td></tr>
          <tr><td>25 kt / 29 mph / 46 kph</td></tr>
        </table>
      ]]></description>
      <Point><coordinates>141.9,-21.7</coordinates></Point>
    </Placemark>
    <Placemark>
      <name>1800 UTC JAN 27</name>
      <styleUrl>#db</styleUrl>
      <description><![CDATA[
        <table>
          <tr><td>DB KIRRILY (SH072024)</td></tr>
          <tr><td><hr></td></tr>
          <tr><td>1800 UTC JAN 27, 2024</td></tr>
          <tr><td>Storm Location:</td></tr>
          <tr><td><b>21.4 S, 142.0 E</b></td></tr>
          <tr><td>Min Sea Level Pressure:</td></tr>
          <tr><td>991 mb / 29.26 in Hg</td></tr>
          <tr><td>Maximum Intensity:</td></tr>
          <tr><td>20 kt / 23 mph / 37 kph</td></tr>
        </table>
      ]]></description>
      <Point><coordinates>142,-21.4</coordinates></Point>
    </Placemark>
    <Placemark>
      <name>0000 UTC JAN 28</name>
      <styleUrl>#db</styleUrl>
      <description><![CDATA[
        <table>
          <tr><td>DB KIRRILY (SH072024)</td></tr>
          <tr><td><hr></td></tr>
          <tr><td>0000 UTC JAN 28, 2024</td></tr>
          <tr><td>Storm Location:</td></tr>
          <tr><td><b>21.1 S, 142.3 E</b></td></tr>
          <tr><td>Min Sea Level Pressure:</td></tr>
          <tr><td>991 mb / 29.26 in Hg</td></tr>
          <tr><td>Maximum Intensity:</td></tr>
          <tr><td>20 kt / 23 mph / 37 kph</td></tr>
        </table>
      ]]></description>
      <Point><coordinates>142.3,-21.1</coordinates></Point>
    </Placemark>
    <Placemark>
      <name>0600 UTC JAN 28</name>
      <styleUrl>#db</styleUrl>
      <description><![CDATA[
        <table>
          <tr><td>DB KIRRILY (SH072024)</td></tr>
          <tr><td><hr></td></tr>
          <tr><td>0600 UTC JAN 28, 2024</td></tr>
          <tr><td>Storm Location:</td></tr>
          <tr><td><b>21.5 S, 142.3 E</b></td></tr>
          <tr><td>Min Sea Level Pressure:</td></tr>
          <tr><td>991 mb / 29.26 in Hg</td></tr>
          <tr><td>Maximum Intensity:</td></tr>
          <tr><td>20 kt / 23 mph / 37 kph</td></tr>
        </table>
      ]]></description>
      <Point><coordinates>142.3,-21.5</coordinates></Point>
    </Placemark>
    <Placemark>
      <name>1200 UTC JAN 28</name>
      <styleUrl>#db</styleUrl>
      <description><![CDATA[
        <table>
          <tr><td>DB KIRRILY (SH072024)</td></tr>
          <tr><td><hr></td></tr>
          <tr><td>1200 UTC JAN 28, 2024</td></tr>
          <tr><td>Storm Location:</td></tr>
          <tr><td><b>21.8 S, 141.8 E</b></td></tr>
          <tr><td>Min Sea Level Pressure:</td></tr>
          <tr><td>991 mb / 29.26 in Hg</td></tr>
          <tr><td>Maximum Intensity:</td></tr>
          <tr><td>20 kt / 23 mph / 37 kph</td></tr>
        </table>
      ]]></description>
      <Point><coordinates>141.8,-21.8</coordinates></Point>
    </Placemark>
    <Placemark>
      <name>1800 UTC JAN 28</name>
      <styleUrl>#db</styleUrl>
      <description><![CDATA[
        <table>
          <tr><td>DB KIRRILY (SH072024)</td></tr>
          <tr><td><hr></td></tr>
          <tr><td>1800 UTC JAN 28, 2024</td></tr>
          <tr><td>Storm Location:</td></tr>
          <tr><td><b>22.0 S, 141.8 E</b></td></tr>
          <tr><td>Min Sea Level Pressure:</td></tr>
          <tr><td>991 mb / 29.26 in Hg</td></tr>
          <tr><td>Maximum Intensity:</td></tr>
          <tr><td>20 kt / 23 mph / 37 kph</td></tr>
        </table>
      ]]></description>
      <Point><coordinates>141.8,-22</coordinates></Point>
    </Placemark>
    <Placemark>
      <name>0000 UTC JAN 29</name>
      <styleUrl>#db</styleUrl>
      <description><![CDATA[
        <table>
          <tr><td>DB KIRRILY (SH072024)</td></tr>
          <tr><td><hr></td></tr>
          <tr><td>0000 UTC JAN 29, 2024</td></tr>
          <tr><td>Storm Location:</td></tr>
          <tr><td><b>22.1 S, 141.7 E</b></td></tr>
          <tr><td>Min Sea Level Pressure:</td></tr>
          <tr><td>991 mb / 29.26 in Hg</td></tr>
          <tr><td>Maximum Intensity:</td></tr>
          <tr><td>20 kt / 23 mph / 37 kph</td></tr>
        </table>
      ]]></description>
      <Point><coordinates>141.7,-22.1</coordinates></Point>
    </Placemark>
    <Placemark>
      <name>0600 UTC JAN 29</name>
      <styleUrl>#db</styleUrl>
      <description><![CDATA[
        <table>
          <tr><td>DB KIRRILY (SH072024)</td></tr>
          <tr><td><hr></td></tr>
          <tr><td>0600 UTC JAN 29, 2024</td></tr>
          <tr><td>Storm Location:</td></tr>
          <tr><td><b>22.4 S, 141.5 E</b></td></tr>
          <tr><td>Min Sea Level Pressure:</td></tr>
          <tr><td>991 mb / 29.26 in Hg</td></tr>
          <tr><td>Maximum Intensity:</td></tr>
          <tr><td>20 kt / 23 mph / 37 kph</td></tr>
        </table>
      ]]></description>
      <Point><coordinates>141.5,-22.4</coordinates></Point>
    </Placemark>
    <Placemark>
      <name>1200 UTC JAN 29</name>
      <styleUrl>#db</styleUrl>
      <description><![CDATA[
        <table>
          <tr><td>DB KIRRILY (SH072024)</td></tr>
          <tr><td><hr></td></tr>
          <tr><td>1200 UTC JAN 29, 2024</td></tr>
          <tr><td>Storm Location:</td></tr>
          <tr><td><b>22.0 S, 141.3 E</b></td></tr>
          <tr><td>Min Sea Level Pressure:</td></tr>
          <tr><td>991 mb / 29.26 in Hg</td></tr>
          <tr><td>Maximum Intensity:</td></tr>
          <tr><td>20 kt / 23 mph / 37 kph</td></tr>
        </table>
      ]]></description>
      <Point><coordinates>141.3,-22</coordinates></Point>
    </Placemark>
    <Placemark>
      <name>1800 UTC JAN 29</name>
      <styleUrl>#db</styleUrl>
      <description><![CDATA[
        <table>
          <tr><td>DB KIRRILY (SH072024)</td></tr>
          <tr><td><hr></td></tr>
          <tr><td>1800 UTC JAN 29, 2024</td></tr>
          <tr><td>Storm Location:</td></tr>
          <tr><td><b>21.6 S, 141.1 E</b></td></tr>
          <tr><td>Min Sea Level Pressure:</td></tr>
          <tr><td>991 mb / 29.26 in Hg</td></tr>
          <tr><td>Maximum Intensity:</td></tr>
          <tr><td>20 kt / 23 mph / 37 kph</td></tr>
        </table>
      ]]></description>
      <Point><coordinates>141.1,-21.6</coordinates></Point>
    </Placemark>
    <Placemark>
      <name>0000 UTC JAN 30</name>
      <styleUrl>#db</styleUrl>
      <description><![CDATA[
        <table>
          <tr><td>DB KIRRILY (SH072024)</td></tr>
          <tr><td><hr></td></tr>
          <tr><td>0000 UTC JAN 30, 2024</td></tr>
          <tr><td>Storm Location:</td></tr>
          <tr><td><b>21.1 S, 140.9 E</b></td></tr>
          <tr><td>Min Sea Level Pressure:</td></tr>
          <tr><td>992 mb / 29.29 in Hg</td></tr>
          <tr><td>Maximum Intensity:</td></tr>
          <tr><td>20 kt / 23 mph / 37 kph</td></tr>
        </table>
      ]]></description>
      <Point><coordinates>140.9,-21.1</coordinates></Point>
    </Placemark>
    <Placemark>
      <name>0600 UTC JAN 30</name>
      <styleUrl>#db</styleUrl>
      <description><![CDATA[
        <table>
          <tr><td>DB KIRRILY (SH072024)</td></tr>
          <tr><td><hr></td></tr>
          <tr><td>0600 UTC JAN 30, 2024</td></tr>
          <tr><td>Storm Location:</td></tr>
          <tr><td><b>20.6 S, 140.7 E</b></td></tr>
          <tr><td>Min Sea Level Pressure:</td></tr>
          <tr><td>995 mb / 29.38 in Hg</td></tr>
          <tr><td>Maximum Intensity:</td></tr>
          <tr><td>15 kt / 17 mph / 28 kph</td></tr>
        </table>
      ]]></description>
      <Point><coordinates>140.7,-20.6</coordinates></Point>
    </Placemark>
    <Placemark>
      <name>1200 UTC JAN 30</name>
      <styleUrl>#db</styleUrl>
      <description><![CDATA[
        <table>
          <tr><td>DB KIRRILY (SH072024)</td></tr>
          <tr><td><hr></td></tr>
          <tr><td>1200 UTC JAN 30, 2024</td></tr>
          <tr><td>Storm Location:</td></tr>
          <tr><td><b>20.0 S, 140.5 E</b></td></tr>
          <tr><td>Min Sea Level Pressure:</td></tr>
          <tr><td>995 mb / 29.38 in Hg</td></tr>
          <tr><td>Maximum Intensity:</td></tr>
          <tr><td>15 kt / 17 mph / 28 kph</td></tr>
        </table>
      ]]></description>
      <Point><coordinates>140.5,-20</coordinates></Point>
    </Placemark>
    <Placemark>
      <name>1800 UTC JAN 30</name>
      <styleUrl>#db</styleUrl>
      <description><![CDATA[
        <table>
          <tr><td>DB KIRRILY (SH072024)</td></tr>
          <tr><td><hr></td></tr>
          <tr><td>1800 UTC JAN 30, 2024</td></tr>
          <tr><td>Storm Location:</td></tr>
          <tr><td><b>19.5 S, 140.4 E</b></td></tr>
          <tr><td>Min Sea Level Pressure:</td></tr>
          <tr><td>995 mb / 29.38 in Hg</td></tr>
          <tr><td>Maximum Intensity:</td></tr>
          <tr><td>15 kt / 17 mph / 28 kph</td></tr>
        </table>
      ]]></description>
      <Point><coordinates>140.4,-19.5</coordinates></Point>
    </Placemark>
    <Placemark>
      <name>0000 UTC JAN 31</name>
      <styleUrl>#db</styleUrl>
      <description><![CDATA[
        <table>
          <tr><td>DB KIRRILY (SH072024)</td></tr>
          <tr><td><hr></td></tr>
          <tr><td>0000 UTC JAN 31, 2024</td></tr>
          <tr><td>Storm Location:</td></tr>
          <tr><td><b>18.9 S, 140.3 E</b></td></tr>
          <tr><td>Min Sea Level Pressure:</td></tr>
          <tr><td>995 mb / 29.38 in Hg</td></tr>
          <tr><td>Maximum Intensity:</td></tr>
          <tr><td>15 kt / 17 mph / 28 kph</td></tr>
        </table>
      ]]></description>
      <Point><coordinates>140.3,-18.9</coordinates></Point>
    </Placemark>
    <Placemark>
      <name>0600 UTC JAN 31</name>
      <styleUrl>#db</styleUrl>
      <description><![CDATA[
        <table>
          <tr><td>DB KIRRILY (SH072024)</td></tr>
          <tr><td><hr></td></tr>
          <tr><td>0600 UTC JAN 31, 2024</td></tr>
          <tr><td>Storm Location:</td></tr>
          <tr><td><b>18.4 S, 140.1 E</b></td></tr>
          <tr><td>Min Sea Level Pressure:</td></tr>
          <tr><td>995 mb / 29.38 in Hg</td></tr>
          <tr><td>Maximum Intensity:</td></tr>
          <tr><td>15 kt / 17 mph / 28 kph</td></tr>
        </table>
      ]]></description>
      <Point><coordinates>140.1,-18.4</coordinates></Point>
    </Placemark>
    <Placemark>
      <name>1200 UTC JAN 31</name>
      <styleUrl>#db</styleUrl>
      <description><![CDATA[
        <table>
          <tr><td>DB KIRRILY (SH072024)</td></tr>
          <tr><td><hr></td></tr>
          <tr><td>1200 UTC JAN 31, 2024</td></tr>
          <tr><td>Storm Location:</td></tr>
          <tr><td><b>17.9 S, 139.8 E</b></td></tr>
          <tr><td>Min Sea Level Pressure:</td></tr>
          <tr><td>993 mb / 29.32 in Hg</td></tr>
          <tr><td>Maximum Intensity:</td></tr>
          <tr><td>20 kt / 23 mph / 37 kph</td></tr>
        </table>
      ]]></description>
      <Point><coordinates>139.8,-17.9</coordinates></Point>
    </Placemark>
    <Placemark>
      <name>1800 UTC JAN 31</name>
      <styleUrl>#td</styleUrl>
      <description><![CDATA[
        <table>
          <tr><td>TD KIRRILY (SH072024)</td></tr>
          <tr><td><hr></td></tr>
          <tr><td>1800 UTC JAN 31, 2024</td></tr>
          <tr><td>Storm Location:</td></tr>
          <tr><td><b>17.6 S, 139.7 E</b></td></tr>
          <tr><td>Min Sea Level Pressure:</td></tr>
          <tr><td>992 mb / 29.29 in Hg</td></tr>
          <tr><td>Maximum Intensity:</td></tr>
          <tr><td>25 kt / 29 mph / 46 kph</td></tr>
        </table>
      ]]></description>
      <Point><coordinates>139.7,-17.6</coordinates></Point>
    </Placemark>
    <Placemark>
      <name>0000 UTC FEB 1</name>
      <styleUrl>#td</styleUrl>
      <description><![CDATA[
        <table>
          <tr><td>TD KIRRILY (SH072024)</td></tr>
          <tr><td><hr></td></tr>
          <tr><td>0000 UTC FEB 1, 2024</td></tr>
          <tr><td>Storm Location:</td></tr>
          <tr><td><b>17.3 S, 139.5 E</b></td></tr>
          <tr><td>Min Sea Level Pressure:</td></tr>
          <tr><td>990 mb / 29.23 in Hg</td></tr>
          <tr><td>Maximum Intensity:</td></tr>
          <tr><td>30 kt / 35 mph / 56 kph</td></tr>
        </table>
      ]]></description>
      <Point><coordinates>139.5,-17.3</coordinates></Point>
    </Placemark>
    <Placemark>
      <name>0300 UTC FEB 1</name>
      <styleUrl>#td</styleUrl>
      <description><![CDATA[
        <table>
          <tr><td>TD KIRRILY (SH072024)</td></tr>
          <tr><td><hr></td></tr>
          <tr><td>0300 UTC FEB 1, 2024</td></tr>
          <tr><td>Storm Location:</td></tr>
          <tr><td><b>17.2 S, 139.5 E</b></td></tr>
          <tr><td>Min Sea Level Pressure:</td></tr>
          <tr><td>990 mb / 29.23 in Hg</td></tr>
          <tr><td>Maximum Intensity:</td></tr>
          <tr><td>30 kt / 35 mph / 56 kph</td></tr>
        </table>
      ]]></description>
      <Point><coordinates>139.5,-17.2</coordinates></Point>
    </Placemark>
    <Placemark>
      <name>0600 UTC FEB 1</name>
      <styleUrl>#td</styleUrl>
      <description><![CDATA[
        <table>
          <tr><td>TD KIRRILY (SH072024)</td></tr>
          <tr><td><hr></td></tr>
          <tr><td>0600 UTC FEB 1, 2024</td></tr>
          <tr><td>Storm Location:</td></tr>
          <tr><td><b>17.4 S, 139.7 E</b></td></tr>
          <tr><td>Min Sea Level Pressure:</td></tr>
          <tr><td>990 mb / 29.23 in Hg</td></tr>
          <tr><td>Maximum Intensity:</td></tr>
          <tr><td>30 kt / 35 mph / 56 kph</td></tr>
        </table>
      ]]></description>
      <Point><coordinates>139.7,-17.4</coordinates></Point>
    </Placemark>
    <Placemark>
      <name>1200 UTC FEB 1</name>
      <styleUrl>#ts</styleUrl>
      <description><![CDATA[
        <table>
          <tr><td>TS KIRRILY (SH072024)</td></tr>
          <tr><td><hr></td></tr>
          <tr><td>1200 UTC FEB 1, 2024</td></tr>
          <tr><td>Storm Location:</td></tr>
          <tr><td><b>17.4 S, 139.6 E</b></td></tr>
          <tr><td>Min Sea Level Pressure:</td></tr>
          <tr><td>992 mb / 29.29 in Hg</td></tr>
          <tr><td>Maximum Intensity:</td></tr>
          <tr><td>35 kt / 40 mph / 65 kph</td></tr>
        </table>
      ]]></description>
      <Point><coordinates>139.6,-17.4</coordinates></Point>
    </Placemark>
    <Placemark>
      <name>1800 UTC FEB 1</name>
      <styleUrl>#ts</styleUrl>
      <description><![CDATA[
        <table>
          <tr><td>TS KIRRILY (SH072024)</td></tr>
          <tr><td><hr></td></tr>
          <tr><td>1800 UTC FEB 1, 2024</td></tr>
          <tr><td>Storm Location:</td></tr>
          <tr><td><b>17.4 S, 139.5 E</b></td></tr>
          <tr><td>Min Sea Level Pressure:</td></tr>
          <tr><td>993 mb / 29.32 in Hg</td></tr>
          <tr><td>Maximum Intensity:</td></tr>
          <tr><td>40 kt / 46 mph / 74 kph</td></tr>
        </table>
      ]]></description>
      <Point><coordinates>139.5,-17.4</coordinates></Point>
    </Placemark>
    <Placemark>
      <name>0000 UTC FEB 2</name>
      <styleUrl>#ts</styleUrl>
      <description><![CDATA[
        <table>
          <tr><td>TS KIRRILY (SH072024)</td></tr>
          <tr><td><hr></td></tr>
          <tr><td>0000 UTC FEB 2, 2024</td></tr>
          <tr><td>Storm Location:</td></tr>
          <tr><td><b>17.4 S, 139.1 E</b></td></tr>
          <tr><td>Min Sea Level Pressure:</td></tr>
          <tr><td>993 mb / 29.32 in Hg</td></tr>
          <tr><td>Maximum Intensity:</td></tr>
          <tr><td>40 kt / 46 mph / 74 kph</td></tr>
        </table>
      ]]></description>
      <Point><coordinates>139.1,-17.4</coordinates></Point>
    </Placemark>
    <Placemark>
      <name>0600 UTC FEB 2</name>
      <styleUrl>#td</styleUrl>
      <description><![CDATA[
        <table>
          <tr><td>TD KIRRILY (SH072024)</td></tr>
          <tr><td><hr></td></tr>
          <tr><td>0600 UTC FEB 2, 2024</td></tr>
          <tr><td>Storm Location:</td></tr>
          <tr><td><b>18.0 S, 138.6 E</b></td></tr>
          <tr><td>Min Sea Level Pressure:</td></tr>
          <tr><td>994 mb / 29.35 in Hg</td></tr>
          <tr><td>Maximum Intensity:</td></tr>
          <tr><td>30 kt / 35 mph / 56 kph</td></tr>
        </table>
      ]]></description>
      <Point><coordinates>138.6,-18</coordinates></Point>
    </Placemark>
    <Placemark>
      <name>1200 UTC FEB 2</name>
      <styleUrl>#db</styleUrl>
      <description><![CDATA[
        <table>
          <tr><td>DB KIRRILY (SH072024)</td></tr>
          <tr><td><hr></td></tr>
          <tr><td>1200 UTC FEB 2, 2024</td></tr>
          <tr><td>Storm Location:</td></tr>
          <tr><td><b>18.4 S, 138.4 E</b></td></tr>
          <tr><td>Min Sea Level Pressure:</td></tr>
          <tr><td>995 mb / 29.38 in Hg</td></tr>
          <tr><td>Maximum Intensity:</td></tr>
          <tr><td>20 kt / 23 mph / 37 kph</td></tr>
        </table>
      ]]></description>
      <Point><coordinates>138.4,-18.4</coordinates></Point>
    </Placemark>
    <Placemark>
      <name>1800 UTC FEB 2</name>
      <styleUrl>#db</styleUrl>
      <description><![CDATA[
        <table>
          <tr><td>DB KIRRILY (SH072024)</td></tr>
          <tr><td><hr></td></tr>
          <tr><td>1800 UTC FEB 2, 2024</td></tr>
          <tr><td>Storm Location:</td></tr>
          <tr><td><b>18.8 S, 138.3 E</b></td></tr>
          <tr><td>Min Sea Level Pressure:</td></tr>
          <tr><td>995 mb / 29.38 in Hg</td></tr>
          <tr><td>Maximum Intensity:</td></tr>
          <tr><td>20 kt / 23 mph / 37 kph</td></tr>
        </table>
      ]]></description>
      <Point><coordinates>138.3,-18.8</coordinates></Point>
    </Placemark>
  </Document>
</kml>
