<?xml version="1.0" encoding="UTF-8"?>
<kml xmlns="http://www.opengis.net/kml/2.2">
  <Document>
    <name>SH082024</name>
    <open>0</open>

    <!-- =====  Document header ===== -->
    <description><![CDATA[
      <table>
        <tr><td><b>Title:</b> Tropical Cyclone Best Track for SH082024</td></tr>
      </table>
    ]]></description>

    <!-- =====  Styles (ids must be unique)  ===== -->
	<Style id="pt"> 
		<IconStyle> 
			<scale>1.0</scale> 
			<Icon> 
				<href>ex_nhemi.png</href> 
			</Icon> 
             <hotSpot x="15" y="17" xunits="pixels" yunits="pixels"/>
		</IconStyle> 
		<LabelStyle> 
			<scale>1.0</scale> 
		</LabelStyle> 
	</Style>
	<Style id="cat5"> 
		<IconStyle> 
			<scale>1.0</scale> 
			<Icon> 
				<href>cat5_nhemi.png</href> 
			</Icon> 
             <hotSpot x="15" y="17" xunits="pixels" yunits="pixels"/>
		</IconStyle> 
		<LabelStyle> 
			<scale>1.0</scale> 
		</LabelStyle> 
	</Style>
	<Style id="db"> 
		<IconStyle> 
			<scale>1.0</scale> 
			<Icon> 
				<href>ex_nhemi.png</href> 
			</Icon> 
             <hotSpot x="15" y="17" xunits="pixels" yunits="pixels"/>
		</IconStyle> 
		<LabelStyle> 
			<scale>1.0</scale> 
		</LabelStyle> 
	</Style>
	<Style id="cat3"> 
		<IconStyle> 
			<scale>1.0</scale> 
			<Icon> 
				<href>cat3_nhemi.png</href> 
			</Icon> 
             <hotSpot x="15" y="17" xunits="pixels" yunits="pixels"/>
		</IconStyle> 
		<LabelStyle> 
			<scale>1.0</scale> 
		</LabelStyle> 
	</Style>
	<Style id="ss"> 
		<IconStyle> 
			<scale>1.0</scale> 
			<Icon> 
				<href>ts_nhemi.png</href> 
			</Icon> 
             <hotSpot x="15" y="17" xunits="pixels" yunits="pixels"/>
		</IconStyle> 
		<LabelStyle> 
			<scale>1.0</scale> 
		</LabelStyle> 
	</Style>
	<Style id="lo"> 
		<IconStyle> 
			<scale>1.0</scale> 
			<Icon> 
				<href>ex_nhemi.png</href> 
			</Icon> 
             <hotSpot x="15" y="17" xunits="pixels" yunits="pixels"/>
		</IconStyle> 
		<LabelStyle> 
			<scale>1.0</scale> 
		</LabelStyle> 
	</Style>
	<Style id="cat4"> 
		<IconStyle> 
			<scale>1.0</scale> 
			<Icon> 
				<href>cat4_nhemi.png</href> 
			</Icon> 
             <hotSpot x="15" y="17" xunits="pixels" yunits="pixels"/>
		</IconStyle> 
		<LabelStyle> 
			<scale>1.0</scale> 
		</LabelStyle> 
	</Style>
	<Style id="cat2"> 
		<IconStyle> 
			<scale>1.0</scale> 
			<Icon> 
				<href>cat2_nhemi.png</href> 
			</Icon> 
             <hotSpot x="15" y="17" xunits="pixels" yunits="pixels"/>
		</IconStyle> 
		<LabelStyle> 
			<scale>1.0</scale> 
		</LabelStyle> 
	</Style>
	<Style id="ts"> 
		<IconStyle> 
			<scale>1.0</scale> 
			<Icon> 
				<href>ts_nhemi.png</href> 
			</Icon> 
             <hotSpot x="15" y="17" xunits="pixels" yunits="pixels"/>
		</IconStyle> 
		<LabelStyle> 
			<scale>1.0</scale> 
		</LabelStyle> 
	</Style>
	<Style id="cat1"> 
		<IconStyle> 
			<scale>1.0</scale> 
			<Icon> 
				<href>cat1_nhemi.png</href> 
			</Icon> 
             <hotSpot x="15" y="17" xunits="pixels" yunits="pixels"/>
		</IconStyle> 
		<LabelStyle> 
			<scale>1.0</scale> 
		</LabelStyle> 
	</Style>
	<Style id="ex"> 
		<IconStyle> 
			<scale>1.0</scale> 
			<Icon> 
				<href>ex_nhemi.png</href> 
			</Icon> 
             <hotSpot x="15" y="17" xunits="pixels" yunits="pixels"/>
		</IconStyle> 
		<LabelStyle> 
			<scale>1.0</scale> 
		</LabelStyle> 
	</Style>
	<Style id="tc"> 
		<IconStyle> 
			<scale>1.0</scale> 
			<Icon> 
				<href>ex_nhemi.png</href> 
			</Icon> 
             <hotSpot x="15" y="17" xunits="pixels" yunits="pixels"/>
		</IconStyle> 
		<LabelStyle> 
			<scale>1.0</scale> 
		</LabelStyle> 
	</Style>
	<Style id="wv"> 
		<IconStyle> 
			<scale>1.0</scale> 
			<Icon> 
				<href>ex_nhemi.png</href> 
			</Icon> 
             <hotSpot x="15" y="17" xunits="pixels" yunits="pixels"/>
		</IconStyle> 
		<LabelStyle> 
			<scale>1.0</scale> 
		</LabelStyle> 
	</Style>
	<Style id="td"> 
		<IconStyle> 
			<scale>1.0</scale> 
			<Icon> 
				<href>td_nhemi.png</href> 
			</Icon> 
             <hotSpot x="15" y="17" xunits="pixels" yunits="pixels"/>
		</IconStyle> 
		<LabelStyle> 
			<scale>1.0</scale> 
		</LabelStyle> 
	</Style>
	<Style id="sd"> 
		<IconStyle> 
			<scale>1.0</scale> 
			<Icon> 
				<href>ex_nhemi.png</href> 
			</Icon> 
             <hotSpot x="15" y="17" xunits="pixels" yunits="pixels"/>
		</IconStyle> 
		<LabelStyle> 
			<scale>1.0</scale> 
		</LabelStyle> 
	</Style>

    <Placemark>
      <name>1800 UTC JAN 22</name>
      <styleUrl>#td</styleUrl>
      <description><![CDATA[
        <table>
          <tr><td>TD CANDICE (SH082024)</td></tr>
          <tr><td><hr></td></tr>
          <tr><td>1800 UTC JAN 22, 2024</td></tr>
          <tr><td>Storm Location:</td></tr>
          <tr><td><b>16.4 S, 60.5 E</b></td></tr>
          <tr><td>Min Sea Level Pressure:</td></tr>
          <tr><td>1002 mb / 29.59 in Hg</td></tr>
          <tr><td>Maximum Intensity:</td></tr>
          <tr><td>25 kt / 29 mph / 46 kph</td></tr>
        </table>
      ]]></description>
      <Point><coordinates>60.5,-16.4</coordinates></Point>
    </Placemark>
    <Placemark>
      <name>0000 UTC JAN 23</name>
      <styleUrl>#td</styleUrl>
      <description><![CDATA[
        <table>
          <tr><td>TD CANDICE (SH082024)</td></tr>
          <tr><td><hr></td></tr>
          <tr><td>0000 UTC JAN 23, 2024</td></tr>
          <tr><td>Storm Location:</td></tr>
          <tr><td><b>17.5 S, 60.4 E</b></td></tr>
          <tr><td>Min Sea Level Pressure:</td></tr>
          <tr><td>1000 mb / 29.53 in Hg</td></tr>
          <tr><td>Maximum Intensity:</td></tr>
          <tr><td>25 kt / 29 mph / 46 kph</td></tr>
        </table>
      ]]></description>
      <Point><coordinates>60.4,-17.5</coordinates></Point>
    </Placemark>
    <Placemark>
      <name>0600 UTC JAN 23</name>
      <styleUrl>#td</styleUrl>
      <description><![CDATA[
        <table>
          <tr><td>TD CANDICE (SH082024)</td></tr>
          <tr><td><hr></td></tr>
          <tr><td>0600 UTC JAN 23, 2024</td></tr>
          <tr><td>Storm Location:</td></tr>
          <tr><td><b>18.6 S, 59.8 E</b></td></tr>
          <tr><td>Min Sea Level Pressure:</td></tr>
          <tr><td>998 mb / 29.47 in Hg</td></tr>
          <tr><td>Maximum Intensity:</td></tr>
          <tr><td>25 kt / 29 mph / 46 kph</td></tr>
        </table>
      ]]></description>
      <Point><coordinates>59.8,-18.6</coordinates></Point>
    </Placemark>
    <Placemark>
      <name>1200 UTC JAN 23</name>
      <styleUrl>#td</styleUrl>
      <description><![CDATA[
        <table>
          <tr><td>TD CANDICE (SH082024)</td></tr>
          <tr><td><hr></td></tr>
          <tr><td>1200 UTC JAN 23, 2024</td></tr>
          <tr><td>Storm Location:</td></tr>
          <tr><td><b>19.7 S, 58.8 E</b></td></tr>
          <tr><td>Min Sea Level Pressure:</td></tr>
          <tr><td>998 mb / 29.47 in Hg</td></tr>
          <tr><td>Maximum Intensity:</td></tr>
          <tr><td>25 kt / 29 mph / 46 kph</td></tr>
        </table>
      ]]></description>
      <Point><coordinates>58.8,-19.7</coordinates></Point>
    </Placemark>
    <Placemark>
      <name>1800 UTC JAN 23</name>
      <styleUrl>#td</styleUrl>
      <description><![CDATA[
        <table>
          <tr><td>TD CANDICE (SH082024)</td></tr>
          <tr><td><hr></td></tr>
          <tr><td>1800 UTC JAN 23, 2024</td></tr>
          <tr><td>Storm Location:</td></tr>
          <tr><td><b>19.9 S, 57.9 E</b></td></tr>
          <tr><td>Min Sea Level Pressure:</td></tr>
          <tr><td>998 mb / 29.47 in Hg</td></tr>
          <tr><td>Maximum Intensity:</td></tr>
          <tr><td>25 kt / 29 mph / 46 kph</td></tr>
        </table>
      ]]></description>
      <Point><coordinates>57.9,-19.9</coordinates></Point>
    </Placemark>
    <Placemark>
      <name>0000 UTC JAN 24</name>
      <styleUrl>#td</styleUrl>
      <description><![CDATA[
        <table>
          <tr><td>TD CANDICE (SH082024)</td></tr>
          <tr><td><hr></td></tr>
          <tr><td>0000 UTC JAN 24, 2024</td></tr>
          <tr><td>Storm Location:</td></tr>
          <tr><td><b>20.2 S, 57.5 E</b></td></tr>
          <tr><td>Min Sea Level Pressure:</td></tr>
          <tr><td>995 mb / 29.38 in Hg</td></tr>
          <tr><td>Maximum Intensity:</td></tr>
          <tr><td>30 kt / 35 mph / 56 kph</td></tr>
        </table>
      ]]></description>
      <Point><coordinates>57.5,-20.2</coordinates></Point>
    </Placemark>
    <Placemark>
      <name>0600 UTC JAN 24</name>
      <styleUrl>#ts</styleUrl>
      <description><![CDATA[
        <table>
          <tr><td>TS CANDICE (SH082024)</td></tr>
          <tr><td><hr></td></tr>
          <tr><td>0600 UTC JAN 24, 2024</td></tr>
          <tr><td>Storm Location:</td></tr>
          <tr><td><b>19.8 S, 57.4 E</b></td></tr>
          <tr><td>Min Sea Level Pressure:</td></tr>
          <tr><td>992 mb / 29.29 in Hg</td></tr>
          <tr><td>Maximum Intensity:</td></tr>
          <tr><td>35 kt / 40 mph / 65 kph</td></tr>
        </table>
      ]]></description>
      <Point><coordinates>57.4,-19.8</coordinates></Point>
    </Placemark>
    <Placemark>
      <name>1200 UTC JAN 24</name>
      <styleUrl>#ts</styleUrl>
      <description><![CDATA[
        <table>
          <tr><td>TS CANDICE (SH082024)</td></tr>
          <tr><td><hr></td></tr>
          <tr><td>1200 UTC JAN 24, 2024</td></tr>
          <tr><td>Storm Location:</td></tr>
          <tr><td><b>19.7 S, 57.7 E</b></td></tr>
          <tr><td>Min Sea Level Pressure:</td></tr>
          <tr><td>992 mb / 29.29 in Hg</td></tr>
          <tr><td>Maximum Intensity:</td></tr>
          <tr><td>35 kt / 40 mph / 65 kph</td></tr>
        </table>
      ]]></description>
      <Point><coordinates>57.7,-19.7</coordinates></Point>
    </Placemark>
    <Placemark>
      <name>1800 UTC JAN 24</name>
      <styleUrl>#ts</styleUrl>
      <description><![CDATA[
        <table>
          <tr><td>TS CANDICE (SH082024)</td></tr>
          <tr><td><hr></td></tr>
          <tr><td>1800 UTC JAN 24, 2024</td></tr>
          <tr><td>Storm Location:</td></tr>
          <tr><td><b>19.8 S, 58.0 E</b></td></tr>
          <tr><td>Min Sea Level Pressure:</td></tr>
          <tr><td>992 mb / 29.29 in Hg</td></tr>
          <tr><td>Maximum Intensity:</td></tr>
          <tr><td>35 kt / 40 mph / 65 kph</td></tr>
        </table>
      ]]></description>
      <Point><coordinates>58,-19.8</coordinates></Point>
    </Placemark>
    <Placemark>
      <name>0000 UTC JAN 25</name>
      <styleUrl>#ts</styleUrl>
      <description><![CDATA[
        <table>
          <tr><td>TS CANDICE (SH082024)</td></tr>
          <tr><td><hr></td></tr>
          <tr><td>0000 UTC JAN 25, 2024</td></tr>
          <tr><td>Storm Location:</td></tr>
          <tr><td><b>20.3 S, 58.7 E</b></td></tr>
          <tr><td>Min Sea Level Pressure:</td></tr>
          <tr><td>988 mb / 29.18 in Hg</td></tr>
          <tr><td>Maximum Intensity:</td></tr>
          <tr><td>40 kt / 46 mph / 74 kph</td></tr>
        </table>
      ]]></description>
      <Point><coordinates>58.7,-20.3</coordinates></Point>
    </Placemark>
    <Placemark>
      <name>0600 UTC JAN 25</name>
      <styleUrl>#ts</styleUrl>
      <description><![CDATA[
        <table>
          <tr><td>TS CANDICE (SH082024)</td></tr>
          <tr><td><hr></td></tr>
          <tr><td>0600 UTC JAN 25, 2024</td></tr>
          <tr><td>Storm Location:</td></tr>
          <tr><td><b>22.0 S, 59.6 E</b></td></tr>
          <tr><td>Min Sea Level Pressure:</td></tr>
          <tr><td>988 mb / 29.18 in Hg</td></tr>
          <tr><td>Maximum Intensity:</td></tr>
          <tr><td>40 kt / 46 mph / 74 kph</td></tr>
        </table>
      ]]></description>
      <Point><coordinates>59.6,-22</coordinates></Point>
    </Placemark>
    <Placemark>
      <name>1200 UTC JAN 25</name>
      <styleUrl>#ts</styleUrl>
      <description><![CDATA[
        <table>
          <tr><td>TS CANDICE (SH082024)</td></tr>
          <tr><td><hr></td></tr>
          <tr><td>1200 UTC JAN 25, 2024</td></tr>
          <tr><td>Storm Location:</td></tr>
          <tr><td><b>23.4 S, 60.4 E</b></td></tr>
          <tr><td>Min Sea Level Pressure:</td></tr>
          <tr><td>986 mb / 29.12 in Hg</td></tr>
          <tr><td>Maximum Intensity:</td></tr>
          <tr><td>45 kt / 52 mph / 83 kph</td></tr>
        </table>
      ]]></description>
      <Point><coordinates>60.4,-23.4</coordinates></Point>
    </Placemark>
    <Placemark>
      <name>1800 UTC JAN 25</name>
      <styleUrl>#ts</styleUrl>
      <description><![CDATA[
        <table>
          <tr><td>TS CANDICE (SH082024)</td></tr>
          <tr><td><hr></td></tr>
          <tr><td>1800 UTC JAN 25, 2024</td></tr>
          <tr><td>Storm Location:</td></tr>
          <tr><td><b>24.8 S, 60.9 E</b></td></tr>
          <tr><td>Min Sea Level Pressure:</td></tr>
          <tr><td>986 mb / 29.12 in Hg</td></tr>
          <tr><td>Maximum Intensity:</td></tr>
          <tr><td>45 kt / 52 mph / 83 kph</td></tr>
        </table>
      ]]></description>
      <Point><coordinates>60.9,-24.8</coordinates></Point>
    </Placemark>
    <Placemark>
      <name>0000 UTC JAN 26</name>
      <styleUrl>#ts</styleUrl>
      <description><![CDATA[
        <table>
          <tr><td>TS CANDICE (SH082024)</td></tr>
          <tr><td><hr></td></tr>
          <tr><td>0000 UTC JAN 26, 2024</td></tr>
          <tr><td>Storm Location:</td></tr>
          <tr><td><b>25.3 S, 61.2 E</b></td></tr>
          <tr><td>Min Sea Level Pressure:</td></tr>
          <tr><td>986 mb / 29.12 in Hg</td></tr>
          <tr><td>Maximum Intensity:</td></tr>
          <tr><td>45 kt / 52 mph / 83 kph</td></tr>
        </table>
      ]]></description>
      <Point><coordinates>61.2,-25.3</coordinates></Point>
    </Placemark>
    <Placemark>
      <name>0600 UTC JAN 26</name>
      <styleUrl>#ts</styleUrl>
      <description><![CDATA[
        <table>
          <tr><td>TS CANDICE (SH082024)</td></tr>
          <tr><td><hr></td></tr>
          <tr><td>0600 UTC JAN 26, 2024</td></tr>
          <tr><td>Storm Location:</td></tr>
          <tr><td><b>26.3 S, 61.8 E</b></td></tr>
          <tr><td>Min Sea Level Pressure:</td></tr>
          <tr><td>984 mb / 29.06 in Hg</td></tr>
          <tr><td>Maximum Intensity:</td></tr>
          <tr><td>50 kt / 58 mph / 93 kph</td></tr>
        </table>
      ]]></description>
      <Point><coordinates>61.8,-26.3</coordinates></Point>
    </Placemark>
    <Placemark>
      <name>1200 UTC JAN 26</name>
      <styleUrl>#ts</styleUrl>
      <description><![CDATA[
        <table>
          <tr><td>TS CANDICE (SH082024)</td></tr>
          <tr><td><hr></td></tr>
          <tr><td>1200 UTC JAN 26, 2024</td></tr>
          <tr><td>Storm Location:</td></tr>
          <tr><td><b>26.6 S, 62.0 E</b></td></tr>
          <tr><td>Min Sea Level Pressure:</td></tr>
          <tr><td>987 mb / 29.15 in Hg</td></tr>
          <tr><td>Maximum Intensity:</td></tr>
          <tr><td>45 kt / 52 mph / 83 kph</td></tr>
        </table>
      ]]></description>
      <Point><coordinates>62,-26.6</coordinates></Point>
    </Placemark>
    <Placemark>
      <name>1800 UTC JAN 26</name>
      <styleUrl>#ts</styleUrl>
      <description><![CDATA[
        <table>
          <tr><td>TS CANDICE (SH082024)</td></tr>
          <tr><td><hr></td></tr>
          <tr><td>1800 UTC JAN 26, 2024</td></tr>
          <tr><td>Storm Location:</td></tr>
          <tr><td><b>27.1 S, 61.3 E</b></td></tr>
          <tr><td>Min Sea Level Pressure:</td></tr>
          <tr><td>990 mb / 29.23 in Hg</td></tr>
          <tr><td>Maximum Intensity:</td></tr>
          <tr><td>40 kt / 46 mph / 74 kph</td></tr>
        </table>
      ]]></description>
      <Point><coordinates>61.3,-27.1</coordinates></Point>
    </Placemark>
    <Placemark>
      <name>0000 UTC JAN 27</name>
      <styleUrl>#ts</styleUrl>
      <description><![CDATA[
        <table>
          <tr><td>TS CANDICE (SH082024)</td></tr>
          <tr><td><hr></td></tr>
          <tr><td>0000 UTC JAN 27, 2024</td></tr>
          <tr><td>Storm Location:</td></tr>
          <tr><td><b>27.6 S, 61.0 E</b></td></tr>
          <tr><td>Min Sea Level Pressure:</td></tr>
          <tr><td>992 mb / 29.29 in Hg</td></tr>
          <tr><td>Maximum Intensity:</td></tr>
          <tr><td>35 kt / 40 mph / 65 kph</td></tr>
        </table>
      ]]></description>
      <Point><coordinates>61,-27.6</coordinates></Point>
    </Placemark>
    <Placemark>
      <name>0600 UTC JAN 27</name>
      <styleUrl>#td</styleUrl>
      <description><![CDATA[
        <table>
          <tr><td>TD CANDICE (SH082024)</td></tr>
          <tr><td><hr></td></tr>
          <tr><td>0600 UTC JAN 27, 2024</td></tr>
          <tr><td>Storm Location:</td></tr>
          <tr><td><b>28.6 S, 60.5 E</b></td></tr>
          <tr><td>Min Sea Level Pressure:</td></tr>
          <tr><td>995 mb / 29.38 in Hg</td></tr>
          <tr><td>Maximum Intensity:</td></tr>
          <tr><td>30 kt / 35 mph / 56 kph</td></tr>
        </table>
      ]]></description>
      <Point><coordinates>60.5,-28.6</coordinates></Point>
    </Placemark>
    <Placemark>
      <name>1200 UTC JAN 27</name>
      <styleUrl>#td</styleUrl>
      <description><![CDATA[
        <table>
          <tr><td>TD CANDICE (SH082024)</td></tr>
          <tr><td><hr></td></tr>
          <tr><td>1200 UTC JAN 27, 2024</td></tr>
          <tr><td>Storm Location:</td></tr>
          <tr><td><b>29.8 S, 59.7 E</b></td></tr>
          <tr><td>Min Sea Level Pressure:</td></tr>
          <tr><td>998 mb / 29.47 in Hg</td></tr>
          <tr><td>Maximum Intensity:</td></tr>
          <tr><td>25 kt / 29 mph / 46 kph</td></tr>
        </table>
      ]]></description>
      <Point><coordinates>59.7,-29.8</coordinates></Point>
    </Placemark>
    <Placemark>
      <name>1800 UTC JAN 27</name>
      <styleUrl>#td</styleUrl>
      <description><![CDATA[
        <table>
          <tr><td>TD CANDICE (SH082024)</td></tr>
          <tr><td><hr></td></tr>
          <tr><td>1800 UTC JAN 27, 2024</td></tr>
          <tr><td>Storm Location:</td></tr>
          <tr><td><b>30.3 S, 58.6 E</b></td></tr>
          <tr><td>Min Sea Level Pressure:</td></tr>
          <tr><td>1000 mb / 29.53 in Hg</td></tr>
          <tr><td>Maximum Intensity:</td></tr>
          <tr><td>25 kt / 29 mph / 46 kph</td></tr>
        </table>
      ]]></description>
      <Point><coordinates>58.6,-30.3</coordinates></Point>
    </Placemark>
  </Document>
</kml>
