<?xml version="1.0" encoding="UTF-8"?>
<kml xmlns="http://www.opengis.net/kml/2.2">
  <Document>
    <name>SH092024</name>
    <open>0</open>

    <!-- =====  Document header ===== -->
    <description><![CDATA[
      <table>
        <tr><td><b>Title:</b> Tropical Cyclone Best Track for SH092024</td></tr>
      </table>
    ]]></description>

    <!-- =====  Styles (ids must be unique)  ===== -->
	<Style id="pt"> 
		<IconStyle> 
			<scale>1.0</scale> 
			<Icon> 
				<href>ex_nhemi.png</href> 
			</Icon> 
             <hotSpot x="15" y="17" xunits="pixels" yunits="pixels"/>
		</IconStyle> 
		<LabelStyle> 
			<scale>1.0</scale> 
		</LabelStyle> 
	</Style>
	<Style id="cat5"> 
		<IconStyle> 
			<scale>1.0</scale> 
			<Icon> 
				<href>cat5_nhemi.png</href> 
			</Icon> 
             <hotSpot x="15" y="17" xunits="pixels" yunits="pixels"/>
		</IconStyle> 
		<LabelStyle> 
			<scale>1.0</scale> 
		</LabelStyle> 
	</Style>
	<Style id="db"> 
		<IconStyle> 
			<scale>1.0</scale> 
			<Icon> 
				<href>ex_nhemi.png</href> 
			</Icon> 
             <hotSpot x="15" y="17" xunits="pixels" yunits="pixels"/>
		</IconStyle> 
		<LabelStyle> 
			<scale>1.0</scale> 
		</LabelStyle> 
	</Style>
	<Style id="cat3"> 
		<IconStyle> 
			<scale>1.0</scale> 
			<Icon> 
				<href>cat3_nhemi.png</href> 
			</Icon> 
             <hotSpot x="15" y="17" xunits="pixels" yunits="pixels"/>
		</IconStyle> 
		<LabelStyle> 
			<scale>1.0</scale> 
		</LabelStyle> 
	</Style>
	<Style id="ss"> 
		<IconStyle> 
			<scale>1.0</scale> 
			<Icon> 
				<href>ts_nhemi.png</href> 
			</Icon> 
             <hotSpot x="15" y="17" xunits="pixels" yunits="pixels"/>
		</IconStyle> 
		<LabelStyle> 
			<scale>1.0</scale> 
		</LabelStyle> 
	</Style>
	<Style id="lo"> 
		<IconStyle> 
			<scale>1.0</scale> 
			<Icon> 
				<href>ex_nhemi.png</href> 
			</Icon> 
             <hotSpot x="15" y="17" xunits="pixels" yunits="pixels"/>
		</IconStyle> 
		<LabelStyle> 
			<scale>1.0</scale> 
		</LabelStyle> 
	</Style>
	<Style id="cat4"> 
		<IconStyle> 
			<scale>1.0</scale> 
			<Icon> 
				<href>cat4_nhemi.png</href> 
			</Icon> 
             <hotSpot x="15" y="17" xunits="pixels" yunits="pixels"/>
		</IconStyle> 
		<LabelStyle> 
			<scale>1.0</scale> 
		</LabelStyle> 
	</Style>
	<Style id="cat2"> 
		<IconStyle> 
			<scale>1.0</scale> 
			<Icon> 
				<href>cat2_nhemi.png</href> 
			</Icon> 
             <hotSpot x="15" y="17" xunits="pixels" yunits="pixels"/>
		</IconStyle> 
		<LabelStyle> 
			<scale>1.0</scale> 
		</LabelStyle> 
	</Style>
	<Style id="ts"> 
		<IconStyle> 
			<scale>1.0</scale> 
			<Icon> 
				<href>ts_nhemi.png</href> 
			</Icon> 
             <hotSpot x="15" y="17" xunits="pixels" yunits="pixels"/>
		</IconStyle> 
		<LabelStyle> 
			<scale>1.0</scale> 
		</LabelStyle> 
	</Style>
	<Style id="cat1"> 
		<IconStyle> 
			<scale>1.0</scale> 
			<Icon> 
				<href>cat1_nhemi.png</href> 
			</Icon> 
             <hotSpot x="15" y="17" xunits="pixels" yunits="pixels"/>
		</IconStyle> 
		<LabelStyle> 
			<scale>1.0</scale> 
		</LabelStyle> 
	</Style>
	<Style id="ex"> 
		<IconStyle> 
			<scale>1.0</scale> 
			<Icon> 
				<href>ex_nhemi.png</href> 
			</Icon> 
             <hotSpot x="15" y="17" xunits="pixels" yunits="pixels"/>
		</IconStyle> 
		<LabelStyle> 
			<scale>1.0</scale> 
		</LabelStyle> 
	</Style>
	<Style id="tc"> 
		<IconStyle> 
			<scale>1.0</scale> 
			<Icon> 
				<href>ex_nhemi.png</href> 
			</Icon> 
             <hotSpot x="15" y="17" xunits="pixels" yunits="pixels"/>
		</IconStyle> 
		<LabelStyle> 
			<scale>1.0</scale> 
		</LabelStyle> 
	</Style>
	<Style id="wv"> 
		<IconStyle> 
			<scale>1.0</scale> 
			<Icon> 
				<href>ex_nhemi.png</href> 
			</Icon> 
             <hotSpot x="15" y="17" xunits="pixels" yunits="pixels"/>
		</IconStyle> 
		<LabelStyle> 
			<scale>1.0</scale> 
		</LabelStyle> 
	</Style>
	<Style id="td"> 
		<IconStyle> 
			<scale>1.0</scale> 
			<Icon> 
				<href>td_nhemi.png</href> 
			</Icon> 
             <hotSpot x="15" y="17" xunits="pixels" yunits="pixels"/>
		</IconStyle> 
		<LabelStyle> 
			<scale>1.0</scale> 
		</LabelStyle> 
	</Style>
	<Style id="sd"> 
		<IconStyle> 
			<scale>1.0</scale> 
			<Icon> 
				<href>ex_nhemi.png</href> 
			</Icon> 
             <hotSpot x="15" y="17" xunits="pixels" yunits="pixels"/>
		</IconStyle> 
		<LabelStyle> 
			<scale>1.0</scale> 
		</LabelStyle> 
	</Style>

    <Placemark>
      <name>1800 UTC JAN 28</name>
      <styleUrl>#db</styleUrl>
      <description><![CDATA[
        <table>
          <tr><td>DB NINE (SH092024)</td></tr>
          <tr><td><hr></td></tr>
          <tr><td>1800 UTC JAN 28, 2024</td></tr>
          <tr><td>Storm Location:</td></tr>
          <tr><td><b>15.2 S, 62.7 E</b></td></tr>
          <tr><td>Min Sea Level Pressure:</td></tr>
          <tr><td>1007 mb / 29.74 in Hg</td></tr>
          <tr><td>Maximum Intensity:</td></tr>
          <tr><td>20 kt / 23 mph / 37 kph</td></tr>
        </table>
      ]]></description>
      <Point><coordinates>62.7,-15.2</coordinates></Point>
    </Placemark>
    <Placemark>
      <name>0000 UTC JAN 29</name>
      <styleUrl>#db</styleUrl>
      <description><![CDATA[
        <table>
          <tr><td>DB NINE (SH092024)</td></tr>
          <tr><td><hr></td></tr>
          <tr><td>0000 UTC JAN 29, 2024</td></tr>
          <tr><td>Storm Location:</td></tr>
          <tr><td><b>15.4 S, 63.1 E</b></td></tr>
          <tr><td>Min Sea Level Pressure:</td></tr>
          <tr><td>1006 mb / 29.71 in Hg</td></tr>
          <tr><td>Maximum Intensity:</td></tr>
          <tr><td>20 kt / 23 mph / 37 kph</td></tr>
        </table>
      ]]></description>
      <Point><coordinates>63.1,-15.4</coordinates></Point>
    </Placemark>
    <Placemark>
      <name>0600 UTC JAN 29</name>
      <styleUrl>#db</styleUrl>
      <description><![CDATA[
        <table>
          <tr><td>DB NINE (SH092024)</td></tr>
          <tr><td><hr></td></tr>
          <tr><td>0600 UTC JAN 29, 2024</td></tr>
          <tr><td>Storm Location:</td></tr>
          <tr><td><b>15.6 S, 63.4 E</b></td></tr>
          <tr><td>Min Sea Level Pressure:</td></tr>
          <tr><td>1003 mb / 29.62 in Hg</td></tr>
          <tr><td>Maximum Intensity:</td></tr>
          <tr><td>20 kt / 23 mph / 37 kph</td></tr>
        </table>
      ]]></description>
      <Point><coordinates>63.4,-15.6</coordinates></Point>
    </Placemark>
    <Placemark>
      <name>1200 UTC JAN 29</name>
      <styleUrl>#db</styleUrl>
      <description><![CDATA[
        <table>
          <tr><td>DB NINE (SH092024)</td></tr>
          <tr><td><hr></td></tr>
          <tr><td>1200 UTC JAN 29, 2024</td></tr>
          <tr><td>Storm Location:</td></tr>
          <tr><td><b>16.6 S, 64.0 E</b></td></tr>
          <tr><td>Min Sea Level Pressure:</td></tr>
          <tr><td>1002 mb / 29.59 in Hg</td></tr>
          <tr><td>Maximum Intensity:</td></tr>
          <tr><td>20 kt / 23 mph / 37 kph</td></tr>
        </table>
      ]]></description>
      <Point><coordinates>64,-16.6</coordinates></Point>
    </Placemark>
    <Placemark>
      <name>1800 UTC JAN 29</name>
      <styleUrl>#td</styleUrl>
      <description><![CDATA[
        <table>
          <tr><td>TD NINE (SH092024)</td></tr>
          <tr><td><hr></td></tr>
          <tr><td>1800 UTC JAN 29, 2024</td></tr>
          <tr><td>Storm Location:</td></tr>
          <tr><td><b>17.2 S, 64.0 E</b></td></tr>
          <tr><td>Min Sea Level Pressure:</td></tr>
          <tr><td>1001 mb / 29.56 in Hg</td></tr>
          <tr><td>Maximum Intensity:</td></tr>
          <tr><td>25 kt / 29 mph / 46 kph</td></tr>
        </table>
      ]]></description>
      <Point><coordinates>64,-17.2</coordinates></Point>
    </Placemark>
    <Placemark>
      <name>0000 UTC JAN 30</name>
      <styleUrl>#td</styleUrl>
      <description><![CDATA[
        <table>
          <tr><td>TD NINE (SH092024)</td></tr>
          <tr><td><hr></td></tr>
          <tr><td>0000 UTC JAN 30, 2024</td></tr>
          <tr><td>Storm Location:</td></tr>
          <tr><td><b>17.8 S, 64.1 E</b></td></tr>
          <tr><td>Min Sea Level Pressure:</td></tr>
          <tr><td>1000 mb / 29.53 in Hg</td></tr>
          <tr><td>Maximum Intensity:</td></tr>
          <tr><td>25 kt / 29 mph / 46 kph</td></tr>
        </table>
      ]]></description>
      <Point><coordinates>64.1,-17.8</coordinates></Point>
    </Placemark>
    <Placemark>
      <name>0600 UTC JAN 30</name>
      <styleUrl>#td</styleUrl>
      <description><![CDATA[
        <table>
          <tr><td>TD NINE (SH092024)</td></tr>
          <tr><td><hr></td></tr>
          <tr><td>0600 UTC JAN 30, 2024</td></tr>
          <tr><td>Storm Location:</td></tr>
          <tr><td><b>18.3 S, 64.4 E</b></td></tr>
          <tr><td>Min Sea Level Pressure:</td></tr>
          <tr><td>999 mb / 29.50 in Hg</td></tr>
          <tr><td>Maximum Intensity:</td></tr>
          <tr><td>25 kt / 29 mph / 46 kph</td></tr>
        </table>
      ]]></description>
      <Point><coordinates>64.4,-18.3</coordinates></Point>
    </Placemark>
    <Placemark>
      <name>1200 UTC JAN 30</name>
      <styleUrl>#td</styleUrl>
      <description><![CDATA[
        <table>
          <tr><td>TD NINE (SH092024)</td></tr>
          <tr><td><hr></td></tr>
          <tr><td>1200 UTC JAN 30, 2024</td></tr>
          <tr><td>Storm Location:</td></tr>
          <tr><td><b>18.8 S, 64.8 E</b></td></tr>
          <tr><td>Min Sea Level Pressure:</td></tr>
          <tr><td>997 mb / 29.44 in Hg</td></tr>
          <tr><td>Maximum Intensity:</td></tr>
          <tr><td>30 kt / 35 mph / 56 kph</td></tr>
        </table>
      ]]></description>
      <Point><coordinates>64.8,-18.8</coordinates></Point>
    </Placemark>
    <Placemark>
      <name>1800 UTC JAN 30</name>
      <styleUrl>#ts</styleUrl>
      <description><![CDATA[
        <table>
          <tr><td>TS NINE (SH092024)</td></tr>
          <tr><td><hr></td></tr>
          <tr><td>1800 UTC JAN 30, 2024</td></tr>
          <tr><td>Storm Location:</td></tr>
          <tr><td><b>19.2 S, 65.2 E</b></td></tr>
          <tr><td>Min Sea Level Pressure:</td></tr>
          <tr><td>995 mb / 29.38 in Hg</td></tr>
          <tr><td>Maximum Intensity:</td></tr>
          <tr><td>35 kt / 40 mph / 65 kph</td></tr>
        </table>
      ]]></description>
      <Point><coordinates>65.2,-19.2</coordinates></Point>
    </Placemark>
    <Placemark>
      <name>0000 UTC JAN 31</name>
      <styleUrl>#ts</styleUrl>
      <description><![CDATA[
        <table>
          <tr><td>TS NINE (SH092024)</td></tr>
          <tr><td><hr></td></tr>
          <tr><td>0000 UTC JAN 31, 2024</td></tr>
          <tr><td>Storm Location:</td></tr>
          <tr><td><b>19.7 S, 65.6 E</b></td></tr>
          <tr><td>Min Sea Level Pressure:</td></tr>
          <tr><td>995 mb / 29.38 in Hg</td></tr>
          <tr><td>Maximum Intensity:</td></tr>
          <tr><td>35 kt / 40 mph / 65 kph</td></tr>
        </table>
      ]]></description>
      <Point><coordinates>65.6,-19.7</coordinates></Point>
    </Placemark>
    <Placemark>
      <name>0600 UTC JAN 31</name>
      <styleUrl>#ts</styleUrl>
      <description><![CDATA[
        <table>
          <tr><td>TS NINE (SH092024)</td></tr>
          <tr><td><hr></td></tr>
          <tr><td>0600 UTC JAN 31, 2024</td></tr>
          <tr><td>Storm Location:</td></tr>
          <tr><td><b>19.9 S, 66.1 E</b></td></tr>
          <tr><td>Min Sea Level Pressure:</td></tr>
          <tr><td>994 mb / 29.35 in Hg</td></tr>
          <tr><td>Maximum Intensity:</td></tr>
          <tr><td>35 kt / 40 mph / 65 kph</td></tr>
        </table>
      ]]></description>
      <Point><coordinates>66.1,-19.9</coordinates></Point>
    </Placemark>
    <Placemark>
      <name>1200 UTC JAN 31</name>
      <styleUrl>#td</styleUrl>
      <description><![CDATA[
        <table>
          <tr><td>TD NINE (SH092024)</td></tr>
          <tr><td><hr></td></tr>
          <tr><td>1200 UTC JAN 31, 2024</td></tr>
          <tr><td>Storm Location:</td></tr>
          <tr><td><b>20.0 S, 66.2 E</b></td></tr>
          <tr><td>Min Sea Level Pressure:</td></tr>
          <tr><td>996 mb / 29.41 in Hg</td></tr>
          <tr><td>Maximum Intensity:</td></tr>
          <tr><td>30 kt / 35 mph / 56 kph</td></tr>
        </table>
      ]]></description>
      <Point><coordinates>66.2,-20</coordinates></Point>
    </Placemark>
    <Placemark>
      <name>1800 UTC JAN 31</name>
      <styleUrl>#ts</styleUrl>
      <description><![CDATA[
        <table>
          <tr><td>TS NINE (SH092024)</td></tr>
          <tr><td><hr></td></tr>
          <tr><td>1800 UTC JAN 31, 2024</td></tr>
          <tr><td>Storm Location:</td></tr>
          <tr><td><b>19.6 S, 66.5 E</b></td></tr>
          <tr><td>Min Sea Level Pressure:</td></tr>
          <tr><td>994 mb / 29.35 in Hg</td></tr>
          <tr><td>Maximum Intensity:</td></tr>
          <tr><td>35 kt / 40 mph / 65 kph</td></tr>
        </table>
      ]]></description>
      <Point><coordinates>66.5,-19.6</coordinates></Point>
    </Placemark>
    <Placemark>
      <name>0000 UTC FEB 1</name>
      <styleUrl>#td</styleUrl>
      <description><![CDATA[
        <table>
          <tr><td>TD NINE (SH092024)</td></tr>
          <tr><td><hr></td></tr>
          <tr><td>0000 UTC FEB 1, 2024</td></tr>
          <tr><td>Storm Location:</td></tr>
          <tr><td><b>19.2 S, 66.4 E</b></td></tr>
          <tr><td>Min Sea Level Pressure:</td></tr>
          <tr><td>996 mb / 29.41 in Hg</td></tr>
          <tr><td>Maximum Intensity:</td></tr>
          <tr><td>30 kt / 35 mph / 56 kph</td></tr>
        </table>
      ]]></description>
      <Point><coordinates>66.4,-19.2</coordinates></Point>
    </Placemark>
    <Placemark>
      <name>0600 UTC FEB 1</name>
      <styleUrl>#td</styleUrl>
      <description><![CDATA[
        <table>
          <tr><td>TD NINE (SH092024)</td></tr>
          <tr><td><hr></td></tr>
          <tr><td>0600 UTC FEB 1, 2024</td></tr>
          <tr><td>Storm Location:</td></tr>
          <tr><td><b>18.8 S, 66.0 E</b></td></tr>
          <tr><td>Min Sea Level Pressure:</td></tr>
          <tr><td>994 mb / 29.35 in Hg</td></tr>
          <tr><td>Maximum Intensity:</td></tr>
          <tr><td>30 kt / 35 mph / 56 kph</td></tr>
        </table>
      ]]></description>
      <Point><coordinates>66,-18.8</coordinates></Point>
    </Placemark>
    <Placemark>
      <name>1200 UTC FEB 1</name>
      <styleUrl>#td</styleUrl>
      <description><![CDATA[
        <table>
          <tr><td>TD NINE (SH092024)</td></tr>
          <tr><td><hr></td></tr>
          <tr><td>1200 UTC FEB 1, 2024</td></tr>
          <tr><td>Storm Location:</td></tr>
          <tr><td><b>18.5 S, 66.2 E</b></td></tr>
          <tr><td>Min Sea Level Pressure:</td></tr>
          <tr><td>996 mb / 29.41 in Hg</td></tr>
          <tr><td>Maximum Intensity:</td></tr>
          <tr><td>30 kt / 35 mph / 56 kph</td></tr>
        </table>
      ]]></description>
      <Point><coordinates>66.2,-18.5</coordinates></Point>
    </Placemark>
    <Placemark>
      <name>1800 UTC FEB 1</name>
      <styleUrl>#ts</styleUrl>
      <description><![CDATA[
        <table>
          <tr><td>TS NINE (SH092024)</td></tr>
          <tr><td><hr></td></tr>
          <tr><td>1800 UTC FEB 1, 2024</td></tr>
          <tr><td>Storm Location:</td></tr>
          <tr><td><b>18.7 S, 67.2 E</b></td></tr>
          <tr><td>Min Sea Level Pressure:</td></tr>
          <tr><td>995 mb / 29.38 in Hg</td></tr>
          <tr><td>Maximum Intensity:</td></tr>
          <tr><td>35 kt / 40 mph / 65 kph</td></tr>
        </table>
      ]]></description>
      <Point><coordinates>67.2,-18.7</coordinates></Point>
    </Placemark>
    <Placemark>
      <name>0000 UTC FEB 2</name>
      <styleUrl>#ts</styleUrl>
      <description><![CDATA[
        <table>
          <tr><td>TS NINE (SH092024)</td></tr>
          <tr><td><hr></td></tr>
          <tr><td>0000 UTC FEB 2, 2024</td></tr>
          <tr><td>Storm Location:</td></tr>
          <tr><td><b>20.0 S, 67.9 E</b></td></tr>
          <tr><td>Min Sea Level Pressure:</td></tr>
          <tr><td>995 mb / 29.38 in Hg</td></tr>
          <tr><td>Maximum Intensity:</td></tr>
          <tr><td>35 kt / 40 mph / 65 kph</td></tr>
        </table>
      ]]></description>
      <Point><coordinates>67.9,-20</coordinates></Point>
    </Placemark>
    <Placemark>
      <name>0600 UTC FEB 2</name>
      <styleUrl>#ts</styleUrl>
      <description><![CDATA[
        <table>
          <tr><td>TS NINE (SH092024)</td></tr>
          <tr><td><hr></td></tr>
          <tr><td>0600 UTC FEB 2, 2024</td></tr>
          <tr><td>Storm Location:</td></tr>
          <tr><td><b>20.6 S, 68.8 E</b></td></tr>
          <tr><td>Min Sea Level Pressure:</td></tr>
          <tr><td>995 mb / 29.38 in Hg</td></tr>
          <tr><td>Maximum Intensity:</td></tr>
          <tr><td>35 kt / 40 mph / 65 kph</td></tr>
        </table>
      ]]></description>
      <Point><coordinates>68.8,-20.6</coordinates></Point>
    </Placemark>
    <Placemark>
      <name>1200 UTC FEB 2</name>
      <styleUrl>#db</styleUrl>
      <description><![CDATA[
        <table>
          <tr><td>DB NINE (SH092024)</td></tr>
          <tr><td><hr></td></tr>
          <tr><td>1200 UTC FEB 2, 2024</td></tr>
          <tr><td>Storm Location:</td></tr>
          <tr><td><b>21.2 S, 69.9 E</b></td></tr>
          <tr><td>Min Sea Level Pressure:</td></tr>
          <tr><td>999 mb / 29.50 in Hg</td></tr>
          <tr><td>Maximum Intensity:</td></tr>
          <tr><td>20 kt / 23 mph / 37 kph</td></tr>
        </table>
      ]]></description>
      <Point><coordinates>69.9,-21.2</coordinates></Point>
    </Placemark>
  </Document>
</kml>
