<?xml version="1.0" encoding="UTF-8"?>
<kml xmlns="http://www.opengis.net/kml/2.2">
  <Document>
    <name>SH102024</name>
    <open>0</open>

    <!-- =====  Document header ===== -->
    <description><![CDATA[
      <table>
        <tr><td><b>Title:</b> Tropical Cyclone Best Track for SH102024</td></tr>
      </table>
    ]]></description>

    <!-- =====  Styles (ids must be unique)  ===== -->
	<Style id="pt"> 
		<IconStyle> 
			<scale>1.0</scale> 
			<Icon> 
				<href>ex_nhemi.png</href> 
			</Icon> 
             <hotSpot x="15" y="17" xunits="pixels" yunits="pixels"/>
		</IconStyle> 
		<LabelStyle> 
			<scale>1.0</scale> 
		</LabelStyle> 
	</Style>
	<Style id="cat5"> 
		<IconStyle> 
			<scale>1.0</scale> 
			<Icon> 
				<href>cat5_nhemi.png</href> 
			</Icon> 
             <hotSpot x="15" y="17" xunits="pixels" yunits="pixels"/>
		</IconStyle> 
		<LabelStyle> 
			<scale>1.0</scale> 
		</LabelStyle> 
	</Style>
	<Style id="db"> 
		<IconStyle> 
			<scale>1.0</scale> 
			<Icon> 
				<href>ex_nhemi.png</href> 
			</Icon> 
             <hotSpot x="15" y="17" xunits="pixels" yunits="pixels"/>
		</IconStyle> 
		<LabelStyle> 
			<scale>1.0</scale> 
		</LabelStyle> 
	</Style>
	<Style id="cat3"> 
		<IconStyle> 
			<scale>1.0</scale> 
			<Icon> 
				<href>cat3_nhemi.png</href> 
			</Icon> 
             <hotSpot x="15" y="17" xunits="pixels" yunits="pixels"/>
		</IconStyle> 
		<LabelStyle> 
			<scale>1.0</scale> 
		</LabelStyle> 
	</Style>
	<Style id="ss"> 
		<IconStyle> 
			<scale>1.0</scale> 
			<Icon> 
				<href>ts_nhemi.png</href> 
			</Icon> 
             <hotSpot x="15" y="17" xunits="pixels" yunits="pixels"/>
		</IconStyle> 
		<LabelStyle> 
			<scale>1.0</scale> 
		</LabelStyle> 
	</Style>
	<Style id="lo"> 
		<IconStyle> 
			<scale>1.0</scale> 
			<Icon> 
				<href>ex_nhemi.png</href> 
			</Icon> 
             <hotSpot x="15" y="17" xunits="pixels" yunits="pixels"/>
		</IconStyle> 
		<LabelStyle> 
			<scale>1.0</scale> 
		</LabelStyle> 
	</Style>
	<Style id="cat4"> 
		<IconStyle> 
			<scale>1.0</scale> 
			<Icon> 
				<href>cat4_nhemi.png</href> 
			</Icon> 
             <hotSpot x="15" y="17" xunits="pixels" yunits="pixels"/>
		</IconStyle> 
		<LabelStyle> 
			<scale>1.0</scale> 
		</LabelStyle> 
	</Style>
	<Style id="cat2"> 
		<IconStyle> 
			<scale>1.0</scale> 
			<Icon> 
				<href>cat2_nhemi.png</href> 
			</Icon> 
             <hotSpot x="15" y="17" xunits="pixels" yunits="pixels"/>
		</IconStyle> 
		<LabelStyle> 
			<scale>1.0</scale> 
		</LabelStyle> 
	</Style>
	<Style id="ts"> 
		<IconStyle> 
			<scale>1.0</scale> 
			<Icon> 
				<href>ts_nhemi.png</href> 
			</Icon> 
             <hotSpot x="15" y="17" xunits="pixels" yunits="pixels"/>
		</IconStyle> 
		<LabelStyle> 
			<scale>1.0</scale> 
		</LabelStyle> 
	</Style>
	<Style id="cat1"> 
		<IconStyle> 
			<scale>1.0</scale> 
			<Icon> 
				<href>cat1_nhemi.png</href> 
			</Icon> 
             <hotSpot x="15" y="17" xunits="pixels" yunits="pixels"/>
		</IconStyle> 
		<LabelStyle> 
			<scale>1.0</scale> 
		</LabelStyle> 
	</Style>
	<Style id="ex"> 
		<IconStyle> 
			<scale>1.0</scale> 
			<Icon> 
				<href>ex_nhemi.png</href> 
			</Icon> 
             <hotSpot x="15" y="17" xunits="pixels" yunits="pixels"/>
		</IconStyle> 
		<LabelStyle> 
			<scale>1.0</scale> 
		</LabelStyle> 
	</Style>
	<Style id="tc"> 
		<IconStyle> 
			<scale>1.0</scale> 
			<Icon> 
				<href>ex_nhemi.png</href> 
			</Icon> 
             <hotSpot x="15" y="17" xunits="pixels" yunits="pixels"/>
		</IconStyle> 
		<LabelStyle> 
			<scale>1.0</scale> 
		</LabelStyle> 
	</Style>
	<Style id="wv"> 
		<IconStyle> 
			<scale>1.0</scale> 
			<Icon> 
				<href>ex_nhemi.png</href> 
			</Icon> 
             <hotSpot x="15" y="17" xunits="pixels" yunits="pixels"/>
		</IconStyle> 
		<LabelStyle> 
			<scale>1.0</scale> 
		</LabelStyle> 
	</Style>
	<Style id="td"> 
		<IconStyle> 
			<scale>1.0</scale> 
			<Icon> 
				<href>td_nhemi.png</href> 
			</Icon> 
             <hotSpot x="15" y="17" xunits="pixels" yunits="pixels"/>
		</IconStyle> 
		<LabelStyle> 
			<scale>1.0</scale> 
		</LabelStyle> 
	</Style>
	<Style id="sd"> 
		<IconStyle> 
			<scale>1.0</scale> 
			<Icon> 
				<href>ex_nhemi.png</href> 
			</Icon> 
             <hotSpot x="15" y="17" xunits="pixels" yunits="pixels"/>
		</IconStyle> 
		<LabelStyle> 
			<scale>1.0</scale> 
		</LabelStyle> 
	</Style>

    <Placemark>
      <name>1800 UTC FEB 3</name>
      <styleUrl>#pt</styleUrl>
      <description><![CDATA[
        <table>
          <tr><td>XX NAT (SH102024)</td></tr>
          <tr><td><hr></td></tr>
          <tr><td>1800 UTC FEB 3, 2024</td></tr>
          <tr><td>Storm Location:</td></tr>
          <tr><td><b>16.2 S, 172.3 W</b></td></tr>
          <tr><td>Min Sea Level Pressure:</td></tr>
          <tr><td>1005 mb / 29.68 in Hg</td></tr>
          <tr><td>Maximum Intensity:</td></tr>
          <tr><td>20 kt / 23 mph / 37 kph</td></tr>
        </table>
      ]]></description>
      <Point><coordinates>-172.3,-16.2</coordinates></Point>
    </Placemark>
    <Placemark>
      <name>0000 UTC FEB 4</name>
      <styleUrl>#db</styleUrl>
      <description><![CDATA[
        <table>
          <tr><td>DB NAT (SH102024)</td></tr>
          <tr><td><hr></td></tr>
          <tr><td>0000 UTC FEB 4, 2024</td></tr>
          <tr><td>Storm Location:</td></tr>
          <tr><td><b>15.5 S, 171.7 W</b></td></tr>
          <tr><td>Min Sea Level Pressure:</td></tr>
          <tr><td>1005 mb / 29.68 in Hg</td></tr>
          <tr><td>Maximum Intensity:</td></tr>
          <tr><td>20 kt / 23 mph / 37 kph</td></tr>
        </table>
      ]]></description>
      <Point><coordinates>-171.7,-15.5</coordinates></Point>
    </Placemark>
    <Placemark>
      <name>0600 UTC FEB 4</name>
      <styleUrl>#td</styleUrl>
      <description><![CDATA[
        <table>
          <tr><td>TD NAT (SH102024)</td></tr>
          <tr><td><hr></td></tr>
          <tr><td>0600 UTC FEB 4, 2024</td></tr>
          <tr><td>Storm Location:</td></tr>
          <tr><td><b>15.0 S, 170.9 W</b></td></tr>
          <tr><td>Min Sea Level Pressure:</td></tr>
          <tr><td>999 mb / 29.50 in Hg</td></tr>
          <tr><td>Maximum Intensity:</td></tr>
          <tr><td>30 kt / 35 mph / 56 kph</td></tr>
        </table>
      ]]></description>
      <Point><coordinates>-170.9,-15</coordinates></Point>
    </Placemark>
    <Placemark>
      <name>1200 UTC FEB 4</name>
      <styleUrl>#td</styleUrl>
      <description><![CDATA[
        <table>
          <tr><td>TD NAT (SH102024)</td></tr>
          <tr><td><hr></td></tr>
          <tr><td>1200 UTC FEB 4, 2024</td></tr>
          <tr><td>Storm Location:</td></tr>
          <tr><td><b>14.7 S, 170.0 W</b></td></tr>
          <tr><td>Min Sea Level Pressure:</td></tr>
          <tr><td>999 mb / 29.50 in Hg</td></tr>
          <tr><td>Maximum Intensity:</td></tr>
          <tr><td>30 kt / 35 mph / 56 kph</td></tr>
        </table>
      ]]></description>
      <Point><coordinates>-170,-14.7</coordinates></Point>
    </Placemark>
    <Placemark>
      <name>1800 UTC FEB 4</name>
      <styleUrl>#td</styleUrl>
      <description><![CDATA[
        <table>
          <tr><td>TD NAT (SH102024)</td></tr>
          <tr><td><hr></td></tr>
          <tr><td>1800 UTC FEB 4, 2024</td></tr>
          <tr><td>Storm Location:</td></tr>
          <tr><td><b>14.4 S, 168.8 W</b></td></tr>
          <tr><td>Min Sea Level Pressure:</td></tr>
          <tr><td>999 mb / 29.50 in Hg</td></tr>
          <tr><td>Maximum Intensity:</td></tr>
          <tr><td>30 kt / 35 mph / 56 kph</td></tr>
        </table>
      ]]></description>
      <Point><coordinates>-168.8,-14.4</coordinates></Point>
    </Placemark>
    <Placemark>
      <name>0000 UTC FEB 5</name>
      <styleUrl>#td</styleUrl>
      <description><![CDATA[
        <table>
          <tr><td>TD NAT (SH102024)</td></tr>
          <tr><td><hr></td></tr>
          <tr><td>0000 UTC FEB 5, 2024</td></tr>
          <tr><td>Storm Location:</td></tr>
          <tr><td><b>14.3 S, 167.6 W</b></td></tr>
          <tr><td>Min Sea Level Pressure:</td></tr>
          <tr><td>999 mb / 29.50 in Hg</td></tr>
          <tr><td>Maximum Intensity:</td></tr>
          <tr><td>30 kt / 35 mph / 56 kph</td></tr>
        </table>
      ]]></description>
      <Point><coordinates>-167.6,-14.3</coordinates></Point>
    </Placemark>
    <Placemark>
      <name>0600 UTC FEB 5</name>
      <styleUrl>#td</styleUrl>
      <description><![CDATA[
        <table>
          <tr><td>TD NAT (SH102024)</td></tr>
          <tr><td><hr></td></tr>
          <tr><td>0600 UTC FEB 5, 2024</td></tr>
          <tr><td>Storm Location:</td></tr>
          <tr><td><b>14.4 S, 166.5 W</b></td></tr>
          <tr><td>Min Sea Level Pressure:</td></tr>
          <tr><td>999 mb / 29.50 in Hg</td></tr>
          <tr><td>Maximum Intensity:</td></tr>
          <tr><td>30 kt / 35 mph / 56 kph</td></tr>
        </table>
      ]]></description>
      <Point><coordinates>-166.5,-14.4</coordinates></Point>
    </Placemark>
    <Placemark>
      <name>1200 UTC FEB 5</name>
      <styleUrl>#ts</styleUrl>
      <description><![CDATA[
        <table>
          <tr><td>TS NAT (SH102024)</td></tr>
          <tr><td><hr></td></tr>
          <tr><td>1200 UTC FEB 5, 2024</td></tr>
          <tr><td>Storm Location:</td></tr>
          <tr><td><b>14.6 S, 165.5 W</b></td></tr>
          <tr><td>Min Sea Level Pressure:</td></tr>
          <tr><td>997 mb / 29.44 in Hg</td></tr>
          <tr><td>Maximum Intensity:</td></tr>
          <tr><td>35 kt / 40 mph / 65 kph</td></tr>
        </table>
      ]]></description>
      <Point><coordinates>-165.5,-14.6</coordinates></Point>
    </Placemark>
    <Placemark>
      <name>1800 UTC FEB 5</name>
      <styleUrl>#ts</styleUrl>
      <description><![CDATA[
        <table>
          <tr><td>TS NAT (SH102024)</td></tr>
          <tr><td><hr></td></tr>
          <tr><td>1800 UTC FEB 5, 2024</td></tr>
          <tr><td>Storm Location:</td></tr>
          <tr><td><b>15.0 S, 163.1 W</b></td></tr>
          <tr><td>Min Sea Level Pressure:</td></tr>
          <tr><td>995 mb / 29.38 in Hg</td></tr>
          <tr><td>Maximum Intensity:</td></tr>
          <tr><td>40 kt / 46 mph / 74 kph</td></tr>
        </table>
      ]]></description>
      <Point><coordinates>-163.1,-15</coordinates></Point>
    </Placemark>
    <Placemark>
      <name>0000 UTC FEB 6</name>
      <styleUrl>#ts</styleUrl>
      <description><![CDATA[
        <table>
          <tr><td>TS NAT (SH102024)</td></tr>
          <tr><td><hr></td></tr>
          <tr><td>0000 UTC FEB 6, 2024</td></tr>
          <tr><td>Storm Location:</td></tr>
          <tr><td><b>15.5 S, 160.6 W</b></td></tr>
          <tr><td>Min Sea Level Pressure:</td></tr>
          <tr><td>993 mb / 29.32 in Hg</td></tr>
          <tr><td>Maximum Intensity:</td></tr>
          <tr><td>45 kt / 52 mph / 83 kph</td></tr>
        </table>
      ]]></description>
      <Point><coordinates>-160.6,-15.5</coordinates></Point>
    </Placemark>
    <Placemark>
      <name>0600 UTC FEB 6</name>
      <styleUrl>#ts</styleUrl>
      <description><![CDATA[
        <table>
          <tr><td>TS NAT (SH102024)</td></tr>
          <tr><td><hr></td></tr>
          <tr><td>0600 UTC FEB 6, 2024</td></tr>
          <tr><td>Storm Location:</td></tr>
          <tr><td><b>16.1 S, 158.5 W</b></td></tr>
          <tr><td>Min Sea Level Pressure:</td></tr>
          <tr><td>991 mb / 29.26 in Hg</td></tr>
          <tr><td>Maximum Intensity:</td></tr>
          <tr><td>50 kt / 58 mph / 93 kph</td></tr>
        </table>
      ]]></description>
      <Point><coordinates>-158.5,-16.1</coordinates></Point>
    </Placemark>
    <Placemark>
      <name>1200 UTC FEB 6</name>
      <styleUrl>#ts</styleUrl>
      <description><![CDATA[
        <table>
          <tr><td>TS NAT (SH102024)</td></tr>
          <tr><td><hr></td></tr>
          <tr><td>1200 UTC FEB 6, 2024</td></tr>
          <tr><td>Storm Location:</td></tr>
          <tr><td><b>16.9 S, 156.8 W</b></td></tr>
          <tr><td>Min Sea Level Pressure:</td></tr>
          <tr><td>989 mb / 29.21 in Hg</td></tr>
          <tr><td>Maximum Intensity:</td></tr>
          <tr><td>55 kt / 63 mph / 102 kph</td></tr>
        </table>
      ]]></description>
      <Point><coordinates>-156.8,-16.9</coordinates></Point>
    </Placemark>
    <Placemark>
      <name>1800 UTC FEB 6</name>
      <styleUrl>#ts</styleUrl>
      <description><![CDATA[
        <table>
          <tr><td>TS NAT (SH102024)</td></tr>
          <tr><td><hr></td></tr>
          <tr><td>1800 UTC FEB 6, 2024</td></tr>
          <tr><td>Storm Location:</td></tr>
          <tr><td><b>17.4 S, 155.5 W</b></td></tr>
          <tr><td>Min Sea Level Pressure:</td></tr>
          <tr><td>993 mb / 29.32 in Hg</td></tr>
          <tr><td>Maximum Intensity:</td></tr>
          <tr><td>45 kt / 52 mph / 83 kph</td></tr>
        </table>
      ]]></description>
      <Point><coordinates>-155.5,-17.4</coordinates></Point>
    </Placemark>
    <Placemark>
      <name>0000 UTC FEB 7</name>
      <styleUrl>#ts</styleUrl>
      <description><![CDATA[
        <table>
          <tr><td>TS NAT (SH102024)</td></tr>
          <tr><td><hr></td></tr>
          <tr><td>0000 UTC FEB 7, 2024</td></tr>
          <tr><td>Storm Location:</td></tr>
          <tr><td><b>18.2 S, 154.0 W</b></td></tr>
          <tr><td>Min Sea Level Pressure:</td></tr>
          <tr><td>996 mb / 29.41 in Hg</td></tr>
          <tr><td>Maximum Intensity:</td></tr>
          <tr><td>40 kt / 46 mph / 74 kph</td></tr>
        </table>
      ]]></description>
      <Point><coordinates>-154,-18.2</coordinates></Point>
    </Placemark>
    <Placemark>
      <name>0600 UTC FEB 7</name>
      <styleUrl>#ts</styleUrl>
      <description><![CDATA[
        <table>
          <tr><td>TS NAT (SH102024)</td></tr>
          <tr><td><hr></td></tr>
          <tr><td>0600 UTC FEB 7, 2024</td></tr>
          <tr><td>Storm Location:</td></tr>
          <tr><td><b>18.8 S, 152.9 W</b></td></tr>
          <tr><td>Min Sea Level Pressure:</td></tr>
          <tr><td>996 mb / 29.41 in Hg</td></tr>
          <tr><td>Maximum Intensity:</td></tr>
          <tr><td>40 kt / 46 mph / 74 kph</td></tr>
        </table>
      ]]></description>
      <Point><coordinates>-152.9,-18.8</coordinates></Point>
    </Placemark>
    <Placemark>
      <name>1200 UTC FEB 7</name>
      <styleUrl>#ts</styleUrl>
      <description><![CDATA[
        <table>
          <tr><td>TS NAT (SH102024)</td></tr>
          <tr><td><hr></td></tr>
          <tr><td>1200 UTC FEB 7, 2024</td></tr>
          <tr><td>Storm Location:</td></tr>
          <tr><td><b>19.2 S, 151.9 W</b></td></tr>
          <tr><td>Min Sea Level Pressure:</td></tr>
          <tr><td>996 mb / 29.41 in Hg</td></tr>
          <tr><td>Maximum Intensity:</td></tr>
          <tr><td>40 kt / 46 mph / 74 kph</td></tr>
        </table>
      ]]></description>
      <Point><coordinates>-151.9,-19.2</coordinates></Point>
    </Placemark>
    <Placemark>
      <name>1800 UTC FEB 7</name>
      <styleUrl>#ts</styleUrl>
      <description><![CDATA[
        <table>
          <tr><td>TS NAT (SH102024)</td></tr>
          <tr><td><hr></td></tr>
          <tr><td>1800 UTC FEB 7, 2024</td></tr>
          <tr><td>Storm Location:</td></tr>
          <tr><td><b>19.3 S, 151.5 W</b></td></tr>
          <tr><td>Min Sea Level Pressure:</td></tr>
          <tr><td>995 mb / 29.38 in Hg</td></tr>
          <tr><td>Maximum Intensity:</td></tr>
          <tr><td>45 kt / 52 mph / 83 kph</td></tr>
        </table>
      ]]></description>
      <Point><coordinates>-151.5,-19.3</coordinates></Point>
    </Placemark>
    <Placemark>
      <name>0000 UTC FEB 8</name>
      <styleUrl>#ts</styleUrl>
      <description><![CDATA[
        <table>
          <tr><td>TS NAT (SH102024)</td></tr>
          <tr><td><hr></td></tr>
          <tr><td>0000 UTC FEB 8, 2024</td></tr>
          <tr><td>Storm Location:</td></tr>
          <tr><td><b>19.3 S, 151.1 W</b></td></tr>
          <tr><td>Min Sea Level Pressure:</td></tr>
          <tr><td>999 mb / 29.50 in Hg</td></tr>
          <tr><td>Maximum Intensity:</td></tr>
          <tr><td>40 kt / 46 mph / 74 kph</td></tr>
        </table>
      ]]></description>
      <Point><coordinates>-151.1,-19.3</coordinates></Point>
    </Placemark>
    <Placemark>
      <name>0600 UTC FEB 8</name>
      <styleUrl>#ts</styleUrl>
      <description><![CDATA[
        <table>
          <tr><td>TS NAT (SH102024)</td></tr>
          <tr><td><hr></td></tr>
          <tr><td>0600 UTC FEB 8, 2024</td></tr>
          <tr><td>Storm Location:</td></tr>
          <tr><td><b>19.3 S, 150.0 W</b></td></tr>
          <tr><td>Min Sea Level Pressure:</td></tr>
          <tr><td>1000 mb / 29.53 in Hg</td></tr>
          <tr><td>Maximum Intensity:</td></tr>
          <tr><td>35 kt / 40 mph / 65 kph</td></tr>
        </table>
      ]]></description>
      <Point><coordinates>-150,-19.3</coordinates></Point>
    </Placemark>
    <Placemark>
      <name>1200 UTC FEB 8</name>
      <styleUrl>#ts</styleUrl>
      <description><![CDATA[
        <table>
          <tr><td>TS NAT (SH102024)</td></tr>
          <tr><td><hr></td></tr>
          <tr><td>1200 UTC FEB 8, 2024</td></tr>
          <tr><td>Storm Location:</td></tr>
          <tr><td><b>19.3 S, 148.6 W</b></td></tr>
          <tr><td>Min Sea Level Pressure:</td></tr>
          <tr><td>1000 mb / 29.53 in Hg</td></tr>
          <tr><td>Maximum Intensity:</td></tr>
          <tr><td>35 kt / 40 mph / 65 kph</td></tr>
        </table>
      ]]></description>
      <Point><coordinates>-148.6,-19.3</coordinates></Point>
    </Placemark>
    <Placemark>
      <name>1800 UTC FEB 8</name>
      <styleUrl>#pt</styleUrl>
      <description><![CDATA[
        <table>
          <tr><td>XX NAT (SH102024)</td></tr>
          <tr><td><hr></td></tr>
          <tr><td>1800 UTC FEB 8, 2024</td></tr>
          <tr><td>Storm Location:</td></tr>
          <tr><td><b>19.4 S, 147.0 W</b></td></tr>
          <tr><td>Min Sea Level Pressure:</td></tr>
          <tr><td>996 mb / 29.41 in Hg</td></tr>
          <tr><td>Maximum Intensity:</td></tr>
          <tr><td>45 kt / 52 mph / 83 kph</td></tr>
        </table>
      ]]></description>
      <Point><coordinates>-147,-19.4</coordinates></Point>
    </Placemark>
    <Placemark>
      <name>0000 UTC FEB 9</name>
      <styleUrl>#pt</styleUrl>
      <description><![CDATA[
        <table>
          <tr><td>XX NAT (SH102024)</td></tr>
          <tr><td><hr></td></tr>
          <tr><td>0000 UTC FEB 9, 2024</td></tr>
          <tr><td>Storm Location:</td></tr>
          <tr><td><b>19.6 S, 145.2 W</b></td></tr>
          <tr><td>Min Sea Level Pressure:</td></tr>
          <tr><td>994 mb / 29.35 in Hg</td></tr>
          <tr><td>Maximum Intensity:</td></tr>
          <tr><td>50 kt / 58 mph / 93 kph</td></tr>
        </table>
      ]]></description>
      <Point><coordinates>-145.2,-19.6</coordinates></Point>
    </Placemark>
    <Placemark>
      <name>0600 UTC FEB 9</name>
      <styleUrl>#pt</styleUrl>
      <description><![CDATA[
        <table>
          <tr><td>XX NAT (SH102024)</td></tr>
          <tr><td><hr></td></tr>
          <tr><td>0600 UTC FEB 9, 2024</td></tr>
          <tr><td>Storm Location:</td></tr>
          <tr><td><b>19.9 S, 143.3 W</b></td></tr>
          <tr><td>Min Sea Level Pressure:</td></tr>
          <tr><td>997 mb / 29.44 in Hg</td></tr>
          <tr><td>Maximum Intensity:</td></tr>
          <tr><td>45 kt / 52 mph / 83 kph</td></tr>
        </table>
      ]]></description>
      <Point><coordinates>-143.3,-19.9</coordinates></Point>
    </Placemark>
    <Placemark>
      <name>1200 UTC FEB 9</name>
      <styleUrl>#pt</styleUrl>
      <description><![CDATA[
        <table>
          <tr><td>XX NAT (SH102024)</td></tr>
          <tr><td><hr></td></tr>
          <tr><td>1200 UTC FEB 9, 2024</td></tr>
          <tr><td>Storm Location:</td></tr>
          <tr><td><b>21.2 S, 140.6 W</b></td></tr>
          <tr><td>Min Sea Level Pressure:</td></tr>
          <tr><td>997 mb / 29.44 in Hg</td></tr>
          <tr><td>Maximum Intensity:</td></tr>
          <tr><td>45 kt / 52 mph / 83 kph</td></tr>
        </table>
      ]]></description>
      <Point><coordinates>-140.6,-21.2</coordinates></Point>
    </Placemark>
  </Document>
</kml>
