<?xml version="1.0" encoding="UTF-8"?>
<kml xmlns="http://www.opengis.net/kml/2.2">
  <Document>
    <name>SH122024</name>
    <open>0</open>

    <!-- =====  Document header ===== -->
    <description><![CDATA[
      <table>
        <tr><td><b>Title:</b> Tropical Cyclone Best Track for SH122024</td></tr>
      </table>
    ]]></description>

    <!-- =====  Styles (ids must be unique)  ===== -->
	<Style id="pt"> 
		<IconStyle> 
			<scale>1.0</scale> 
			<Icon> 
				<href>ex_nhemi.png</href> 
			</Icon> 
             <hotSpot x="15" y="17" xunits="pixels" yunits="pixels"/>
		</IconStyle> 
		<LabelStyle> 
			<scale>1.0</scale> 
		</LabelStyle> 
	</Style>
	<Style id="cat5"> 
		<IconStyle> 
			<scale>1.0</scale> 
			<Icon> 
				<href>cat5_nhemi.png</href> 
			</Icon> 
             <hotSpot x="15" y="17" xunits="pixels" yunits="pixels"/>
		</IconStyle> 
		<LabelStyle> 
			<scale>1.0</scale> 
		</LabelStyle> 
	</Style>
	<Style id="db"> 
		<IconStyle> 
			<scale>1.0</scale> 
			<Icon> 
				<href>ex_nhemi.png</href> 
			</Icon> 
             <hotSpot x="15" y="17" xunits="pixels" yunits="pixels"/>
		</IconStyle> 
		<LabelStyle> 
			<scale>1.0</scale> 
		</LabelStyle> 
	</Style>
	<Style id="cat3"> 
		<IconStyle> 
			<scale>1.0</scale> 
			<Icon> 
				<href>cat3_nhemi.png</href> 
			</Icon> 
             <hotSpot x="15" y="17" xunits="pixels" yunits="pixels"/>
		</IconStyle> 
		<LabelStyle> 
			<scale>1.0</scale> 
		</LabelStyle> 
	</Style>
	<Style id="ss"> 
		<IconStyle> 
			<scale>1.0</scale> 
			<Icon> 
				<href>ts_nhemi.png</href> 
			</Icon> 
             <hotSpot x="15" y="17" xunits="pixels" yunits="pixels"/>
		</IconStyle> 
		<LabelStyle> 
			<scale>1.0</scale> 
		</LabelStyle> 
	</Style>
	<Style id="lo"> 
		<IconStyle> 
			<scale>1.0</scale> 
			<Icon> 
				<href>ex_nhemi.png</href> 
			</Icon> 
             <hotSpot x="15" y="17" xunits="pixels" yunits="pixels"/>
		</IconStyle> 
		<LabelStyle> 
			<scale>1.0</scale> 
		</LabelStyle> 
	</Style>
	<Style id="cat4"> 
		<IconStyle> 
			<scale>1.0</scale> 
			<Icon> 
				<href>cat4_nhemi.png</href> 
			</Icon> 
             <hotSpot x="15" y="17" xunits="pixels" yunits="pixels"/>
		</IconStyle> 
		<LabelStyle> 
			<scale>1.0</scale> 
		</LabelStyle> 
	</Style>
	<Style id="cat2"> 
		<IconStyle> 
			<scale>1.0</scale> 
			<Icon> 
				<href>cat2_nhemi.png</href> 
			</Icon> 
             <hotSpot x="15" y="17" xunits="pixels" yunits="pixels"/>
		</IconStyle> 
		<LabelStyle> 
			<scale>1.0</scale> 
		</LabelStyle> 
	</Style>
	<Style id="ts"> 
		<IconStyle> 
			<scale>1.0</scale> 
			<Icon> 
				<href>ts_nhemi.png</href> 
			</Icon> 
             <hotSpot x="15" y="17" xunits="pixels" yunits="pixels"/>
		</IconStyle> 
		<LabelStyle> 
			<scale>1.0</scale> 
		</LabelStyle> 
	</Style>
	<Style id="cat1"> 
		<IconStyle> 
			<scale>1.0</scale> 
			<Icon> 
				<href>cat1_nhemi.png</href> 
			</Icon> 
             <hotSpot x="15" y="17" xunits="pixels" yunits="pixels"/>
		</IconStyle> 
		<LabelStyle> 
			<scale>1.0</scale> 
		</LabelStyle> 
	</Style>
	<Style id="ex"> 
		<IconStyle> 
			<scale>1.0</scale> 
			<Icon> 
				<href>ex_nhemi.png</href> 
			</Icon> 
             <hotSpot x="15" y="17" xunits="pixels" yunits="pixels"/>
		</IconStyle> 
		<LabelStyle> 
			<scale>1.0</scale> 
		</LabelStyle> 
	</Style>
	<Style id="tc"> 
		<IconStyle> 
			<scale>1.0</scale> 
			<Icon> 
				<href>ex_nhemi.png</href> 
			</Icon> 
             <hotSpot x="15" y="17" xunits="pixels" yunits="pixels"/>
		</IconStyle> 
		<LabelStyle> 
			<scale>1.0</scale> 
		</LabelStyle> 
	</Style>
	<Style id="wv"> 
		<IconStyle> 
			<scale>1.0</scale> 
			<Icon> 
				<href>ex_nhemi.png</href> 
			</Icon> 
             <hotSpot x="15" y="17" xunits="pixels" yunits="pixels"/>
		</IconStyle> 
		<LabelStyle> 
			<scale>1.0</scale> 
		</LabelStyle> 
	</Style>
	<Style id="td"> 
		<IconStyle> 
			<scale>1.0</scale> 
			<Icon> 
				<href>td_nhemi.png</href> 
			</Icon> 
             <hotSpot x="15" y="17" xunits="pixels" yunits="pixels"/>
		</IconStyle> 
		<LabelStyle> 
			<scale>1.0</scale> 
		</LabelStyle> 
	</Style>
	<Style id="sd"> 
		<IconStyle> 
			<scale>1.0</scale> 
			<Icon> 
				<href>ex_nhemi.png</href> 
			</Icon> 
             <hotSpot x="15" y="17" xunits="pixels" yunits="pixels"/>
		</IconStyle> 
		<LabelStyle> 
			<scale>1.0</scale> 
		</LabelStyle> 
	</Style>

    <Placemark>
      <name>0000 UTC JAN 31</name>
      <styleUrl>#db</styleUrl>
      <description><![CDATA[
        <table>
          <tr><td>DB TWELVE (SH122024)</td></tr>
          <tr><td><hr></td></tr>
          <tr><td>0000 UTC JAN 31, 2024</td></tr>
          <tr><td>Storm Location:</td></tr>
          <tr><td><b>24.3 S, 154.2 E</b></td></tr>
          <tr><td>Min Sea Level Pressure:</td></tr>
          <tr><td>1007 mb / 29.74 in Hg</td></tr>
          <tr><td>Maximum Intensity:</td></tr>
          <tr><td>20 kt / 23 mph / 37 kph</td></tr>
        </table>
      ]]></description>
      <Point><coordinates>154.2,-24.3</coordinates></Point>
    </Placemark>
    <Placemark>
      <name>0600 UTC JAN 31</name>
      <styleUrl>#pt</styleUrl>
      <description><![CDATA[
        <table>
          <tr><td>XX TWELVE (SH122024)</td></tr>
          <tr><td><hr></td></tr>
          <tr><td>0600 UTC JAN 31, 2024</td></tr>
          <tr><td>Storm Location:</td></tr>
          <tr><td><b>24.1 S, 154.9 E</b></td></tr>
          <tr><td>Min Sea Level Pressure:</td></tr>
          <tr><td>1004 mb / 29.65 in Hg</td></tr>
          <tr><td>Maximum Intensity:</td></tr>
          <tr><td>25 kt / 29 mph / 46 kph</td></tr>
        </table>
      ]]></description>
      <Point><coordinates>154.9,-24.1</coordinates></Point>
    </Placemark>
    <Placemark>
      <name>1200 UTC JAN 31</name>
      <styleUrl>#pt</styleUrl>
      <description><![CDATA[
        <table>
          <tr><td>XX TWELVE (SH122024)</td></tr>
          <tr><td><hr></td></tr>
          <tr><td>1200 UTC JAN 31, 2024</td></tr>
          <tr><td>Storm Location:</td></tr>
          <tr><td><b>23.9 S, 155.5 E</b></td></tr>
          <tr><td>Min Sea Level Pressure:</td></tr>
          <tr><td>999 mb / 29.50 in Hg</td></tr>
          <tr><td>Maximum Intensity:</td></tr>
          <tr><td>30 kt / 35 mph / 56 kph</td></tr>
        </table>
      ]]></description>
      <Point><coordinates>155.5,-23.9</coordinates></Point>
    </Placemark>
    <Placemark>
      <name>1800 UTC JAN 31</name>
      <styleUrl>#pt</styleUrl>
      <description><![CDATA[
        <table>
          <tr><td>XX TWELVE (SH122024)</td></tr>
          <tr><td><hr></td></tr>
          <tr><td>1800 UTC JAN 31, 2024</td></tr>
          <tr><td>Storm Location:</td></tr>
          <tr><td><b>23.5 S, 155.9 E</b></td></tr>
          <tr><td>Min Sea Level Pressure:</td></tr>
          <tr><td>999 mb / 29.50 in Hg</td></tr>
          <tr><td>Maximum Intensity:</td></tr>
          <tr><td>30 kt / 35 mph / 56 kph</td></tr>
        </table>
      ]]></description>
      <Point><coordinates>155.9,-23.5</coordinates></Point>
    </Placemark>
    <Placemark>
      <name>0000 UTC FEB 1</name>
      <styleUrl>#pt</styleUrl>
      <description><![CDATA[
        <table>
          <tr><td>XX TWELVE (SH122024)</td></tr>
          <tr><td><hr></td></tr>
          <tr><td>0000 UTC FEB 1, 2024</td></tr>
          <tr><td>Storm Location:</td></tr>
          <tr><td><b>23.1 S, 156.3 E</b></td></tr>
          <tr><td>Min Sea Level Pressure:</td></tr>
          <tr><td>999 mb / 29.50 in Hg</td></tr>
          <tr><td>Maximum Intensity:</td></tr>
          <tr><td>30 kt / 35 mph / 56 kph</td></tr>
        </table>
      ]]></description>
      <Point><coordinates>156.3,-23.1</coordinates></Point>
    </Placemark>
    <Placemark>
      <name>0600 UTC FEB 1</name>
      <styleUrl>#pt</styleUrl>
      <description><![CDATA[
        <table>
          <tr><td>XX TWELVE (SH122024)</td></tr>
          <tr><td><hr></td></tr>
          <tr><td>0600 UTC FEB 1, 2024</td></tr>
          <tr><td>Storm Location:</td></tr>
          <tr><td><b>22.3 S, 157.0 E</b></td></tr>
          <tr><td>Min Sea Level Pressure:</td></tr>
          <tr><td>1002 mb / 29.59 in Hg</td></tr>
          <tr><td>Maximum Intensity:</td></tr>
          <tr><td>25 kt / 29 mph / 46 kph</td></tr>
        </table>
      ]]></description>
      <Point><coordinates>157,-22.3</coordinates></Point>
    </Placemark>
    <Placemark>
      <name>1200 UTC FEB 1</name>
      <styleUrl>#pt</styleUrl>
      <description><![CDATA[
        <table>
          <tr><td>XX TWELVE (SH122024)</td></tr>
          <tr><td><hr></td></tr>
          <tr><td>1200 UTC FEB 1, 2024</td></tr>
          <tr><td>Storm Location:</td></tr>
          <tr><td><b>21.3 S, 157.9 E</b></td></tr>
          <tr><td>Min Sea Level Pressure:</td></tr>
          <tr><td>1003 mb / 29.62 in Hg</td></tr>
          <tr><td>Maximum Intensity:</td></tr>
          <tr><td>25 kt / 29 mph / 46 kph</td></tr>
        </table>
      ]]></description>
      <Point><coordinates>157.9,-21.3</coordinates></Point>
    </Placemark>
    <Placemark>
      <name>1800 UTC FEB 1</name>
      <styleUrl>#pt</styleUrl>
      <description><![CDATA[
        <table>
          <tr><td>XX TWELVE (SH122024)</td></tr>
          <tr><td><hr></td></tr>
          <tr><td>1800 UTC FEB 1, 2024</td></tr>
          <tr><td>Storm Location:</td></tr>
          <tr><td><b>20.9 S, 158.6 E</b></td></tr>
          <tr><td>Min Sea Level Pressure:</td></tr>
          <tr><td>1003 mb / 29.62 in Hg</td></tr>
          <tr><td>Maximum Intensity:</td></tr>
          <tr><td>25 kt / 29 mph / 46 kph</td></tr>
        </table>
      ]]></description>
      <Point><coordinates>158.6,-20.9</coordinates></Point>
    </Placemark>
    <Placemark>
      <name>0000 UTC FEB 2</name>
      <styleUrl>#pt</styleUrl>
      <description><![CDATA[
        <table>
          <tr><td>XX TWELVE (SH122024)</td></tr>
          <tr><td><hr></td></tr>
          <tr><td>0000 UTC FEB 2, 2024</td></tr>
          <tr><td>Storm Location:</td></tr>
          <tr><td><b>20.6 S, 159.5 E</b></td></tr>
          <tr><td>Min Sea Level Pressure:</td></tr>
          <tr><td>1003 mb / 29.62 in Hg</td></tr>
          <tr><td>Maximum Intensity:</td></tr>
          <tr><td>25 kt / 29 mph / 46 kph</td></tr>
        </table>
      ]]></description>
      <Point><coordinates>159.5,-20.6</coordinates></Point>
    </Placemark>
    <Placemark>
      <name>0600 UTC FEB 2</name>
      <styleUrl>#pt</styleUrl>
      <description><![CDATA[
        <table>
          <tr><td>XX TWELVE (SH122024)</td></tr>
          <tr><td><hr></td></tr>
          <tr><td>0600 UTC FEB 2, 2024</td></tr>
          <tr><td>Storm Location:</td></tr>
          <tr><td><b>20.7 S, 160.0 E</b></td></tr>
          <tr><td>Min Sea Level Pressure:</td></tr>
          <tr><td>1003 mb / 29.62 in Hg</td></tr>
          <tr><td>Maximum Intensity:</td></tr>
          <tr><td>25 kt / 29 mph / 46 kph</td></tr>
        </table>
      ]]></description>
      <Point><coordinates>160,-20.7</coordinates></Point>
    </Placemark>
    <Placemark>
      <name>1200 UTC FEB 2</name>
      <styleUrl>#pt</styleUrl>
      <description><![CDATA[
        <table>
          <tr><td>XX TWELVE (SH122024)</td></tr>
          <tr><td><hr></td></tr>
          <tr><td>1200 UTC FEB 2, 2024</td></tr>
          <tr><td>Storm Location:</td></tr>
          <tr><td><b>20.8 S, 160.5 E</b></td></tr>
          <tr><td>Min Sea Level Pressure:</td></tr>
          <tr><td>1005 mb / 29.68 in Hg</td></tr>
          <tr><td>Maximum Intensity:</td></tr>
          <tr><td>20 kt / 23 mph / 37 kph</td></tr>
        </table>
      ]]></description>
      <Point><coordinates>160.5,-20.8</coordinates></Point>
    </Placemark>
    <Placemark>
      <name>1800 UTC FEB 2</name>
      <styleUrl>#pt</styleUrl>
      <description><![CDATA[
        <table>
          <tr><td>XX TWELVE (SH122024)</td></tr>
          <tr><td><hr></td></tr>
          <tr><td>1800 UTC FEB 2, 2024</td></tr>
          <tr><td>Storm Location:</td></tr>
          <tr><td><b>20.1 S, 161.5 E</b></td></tr>
          <tr><td>Min Sea Level Pressure:</td></tr>
          <tr><td>1005 mb / 29.68 in Hg</td></tr>
          <tr><td>Maximum Intensity:</td></tr>
          <tr><td>20 kt / 23 mph / 37 kph</td></tr>
        </table>
      ]]></description>
      <Point><coordinates>161.5,-20.1</coordinates></Point>
    </Placemark>
    <Placemark>
      <name>0000 UTC FEB 3</name>
      <styleUrl>#db</styleUrl>
      <description><![CDATA[
        <table>
          <tr><td>DB TWELVE (SH122024)</td></tr>
          <tr><td><hr></td></tr>
          <tr><td>0000 UTC FEB 3, 2024</td></tr>
          <tr><td>Storm Location:</td></tr>
          <tr><td><b>19.5 S, 162.6 E</b></td></tr>
          <tr><td>Min Sea Level Pressure:</td></tr>
          <tr><td>1005 mb / 29.68 in Hg</td></tr>
          <tr><td>Maximum Intensity:</td></tr>
          <tr><td>20 kt / 23 mph / 37 kph</td></tr>
        </table>
      ]]></description>
      <Point><coordinates>162.6,-19.5</coordinates></Point>
    </Placemark>
    <Placemark>
      <name>0600 UTC FEB 3</name>
      <styleUrl>#db</styleUrl>
      <description><![CDATA[
        <table>
          <tr><td>DB TWELVE (SH122024)</td></tr>
          <tr><td><hr></td></tr>
          <tr><td>0600 UTC FEB 3, 2024</td></tr>
          <tr><td>Storm Location:</td></tr>
          <tr><td><b>19.1 S, 163.1 E</b></td></tr>
          <tr><td>Min Sea Level Pressure:</td></tr>
          <tr><td>1005 mb / 29.68 in Hg</td></tr>
          <tr><td>Maximum Intensity:</td></tr>
          <tr><td>20 kt / 23 mph / 37 kph</td></tr>
        </table>
      ]]></description>
      <Point><coordinates>163.1,-19.1</coordinates></Point>
    </Placemark>
    <Placemark>
      <name>1200 UTC FEB 3</name>
      <styleUrl>#td</styleUrl>
      <description><![CDATA[
        <table>
          <tr><td>TD TWELVE (SH122024)</td></tr>
          <tr><td><hr></td></tr>
          <tr><td>1200 UTC FEB 3, 2024</td></tr>
          <tr><td>Storm Location:</td></tr>
          <tr><td><b>18.6 S, 163.4 E</b></td></tr>
          <tr><td>Min Sea Level Pressure:</td></tr>
          <tr><td>1003 mb / 29.62 in Hg</td></tr>
          <tr><td>Maximum Intensity:</td></tr>
          <tr><td>25 kt / 29 mph / 46 kph</td></tr>
        </table>
      ]]></description>
      <Point><coordinates>163.4,-18.6</coordinates></Point>
    </Placemark>
    <Placemark>
      <name>1800 UTC FEB 3</name>
      <styleUrl>#db</styleUrl>
      <description><![CDATA[
        <table>
          <tr><td>DB TWELVE (SH122024)</td></tr>
          <tr><td><hr></td></tr>
          <tr><td>1800 UTC FEB 3, 2024</td></tr>
          <tr><td>Storm Location:</td></tr>
          <tr><td><b>18.3 S, 163.3 E</b></td></tr>
          <tr><td>Min Sea Level Pressure:</td></tr>
          <tr><td>1004 mb / 29.65 in Hg</td></tr>
          <tr><td>Maximum Intensity:</td></tr>
          <tr><td>20 kt / 23 mph / 37 kph</td></tr>
        </table>
      ]]></description>
      <Point><coordinates>163.3,-18.3</coordinates></Point>
    </Placemark>
    <Placemark>
      <name>0000 UTC FEB 4</name>
      <styleUrl>#db</styleUrl>
      <description><![CDATA[
        <table>
          <tr><td>DB TWELVE (SH122024)</td></tr>
          <tr><td><hr></td></tr>
          <tr><td>0000 UTC FEB 4, 2024</td></tr>
          <tr><td>Storm Location:</td></tr>
          <tr><td><b>18.0 S, 163.1 E</b></td></tr>
          <tr><td>Min Sea Level Pressure:</td></tr>
          <tr><td>1005 mb / 29.68 in Hg</td></tr>
          <tr><td>Maximum Intensity:</td></tr>
          <tr><td>20 kt / 23 mph / 37 kph</td></tr>
        </table>
      ]]></description>
      <Point><coordinates>163.1,-18</coordinates></Point>
    </Placemark>
    <Placemark>
      <name>0600 UTC FEB 4</name>
      <styleUrl>#db</styleUrl>
      <description><![CDATA[
        <table>
          <tr><td>DB TWELVE (SH122024)</td></tr>
          <tr><td><hr></td></tr>
          <tr><td>0600 UTC FEB 4, 2024</td></tr>
          <tr><td>Storm Location:</td></tr>
          <tr><td><b>17.9 S, 162.5 E</b></td></tr>
          <tr><td>Min Sea Level Pressure:</td></tr>
          <tr><td>1005 mb / 29.68 in Hg</td></tr>
          <tr><td>Maximum Intensity:</td></tr>
          <tr><td>20 kt / 23 mph / 37 kph</td></tr>
        </table>
      ]]></description>
      <Point><coordinates>162.5,-17.9</coordinates></Point>
    </Placemark>
    <Placemark>
      <name>1200 UTC FEB 4</name>
      <styleUrl>#db</styleUrl>
      <description><![CDATA[
        <table>
          <tr><td>DB TWELVE (SH122024)</td></tr>
          <tr><td><hr></td></tr>
          <tr><td>1200 UTC FEB 4, 2024</td></tr>
          <tr><td>Storm Location:</td></tr>
          <tr><td><b>18.0 S, 161.8 E</b></td></tr>
          <tr><td>Min Sea Level Pressure:</td></tr>
          <tr><td>1005 mb / 29.68 in Hg</td></tr>
          <tr><td>Maximum Intensity:</td></tr>
          <tr><td>20 kt / 23 mph / 37 kph</td></tr>
        </table>
      ]]></description>
      <Point><coordinates>161.8,-18</coordinates></Point>
    </Placemark>
    <Placemark>
      <name>1800 UTC FEB 4</name>
      <styleUrl>#db</styleUrl>
      <description><![CDATA[
        <table>
          <tr><td>DB TWELVE (SH122024)</td></tr>
          <tr><td><hr></td></tr>
          <tr><td>1800 UTC FEB 4, 2024</td></tr>
          <tr><td>Storm Location:</td></tr>
          <tr><td><b>18.0 S, 161.0 E</b></td></tr>
          <tr><td>Min Sea Level Pressure:</td></tr>
          <tr><td>1006 mb / 29.71 in Hg</td></tr>
          <tr><td>Maximum Intensity:</td></tr>
          <tr><td>20 kt / 23 mph / 37 kph</td></tr>
        </table>
      ]]></description>
      <Point><coordinates>161,-18</coordinates></Point>
    </Placemark>
    <Placemark>
      <name>0000 UTC FEB 5</name>
      <styleUrl>#db</styleUrl>
      <description><![CDATA[
        <table>
          <tr><td>DB TWELVE (SH122024)</td></tr>
          <tr><td><hr></td></tr>
          <tr><td>0000 UTC FEB 5, 2024</td></tr>
          <tr><td>Storm Location:</td></tr>
          <tr><td><b>17.9 S, 160.1 E</b></td></tr>
          <tr><td>Min Sea Level Pressure:</td></tr>
          <tr><td>1006 mb / 29.71 in Hg</td></tr>
          <tr><td>Maximum Intensity:</td></tr>
          <tr><td>20 kt / 23 mph / 37 kph</td></tr>
        </table>
      ]]></description>
      <Point><coordinates>160.1,-17.9</coordinates></Point>
    </Placemark>
    <Placemark>
      <name>0600 UTC FEB 5</name>
      <styleUrl>#db</styleUrl>
      <description><![CDATA[
        <table>
          <tr><td>DB TWELVE (SH122024)</td></tr>
          <tr><td><hr></td></tr>
          <tr><td>0600 UTC FEB 5, 2024</td></tr>
          <tr><td>Storm Location:</td></tr>
          <tr><td><b>18.4 S, 159.4 E</b></td></tr>
          <tr><td>Min Sea Level Pressure:</td></tr>
          <tr><td>1005 mb / 29.68 in Hg</td></tr>
          <tr><td>Maximum Intensity:</td></tr>
          <tr><td>20 kt / 23 mph / 37 kph</td></tr>
        </table>
      ]]></description>
      <Point><coordinates>159.4,-18.4</coordinates></Point>
    </Placemark>
    <Placemark>
      <name>1200 UTC FEB 5</name>
      <styleUrl>#db</styleUrl>
      <description><![CDATA[
        <table>
          <tr><td>DB TWELVE (SH122024)</td></tr>
          <tr><td><hr></td></tr>
          <tr><td>1200 UTC FEB 5, 2024</td></tr>
          <tr><td>Storm Location:</td></tr>
          <tr><td><b>18.4 S, 159.3 E</b></td></tr>
          <tr><td>Min Sea Level Pressure:</td></tr>
          <tr><td>1005 mb / 29.68 in Hg</td></tr>
          <tr><td>Maximum Intensity:</td></tr>
          <tr><td>20 kt / 23 mph / 37 kph</td></tr>
        </table>
      ]]></description>
      <Point><coordinates>159.3,-18.4</coordinates></Point>
    </Placemark>
    <Placemark>
      <name>1800 UTC FEB 5</name>
      <styleUrl>#db</styleUrl>
      <description><![CDATA[
        <table>
          <tr><td>DB TWELVE (SH122024)</td></tr>
          <tr><td><hr></td></tr>
          <tr><td>1800 UTC FEB 5, 2024</td></tr>
          <tr><td>Storm Location:</td></tr>
          <tr><td><b>18.3 S, 159.3 E</b></td></tr>
          <tr><td>Min Sea Level Pressure:</td></tr>
          <tr><td>1005 mb / 29.68 in Hg</td></tr>
          <tr><td>Maximum Intensity:</td></tr>
          <tr><td>20 kt / 23 mph / 37 kph</td></tr>
        </table>
      ]]></description>
      <Point><coordinates>159.3,-18.3</coordinates></Point>
    </Placemark>
    <Placemark>
      <name>0000 UTC FEB 6</name>
      <styleUrl>#db</styleUrl>
      <description><![CDATA[
        <table>
          <tr><td>DB TWELVE (SH122024)</td></tr>
          <tr><td><hr></td></tr>
          <tr><td>0000 UTC FEB 6, 2024</td></tr>
          <tr><td>Storm Location:</td></tr>
          <tr><td><b>18.2 S, 159.4 E</b></td></tr>
          <tr><td>Min Sea Level Pressure:</td></tr>
          <tr><td>1005 mb / 29.68 in Hg</td></tr>
          <tr><td>Maximum Intensity:</td></tr>
          <tr><td>20 kt / 23 mph / 37 kph</td></tr>
        </table>
      ]]></description>
      <Point><coordinates>159.4,-18.2</coordinates></Point>
    </Placemark>
    <Placemark>
      <name>0600 UTC FEB 6</name>
      <styleUrl>#db</styleUrl>
      <description><![CDATA[
        <table>
          <tr><td>DB TWELVE (SH122024)</td></tr>
          <tr><td><hr></td></tr>
          <tr><td>0600 UTC FEB 6, 2024</td></tr>
          <tr><td>Storm Location:</td></tr>
          <tr><td><b>17.8 S, 159.1 E</b></td></tr>
          <tr><td>Min Sea Level Pressure:</td></tr>
          <tr><td>1005 mb / 29.68 in Hg</td></tr>
          <tr><td>Maximum Intensity:</td></tr>
          <tr><td>20 kt / 23 mph / 37 kph</td></tr>
        </table>
      ]]></description>
      <Point><coordinates>159.1,-17.8</coordinates></Point>
    </Placemark>
    <Placemark>
      <name>1200 UTC FEB 6</name>
      <styleUrl>#db</styleUrl>
      <description><![CDATA[
        <table>
          <tr><td>DB TWELVE (SH122024)</td></tr>
          <tr><td><hr></td></tr>
          <tr><td>1200 UTC FEB 6, 2024</td></tr>
          <tr><td>Storm Location:</td></tr>
          <tr><td><b>17.2 S, 159.0 E</b></td></tr>
          <tr><td>Min Sea Level Pressure:</td></tr>
          <tr><td>1004 mb / 29.65 in Hg</td></tr>
          <tr><td>Maximum Intensity:</td></tr>
          <tr><td>20 kt / 23 mph / 37 kph</td></tr>
        </table>
      ]]></description>
      <Point><coordinates>159,-17.2</coordinates></Point>
    </Placemark>
    <Placemark>
      <name>1800 UTC FEB 6</name>
      <styleUrl>#db</styleUrl>
      <description><![CDATA[
        <table>
          <tr><td>DB TWELVE (SH122024)</td></tr>
          <tr><td><hr></td></tr>
          <tr><td>1800 UTC FEB 6, 2024</td></tr>
          <tr><td>Storm Location:</td></tr>
          <tr><td><b>16.8 S, 159.0 E</b></td></tr>
          <tr><td>Min Sea Level Pressure:</td></tr>
          <tr><td>1004 mb / 29.65 in Hg</td></tr>
          <tr><td>Maximum Intensity:</td></tr>
          <tr><td>20 kt / 23 mph / 37 kph</td></tr>
        </table>
      ]]></description>
      <Point><coordinates>159,-16.8</coordinates></Point>
    </Placemark>
    <Placemark>
      <name>0000 UTC FEB 7</name>
      <styleUrl>#db</styleUrl>
      <description><![CDATA[
        <table>
          <tr><td>DB TWELVE (SH122024)</td></tr>
          <tr><td><hr></td></tr>
          <tr><td>0000 UTC FEB 7, 2024</td></tr>
          <tr><td>Storm Location:</td></tr>
          <tr><td><b>16.5 S, 159.3 E</b></td></tr>
          <tr><td>Min Sea Level Pressure:</td></tr>
          <tr><td>1004 mb / 29.65 in Hg</td></tr>
          <tr><td>Maximum Intensity:</td></tr>
          <tr><td>20 kt / 23 mph / 37 kph</td></tr>
        </table>
      ]]></description>
      <Point><coordinates>159.3,-16.5</coordinates></Point>
    </Placemark>
    <Placemark>
      <name>0600 UTC FEB 7</name>
      <styleUrl>#td</styleUrl>
      <description><![CDATA[
        <table>
          <tr><td>TD TWELVE (SH122024)</td></tr>
          <tr><td><hr></td></tr>
          <tr><td>0600 UTC FEB 7, 2024</td></tr>
          <tr><td>Storm Location:</td></tr>
          <tr><td><b>16.2 S, 159.7 E</b></td></tr>
          <tr><td>Min Sea Level Pressure:</td></tr>
          <tr><td>1001 mb / 29.56 in Hg</td></tr>
          <tr><td>Maximum Intensity:</td></tr>
          <tr><td>25 kt / 29 mph / 46 kph</td></tr>
        </table>
      ]]></description>
      <Point><coordinates>159.7,-16.2</coordinates></Point>
    </Placemark>
    <Placemark>
      <name>1200 UTC FEB 7</name>
      <styleUrl>#td</styleUrl>
      <description><![CDATA[
        <table>
          <tr><td>TD TWELVE (SH122024)</td></tr>
          <tr><td><hr></td></tr>
          <tr><td>1200 UTC FEB 7, 2024</td></tr>
          <tr><td>Storm Location:</td></tr>
          <tr><td><b>15.8 S, 160.2 E</b></td></tr>
          <tr><td>Min Sea Level Pressure:</td></tr>
          <tr><td>1001 mb / 29.56 in Hg</td></tr>
          <tr><td>Maximum Intensity:</td></tr>
          <tr><td>25 kt / 29 mph / 46 kph</td></tr>
        </table>
      ]]></description>
      <Point><coordinates>160.2,-15.8</coordinates></Point>
    </Placemark>
    <Placemark>
      <name>1800 UTC FEB 7</name>
      <styleUrl>#td</styleUrl>
      <description><![CDATA[
        <table>
          <tr><td>TD TWELVE (SH122024)</td></tr>
          <tr><td><hr></td></tr>
          <tr><td>1800 UTC FEB 7, 2024</td></tr>
          <tr><td>Storm Location:</td></tr>
          <tr><td><b>15.5 S, 161.3 E</b></td></tr>
          <tr><td>Min Sea Level Pressure:</td></tr>
          <tr><td>999 mb / 29.50 in Hg</td></tr>
          <tr><td>Maximum Intensity:</td></tr>
          <tr><td>30 kt / 35 mph / 56 kph</td></tr>
        </table>
      ]]></description>
      <Point><coordinates>161.3,-15.5</coordinates></Point>
    </Placemark>
    <Placemark>
      <name>0000 UTC FEB 8</name>
      <styleUrl>#td</styleUrl>
      <description><![CDATA[
        <table>
          <tr><td>TD TWELVE (SH122024)</td></tr>
          <tr><td><hr></td></tr>
          <tr><td>0000 UTC FEB 8, 2024</td></tr>
          <tr><td>Storm Location:</td></tr>
          <tr><td><b>15.4 S, 162.5 E</b></td></tr>
          <tr><td>Min Sea Level Pressure:</td></tr>
          <tr><td>999 mb / 29.50 in Hg</td></tr>
          <tr><td>Maximum Intensity:</td></tr>
          <tr><td>30 kt / 35 mph / 56 kph</td></tr>
        </table>
      ]]></description>
      <Point><coordinates>162.5,-15.4</coordinates></Point>
    </Placemark>
    <Placemark>
      <name>0600 UTC FEB 8</name>
      <styleUrl>#ts</styleUrl>
      <description><![CDATA[
        <table>
          <tr><td>TS TWELVE (SH122024)</td></tr>
          <tr><td><hr></td></tr>
          <tr><td>0600 UTC FEB 8, 2024</td></tr>
          <tr><td>Storm Location:</td></tr>
          <tr><td><b>15.6 S, 163.3 E</b></td></tr>
          <tr><td>Min Sea Level Pressure:</td></tr>
          <tr><td>997 mb / 29.44 in Hg</td></tr>
          <tr><td>Maximum Intensity:</td></tr>
          <tr><td>35 kt / 40 mph / 65 kph</td></tr>
        </table>
      ]]></description>
      <Point><coordinates>163.3,-15.6</coordinates></Point>
    </Placemark>
    <Placemark>
      <name>1200 UTC FEB 8</name>
      <styleUrl>#ts</styleUrl>
      <description><![CDATA[
        <table>
          <tr><td>TS TWELVE (SH122024)</td></tr>
          <tr><td><hr></td></tr>
          <tr><td>1200 UTC FEB 8, 2024</td></tr>
          <tr><td>Storm Location:</td></tr>
          <tr><td><b>16.0 S, 164.0 E</b></td></tr>
          <tr><td>Min Sea Level Pressure:</td></tr>
          <tr><td>995 mb / 29.38 in Hg</td></tr>
          <tr><td>Maximum Intensity:</td></tr>
          <tr><td>40 kt / 46 mph / 74 kph</td></tr>
        </table>
      ]]></description>
      <Point><coordinates>164,-16</coordinates></Point>
    </Placemark>
    <Placemark>
      <name>1800 UTC FEB 8</name>
      <styleUrl>#ts</styleUrl>
      <description><![CDATA[
        <table>
          <tr><td>TS TWELVE (SH122024)</td></tr>
          <tr><td><hr></td></tr>
          <tr><td>1800 UTC FEB 8, 2024</td></tr>
          <tr><td>Storm Location:</td></tr>
          <tr><td><b>16.3 S, 164.6 E</b></td></tr>
          <tr><td>Min Sea Level Pressure:</td></tr>
          <tr><td>998 mb / 29.47 in Hg</td></tr>
          <tr><td>Maximum Intensity:</td></tr>
          <tr><td>35 kt / 40 mph / 65 kph</td></tr>
        </table>
      ]]></description>
      <Point><coordinates>164.6,-16.3</coordinates></Point>
    </Placemark>
    <Placemark>
      <name>0000 UTC FEB 9</name>
      <styleUrl>#ts</styleUrl>
      <description><![CDATA[
        <table>
          <tr><td>TS TWELVE (SH122024)</td></tr>
          <tr><td><hr></td></tr>
          <tr><td>0000 UTC FEB 9, 2024</td></tr>
          <tr><td>Storm Location:</td></tr>
          <tr><td><b>16.5 S, 165.1 E</b></td></tr>
          <tr><td>Min Sea Level Pressure:</td></tr>
          <tr><td>998 mb / 29.47 in Hg</td></tr>
          <tr><td>Maximum Intensity:</td></tr>
          <tr><td>35 kt / 40 mph / 65 kph</td></tr>
        </table>
      ]]></description>
      <Point><coordinates>165.1,-16.5</coordinates></Point>
    </Placemark>
    <Placemark>
      <name>0600 UTC FEB 9</name>
      <styleUrl>#ts</styleUrl>
      <description><![CDATA[
        <table>
          <tr><td>TS TWELVE (SH122024)</td></tr>
          <tr><td><hr></td></tr>
          <tr><td>0600 UTC FEB 9, 2024</td></tr>
          <tr><td>Storm Location:</td></tr>
          <tr><td><b>16.7 S, 165.5 E</b></td></tr>
          <tr><td>Min Sea Level Pressure:</td></tr>
          <tr><td>998 mb / 29.47 in Hg</td></tr>
          <tr><td>Maximum Intensity:</td></tr>
          <tr><td>35 kt / 40 mph / 65 kph</td></tr>
        </table>
      ]]></description>
      <Point><coordinates>165.5,-16.7</coordinates></Point>
    </Placemark>
    <Placemark>
      <name>1200 UTC FEB 9</name>
      <styleUrl>#ts</styleUrl>
      <description><![CDATA[
        <table>
          <tr><td>TS TWELVE (SH122024)</td></tr>
          <tr><td><hr></td></tr>
          <tr><td>1200 UTC FEB 9, 2024</td></tr>
          <tr><td>Storm Location:</td></tr>
          <tr><td><b>16.9 S, 166.0 E</b></td></tr>
          <tr><td>Min Sea Level Pressure:</td></tr>
          <tr><td>998 mb / 29.47 in Hg</td></tr>
          <tr><td>Maximum Intensity:</td></tr>
          <tr><td>35 kt / 40 mph / 65 kph</td></tr>
        </table>
      ]]></description>
      <Point><coordinates>166,-16.9</coordinates></Point>
    </Placemark>
    <Placemark>
      <name>1800 UTC FEB 9</name>
      <styleUrl>#ts</styleUrl>
      <description><![CDATA[
        <table>
          <tr><td>TS TWELVE (SH122024)</td></tr>
          <tr><td><hr></td></tr>
          <tr><td>1800 UTC FEB 9, 2024</td></tr>
          <tr><td>Storm Location:</td></tr>
          <tr><td><b>17.2 S, 167.2 E</b></td></tr>
          <tr><td>Min Sea Level Pressure:</td></tr>
          <tr><td>998 mb / 29.47 in Hg</td></tr>
          <tr><td>Maximum Intensity:</td></tr>
          <tr><td>35 kt / 40 mph / 65 kph</td></tr>
        </table>
      ]]></description>
      <Point><coordinates>167.2,-17.2</coordinates></Point>
    </Placemark>
    <Placemark>
      <name>0000 UTC FEB 10</name>
      <styleUrl>#ts</styleUrl>
      <description><![CDATA[
        <table>
          <tr><td>TS TWELVE (SH122024)</td></tr>
          <tr><td><hr></td></tr>
          <tr><td>0000 UTC FEB 10, 2024</td></tr>
          <tr><td>Storm Location:</td></tr>
          <tr><td><b>17.5 S, 168.5 E</b></td></tr>
          <tr><td>Min Sea Level Pressure:</td></tr>
          <tr><td>999 mb / 29.50 in Hg</td></tr>
          <tr><td>Maximum Intensity:</td></tr>
          <tr><td>35 kt / 40 mph / 65 kph</td></tr>
        </table>
      ]]></description>
      <Point><coordinates>168.5,-17.5</coordinates></Point>
    </Placemark>
    <Placemark>
      <name>0600 UTC FEB 10</name>
      <styleUrl>#td</styleUrl>
      <description><![CDATA[
        <table>
          <tr><td>TD TWELVE (SH122024)</td></tr>
          <tr><td><hr></td></tr>
          <tr><td>0600 UTC FEB 10, 2024</td></tr>
          <tr><td>Storm Location:</td></tr>
          <tr><td><b>18.0 S, 170.6 E</b></td></tr>
          <tr><td>Min Sea Level Pressure:</td></tr>
          <tr><td>1000 mb / 29.53 in Hg</td></tr>
          <tr><td>Maximum Intensity:</td></tr>
          <tr><td>30 kt / 35 mph / 56 kph</td></tr>
        </table>
      ]]></description>
      <Point><coordinates>170.6,-18</coordinates></Point>
    </Placemark>
    <Placemark>
      <name>1200 UTC FEB 10</name>
      <styleUrl>#ts</styleUrl>
      <description><![CDATA[
        <table>
          <tr><td>TS TWELVE (SH122024)</td></tr>
          <tr><td><hr></td></tr>
          <tr><td>1200 UTC FEB 10, 2024</td></tr>
          <tr><td>Storm Location:</td></tr>
          <tr><td><b>18.5 S, 172.5 E</b></td></tr>
          <tr><td>Min Sea Level Pressure:</td></tr>
          <tr><td>999 mb / 29.50 in Hg</td></tr>
          <tr><td>Maximum Intensity:</td></tr>
          <tr><td>35 kt / 40 mph / 65 kph</td></tr>
        </table>
      ]]></description>
      <Point><coordinates>172.5,-18.5</coordinates></Point>
    </Placemark>
    <Placemark>
      <name>1800 UTC FEB 10</name>
      <styleUrl>#ts</styleUrl>
      <description><![CDATA[
        <table>
          <tr><td>TS TWELVE (SH122024)</td></tr>
          <tr><td><hr></td></tr>
          <tr><td>1800 UTC FEB 10, 2024</td></tr>
          <tr><td>Storm Location:</td></tr>
          <tr><td><b>18.9 S, 173.5 E</b></td></tr>
          <tr><td>Min Sea Level Pressure:</td></tr>
          <tr><td>999 mb / 29.50 in Hg</td></tr>
          <tr><td>Maximum Intensity:</td></tr>
          <tr><td>35 kt / 40 mph / 65 kph</td></tr>
        </table>
      ]]></description>
      <Point><coordinates>173.5,-18.9</coordinates></Point>
    </Placemark>
    <Placemark>
      <name>0000 UTC FEB 11</name>
      <styleUrl>#ts</styleUrl>
      <description><![CDATA[
        <table>
          <tr><td>TS TWELVE (SH122024)</td></tr>
          <tr><td><hr></td></tr>
          <tr><td>0000 UTC FEB 11, 2024</td></tr>
          <tr><td>Storm Location:</td></tr>
          <tr><td><b>19.2 S, 174.6 E</b></td></tr>
          <tr><td>Min Sea Level Pressure:</td></tr>
          <tr><td>999 mb / 29.50 in Hg</td></tr>
          <tr><td>Maximum Intensity:</td></tr>
          <tr><td>35 kt / 40 mph / 65 kph</td></tr>
        </table>
      ]]></description>
      <Point><coordinates>174.6,-19.2</coordinates></Point>
    </Placemark>
    <Placemark>
      <name>0600 UTC FEB 11</name>
      <styleUrl>#td</styleUrl>
      <description><![CDATA[
        <table>
          <tr><td>TD TWELVE (SH122024)</td></tr>
          <tr><td><hr></td></tr>
          <tr><td>0600 UTC FEB 11, 2024</td></tr>
          <tr><td>Storm Location:</td></tr>
          <tr><td><b>19.0 S, 175.2 E</b></td></tr>
          <tr><td>Min Sea Level Pressure:</td></tr>
          <tr><td>1002 mb / 29.59 in Hg</td></tr>
          <tr><td>Maximum Intensity:</td></tr>
          <tr><td>30 kt / 35 mph / 56 kph</td></tr>
        </table>
      ]]></description>
      <Point><coordinates>175.2,-19</coordinates></Point>
    </Placemark>
    <Placemark>
      <name>1200 UTC FEB 11</name>
      <styleUrl>#td</styleUrl>
      <description><![CDATA[
        <table>
          <tr><td>TD TWELVE (SH122024)</td></tr>
          <tr><td><hr></td></tr>
          <tr><td>1200 UTC FEB 11, 2024</td></tr>
          <tr><td>Storm Location:</td></tr>
          <tr><td><b>18.7 S, 175.7 E</b></td></tr>
          <tr><td>Min Sea Level Pressure:</td></tr>
          <tr><td>1002 mb / 29.59 in Hg</td></tr>
          <tr><td>Maximum Intensity:</td></tr>
          <tr><td>30 kt / 35 mph / 56 kph</td></tr>
        </table>
      ]]></description>
      <Point><coordinates>175.7,-18.7</coordinates></Point>
    </Placemark>
    <Placemark>
      <name>1800 UTC FEB 11</name>
      <styleUrl>#td</styleUrl>
      <description><![CDATA[
        <table>
          <tr><td>TD TWELVE (SH122024)</td></tr>
          <tr><td><hr></td></tr>
          <tr><td>1800 UTC FEB 11, 2024</td></tr>
          <tr><td>Storm Location:</td></tr>
          <tr><td><b>18.9 S, 176.0 E</b></td></tr>
          <tr><td>Min Sea Level Pressure:</td></tr>
          <tr><td>1003 mb / 29.62 in Hg</td></tr>
          <tr><td>Maximum Intensity:</td></tr>
          <tr><td>25 kt / 29 mph / 46 kph</td></tr>
        </table>
      ]]></description>
      <Point><coordinates>176,-18.9</coordinates></Point>
    </Placemark>
    <Placemark>
      <name>0000 UTC FEB 12</name>
      <styleUrl>#td</styleUrl>
      <description><![CDATA[
        <table>
          <tr><td>TD TWELVE (SH122024)</td></tr>
          <tr><td><hr></td></tr>
          <tr><td>0000 UTC FEB 12, 2024</td></tr>
          <tr><td>Storm Location:</td></tr>
          <tr><td><b>19.2 S, 176.1 E</b></td></tr>
          <tr><td>Min Sea Level Pressure:</td></tr>
          <tr><td>1003 mb / 29.62 in Hg</td></tr>
          <tr><td>Maximum Intensity:</td></tr>
          <tr><td>25 kt / 29 mph / 46 kph</td></tr>
        </table>
      ]]></description>
      <Point><coordinates>176.1,-19.2</coordinates></Point>
    </Placemark>
    <Placemark>
      <name>0600 UTC FEB 12</name>
      <styleUrl>#td</styleUrl>
      <description><![CDATA[
        <table>
          <tr><td>TD TWELVE (SH122024)</td></tr>
          <tr><td><hr></td></tr>
          <tr><td>0600 UTC FEB 12, 2024</td></tr>
          <tr><td>Storm Location:</td></tr>
          <tr><td><b>19.1 S, 176.6 E</b></td></tr>
          <tr><td>Min Sea Level Pressure:</td></tr>
          <tr><td>1003 mb / 29.62 in Hg</td></tr>
          <tr><td>Maximum Intensity:</td></tr>
          <tr><td>25 kt / 29 mph / 46 kph</td></tr>
        </table>
      ]]></description>
      <Point><coordinates>176.6,-19.1</coordinates></Point>
    </Placemark>
    <Placemark>
      <name>1200 UTC FEB 12</name>
      <styleUrl>#td</styleUrl>
      <description><![CDATA[
        <table>
          <tr><td>TD TWELVE (SH122024)</td></tr>
          <tr><td><hr></td></tr>
          <tr><td>1200 UTC FEB 12, 2024</td></tr>
          <tr><td>Storm Location:</td></tr>
          <tr><td><b>19.1 S, 176.3 E</b></td></tr>
          <tr><td>Min Sea Level Pressure:</td></tr>
          <tr><td>1003 mb / 29.62 in Hg</td></tr>
          <tr><td>Maximum Intensity:</td></tr>
          <tr><td>25 kt / 29 mph / 46 kph</td></tr>
        </table>
      ]]></description>
      <Point><coordinates>176.3,-19.1</coordinates></Point>
    </Placemark>
    <Placemark>
      <name>1800 UTC FEB 12</name>
      <styleUrl>#db</styleUrl>
      <description><![CDATA[
        <table>
          <tr><td>DB TWELVE (SH122024)</td></tr>
          <tr><td><hr></td></tr>
          <tr><td>1800 UTC FEB 12, 2024</td></tr>
          <tr><td>Storm Location:</td></tr>
          <tr><td><b>19.0 S, 175.9 E</b></td></tr>
          <tr><td>Min Sea Level Pressure:</td></tr>
          <tr><td>1004 mb / 29.65 in Hg</td></tr>
          <tr><td>Maximum Intensity:</td></tr>
          <tr><td>20 kt / 23 mph / 37 kph</td></tr>
        </table>
      ]]></description>
      <Point><coordinates>175.9,-19</coordinates></Point>
    </Placemark>
    <Placemark>
      <name>0000 UTC FEB 13</name>
      <styleUrl>#db</styleUrl>
      <description><![CDATA[
        <table>
          <tr><td>DB TWELVE (SH122024)</td></tr>
          <tr><td><hr></td></tr>
          <tr><td>0000 UTC FEB 13, 2024</td></tr>
          <tr><td>Storm Location:</td></tr>
          <tr><td><b>18.8 S, 175.6 E</b></td></tr>
          <tr><td>Min Sea Level Pressure:</td></tr>
          <tr><td>1004 mb / 29.65 in Hg</td></tr>
          <tr><td>Maximum Intensity:</td></tr>
          <tr><td>20 kt / 23 mph / 37 kph</td></tr>
        </table>
      ]]></description>
      <Point><coordinates>175.6,-18.8</coordinates></Point>
    </Placemark>
    <Placemark>
      <name>0600 UTC FEB 13</name>
      <styleUrl>#db</styleUrl>
      <description><![CDATA[
        <table>
          <tr><td>DB TWELVE (SH122024)</td></tr>
          <tr><td><hr></td></tr>
          <tr><td>0600 UTC FEB 13, 2024</td></tr>
          <tr><td>Storm Location:</td></tr>
          <tr><td><b>18.3 S, 174.8 E</b></td></tr>
          <tr><td>Min Sea Level Pressure:</td></tr>
          <tr><td>1004 mb / 29.65 in Hg</td></tr>
          <tr><td>Maximum Intensity:</td></tr>
          <tr><td>15 kt / 17 mph / 28 kph</td></tr>
        </table>
      ]]></description>
      <Point><coordinates>174.8,-18.3</coordinates></Point>
    </Placemark>
  </Document>
</kml>
