<?xml version="1.0" encoding="UTF-8"?>
<kml xmlns="http://www.opengis.net/kml/2.2">
  <Document>
    <name>SH132024</name>
    <open>0</open>

    <!-- =====  Document header ===== -->
    <description><![CDATA[
      <table>
        <tr><td><b>Title:</b> Tropical Cyclone Best Track for SH132024</td></tr>
      </table>
    ]]></description>

    <!-- =====  Styles (ids must be unique)  ===== -->
	<Style id="pt"> 
		<IconStyle> 
			<scale>1.0</scale> 
			<Icon> 
				<href>ex_nhemi.png</href> 
			</Icon> 
             <hotSpot x="15" y="17" xunits="pixels" yunits="pixels"/>
		</IconStyle> 
		<LabelStyle> 
			<scale>1.0</scale> 
		</LabelStyle> 
	</Style>
	<Style id="cat5"> 
		<IconStyle> 
			<scale>1.0</scale> 
			<Icon> 
				<href>cat5_nhemi.png</href> 
			</Icon> 
             <hotSpot x="15" y="17" xunits="pixels" yunits="pixels"/>
		</IconStyle> 
		<LabelStyle> 
			<scale>1.0</scale> 
		</LabelStyle> 
	</Style>
	<Style id="db"> 
		<IconStyle> 
			<scale>1.0</scale> 
			<Icon> 
				<href>ex_nhemi.png</href> 
			</Icon> 
             <hotSpot x="15" y="17" xunits="pixels" yunits="pixels"/>
		</IconStyle> 
		<LabelStyle> 
			<scale>1.0</scale> 
		</LabelStyle> 
	</Style>
	<Style id="cat3"> 
		<IconStyle> 
			<scale>1.0</scale> 
			<Icon> 
				<href>cat3_nhemi.png</href> 
			</Icon> 
             <hotSpot x="15" y="17" xunits="pixels" yunits="pixels"/>
		</IconStyle> 
		<LabelStyle> 
			<scale>1.0</scale> 
		</LabelStyle> 
	</Style>
	<Style id="ss"> 
		<IconStyle> 
			<scale>1.0</scale> 
			<Icon> 
				<href>ts_nhemi.png</href> 
			</Icon> 
             <hotSpot x="15" y="17" xunits="pixels" yunits="pixels"/>
		</IconStyle> 
		<LabelStyle> 
			<scale>1.0</scale> 
		</LabelStyle> 
	</Style>
	<Style id="lo"> 
		<IconStyle> 
			<scale>1.0</scale> 
			<Icon> 
				<href>ex_nhemi.png</href> 
			</Icon> 
             <hotSpot x="15" y="17" xunits="pixels" yunits="pixels"/>
		</IconStyle> 
		<LabelStyle> 
			<scale>1.0</scale> 
		</LabelStyle> 
	</Style>
	<Style id="cat4"> 
		<IconStyle> 
			<scale>1.0</scale> 
			<Icon> 
				<href>cat4_nhemi.png</href> 
			</Icon> 
             <hotSpot x="15" y="17" xunits="pixels" yunits="pixels"/>
		</IconStyle> 
		<LabelStyle> 
			<scale>1.0</scale> 
		</LabelStyle> 
	</Style>
	<Style id="cat2"> 
		<IconStyle> 
			<scale>1.0</scale> 
			<Icon> 
				<href>cat2_nhemi.png</href> 
			</Icon> 
             <hotSpot x="15" y="17" xunits="pixels" yunits="pixels"/>
		</IconStyle> 
		<LabelStyle> 
			<scale>1.0</scale> 
		</LabelStyle> 
	</Style>
	<Style id="ts"> 
		<IconStyle> 
			<scale>1.0</scale> 
			<Icon> 
				<href>ts_nhemi.png</href> 
			</Icon> 
             <hotSpot x="15" y="17" xunits="pixels" yunits="pixels"/>
		</IconStyle> 
		<LabelStyle> 
			<scale>1.0</scale> 
		</LabelStyle> 
	</Style>
	<Style id="cat1"> 
		<IconStyle> 
			<scale>1.0</scale> 
			<Icon> 
				<href>cat1_nhemi.png</href> 
			</Icon> 
             <hotSpot x="15" y="17" xunits="pixels" yunits="pixels"/>
		</IconStyle> 
		<LabelStyle> 
			<scale>1.0</scale> 
		</LabelStyle> 
	</Style>
	<Style id="ex"> 
		<IconStyle> 
			<scale>1.0</scale> 
			<Icon> 
				<href>ex_nhemi.png</href> 
			</Icon> 
             <hotSpot x="15" y="17" xunits="pixels" yunits="pixels"/>
		</IconStyle> 
		<LabelStyle> 
			<scale>1.0</scale> 
		</LabelStyle> 
	</Style>
	<Style id="tc"> 
		<IconStyle> 
			<scale>1.0</scale> 
			<Icon> 
				<href>ex_nhemi.png</href> 
			</Icon> 
             <hotSpot x="15" y="17" xunits="pixels" yunits="pixels"/>
		</IconStyle> 
		<LabelStyle> 
			<scale>1.0</scale> 
		</LabelStyle> 
	</Style>
	<Style id="wv"> 
		<IconStyle> 
			<scale>1.0</scale> 
			<Icon> 
				<href>ex_nhemi.png</href> 
			</Icon> 
             <hotSpot x="15" y="17" xunits="pixels" yunits="pixels"/>
		</IconStyle> 
		<LabelStyle> 
			<scale>1.0</scale> 
		</LabelStyle> 
	</Style>
	<Style id="td"> 
		<IconStyle> 
			<scale>1.0</scale> 
			<Icon> 
				<href>td_nhemi.png</href> 
			</Icon> 
             <hotSpot x="15" y="17" xunits="pixels" yunits="pixels"/>
		</IconStyle> 
		<LabelStyle> 
			<scale>1.0</scale> 
		</LabelStyle> 
	</Style>
	<Style id="sd"> 
		<IconStyle> 
			<scale>1.0</scale> 
			<Icon> 
				<href>ex_nhemi.png</href> 
			</Icon> 
             <hotSpot x="15" y="17" xunits="pixels" yunits="pixels"/>
		</IconStyle> 
		<LabelStyle> 
			<scale>1.0</scale> 
		</LabelStyle> 
	</Style>

    <Placemark>
      <name>1800 UTC FEB 13</name>
      <styleUrl>#db</styleUrl>
      <description><![CDATA[
        <table>
          <tr><td>DB DJOUNGOU (SH132024)</td></tr>
          <tr><td><hr></td></tr>
          <tr><td>1800 UTC FEB 13, 2024</td></tr>
          <tr><td>Storm Location:</td></tr>
          <tr><td><b>13.3 S, 65.8 E</b></td></tr>
          <tr><td>Min Sea Level Pressure:</td></tr>
          <tr><td>1007 mb / 29.74 in Hg</td></tr>
          <tr><td>Maximum Intensity:</td></tr>
          <tr><td>20 kt / 23 mph / 37 kph</td></tr>
        </table>
      ]]></description>
      <Point><coordinates>65.8,-13.3</coordinates></Point>
    </Placemark>
    <Placemark>
      <name>0000 UTC FEB 14</name>
      <styleUrl>#db</styleUrl>
      <description><![CDATA[
        <table>
          <tr><td>DB DJOUNGOU (SH132024)</td></tr>
          <tr><td><hr></td></tr>
          <tr><td>0000 UTC FEB 14, 2024</td></tr>
          <tr><td>Storm Location:</td></tr>
          <tr><td><b>13.5 S, 65.6 E</b></td></tr>
          <tr><td>Min Sea Level Pressure:</td></tr>
          <tr><td>1007 mb / 29.74 in Hg</td></tr>
          <tr><td>Maximum Intensity:</td></tr>
          <tr><td>20 kt / 23 mph / 37 kph</td></tr>
        </table>
      ]]></description>
      <Point><coordinates>65.6,-13.5</coordinates></Point>
    </Placemark>
    <Placemark>
      <name>0600 UTC FEB 14</name>
      <styleUrl>#db</styleUrl>
      <description><![CDATA[
        <table>
          <tr><td>DB DJOUNGOU (SH132024)</td></tr>
          <tr><td><hr></td></tr>
          <tr><td>0600 UTC FEB 14, 2024</td></tr>
          <tr><td>Storm Location:</td></tr>
          <tr><td><b>13.7 S, 65.4 E</b></td></tr>
          <tr><td>Min Sea Level Pressure:</td></tr>
          <tr><td>1005 mb / 29.68 in Hg</td></tr>
          <tr><td>Maximum Intensity:</td></tr>
          <tr><td>20 kt / 23 mph / 37 kph</td></tr>
        </table>
      ]]></description>
      <Point><coordinates>65.4,-13.7</coordinates></Point>
    </Placemark>
    <Placemark>
      <name>1200 UTC FEB 14</name>
      <styleUrl>#db</styleUrl>
      <description><![CDATA[
        <table>
          <tr><td>DB DJOUNGOU (SH132024)</td></tr>
          <tr><td><hr></td></tr>
          <tr><td>1200 UTC FEB 14, 2024</td></tr>
          <tr><td>Storm Location:</td></tr>
          <tr><td><b>14.2 S, 64.9 E</b></td></tr>
          <tr><td>Min Sea Level Pressure:</td></tr>
          <tr><td>1004 mb / 29.65 in Hg</td></tr>
          <tr><td>Maximum Intensity:</td></tr>
          <tr><td>20 kt / 23 mph / 37 kph</td></tr>
        </table>
      ]]></description>
      <Point><coordinates>64.9,-14.2</coordinates></Point>
    </Placemark>
    <Placemark>
      <name>1800 UTC FEB 14</name>
      <styleUrl>#td</styleUrl>
      <description><![CDATA[
        <table>
          <tr><td>TD DJOUNGOU (SH132024)</td></tr>
          <tr><td><hr></td></tr>
          <tr><td>1800 UTC FEB 14, 2024</td></tr>
          <tr><td>Storm Location:</td></tr>
          <tr><td><b>14.7 S, 64.3 E</b></td></tr>
          <tr><td>Min Sea Level Pressure:</td></tr>
          <tr><td>1003 mb / 29.62 in Hg</td></tr>
          <tr><td>Maximum Intensity:</td></tr>
          <tr><td>25 kt / 29 mph / 46 kph</td></tr>
        </table>
      ]]></description>
      <Point><coordinates>64.3,-14.7</coordinates></Point>
    </Placemark>
    <Placemark>
      <name>0000 UTC FEB 15</name>
      <styleUrl>#td</styleUrl>
      <description><![CDATA[
        <table>
          <tr><td>TD DJOUNGOU (SH132024)</td></tr>
          <tr><td><hr></td></tr>
          <tr><td>0000 UTC FEB 15, 2024</td></tr>
          <tr><td>Storm Location:</td></tr>
          <tr><td><b>15.0 S, 64.1 E</b></td></tr>
          <tr><td>Min Sea Level Pressure:</td></tr>
          <tr><td>1002 mb / 29.59 in Hg</td></tr>
          <tr><td>Maximum Intensity:</td></tr>
          <tr><td>30 kt / 35 mph / 56 kph</td></tr>
        </table>
      ]]></description>
      <Point><coordinates>64.1,-15</coordinates></Point>
    </Placemark>
    <Placemark>
      <name>0600 UTC FEB 15</name>
      <styleUrl>#td</styleUrl>
      <description><![CDATA[
        <table>
          <tr><td>TD DJOUNGOU (SH132024)</td></tr>
          <tr><td><hr></td></tr>
          <tr><td>0600 UTC FEB 15, 2024</td></tr>
          <tr><td>Storm Location:</td></tr>
          <tr><td><b>15.2 S, 64.0 E</b></td></tr>
          <tr><td>Min Sea Level Pressure:</td></tr>
          <tr><td>1002 mb / 29.59 in Hg</td></tr>
          <tr><td>Maximum Intensity:</td></tr>
          <tr><td>30 kt / 35 mph / 56 kph</td></tr>
        </table>
      ]]></description>
      <Point><coordinates>64,-15.2</coordinates></Point>
    </Placemark>
    <Placemark>
      <name>1200 UTC FEB 15</name>
      <styleUrl>#td</styleUrl>
      <description><![CDATA[
        <table>
          <tr><td>TD DJOUNGOU (SH132024)</td></tr>
          <tr><td><hr></td></tr>
          <tr><td>1200 UTC FEB 15, 2024</td></tr>
          <tr><td>Storm Location:</td></tr>
          <tr><td><b>15.3 S, 64.1 E</b></td></tr>
          <tr><td>Min Sea Level Pressure:</td></tr>
          <tr><td>1002 mb / 29.59 in Hg</td></tr>
          <tr><td>Maximum Intensity:</td></tr>
          <tr><td>30 kt / 35 mph / 56 kph</td></tr>
        </table>
      ]]></description>
      <Point><coordinates>64.1,-15.3</coordinates></Point>
    </Placemark>
    <Placemark>
      <name>1800 UTC FEB 15</name>
      <styleUrl>#ts</styleUrl>
      <description><![CDATA[
        <table>
          <tr><td>TS DJOUNGOU (SH132024)</td></tr>
          <tr><td><hr></td></tr>
          <tr><td>1800 UTC FEB 15, 2024</td></tr>
          <tr><td>Storm Location:</td></tr>
          <tr><td><b>15.5 S, 64.6 E</b></td></tr>
          <tr><td>Min Sea Level Pressure:</td></tr>
          <tr><td>1003 mb / 29.62 in Hg</td></tr>
          <tr><td>Maximum Intensity:</td></tr>
          <tr><td>35 kt / 40 mph / 65 kph</td></tr>
        </table>
      ]]></description>
      <Point><coordinates>64.6,-15.5</coordinates></Point>
    </Placemark>
    <Placemark>
      <name>0000 UTC FEB 16</name>
      <styleUrl>#ts</styleUrl>
      <description><![CDATA[
        <table>
          <tr><td>TS DJOUNGOU (SH132024)</td></tr>
          <tr><td><hr></td></tr>
          <tr><td>0000 UTC FEB 16, 2024</td></tr>
          <tr><td>Storm Location:</td></tr>
          <tr><td><b>15.7 S, 65.0 E</b></td></tr>
          <tr><td>Min Sea Level Pressure:</td></tr>
          <tr><td>998 mb / 29.47 in Hg</td></tr>
          <tr><td>Maximum Intensity:</td></tr>
          <tr><td>45 kt / 52 mph / 83 kph</td></tr>
        </table>
      ]]></description>
      <Point><coordinates>65,-15.7</coordinates></Point>
    </Placemark>
    <Placemark>
      <name>0600 UTC FEB 16</name>
      <styleUrl>#ts</styleUrl>
      <description><![CDATA[
        <table>
          <tr><td>TS DJOUNGOU (SH132024)</td></tr>
          <tr><td><hr></td></tr>
          <tr><td>0600 UTC FEB 16, 2024</td></tr>
          <tr><td>Storm Location:</td></tr>
          <tr><td><b>15.8 S, 65.4 E</b></td></tr>
          <tr><td>Min Sea Level Pressure:</td></tr>
          <tr><td>997 mb / 29.44 in Hg</td></tr>
          <tr><td>Maximum Intensity:</td></tr>
          <tr><td>50 kt / 58 mph / 93 kph</td></tr>
        </table>
      ]]></description>
      <Point><coordinates>65.4,-15.8</coordinates></Point>
    </Placemark>
    <Placemark>
      <name>1200 UTC FEB 16</name>
      <styleUrl>#ts</styleUrl>
      <description><![CDATA[
        <table>
          <tr><td>TS DJOUNGOU (SH132024)</td></tr>
          <tr><td><hr></td></tr>
          <tr><td>1200 UTC FEB 16, 2024</td></tr>
          <tr><td>Storm Location:</td></tr>
          <tr><td><b>16.0 S, 66.0 E</b></td></tr>
          <tr><td>Min Sea Level Pressure:</td></tr>
          <tr><td>994 mb / 29.35 in Hg</td></tr>
          <tr><td>Maximum Intensity:</td></tr>
          <tr><td>55 kt / 63 mph / 102 kph</td></tr>
        </table>
      ]]></description>
      <Point><coordinates>66,-16</coordinates></Point>
    </Placemark>
    <Placemark>
      <name>1800 UTC FEB 16</name>
      <styleUrl>#ts</styleUrl>
      <description><![CDATA[
        <table>
          <tr><td>TS DJOUNGOU (SH132024)</td></tr>
          <tr><td><hr></td></tr>
          <tr><td>1800 UTC FEB 16, 2024</td></tr>
          <tr><td>Storm Location:</td></tr>
          <tr><td><b>16.1 S, 66.6 E</b></td></tr>
          <tr><td>Min Sea Level Pressure:</td></tr>
          <tr><td>988 mb / 29.18 in Hg</td></tr>
          <tr><td>Maximum Intensity:</td></tr>
          <tr><td>60 kt / 69 mph / 111 kph</td></tr>
        </table>
      ]]></description>
      <Point><coordinates>66.6,-16.1</coordinates></Point>
    </Placemark>
    <Placemark>
      <name>0000 UTC FEB 17</name>
      <styleUrl>#cat1</styleUrl>
      <description><![CDATA[
        <table>
          <tr><td>HU DJOUNGOU (SH132024)</td></tr>
          <tr><td><hr></td></tr>
          <tr><td>0000 UTC FEB 17, 2024</td></tr>
          <tr><td>Storm Location:</td></tr>
          <tr><td><b>16.2 S, 67.6 E</b></td></tr>
          <tr><td>Min Sea Level Pressure:</td></tr>
          <tr><td>984 mb / 29.06 in Hg</td></tr>
          <tr><td>Maximum Intensity:</td></tr>
          <tr><td>65 kt / 75 mph / 120 kph</td></tr>
        </table>
      ]]></description>
      <Point><coordinates>67.6,-16.2</coordinates></Point>
    </Placemark>
    <Placemark>
      <name>0600 UTC FEB 17</name>
      <styleUrl>#cat1</styleUrl>
      <description><![CDATA[
        <table>
          <tr><td>HU DJOUNGOU (SH132024)</td></tr>
          <tr><td><hr></td></tr>
          <tr><td>0600 UTC FEB 17, 2024</td></tr>
          <tr><td>Storm Location:</td></tr>
          <tr><td><b>16.2 S, 68.8 E</b></td></tr>
          <tr><td>Min Sea Level Pressure:</td></tr>
          <tr><td>980 mb / 28.94 in Hg</td></tr>
          <tr><td>Maximum Intensity:</td></tr>
          <tr><td>70 kt / 81 mph / 130 kph</td></tr>
        </table>
      ]]></description>
      <Point><coordinates>68.8,-16.2</coordinates></Point>
    </Placemark>
    <Placemark>
      <name>1200 UTC FEB 17</name>
      <styleUrl>#cat2</styleUrl>
      <description><![CDATA[
        <table>
          <tr><td>HU DJOUNGOU (SH132024)</td></tr>
          <tr><td><hr></td></tr>
          <tr><td>1200 UTC FEB 17, 2024</td></tr>
          <tr><td>Storm Location:</td></tr>
          <tr><td><b>16.4 S, 70.2 E</b></td></tr>
          <tr><td>Min Sea Level Pressure:</td></tr>
          <tr><td>966 mb / 28.53 in Hg</td></tr>
          <tr><td>Maximum Intensity:</td></tr>
          <tr><td>90 kt / 104 mph / 167 kph</td></tr>
        </table>
      ]]></description>
      <Point><coordinates>70.2,-16.4</coordinates></Point>
    </Placemark>
    <Placemark>
      <name>1800 UTC FEB 17</name>
      <styleUrl>#cat3</styleUrl>
      <description><![CDATA[
        <table>
          <tr><td>HU DJOUNGOU (SH132024)</td></tr>
          <tr><td><hr></td></tr>
          <tr><td>1800 UTC FEB 17, 2024</td></tr>
          <tr><td>Storm Location:</td></tr>
          <tr><td><b>16.8 S, 71.9 E</b></td></tr>
          <tr><td>Min Sea Level Pressure:</td></tr>
          <tr><td>959 mb / 28.32 in Hg</td></tr>
          <tr><td>Maximum Intensity:</td></tr>
          <tr><td>100 kt / 115 mph / 185 kph</td></tr>
        </table>
      ]]></description>
      <Point><coordinates>71.9,-16.8</coordinates></Point>
    </Placemark>
    <Placemark>
      <name>0000 UTC FEB 18</name>
      <styleUrl>#cat3</styleUrl>
      <description><![CDATA[
        <table>
          <tr><td>HU DJOUNGOU (SH132024)</td></tr>
          <tr><td><hr></td></tr>
          <tr><td>0000 UTC FEB 18, 2024</td></tr>
          <tr><td>Storm Location:</td></tr>
          <tr><td><b>17.5 S, 73.8 E</b></td></tr>
          <tr><td>Min Sea Level Pressure:</td></tr>
          <tr><td>950 mb / 28.05 in Hg</td></tr>
          <tr><td>Maximum Intensity:</td></tr>
          <tr><td>110 kt / 127 mph / 204 kph</td></tr>
        </table>
      ]]></description>
      <Point><coordinates>73.8,-17.5</coordinates></Point>
    </Placemark>
    <Placemark>
      <name>0600 UTC FEB 18</name>
      <styleUrl>#cat4</styleUrl>
      <description><![CDATA[
        <table>
          <tr><td>HU DJOUNGOU (SH132024)</td></tr>
          <tr><td><hr></td></tr>
          <tr><td>0600 UTC FEB 18, 2024</td></tr>
          <tr><td>Storm Location:</td></tr>
          <tr><td><b>18.6 S, 76.3 E</b></td></tr>
          <tr><td>Min Sea Level Pressure:</td></tr>
          <tr><td>934 mb / 27.58 in Hg</td></tr>
          <tr><td>Maximum Intensity:</td></tr>
          <tr><td>130 kt / 150 mph / 241 kph</td></tr>
        </table>
      ]]></description>
      <Point><coordinates>76.3,-18.6</coordinates></Point>
    </Placemark>
    <Placemark>
      <name>0900 UTC FEB 18</name>
      <styleUrl>#cat5</styleUrl>
      <description><![CDATA[
        <table>
          <tr><td>HU DJOUNGOU (SH132024)</td></tr>
          <tr><td><hr></td></tr>
          <tr><td>0900 UTC FEB 18, 2024</td></tr>
          <tr><td>Storm Location:</td></tr>
          <tr><td><b>19.3 S, 77.5 E</b></td></tr>
          <tr><td>Min Sea Level Pressure:</td></tr>
          <tr><td>923 mb / 27.26 in Hg</td></tr>
          <tr><td>Maximum Intensity:</td></tr>
          <tr><td>140 kt / 161 mph / 259 kph</td></tr>
        </table>
      ]]></description>
      <Point><coordinates>77.5,-19.3</coordinates></Point>
    </Placemark>
    <Placemark>
      <name>1200 UTC FEB 18</name>
      <styleUrl>#cat4</styleUrl>
      <description><![CDATA[
        <table>
          <tr><td>HU DJOUNGOU (SH132024)</td></tr>
          <tr><td><hr></td></tr>
          <tr><td>1200 UTC FEB 18, 2024</td></tr>
          <tr><td>Storm Location:</td></tr>
          <tr><td><b>19.9 S, 78.6 E</b></td></tr>
          <tr><td>Min Sea Level Pressure:</td></tr>
          <tr><td>938 mb / 27.70 in Hg</td></tr>
          <tr><td>Maximum Intensity:</td></tr>
          <tr><td>135 kt / 155 mph / 250 kph</td></tr>
        </table>
      ]]></description>
      <Point><coordinates>78.6,-19.9</coordinates></Point>
    </Placemark>
    <Placemark>
      <name>1800 UTC FEB 18</name>
      <styleUrl>#cat4</styleUrl>
      <description><![CDATA[
        <table>
          <tr><td>HU DJOUNGOU (SH132024)</td></tr>
          <tr><td><hr></td></tr>
          <tr><td>1800 UTC FEB 18, 2024</td></tr>
          <tr><td>Storm Location:</td></tr>
          <tr><td><b>21.5 S, 81.1 E</b></td></tr>
          <tr><td>Min Sea Level Pressure:</td></tr>
          <tr><td>943 mb / 27.85 in Hg</td></tr>
          <tr><td>Maximum Intensity:</td></tr>
          <tr><td>120 kt / 138 mph / 222 kph</td></tr>
        </table>
      ]]></description>
      <Point><coordinates>81.1,-21.5</coordinates></Point>
    </Placemark>
    <Placemark>
      <name>0000 UTC FEB 19</name>
      <styleUrl>#cat3</styleUrl>
      <description><![CDATA[
        <table>
          <tr><td>HU DJOUNGOU (SH132024)</td></tr>
          <tr><td><hr></td></tr>
          <tr><td>0000 UTC FEB 19, 2024</td></tr>
          <tr><td>Storm Location:</td></tr>
          <tr><td><b>23.3 S, 83.1 E</b></td></tr>
          <tr><td>Min Sea Level Pressure:</td></tr>
          <tr><td>954 mb / 28.17 in Hg</td></tr>
          <tr><td>Maximum Intensity:</td></tr>
          <tr><td>105 kt / 121 mph / 194 kph</td></tr>
        </table>
      ]]></description>
      <Point><coordinates>83.1,-23.3</coordinates></Point>
    </Placemark>
    <Placemark>
      <name>0600 UTC FEB 19</name>
      <styleUrl>#cat2</styleUrl>
      <description><![CDATA[
        <table>
          <tr><td>HU DJOUNGOU (SH132024)</td></tr>
          <tr><td><hr></td></tr>
          <tr><td>0600 UTC FEB 19, 2024</td></tr>
          <tr><td>Storm Location:</td></tr>
          <tr><td><b>25.2 S, 85.5 E</b></td></tr>
          <tr><td>Min Sea Level Pressure:</td></tr>
          <tr><td>965 mb / 28.50 in Hg</td></tr>
          <tr><td>Maximum Intensity:</td></tr>
          <tr><td>90 kt / 104 mph / 167 kph</td></tr>
        </table>
      ]]></description>
      <Point><coordinates>85.5,-25.2</coordinates></Point>
    </Placemark>
    <Placemark>
      <name>1200 UTC FEB 19</name>
      <styleUrl>#cat1</styleUrl>
      <description><![CDATA[
        <table>
          <tr><td>HU DJOUNGOU (SH132024)</td></tr>
          <tr><td><hr></td></tr>
          <tr><td>1200 UTC FEB 19, 2024</td></tr>
          <tr><td>Storm Location:</td></tr>
          <tr><td><b>27.0 S, 88.5 E</b></td></tr>
          <tr><td>Min Sea Level Pressure:</td></tr>
          <tr><td>969 mb / 28.61 in Hg</td></tr>
          <tr><td>Maximum Intensity:</td></tr>
          <tr><td>80 kt / 92 mph / 148 kph</td></tr>
        </table>
      ]]></description>
      <Point><coordinates>88.5,-27</coordinates></Point>
    </Placemark>
    <Placemark>
      <name>1800 UTC FEB 19</name>
      <styleUrl>#pt</styleUrl>
      <description><![CDATA[
        <table>
          <tr><td>XX DJOUNGOU (SH132024)</td></tr>
          <tr><td><hr></td></tr>
          <tr><td>1800 UTC FEB 19, 2024</td></tr>
          <tr><td>Storm Location:</td></tr>
          <tr><td><b>29.6 S, 91.5 E</b></td></tr>
          <tr><td>Min Sea Level Pressure:</td></tr>
          <tr><td>984 mb / 29.06 in Hg</td></tr>
          <tr><td>Maximum Intensity:</td></tr>
          <tr><td>55 kt / 63 mph / 102 kph</td></tr>
        </table>
      ]]></description>
      <Point><coordinates>91.5,-29.6</coordinates></Point>
    </Placemark>
    <Placemark>
      <name>0000 UTC FEB 20</name>
      <styleUrl>#pt</styleUrl>
      <description><![CDATA[
        <table>
          <tr><td>XX DJOUNGOU (SH132024)</td></tr>
          <tr><td><hr></td></tr>
          <tr><td>0000 UTC FEB 20, 2024</td></tr>
          <tr><td>Storm Location:</td></tr>
          <tr><td><b>31.1 S, 95.4 E</b></td></tr>
          <tr><td>Min Sea Level Pressure:</td></tr>
          <tr><td>987 mb / 29.15 in Hg</td></tr>
          <tr><td>Maximum Intensity:</td></tr>
          <tr><td>50 kt / 58 mph / 93 kph</td></tr>
        </table>
      ]]></description>
      <Point><coordinates>95.4,-31.1</coordinates></Point>
    </Placemark>
    <Placemark>
      <name>0600 UTC FEB 20</name>
      <styleUrl>#ex</styleUrl>
      <description><![CDATA[
        <table>
          <tr><td>EX DJOUNGOU (SH132024)</td></tr>
          <tr><td><hr></td></tr>
          <tr><td>0600 UTC FEB 20, 2024</td></tr>
          <tr><td>Storm Location:</td></tr>
          <tr><td><b>32.3 S, 100.5 E</b></td></tr>
          <tr><td>Min Sea Level Pressure:</td></tr>
          <tr><td>987 mb / 29.15 in Hg</td></tr>
          <tr><td>Maximum Intensity:</td></tr>
          <tr><td>50 kt / 58 mph / 93 kph</td></tr>
        </table>
      ]]></description>
      <Point><coordinates>100.5,-32.3</coordinates></Point>
    </Placemark>
  </Document>
</kml>
