<?xml version="1.0" encoding="UTF-8"?>
<kml xmlns="http://www.opengis.net/kml/2.2">
  <Document>
    <name>SH142024</name>
    <open>0</open>

    <!-- =====  Document header ===== -->
    <description><![CDATA[
      <table>
        <tr><td><b>Title:</b> Tropical Cyclone Best Track for SH142024</td></tr>
      </table>
    ]]></description>

    <!-- =====  Styles (ids must be unique)  ===== -->
	<Style id="pt"> 
		<IconStyle> 
			<scale>1.0</scale> 
			<Icon> 
				<href>ex_nhemi.png</href> 
			</Icon> 
             <hotSpot x="15" y="17" xunits="pixels" yunits="pixels"/>
		</IconStyle> 
		<LabelStyle> 
			<scale>1.0</scale> 
		</LabelStyle> 
	</Style>
	<Style id="cat5"> 
		<IconStyle> 
			<scale>1.0</scale> 
			<Icon> 
				<href>cat5_nhemi.png</href> 
			</Icon> 
             <hotSpot x="15" y="17" xunits="pixels" yunits="pixels"/>
		</IconStyle> 
		<LabelStyle> 
			<scale>1.0</scale> 
		</LabelStyle> 
	</Style>
	<Style id="db"> 
		<IconStyle> 
			<scale>1.0</scale> 
			<Icon> 
				<href>ex_nhemi.png</href> 
			</Icon> 
             <hotSpot x="15" y="17" xunits="pixels" yunits="pixels"/>
		</IconStyle> 
		<LabelStyle> 
			<scale>1.0</scale> 
		</LabelStyle> 
	</Style>
	<Style id="cat3"> 
		<IconStyle> 
			<scale>1.0</scale> 
			<Icon> 
				<href>cat3_nhemi.png</href> 
			</Icon> 
             <hotSpot x="15" y="17" xunits="pixels" yunits="pixels"/>
		</IconStyle> 
		<LabelStyle> 
			<scale>1.0</scale> 
		</LabelStyle> 
	</Style>
	<Style id="ss"> 
		<IconStyle> 
			<scale>1.0</scale> 
			<Icon> 
				<href>ts_nhemi.png</href> 
			</Icon> 
             <hotSpot x="15" y="17" xunits="pixels" yunits="pixels"/>
		</IconStyle> 
		<LabelStyle> 
			<scale>1.0</scale> 
		</LabelStyle> 
	</Style>
	<Style id="lo"> 
		<IconStyle> 
			<scale>1.0</scale> 
			<Icon> 
				<href>ex_nhemi.png</href> 
			</Icon> 
             <hotSpot x="15" y="17" xunits="pixels" yunits="pixels"/>
		</IconStyle> 
		<LabelStyle> 
			<scale>1.0</scale> 
		</LabelStyle> 
	</Style>
	<Style id="cat4"> 
		<IconStyle> 
			<scale>1.0</scale> 
			<Icon> 
				<href>cat4_nhemi.png</href> 
			</Icon> 
             <hotSpot x="15" y="17" xunits="pixels" yunits="pixels"/>
		</IconStyle> 
		<LabelStyle> 
			<scale>1.0</scale> 
		</LabelStyle> 
	</Style>
	<Style id="cat2"> 
		<IconStyle> 
			<scale>1.0</scale> 
			<Icon> 
				<href>cat2_nhemi.png</href> 
			</Icon> 
             <hotSpot x="15" y="17" xunits="pixels" yunits="pixels"/>
		</IconStyle> 
		<LabelStyle> 
			<scale>1.0</scale> 
		</LabelStyle> 
	</Style>
	<Style id="ts"> 
		<IconStyle> 
			<scale>1.0</scale> 
			<Icon> 
				<href>ts_nhemi.png</href> 
			</Icon> 
             <hotSpot x="15" y="17" xunits="pixels" yunits="pixels"/>
		</IconStyle> 
		<LabelStyle> 
			<scale>1.0</scale> 
		</LabelStyle> 
	</Style>
	<Style id="cat1"> 
		<IconStyle> 
			<scale>1.0</scale> 
			<Icon> 
				<href>cat1_nhemi.png</href> 
			</Icon> 
             <hotSpot x="15" y="17" xunits="pixels" yunits="pixels"/>
		</IconStyle> 
		<LabelStyle> 
			<scale>1.0</scale> 
		</LabelStyle> 
	</Style>
	<Style id="ex"> 
		<IconStyle> 
			<scale>1.0</scale> 
			<Icon> 
				<href>ex_nhemi.png</href> 
			</Icon> 
             <hotSpot x="15" y="17" xunits="pixels" yunits="pixels"/>
		</IconStyle> 
		<LabelStyle> 
			<scale>1.0</scale> 
		</LabelStyle> 
	</Style>
	<Style id="tc"> 
		<IconStyle> 
			<scale>1.0</scale> 
			<Icon> 
				<href>ex_nhemi.png</href> 
			</Icon> 
             <hotSpot x="15" y="17" xunits="pixels" yunits="pixels"/>
		</IconStyle> 
		<LabelStyle> 
			<scale>1.0</scale> 
		</LabelStyle> 
	</Style>
	<Style id="wv"> 
		<IconStyle> 
			<scale>1.0</scale> 
			<Icon> 
				<href>ex_nhemi.png</href> 
			</Icon> 
             <hotSpot x="15" y="17" xunits="pixels" yunits="pixels"/>
		</IconStyle> 
		<LabelStyle> 
			<scale>1.0</scale> 
		</LabelStyle> 
	</Style>
	<Style id="td"> 
		<IconStyle> 
			<scale>1.0</scale> 
			<Icon> 
				<href>td_nhemi.png</href> 
			</Icon> 
             <hotSpot x="15" y="17" xunits="pixels" yunits="pixels"/>
		</IconStyle> 
		<LabelStyle> 
			<scale>1.0</scale> 
		</LabelStyle> 
	</Style>
	<Style id="sd"> 
		<IconStyle> 
			<scale>1.0</scale> 
			<Icon> 
				<href>ex_nhemi.png</href> 
			</Icon> 
             <hotSpot x="15" y="17" xunits="pixels" yunits="pixels"/>
		</IconStyle> 
		<LabelStyle> 
			<scale>1.0</scale> 
		</LabelStyle> 
	</Style>

    <Placemark>
      <name>0600 UTC FEB 13</name>
      <styleUrl>#db</styleUrl>
      <description><![CDATA[
        <table>
          <tr><td>DB LINCOLN (SH142024)</td></tr>
          <tr><td><hr></td></tr>
          <tr><td>0600 UTC FEB 13, 2024</td></tr>
          <tr><td>Storm Location:</td></tr>
          <tr><td><b>15.2 S, 134.0 E</b></td></tr>
          <tr><td>Min Sea Level Pressure:</td></tr>
          <tr><td>1007 mb / 29.74 in Hg</td></tr>
          <tr><td>Maximum Intensity:</td></tr>
          <tr><td>20 kt / 23 mph / 37 kph</td></tr>
        </table>
      ]]></description>
      <Point><coordinates>134,-15.2</coordinates></Point>
    </Placemark>
    <Placemark>
      <name>1200 UTC FEB 13</name>
      <styleUrl>#db</styleUrl>
      <description><![CDATA[
        <table>
          <tr><td>DB LINCOLN (SH142024)</td></tr>
          <tr><td><hr></td></tr>
          <tr><td>1200 UTC FEB 13, 2024</td></tr>
          <tr><td>Storm Location:</td></tr>
          <tr><td><b>15.3 S, 134.8 E</b></td></tr>
          <tr><td>Min Sea Level Pressure:</td></tr>
          <tr><td>1007 mb / 29.74 in Hg</td></tr>
          <tr><td>Maximum Intensity:</td></tr>
          <tr><td>20 kt / 23 mph / 37 kph</td></tr>
        </table>
      ]]></description>
      <Point><coordinates>134.8,-15.3</coordinates></Point>
    </Placemark>
    <Placemark>
      <name>1800 UTC FEB 13</name>
      <styleUrl>#db</styleUrl>
      <description><![CDATA[
        <table>
          <tr><td>DB LINCOLN (SH142024)</td></tr>
          <tr><td><hr></td></tr>
          <tr><td>1800 UTC FEB 13, 2024</td></tr>
          <tr><td>Storm Location:</td></tr>
          <tr><td><b>15.4 S, 135.9 E</b></td></tr>
          <tr><td>Min Sea Level Pressure:</td></tr>
          <tr><td>1006 mb / 29.71 in Hg</td></tr>
          <tr><td>Maximum Intensity:</td></tr>
          <tr><td>20 kt / 23 mph / 37 kph</td></tr>
        </table>
      ]]></description>
      <Point><coordinates>135.9,-15.4</coordinates></Point>
    </Placemark>
    <Placemark>
      <name>0000 UTC FEB 14</name>
      <styleUrl>#td</styleUrl>
      <description><![CDATA[
        <table>
          <tr><td>TD LINCOLN (SH142024)</td></tr>
          <tr><td><hr></td></tr>
          <tr><td>0000 UTC FEB 14, 2024</td></tr>
          <tr><td>Storm Location:</td></tr>
          <tr><td><b>15.4 S, 136.8 E</b></td></tr>
          <tr><td>Min Sea Level Pressure:</td></tr>
          <tr><td>1005 mb / 29.68 in Hg</td></tr>
          <tr><td>Maximum Intensity:</td></tr>
          <tr><td>25 kt / 29 mph / 46 kph</td></tr>
        </table>
      ]]></description>
      <Point><coordinates>136.8,-15.4</coordinates></Point>
    </Placemark>
    <Placemark>
      <name>0600 UTC FEB 14</name>
      <styleUrl>#td</styleUrl>
      <description><![CDATA[
        <table>
          <tr><td>TD LINCOLN (SH142024)</td></tr>
          <tr><td><hr></td></tr>
          <tr><td>0600 UTC FEB 14, 2024</td></tr>
          <tr><td>Storm Location:</td></tr>
          <tr><td><b>15.4 S, 137.2 E</b></td></tr>
          <tr><td>Min Sea Level Pressure:</td></tr>
          <tr><td>1004 mb / 29.65 in Hg</td></tr>
          <tr><td>Maximum Intensity:</td></tr>
          <tr><td>25 kt / 29 mph / 46 kph</td></tr>
        </table>
      ]]></description>
      <Point><coordinates>137.2,-15.4</coordinates></Point>
    </Placemark>
    <Placemark>
      <name>1200 UTC FEB 14</name>
      <styleUrl>#td</styleUrl>
      <description><![CDATA[
        <table>
          <tr><td>TD LINCOLN (SH142024)</td></tr>
          <tr><td><hr></td></tr>
          <tr><td>1200 UTC FEB 14, 2024</td></tr>
          <tr><td>Storm Location:</td></tr>
          <tr><td><b>15.3 S, 137.5 E</b></td></tr>
          <tr><td>Min Sea Level Pressure:</td></tr>
          <tr><td>1004 mb / 29.65 in Hg</td></tr>
          <tr><td>Maximum Intensity:</td></tr>
          <tr><td>25 kt / 29 mph / 46 kph</td></tr>
        </table>
      ]]></description>
      <Point><coordinates>137.5,-15.3</coordinates></Point>
    </Placemark>
    <Placemark>
      <name>1800 UTC FEB 14</name>
      <styleUrl>#td</styleUrl>
      <description><![CDATA[
        <table>
          <tr><td>TD LINCOLN (SH142024)</td></tr>
          <tr><td><hr></td></tr>
          <tr><td>1800 UTC FEB 14, 2024</td></tr>
          <tr><td>Storm Location:</td></tr>
          <tr><td><b>15.5 S, 137.7 E</b></td></tr>
          <tr><td>Min Sea Level Pressure:</td></tr>
          <tr><td>1004 mb / 29.65 in Hg</td></tr>
          <tr><td>Maximum Intensity:</td></tr>
          <tr><td>25 kt / 29 mph / 46 kph</td></tr>
        </table>
      ]]></description>
      <Point><coordinates>137.7,-15.5</coordinates></Point>
    </Placemark>
    <Placemark>
      <name>0000 UTC FEB 15</name>
      <styleUrl>#td</styleUrl>
      <description><![CDATA[
        <table>
          <tr><td>TD LINCOLN (SH142024)</td></tr>
          <tr><td><hr></td></tr>
          <tr><td>0000 UTC FEB 15, 2024</td></tr>
          <tr><td>Storm Location:</td></tr>
          <tr><td><b>15.6 S, 137.9 E</b></td></tr>
          <tr><td>Min Sea Level Pressure:</td></tr>
          <tr><td>1004 mb / 29.65 in Hg</td></tr>
          <tr><td>Maximum Intensity:</td></tr>
          <tr><td>25 kt / 29 mph / 46 kph</td></tr>
        </table>
      ]]></description>
      <Point><coordinates>137.9,-15.6</coordinates></Point>
    </Placemark>
    <Placemark>
      <name>0600 UTC FEB 15</name>
      <styleUrl>#td</styleUrl>
      <description><![CDATA[
        <table>
          <tr><td>TD LINCOLN (SH142024)</td></tr>
          <tr><td><hr></td></tr>
          <tr><td>0600 UTC FEB 15, 2024</td></tr>
          <tr><td>Storm Location:</td></tr>
          <tr><td><b>15.3 S, 138.1 E</b></td></tr>
          <tr><td>Min Sea Level Pressure:</td></tr>
          <tr><td>1004 mb / 29.65 in Hg</td></tr>
          <tr><td>Maximum Intensity:</td></tr>
          <tr><td>25 kt / 29 mph / 46 kph</td></tr>
        </table>
      ]]></description>
      <Point><coordinates>138.1,-15.3</coordinates></Point>
    </Placemark>
    <Placemark>
      <name>1200 UTC FEB 15</name>
      <styleUrl>#td</styleUrl>
      <description><![CDATA[
        <table>
          <tr><td>TD LINCOLN (SH142024)</td></tr>
          <tr><td><hr></td></tr>
          <tr><td>1200 UTC FEB 15, 2024</td></tr>
          <tr><td>Storm Location:</td></tr>
          <tr><td><b>15.5 S, 137.9 E</b></td></tr>
          <tr><td>Min Sea Level Pressure:</td></tr>
          <tr><td>999 mb / 29.50 in Hg</td></tr>
          <tr><td>Maximum Intensity:</td></tr>
          <tr><td>30 kt / 35 mph / 56 kph</td></tr>
        </table>
      ]]></description>
      <Point><coordinates>137.9,-15.5</coordinates></Point>
    </Placemark>
    <Placemark>
      <name>1800 UTC FEB 15</name>
      <styleUrl>#ts</styleUrl>
      <description><![CDATA[
        <table>
          <tr><td>TS LINCOLN (SH142024)</td></tr>
          <tr><td><hr></td></tr>
          <tr><td>1800 UTC FEB 15, 2024</td></tr>
          <tr><td>Storm Location:</td></tr>
          <tr><td><b>15.5 S, 137.7 E</b></td></tr>
          <tr><td>Min Sea Level Pressure:</td></tr>
          <tr><td>996 mb / 29.41 in Hg</td></tr>
          <tr><td>Maximum Intensity:</td></tr>
          <tr><td>35 kt / 40 mph / 65 kph</td></tr>
        </table>
      ]]></description>
      <Point><coordinates>137.7,-15.5</coordinates></Point>
    </Placemark>
    <Placemark>
      <name>0000 UTC FEB 16</name>
      <styleUrl>#ts</styleUrl>
      <description><![CDATA[
        <table>
          <tr><td>TS LINCOLN (SH142024)</td></tr>
          <tr><td><hr></td></tr>
          <tr><td>0000 UTC FEB 16, 2024</td></tr>
          <tr><td>Storm Location:</td></tr>
          <tr><td><b>15.5 S, 137.5 E</b></td></tr>
          <tr><td>Min Sea Level Pressure:</td></tr>
          <tr><td>991 mb / 29.26 in Hg</td></tr>
          <tr><td>Maximum Intensity:</td></tr>
          <tr><td>45 kt / 52 mph / 83 kph</td></tr>
        </table>
      ]]></description>
      <Point><coordinates>137.5,-15.5</coordinates></Point>
    </Placemark>
    <Placemark>
      <name>0600 UTC FEB 16</name>
      <styleUrl>#ts</styleUrl>
      <description><![CDATA[
        <table>
          <tr><td>TS LINCOLN (SH142024)</td></tr>
          <tr><td><hr></td></tr>
          <tr><td>0600 UTC FEB 16, 2024</td></tr>
          <tr><td>Storm Location:</td></tr>
          <tr><td><b>15.8 S, 137.1 E</b></td></tr>
          <tr><td>Min Sea Level Pressure:</td></tr>
          <tr><td>994 mb / 29.35 in Hg</td></tr>
          <tr><td>Maximum Intensity:</td></tr>
          <tr><td>40 kt / 46 mph / 74 kph</td></tr>
        </table>
      ]]></description>
      <Point><coordinates>137.1,-15.8</coordinates></Point>
    </Placemark>
    <Placemark>
      <name>1200 UTC FEB 16</name>
      <styleUrl>#td</styleUrl>
      <description><![CDATA[
        <table>
          <tr><td>TD LINCOLN (SH142024)</td></tr>
          <tr><td><hr></td></tr>
          <tr><td>1200 UTC FEB 16, 2024</td></tr>
          <tr><td>Storm Location:</td></tr>
          <tr><td><b>16.1 S, 136.7 E</b></td></tr>
          <tr><td>Min Sea Level Pressure:</td></tr>
          <tr><td>999 mb / 29.50 in Hg</td></tr>
          <tr><td>Maximum Intensity:</td></tr>
          <tr><td>30 kt / 35 mph / 56 kph</td></tr>
        </table>
      ]]></description>
      <Point><coordinates>136.7,-16.1</coordinates></Point>
    </Placemark>
    <Placemark>
      <name>1800 UTC FEB 16</name>
      <styleUrl>#td</styleUrl>
      <description><![CDATA[
        <table>
          <tr><td>TD LINCOLN (SH142024)</td></tr>
          <tr><td><hr></td></tr>
          <tr><td>1800 UTC FEB 16, 2024</td></tr>
          <tr><td>Storm Location:</td></tr>
          <tr><td><b>16.9 S, 136.4 E</b></td></tr>
          <tr><td>Min Sea Level Pressure:</td></tr>
          <tr><td>1002 mb / 29.59 in Hg</td></tr>
          <tr><td>Maximum Intensity:</td></tr>
          <tr><td>25 kt / 29 mph / 46 kph</td></tr>
        </table>
      ]]></description>
      <Point><coordinates>136.4,-16.9</coordinates></Point>
    </Placemark>
    <Placemark>
      <name>0000 UTC FEB 17</name>
      <styleUrl>#td</styleUrl>
      <description><![CDATA[
        <table>
          <tr><td>TD LINCOLN (SH142024)</td></tr>
          <tr><td><hr></td></tr>
          <tr><td>0000 UTC FEB 17, 2024</td></tr>
          <tr><td>Storm Location:</td></tr>
          <tr><td><b>17.8 S, 135.5 E</b></td></tr>
          <tr><td>Min Sea Level Pressure:</td></tr>
          <tr><td>1002 mb / 29.59 in Hg</td></tr>
          <tr><td>Maximum Intensity:</td></tr>
          <tr><td>25 kt / 29 mph / 46 kph</td></tr>
        </table>
      ]]></description>
      <Point><coordinates>135.5,-17.8</coordinates></Point>
    </Placemark>
    <Placemark>
      <name>0600 UTC FEB 17</name>
      <styleUrl>#td</styleUrl>
      <description><![CDATA[
        <table>
          <tr><td>TD LINCOLN (SH142024)</td></tr>
          <tr><td><hr></td></tr>
          <tr><td>0600 UTC FEB 17, 2024</td></tr>
          <tr><td>Storm Location:</td></tr>
          <tr><td><b>18.2 S, 134.6 E</b></td></tr>
          <tr><td>Min Sea Level Pressure:</td></tr>
          <tr><td>1002 mb / 29.59 in Hg</td></tr>
          <tr><td>Maximum Intensity:</td></tr>
          <tr><td>25 kt / 29 mph / 46 kph</td></tr>
        </table>
      ]]></description>
      <Point><coordinates>134.6,-18.2</coordinates></Point>
    </Placemark>
    <Placemark>
      <name>1200 UTC FEB 17</name>
      <styleUrl>#td</styleUrl>
      <description><![CDATA[
        <table>
          <tr><td>TD LINCOLN (SH142024)</td></tr>
          <tr><td><hr></td></tr>
          <tr><td>1200 UTC FEB 17, 2024</td></tr>
          <tr><td>Storm Location:</td></tr>
          <tr><td><b>18.5 S, 133.8 E</b></td></tr>
          <tr><td>Min Sea Level Pressure:</td></tr>
          <tr><td>1002 mb / 29.59 in Hg</td></tr>
          <tr><td>Maximum Intensity:</td></tr>
          <tr><td>25 kt / 29 mph / 46 kph</td></tr>
        </table>
      ]]></description>
      <Point><coordinates>133.8,-18.5</coordinates></Point>
    </Placemark>
    <Placemark>
      <name>1800 UTC FEB 17</name>
      <styleUrl>#td</styleUrl>
      <description><![CDATA[
        <table>
          <tr><td>TD LINCOLN (SH142024)</td></tr>
          <tr><td><hr></td></tr>
          <tr><td>1800 UTC FEB 17, 2024</td></tr>
          <tr><td>Storm Location:</td></tr>
          <tr><td><b>18.8 S, 133.1 E</b></td></tr>
          <tr><td>Min Sea Level Pressure:</td></tr>
          <tr><td>1002 mb / 29.59 in Hg</td></tr>
          <tr><td>Maximum Intensity:</td></tr>
          <tr><td>25 kt / 29 mph / 46 kph</td></tr>
        </table>
      ]]></description>
      <Point><coordinates>133.1,-18.8</coordinates></Point>
    </Placemark>
    <Placemark>
      <name>0000 UTC FEB 18</name>
      <styleUrl>#td</styleUrl>
      <description><![CDATA[
        <table>
          <tr><td>TD LINCOLN (SH142024)</td></tr>
          <tr><td><hr></td></tr>
          <tr><td>0000 UTC FEB 18, 2024</td></tr>
          <tr><td>Storm Location:</td></tr>
          <tr><td><b>19.0 S, 132.3 E</b></td></tr>
          <tr><td>Min Sea Level Pressure:</td></tr>
          <tr><td>1003 mb / 29.62 in Hg</td></tr>
          <tr><td>Maximum Intensity:</td></tr>
          <tr><td>25 kt / 29 mph / 46 kph</td></tr>
        </table>
      ]]></description>
      <Point><coordinates>132.3,-19</coordinates></Point>
    </Placemark>
    <Placemark>
      <name>0600 UTC FEB 18</name>
      <styleUrl>#db</styleUrl>
      <description><![CDATA[
        <table>
          <tr><td>DB LINCOLN (SH142024)</td></tr>
          <tr><td><hr></td></tr>
          <tr><td>0600 UTC FEB 18, 2024</td></tr>
          <tr><td>Storm Location:</td></tr>
          <tr><td><b>18.8 S, 131.5 E</b></td></tr>
          <tr><td>Min Sea Level Pressure:</td></tr>
          <tr><td>1004 mb / 29.65 in Hg</td></tr>
          <tr><td>Maximum Intensity:</td></tr>
          <tr><td>20 kt / 23 mph / 37 kph</td></tr>
        </table>
      ]]></description>
      <Point><coordinates>131.5,-18.8</coordinates></Point>
    </Placemark>
    <Placemark>
      <name>1200 UTC FEB 18</name>
      <styleUrl>#db</styleUrl>
      <description><![CDATA[
        <table>
          <tr><td>DB LINCOLN (SH142024)</td></tr>
          <tr><td><hr></td></tr>
          <tr><td>1200 UTC FEB 18, 2024</td></tr>
          <tr><td>Storm Location:</td></tr>
          <tr><td><b>18.6 S, 130.6 E</b></td></tr>
          <tr><td>Min Sea Level Pressure:</td></tr>
          <tr><td>1005 mb / 29.68 in Hg</td></tr>
          <tr><td>Maximum Intensity:</td></tr>
          <tr><td>20 kt / 23 mph / 37 kph</td></tr>
        </table>
      ]]></description>
      <Point><coordinates>130.6,-18.6</coordinates></Point>
    </Placemark>
    <Placemark>
      <name>1800 UTC FEB 18</name>
      <styleUrl>#db</styleUrl>
      <description><![CDATA[
        <table>
          <tr><td>DB LINCOLN (SH142024)</td></tr>
          <tr><td><hr></td></tr>
          <tr><td>1800 UTC FEB 18, 2024</td></tr>
          <tr><td>Storm Location:</td></tr>
          <tr><td><b>18.6 S, 129.9 E</b></td></tr>
          <tr><td>Min Sea Level Pressure:</td></tr>
          <tr><td>1005 mb / 29.68 in Hg</td></tr>
          <tr><td>Maximum Intensity:</td></tr>
          <tr><td>20 kt / 23 mph / 37 kph</td></tr>
        </table>
      ]]></description>
      <Point><coordinates>129.9,-18.6</coordinates></Point>
    </Placemark>
    <Placemark>
      <name>0000 UTC FEB 19</name>
      <styleUrl>#db</styleUrl>
      <description><![CDATA[
        <table>
          <tr><td>DB LINCOLN (SH142024)</td></tr>
          <tr><td><hr></td></tr>
          <tr><td>0000 UTC FEB 19, 2024</td></tr>
          <tr><td>Storm Location:</td></tr>
          <tr><td><b>18.5 S, 129.3 E</b></td></tr>
          <tr><td>Min Sea Level Pressure:</td></tr>
          <tr><td>1005 mb / 29.68 in Hg</td></tr>
          <tr><td>Maximum Intensity:</td></tr>
          <tr><td>20 kt / 23 mph / 37 kph</td></tr>
        </table>
      ]]></description>
      <Point><coordinates>129.3,-18.5</coordinates></Point>
    </Placemark>
    <Placemark>
      <name>0600 UTC FEB 19</name>
      <styleUrl>#db</styleUrl>
      <description><![CDATA[
        <table>
          <tr><td>DB LINCOLN (SH142024)</td></tr>
          <tr><td><hr></td></tr>
          <tr><td>0600 UTC FEB 19, 2024</td></tr>
          <tr><td>Storm Location:</td></tr>
          <tr><td><b>18.5 S, 129.0 E</b></td></tr>
          <tr><td>Min Sea Level Pressure:</td></tr>
          <tr><td>1005 mb / 29.68 in Hg</td></tr>
          <tr><td>Maximum Intensity:</td></tr>
          <tr><td>20 kt / 23 mph / 37 kph</td></tr>
        </table>
      ]]></description>
      <Point><coordinates>129,-18.5</coordinates></Point>
    </Placemark>
    <Placemark>
      <name>1200 UTC FEB 19</name>
      <styleUrl>#db</styleUrl>
      <description><![CDATA[
        <table>
          <tr><td>DB LINCOLN (SH142024)</td></tr>
          <tr><td><hr></td></tr>
          <tr><td>1200 UTC FEB 19, 2024</td></tr>
          <tr><td>Storm Location:</td></tr>
          <tr><td><b>18.5 S, 128.8 E</b></td></tr>
          <tr><td>Min Sea Level Pressure:</td></tr>
          <tr><td>1005 mb / 29.68 in Hg</td></tr>
          <tr><td>Maximum Intensity:</td></tr>
          <tr><td>20 kt / 23 mph / 37 kph</td></tr>
        </table>
      ]]></description>
      <Point><coordinates>128.8,-18.5</coordinates></Point>
    </Placemark>
    <Placemark>
      <name>1800 UTC FEB 19</name>
      <styleUrl>#td</styleUrl>
      <description><![CDATA[
        <table>
          <tr><td>TD LINCOLN (SH142024)</td></tr>
          <tr><td><hr></td></tr>
          <tr><td>1800 UTC FEB 19, 2024</td></tr>
          <tr><td>Storm Location:</td></tr>
          <tr><td><b>18.2 S, 128.2 E</b></td></tr>
          <tr><td>Min Sea Level Pressure:</td></tr>
          <tr><td>1003 mb / 29.62 in Hg</td></tr>
          <tr><td>Maximum Intensity:</td></tr>
          <tr><td>25 kt / 29 mph / 46 kph</td></tr>
        </table>
      ]]></description>
      <Point><coordinates>128.2,-18.2</coordinates></Point>
    </Placemark>
    <Placemark>
      <name>0000 UTC FEB 20</name>
      <styleUrl>#td</styleUrl>
      <description><![CDATA[
        <table>
          <tr><td>TD LINCOLN (SH142024)</td></tr>
          <tr><td><hr></td></tr>
          <tr><td>0000 UTC FEB 20, 2024</td></tr>
          <tr><td>Storm Location:</td></tr>
          <tr><td><b>17.9 S, 127.3 E</b></td></tr>
          <tr><td>Min Sea Level Pressure:</td></tr>
          <tr><td>1003 mb / 29.62 in Hg</td></tr>
          <tr><td>Maximum Intensity:</td></tr>
          <tr><td>25 kt / 29 mph / 46 kph</td></tr>
        </table>
      ]]></description>
      <Point><coordinates>127.3,-17.9</coordinates></Point>
    </Placemark>
    <Placemark>
      <name>0600 UTC FEB 20</name>
      <styleUrl>#td</styleUrl>
      <description><![CDATA[
        <table>
          <tr><td>TD LINCOLN (SH142024)</td></tr>
          <tr><td><hr></td></tr>
          <tr><td>0600 UTC FEB 20, 2024</td></tr>
          <tr><td>Storm Location:</td></tr>
          <tr><td><b>17.7 S, 126.7 E</b></td></tr>
          <tr><td>Min Sea Level Pressure:</td></tr>
          <tr><td>1003 mb / 29.62 in Hg</td></tr>
          <tr><td>Maximum Intensity:</td></tr>
          <tr><td>25 kt / 29 mph / 46 kph</td></tr>
        </table>
      ]]></description>
      <Point><coordinates>126.7,-17.7</coordinates></Point>
    </Placemark>
    <Placemark>
      <name>1200 UTC FEB 20</name>
      <styleUrl>#td</styleUrl>
      <description><![CDATA[
        <table>
          <tr><td>TD LINCOLN (SH142024)</td></tr>
          <tr><td><hr></td></tr>
          <tr><td>1200 UTC FEB 20, 2024</td></tr>
          <tr><td>Storm Location:</td></tr>
          <tr><td><b>17.1 S, 126.2 E</b></td></tr>
          <tr><td>Min Sea Level Pressure:</td></tr>
          <tr><td>1003 mb / 29.62 in Hg</td></tr>
          <tr><td>Maximum Intensity:</td></tr>
          <tr><td>25 kt / 29 mph / 46 kph</td></tr>
        </table>
      ]]></description>
      <Point><coordinates>126.2,-17.1</coordinates></Point>
    </Placemark>
    <Placemark>
      <name>1800 UTC FEB 20</name>
      <styleUrl>#td</styleUrl>
      <description><![CDATA[
        <table>
          <tr><td>TD LINCOLN (SH142024)</td></tr>
          <tr><td><hr></td></tr>
          <tr><td>1800 UTC FEB 20, 2024</td></tr>
          <tr><td>Storm Location:</td></tr>
          <tr><td><b>16.3 S, 125.5 E</b></td></tr>
          <tr><td>Min Sea Level Pressure:</td></tr>
          <tr><td>1003 mb / 29.62 in Hg</td></tr>
          <tr><td>Maximum Intensity:</td></tr>
          <tr><td>25 kt / 29 mph / 46 kph</td></tr>
        </table>
      ]]></description>
      <Point><coordinates>125.5,-16.3</coordinates></Point>
    </Placemark>
    <Placemark>
      <name>0000 UTC FEB 21</name>
      <styleUrl>#td</styleUrl>
      <description><![CDATA[
        <table>
          <tr><td>TD LINCOLN (SH142024)</td></tr>
          <tr><td><hr></td></tr>
          <tr><td>0000 UTC FEB 21, 2024</td></tr>
          <tr><td>Storm Location:</td></tr>
          <tr><td><b>15.8 S, 124.8 E</b></td></tr>
          <tr><td>Min Sea Level Pressure:</td></tr>
          <tr><td>1003 mb / 29.62 in Hg</td></tr>
          <tr><td>Maximum Intensity:</td></tr>
          <tr><td>25 kt / 29 mph / 46 kph</td></tr>
        </table>
      ]]></description>
      <Point><coordinates>124.8,-15.8</coordinates></Point>
    </Placemark>
    <Placemark>
      <name>0600 UTC FEB 21</name>
      <styleUrl>#td</styleUrl>
      <description><![CDATA[
        <table>
          <tr><td>TD LINCOLN (SH142024)</td></tr>
          <tr><td><hr></td></tr>
          <tr><td>0600 UTC FEB 21, 2024</td></tr>
          <tr><td>Storm Location:</td></tr>
          <tr><td><b>15.6 S, 123.7 E</b></td></tr>
          <tr><td>Min Sea Level Pressure:</td></tr>
          <tr><td>1002 mb / 29.59 in Hg</td></tr>
          <tr><td>Maximum Intensity:</td></tr>
          <tr><td>25 kt / 29 mph / 46 kph</td></tr>
        </table>
      ]]></description>
      <Point><coordinates>123.7,-15.6</coordinates></Point>
    </Placemark>
    <Placemark>
      <name>1200 UTC FEB 21</name>
      <styleUrl>#td</styleUrl>
      <description><![CDATA[
        <table>
          <tr><td>TD LINCOLN (SH142024)</td></tr>
          <tr><td><hr></td></tr>
          <tr><td>1200 UTC FEB 21, 2024</td></tr>
          <tr><td>Storm Location:</td></tr>
          <tr><td><b>15.3 S, 122.7 E</b></td></tr>
          <tr><td>Min Sea Level Pressure:</td></tr>
          <tr><td>1001 mb / 29.56 in Hg</td></tr>
          <tr><td>Maximum Intensity:</td></tr>
          <tr><td>25 kt / 29 mph / 46 kph</td></tr>
        </table>
      ]]></description>
      <Point><coordinates>122.7,-15.3</coordinates></Point>
    </Placemark>
    <Placemark>
      <name>1800 UTC FEB 21</name>
      <styleUrl>#td</styleUrl>
      <description><![CDATA[
        <table>
          <tr><td>TD LINCOLN (SH142024)</td></tr>
          <tr><td><hr></td></tr>
          <tr><td>1800 UTC FEB 21, 2024</td></tr>
          <tr><td>Storm Location:</td></tr>
          <tr><td><b>15.7 S, 121.5 E</b></td></tr>
          <tr><td>Min Sea Level Pressure:</td></tr>
          <tr><td>1000 mb / 29.53 in Hg</td></tr>
          <tr><td>Maximum Intensity:</td></tr>
          <tr><td>30 kt / 35 mph / 56 kph</td></tr>
        </table>
      ]]></description>
      <Point><coordinates>121.5,-15.7</coordinates></Point>
    </Placemark>
    <Placemark>
      <name>0000 UTC FEB 22</name>
      <styleUrl>#td</styleUrl>
      <description><![CDATA[
        <table>
          <tr><td>TD LINCOLN (SH142024)</td></tr>
          <tr><td><hr></td></tr>
          <tr><td>0000 UTC FEB 22, 2024</td></tr>
          <tr><td>Storm Location:</td></tr>
          <tr><td><b>16.1 S, 120.4 E</b></td></tr>
          <tr><td>Min Sea Level Pressure:</td></tr>
          <tr><td>1000 mb / 29.53 in Hg</td></tr>
          <tr><td>Maximum Intensity:</td></tr>
          <tr><td>30 kt / 35 mph / 56 kph</td></tr>
        </table>
      ]]></description>
      <Point><coordinates>120.4,-16.1</coordinates></Point>
    </Placemark>
    <Placemark>
      <name>0600 UTC FEB 22</name>
      <styleUrl>#td</styleUrl>
      <description><![CDATA[
        <table>
          <tr><td>TD LINCOLN (SH142024)</td></tr>
          <tr><td><hr></td></tr>
          <tr><td>0600 UTC FEB 22, 2024</td></tr>
          <tr><td>Storm Location:</td></tr>
          <tr><td><b>16.6 S, 119.1 E</b></td></tr>
          <tr><td>Min Sea Level Pressure:</td></tr>
          <tr><td>1000 mb / 29.53 in Hg</td></tr>
          <tr><td>Maximum Intensity:</td></tr>
          <tr><td>30 kt / 35 mph / 56 kph</td></tr>
        </table>
      ]]></description>
      <Point><coordinates>119.1,-16.6</coordinates></Point>
    </Placemark>
    <Placemark>
      <name>1200 UTC FEB 22</name>
      <styleUrl>#td</styleUrl>
      <description><![CDATA[
        <table>
          <tr><td>TD LINCOLN (SH142024)</td></tr>
          <tr><td><hr></td></tr>
          <tr><td>1200 UTC FEB 22, 2024</td></tr>
          <tr><td>Storm Location:</td></tr>
          <tr><td><b>17.1 S, 117.9 E</b></td></tr>
          <tr><td>Min Sea Level Pressure:</td></tr>
          <tr><td>1000 mb / 29.53 in Hg</td></tr>
          <tr><td>Maximum Intensity:</td></tr>
          <tr><td>30 kt / 35 mph / 56 kph</td></tr>
        </table>
      ]]></description>
      <Point><coordinates>117.9,-17.1</coordinates></Point>
    </Placemark>
    <Placemark>
      <name>1800 UTC FEB 22</name>
      <styleUrl>#td</styleUrl>
      <description><![CDATA[
        <table>
          <tr><td>TD LINCOLN (SH142024)</td></tr>
          <tr><td><hr></td></tr>
          <tr><td>1800 UTC FEB 22, 2024</td></tr>
          <tr><td>Storm Location:</td></tr>
          <tr><td><b>17.6 S, 116.3 E</b></td></tr>
          <tr><td>Min Sea Level Pressure:</td></tr>
          <tr><td>1000 mb / 29.53 in Hg</td></tr>
          <tr><td>Maximum Intensity:</td></tr>
          <tr><td>30 kt / 35 mph / 56 kph</td></tr>
        </table>
      ]]></description>
      <Point><coordinates>116.3,-17.6</coordinates></Point>
    </Placemark>
    <Placemark>
      <name>0000 UTC FEB 23</name>
      <styleUrl>#ts</styleUrl>
      <description><![CDATA[
        <table>
          <tr><td>TS LINCOLN (SH142024)</td></tr>
          <tr><td><hr></td></tr>
          <tr><td>0000 UTC FEB 23, 2024</td></tr>
          <tr><td>Storm Location:</td></tr>
          <tr><td><b>18.0 S, 115.2 E</b></td></tr>
          <tr><td>Min Sea Level Pressure:</td></tr>
          <tr><td>997 mb / 29.44 in Hg</td></tr>
          <tr><td>Maximum Intensity:</td></tr>
          <tr><td>35 kt / 40 mph / 65 kph</td></tr>
        </table>
      ]]></description>
      <Point><coordinates>115.2,-18</coordinates></Point>
    </Placemark>
    <Placemark>
      <name>0600 UTC FEB 23</name>
      <styleUrl>#td</styleUrl>
      <description><![CDATA[
        <table>
          <tr><td>TD LINCOLN (SH142024)</td></tr>
          <tr><td><hr></td></tr>
          <tr><td>0600 UTC FEB 23, 2024</td></tr>
          <tr><td>Storm Location:</td></tr>
          <tr><td><b>18.4 S, 114.3 E</b></td></tr>
          <tr><td>Min Sea Level Pressure:</td></tr>
          <tr><td>1000 mb / 29.53 in Hg</td></tr>
          <tr><td>Maximum Intensity:</td></tr>
          <tr><td>30 kt / 35 mph / 56 kph</td></tr>
        </table>
      ]]></description>
      <Point><coordinates>114.3,-18.4</coordinates></Point>
    </Placemark>
    <Placemark>
      <name>1200 UTC FEB 23</name>
      <styleUrl>#ts</styleUrl>
      <description><![CDATA[
        <table>
          <tr><td>TS LINCOLN (SH142024)</td></tr>
          <tr><td><hr></td></tr>
          <tr><td>1200 UTC FEB 23, 2024</td></tr>
          <tr><td>Storm Location:</td></tr>
          <tr><td><b>18.8 S, 113.7 E</b></td></tr>
          <tr><td>Min Sea Level Pressure:</td></tr>
          <tr><td>997 mb / 29.44 in Hg</td></tr>
          <tr><td>Maximum Intensity:</td></tr>
          <tr><td>35 kt / 40 mph / 65 kph</td></tr>
        </table>
      ]]></description>
      <Point><coordinates>113.7,-18.8</coordinates></Point>
    </Placemark>
    <Placemark>
      <name>1800 UTC FEB 23</name>
      <styleUrl>#ts</styleUrl>
      <description><![CDATA[
        <table>
          <tr><td>TS LINCOLN (SH142024)</td></tr>
          <tr><td><hr></td></tr>
          <tr><td>1800 UTC FEB 23, 2024</td></tr>
          <tr><td>Storm Location:</td></tr>
          <tr><td><b>19.7 S, 113.3 E</b></td></tr>
          <tr><td>Min Sea Level Pressure:</td></tr>
          <tr><td>997 mb / 29.44 in Hg</td></tr>
          <tr><td>Maximum Intensity:</td></tr>
          <tr><td>35 kt / 40 mph / 65 kph</td></tr>
        </table>
      ]]></description>
      <Point><coordinates>113.3,-19.7</coordinates></Point>
    </Placemark>
    <Placemark>
      <name>0000 UTC FEB 24</name>
      <styleUrl>#td</styleUrl>
      <description><![CDATA[
        <table>
          <tr><td>TD LINCOLN (SH142024)</td></tr>
          <tr><td><hr></td></tr>
          <tr><td>0000 UTC FEB 24, 2024</td></tr>
          <tr><td>Storm Location:</td></tr>
          <tr><td><b>21.0 S, 113.2 E</b></td></tr>
          <tr><td>Min Sea Level Pressure:</td></tr>
          <tr><td>1003 mb / 29.62 in Hg</td></tr>
          <tr><td>Maximum Intensity:</td></tr>
          <tr><td>30 kt / 35 mph / 56 kph</td></tr>
        </table>
      ]]></description>
      <Point><coordinates>113.2,-21</coordinates></Point>
    </Placemark>
    <Placemark>
      <name>0600 UTC FEB 24</name>
      <styleUrl>#td</styleUrl>
      <description><![CDATA[
        <table>
          <tr><td>TD LINCOLN (SH142024)</td></tr>
          <tr><td><hr></td></tr>
          <tr><td>0600 UTC FEB 24, 2024</td></tr>
          <tr><td>Storm Location:</td></tr>
          <tr><td><b>22.3 S, 113.2 E</b></td></tr>
          <tr><td>Min Sea Level Pressure:</td></tr>
          <tr><td>1003 mb / 29.62 in Hg</td></tr>
          <tr><td>Maximum Intensity:</td></tr>
          <tr><td>30 kt / 35 mph / 56 kph</td></tr>
        </table>
      ]]></description>
      <Point><coordinates>113.2,-22.3</coordinates></Point>
    </Placemark>
    <Placemark>
      <name>1200 UTC FEB 24</name>
      <styleUrl>#td</styleUrl>
      <description><![CDATA[
        <table>
          <tr><td>TD LINCOLN (SH142024)</td></tr>
          <tr><td><hr></td></tr>
          <tr><td>1200 UTC FEB 24, 2024</td></tr>
          <tr><td>Storm Location:</td></tr>
          <tr><td><b>23.3 S, 113.5 E</b></td></tr>
          <tr><td>Min Sea Level Pressure:</td></tr>
          <tr><td>1005 mb / 29.68 in Hg</td></tr>
          <tr><td>Maximum Intensity:</td></tr>
          <tr><td>25 kt / 29 mph / 46 kph</td></tr>
        </table>
      ]]></description>
      <Point><coordinates>113.5,-23.3</coordinates></Point>
    </Placemark>
  </Document>
</kml>
