<?xml version="1.0" encoding="UTF-8"?>
<kml xmlns="http://www.opengis.net/kml/2.2">
  <Document>
    <name>SH162024</name>
    <open>0</open>

    <!-- =====  Document header ===== -->
    <description><![CDATA[
      <table>
        <tr><td><b>Title:</b> Tropical Cyclone Best Track for SH162024</td></tr>
      </table>
    ]]></description>

    <!-- =====  Styles (ids must be unique)  ===== -->
	<Style id="pt"> 
		<IconStyle> 
			<scale>1.0</scale> 
			<Icon> 
				<href>ex_nhemi.png</href> 
			</Icon> 
             <hotSpot x="15" y="17" xunits="pixels" yunits="pixels"/>
		</IconStyle> 
		<LabelStyle> 
			<scale>1.0</scale> 
		</LabelStyle> 
	</Style>
	<Style id="cat5"> 
		<IconStyle> 
			<scale>1.0</scale> 
			<Icon> 
				<href>cat5_nhemi.png</href> 
			</Icon> 
             <hotSpot x="15" y="17" xunits="pixels" yunits="pixels"/>
		</IconStyle> 
		<LabelStyle> 
			<scale>1.0</scale> 
		</LabelStyle> 
	</Style>
	<Style id="db"> 
		<IconStyle> 
			<scale>1.0</scale> 
			<Icon> 
				<href>ex_nhemi.png</href> 
			</Icon> 
             <hotSpot x="15" y="17" xunits="pixels" yunits="pixels"/>
		</IconStyle> 
		<LabelStyle> 
			<scale>1.0</scale> 
		</LabelStyle> 
	</Style>
	<Style id="cat3"> 
		<IconStyle> 
			<scale>1.0</scale> 
			<Icon> 
				<href>cat3_nhemi.png</href> 
			</Icon> 
             <hotSpot x="15" y="17" xunits="pixels" yunits="pixels"/>
		</IconStyle> 
		<LabelStyle> 
			<scale>1.0</scale> 
		</LabelStyle> 
	</Style>
	<Style id="ss"> 
		<IconStyle> 
			<scale>1.0</scale> 
			<Icon> 
				<href>ts_nhemi.png</href> 
			</Icon> 
             <hotSpot x="15" y="17" xunits="pixels" yunits="pixels"/>
		</IconStyle> 
		<LabelStyle> 
			<scale>1.0</scale> 
		</LabelStyle> 
	</Style>
	<Style id="lo"> 
		<IconStyle> 
			<scale>1.0</scale> 
			<Icon> 
				<href>ex_nhemi.png</href> 
			</Icon> 
             <hotSpot x="15" y="17" xunits="pixels" yunits="pixels"/>
		</IconStyle> 
		<LabelStyle> 
			<scale>1.0</scale> 
		</LabelStyle> 
	</Style>
	<Style id="cat4"> 
		<IconStyle> 
			<scale>1.0</scale> 
			<Icon> 
				<href>cat4_nhemi.png</href> 
			</Icon> 
             <hotSpot x="15" y="17" xunits="pixels" yunits="pixels"/>
		</IconStyle> 
		<LabelStyle> 
			<scale>1.0</scale> 
		</LabelStyle> 
	</Style>
	<Style id="cat2"> 
		<IconStyle> 
			<scale>1.0</scale> 
			<Icon> 
				<href>cat2_nhemi.png</href> 
			</Icon> 
             <hotSpot x="15" y="17" xunits="pixels" yunits="pixels"/>
		</IconStyle> 
		<LabelStyle> 
			<scale>1.0</scale> 
		</LabelStyle> 
	</Style>
	<Style id="ts"> 
		<IconStyle> 
			<scale>1.0</scale> 
			<Icon> 
				<href>ts_nhemi.png</href> 
			</Icon> 
             <hotSpot x="15" y="17" xunits="pixels" yunits="pixels"/>
		</IconStyle> 
		<LabelStyle> 
			<scale>1.0</scale> 
		</LabelStyle> 
	</Style>
	<Style id="cat1"> 
		<IconStyle> 
			<scale>1.0</scale> 
			<Icon> 
				<href>cat1_nhemi.png</href> 
			</Icon> 
             <hotSpot x="15" y="17" xunits="pixels" yunits="pixels"/>
		</IconStyle> 
		<LabelStyle> 
			<scale>1.0</scale> 
		</LabelStyle> 
	</Style>
	<Style id="ex"> 
		<IconStyle> 
			<scale>1.0</scale> 
			<Icon> 
				<href>ex_nhemi.png</href> 
			</Icon> 
             <hotSpot x="15" y="17" xunits="pixels" yunits="pixels"/>
		</IconStyle> 
		<LabelStyle> 
			<scale>1.0</scale> 
		</LabelStyle> 
	</Style>
	<Style id="tc"> 
		<IconStyle> 
			<scale>1.0</scale> 
			<Icon> 
				<href>ex_nhemi.png</href> 
			</Icon> 
             <hotSpot x="15" y="17" xunits="pixels" yunits="pixels"/>
		</IconStyle> 
		<LabelStyle> 
			<scale>1.0</scale> 
		</LabelStyle> 
	</Style>
	<Style id="wv"> 
		<IconStyle> 
			<scale>1.0</scale> 
			<Icon> 
				<href>ex_nhemi.png</href> 
			</Icon> 
             <hotSpot x="15" y="17" xunits="pixels" yunits="pixels"/>
		</IconStyle> 
		<LabelStyle> 
			<scale>1.0</scale> 
		</LabelStyle> 
	</Style>
	<Style id="td"> 
		<IconStyle> 
			<scale>1.0</scale> 
			<Icon> 
				<href>td_nhemi.png</href> 
			</Icon> 
             <hotSpot x="15" y="17" xunits="pixels" yunits="pixels"/>
		</IconStyle> 
		<LabelStyle> 
			<scale>1.0</scale> 
		</LabelStyle> 
	</Style>
	<Style id="sd"> 
		<IconStyle> 
			<scale>1.0</scale> 
			<Icon> 
				<href>ex_nhemi.png</href> 
			</Icon> 
             <hotSpot x="15" y="17" xunits="pixels" yunits="pixels"/>
		</IconStyle> 
		<LabelStyle> 
			<scale>1.0</scale> 
		</LabelStyle> 
	</Style>

    <Placemark>
      <name>0600 UTC FEB 18</name>
      <styleUrl>#td</styleUrl>
      <description><![CDATA[
        <table>
          <tr><td>TD ELEANOR (SH162024)</td></tr>
          <tr><td><hr></td></tr>
          <tr><td>0600 UTC FEB 18, 2024</td></tr>
          <tr><td>Storm Location:</td></tr>
          <tr><td><b>16.4 S, 51.4 E</b></td></tr>
          <tr><td>Min Sea Level Pressure:</td></tr>
          <tr><td>1006 mb / 29.71 in Hg</td></tr>
          <tr><td>Maximum Intensity:</td></tr>
          <tr><td>25 kt / 29 mph / 46 kph</td></tr>
        </table>
      ]]></description>
      <Point><coordinates>51.4,-16.4</coordinates></Point>
    </Placemark>
    <Placemark>
      <name>1200 UTC FEB 18</name>
      <styleUrl>#td</styleUrl>
      <description><![CDATA[
        <table>
          <tr><td>TD ELEANOR (SH162024)</td></tr>
          <tr><td><hr></td></tr>
          <tr><td>1200 UTC FEB 18, 2024</td></tr>
          <tr><td>Storm Location:</td></tr>
          <tr><td><b>16.0 S, 52.7 E</b></td></tr>
          <tr><td>Min Sea Level Pressure:</td></tr>
          <tr><td>1006 mb / 29.71 in Hg</td></tr>
          <tr><td>Maximum Intensity:</td></tr>
          <tr><td>25 kt / 29 mph / 46 kph</td></tr>
        </table>
      ]]></description>
      <Point><coordinates>52.7,-16</coordinates></Point>
    </Placemark>
    <Placemark>
      <name>1800 UTC FEB 18</name>
      <styleUrl>#td</styleUrl>
      <description><![CDATA[
        <table>
          <tr><td>TD ELEANOR (SH162024)</td></tr>
          <tr><td><hr></td></tr>
          <tr><td>1800 UTC FEB 18, 2024</td></tr>
          <tr><td>Storm Location:</td></tr>
          <tr><td><b>15.6 S, 53.8 E</b></td></tr>
          <tr><td>Min Sea Level Pressure:</td></tr>
          <tr><td>1006 mb / 29.71 in Hg</td></tr>
          <tr><td>Maximum Intensity:</td></tr>
          <tr><td>25 kt / 29 mph / 46 kph</td></tr>
        </table>
      ]]></description>
      <Point><coordinates>53.8,-15.6</coordinates></Point>
    </Placemark>
    <Placemark>
      <name>0000 UTC FEB 19</name>
      <styleUrl>#ts</styleUrl>
      <description><![CDATA[
        <table>
          <tr><td>TS ELEANOR (SH162024)</td></tr>
          <tr><td><hr></td></tr>
          <tr><td>0000 UTC FEB 19, 2024</td></tr>
          <tr><td>Storm Location:</td></tr>
          <tr><td><b>15.0 S, 54.4 E</b></td></tr>
          <tr><td>Min Sea Level Pressure:</td></tr>
          <tr><td>1000 mb / 29.53 in Hg</td></tr>
          <tr><td>Maximum Intensity:</td></tr>
          <tr><td>35 kt / 40 mph / 65 kph</td></tr>
        </table>
      ]]></description>
      <Point><coordinates>54.4,-15</coordinates></Point>
    </Placemark>
    <Placemark>
      <name>0600 UTC FEB 19</name>
      <styleUrl>#ts</styleUrl>
      <description><![CDATA[
        <table>
          <tr><td>TS ELEANOR (SH162024)</td></tr>
          <tr><td><hr></td></tr>
          <tr><td>0600 UTC FEB 19, 2024</td></tr>
          <tr><td>Storm Location:</td></tr>
          <tr><td><b>14.4 S, 55.0 E</b></td></tr>
          <tr><td>Min Sea Level Pressure:</td></tr>
          <tr><td>1000 mb / 29.53 in Hg</td></tr>
          <tr><td>Maximum Intensity:</td></tr>
          <tr><td>35 kt / 40 mph / 65 kph</td></tr>
        </table>
      ]]></description>
      <Point><coordinates>55,-14.4</coordinates></Point>
    </Placemark>
    <Placemark>
      <name>1200 UTC FEB 19</name>
      <styleUrl>#ts</styleUrl>
      <description><![CDATA[
        <table>
          <tr><td>TS ELEANOR (SH162024)</td></tr>
          <tr><td><hr></td></tr>
          <tr><td>1200 UTC FEB 19, 2024</td></tr>
          <tr><td>Storm Location:</td></tr>
          <tr><td><b>14.7 S, 55.8 E</b></td></tr>
          <tr><td>Min Sea Level Pressure:</td></tr>
          <tr><td>996 mb / 29.41 in Hg</td></tr>
          <tr><td>Maximum Intensity:</td></tr>
          <tr><td>40 kt / 46 mph / 74 kph</td></tr>
        </table>
      ]]></description>
      <Point><coordinates>55.8,-14.7</coordinates></Point>
    </Placemark>
    <Placemark>
      <name>1800 UTC FEB 19</name>
      <styleUrl>#ts</styleUrl>
      <description><![CDATA[
        <table>
          <tr><td>TS ELEANOR (SH162024)</td></tr>
          <tr><td><hr></td></tr>
          <tr><td>1800 UTC FEB 19, 2024</td></tr>
          <tr><td>Storm Location:</td></tr>
          <tr><td><b>14.2 S, 57.3 E</b></td></tr>
          <tr><td>Min Sea Level Pressure:</td></tr>
          <tr><td>995 mb / 29.38 in Hg</td></tr>
          <tr><td>Maximum Intensity:</td></tr>
          <tr><td>45 kt / 52 mph / 83 kph</td></tr>
        </table>
      ]]></description>
      <Point><coordinates>57.3,-14.2</coordinates></Point>
    </Placemark>
    <Placemark>
      <name>0000 UTC FEB 20</name>
      <styleUrl>#ts</styleUrl>
      <description><![CDATA[
        <table>
          <tr><td>TS ELEANOR (SH162024)</td></tr>
          <tr><td><hr></td></tr>
          <tr><td>0000 UTC FEB 20, 2024</td></tr>
          <tr><td>Storm Location:</td></tr>
          <tr><td><b>14.0 S, 58.1 E</b></td></tr>
          <tr><td>Min Sea Level Pressure:</td></tr>
          <tr><td>993 mb / 29.32 in Hg</td></tr>
          <tr><td>Maximum Intensity:</td></tr>
          <tr><td>55 kt / 63 mph / 102 kph</td></tr>
        </table>
      ]]></description>
      <Point><coordinates>58.1,-14</coordinates></Point>
    </Placemark>
    <Placemark>
      <name>0600 UTC FEB 20</name>
      <styleUrl>#ts</styleUrl>
      <description><![CDATA[
        <table>
          <tr><td>TS ELEANOR (SH162024)</td></tr>
          <tr><td><hr></td></tr>
          <tr><td>0600 UTC FEB 20, 2024</td></tr>
          <tr><td>Storm Location:</td></tr>
          <tr><td><b>13.8 S, 58.9 E</b></td></tr>
          <tr><td>Min Sea Level Pressure:</td></tr>
          <tr><td>995 mb / 29.38 in Hg</td></tr>
          <tr><td>Maximum Intensity:</td></tr>
          <tr><td>45 kt / 52 mph / 83 kph</td></tr>
        </table>
      ]]></description>
      <Point><coordinates>58.9,-13.8</coordinates></Point>
    </Placemark>
    <Placemark>
      <name>1200 UTC FEB 20</name>
      <styleUrl>#ts</styleUrl>
      <description><![CDATA[
        <table>
          <tr><td>TS ELEANOR (SH162024)</td></tr>
          <tr><td><hr></td></tr>
          <tr><td>1200 UTC FEB 20, 2024</td></tr>
          <tr><td>Storm Location:</td></tr>
          <tr><td><b>13.8 S, 59.6 E</b></td></tr>
          <tr><td>Min Sea Level Pressure:</td></tr>
          <tr><td>994 mb / 29.35 in Hg</td></tr>
          <tr><td>Maximum Intensity:</td></tr>
          <tr><td>50 kt / 58 mph / 93 kph</td></tr>
        </table>
      ]]></description>
      <Point><coordinates>59.6,-13.8</coordinates></Point>
    </Placemark>
    <Placemark>
      <name>1800 UTC FEB 20</name>
      <styleUrl>#ts</styleUrl>
      <description><![CDATA[
        <table>
          <tr><td>TS ELEANOR (SH162024)</td></tr>
          <tr><td><hr></td></tr>
          <tr><td>1800 UTC FEB 20, 2024</td></tr>
          <tr><td>Storm Location:</td></tr>
          <tr><td><b>14.1 S, 60.3 E</b></td></tr>
          <tr><td>Min Sea Level Pressure:</td></tr>
          <tr><td>994 mb / 29.35 in Hg</td></tr>
          <tr><td>Maximum Intensity:</td></tr>
          <tr><td>50 kt / 58 mph / 93 kph</td></tr>
        </table>
      ]]></description>
      <Point><coordinates>60.3,-14.1</coordinates></Point>
    </Placemark>
    <Placemark>
      <name>0000 UTC FEB 21</name>
      <styleUrl>#ts</styleUrl>
      <description><![CDATA[
        <table>
          <tr><td>TS ELEANOR (SH162024)</td></tr>
          <tr><td><hr></td></tr>
          <tr><td>0000 UTC FEB 21, 2024</td></tr>
          <tr><td>Storm Location:</td></tr>
          <tr><td><b>14.6 S, 60.7 E</b></td></tr>
          <tr><td>Min Sea Level Pressure:</td></tr>
          <tr><td>995 mb / 29.38 in Hg</td></tr>
          <tr><td>Maximum Intensity:</td></tr>
          <tr><td>50 kt / 58 mph / 93 kph</td></tr>
        </table>
      ]]></description>
      <Point><coordinates>60.7,-14.6</coordinates></Point>
    </Placemark>
    <Placemark>
      <name>0600 UTC FEB 21</name>
      <styleUrl>#ts</styleUrl>
      <description><![CDATA[
        <table>
          <tr><td>TS ELEANOR (SH162024)</td></tr>
          <tr><td><hr></td></tr>
          <tr><td>0600 UTC FEB 21, 2024</td></tr>
          <tr><td>Storm Location:</td></tr>
          <tr><td><b>15.6 S, 60.6 E</b></td></tr>
          <tr><td>Min Sea Level Pressure:</td></tr>
          <tr><td>996 mb / 29.41 in Hg</td></tr>
          <tr><td>Maximum Intensity:</td></tr>
          <tr><td>50 kt / 58 mph / 93 kph</td></tr>
        </table>
      ]]></description>
      <Point><coordinates>60.6,-15.6</coordinates></Point>
    </Placemark>
    <Placemark>
      <name>1200 UTC FEB 21</name>
      <styleUrl>#ts</styleUrl>
      <description><![CDATA[
        <table>
          <tr><td>TS ELEANOR (SH162024)</td></tr>
          <tr><td><hr></td></tr>
          <tr><td>1200 UTC FEB 21, 2024</td></tr>
          <tr><td>Storm Location:</td></tr>
          <tr><td><b>16.7 S, 60.2 E</b></td></tr>
          <tr><td>Min Sea Level Pressure:</td></tr>
          <tr><td>999 mb / 29.50 in Hg</td></tr>
          <tr><td>Maximum Intensity:</td></tr>
          <tr><td>45 kt / 52 mph / 83 kph</td></tr>
        </table>
      ]]></description>
      <Point><coordinates>60.2,-16.7</coordinates></Point>
    </Placemark>
    <Placemark>
      <name>1800 UTC FEB 21</name>
      <styleUrl>#ts</styleUrl>
      <description><![CDATA[
        <table>
          <tr><td>TS ELEANOR (SH162024)</td></tr>
          <tr><td><hr></td></tr>
          <tr><td>1800 UTC FEB 21, 2024</td></tr>
          <tr><td>Storm Location:</td></tr>
          <tr><td><b>17.7 S, 59.8 E</b></td></tr>
          <tr><td>Min Sea Level Pressure:</td></tr>
          <tr><td>996 mb / 29.41 in Hg</td></tr>
          <tr><td>Maximum Intensity:</td></tr>
          <tr><td>50 kt / 58 mph / 93 kph</td></tr>
        </table>
      ]]></description>
      <Point><coordinates>59.8,-17.7</coordinates></Point>
    </Placemark>
    <Placemark>
      <name>0000 UTC FEB 22</name>
      <styleUrl>#ts</styleUrl>
      <description><![CDATA[
        <table>
          <tr><td>TS ELEANOR (SH162024)</td></tr>
          <tr><td><hr></td></tr>
          <tr><td>0000 UTC FEB 22, 2024</td></tr>
          <tr><td>Storm Location:</td></tr>
          <tr><td><b>18.8 S, 59.2 E</b></td></tr>
          <tr><td>Min Sea Level Pressure:</td></tr>
          <tr><td>994 mb / 29.35 in Hg</td></tr>
          <tr><td>Maximum Intensity:</td></tr>
          <tr><td>55 kt / 63 mph / 102 kph</td></tr>
        </table>
      ]]></description>
      <Point><coordinates>59.2,-18.8</coordinates></Point>
    </Placemark>
    <Placemark>
      <name>0600 UTC FEB 22</name>
      <styleUrl>#ts</styleUrl>
      <description><![CDATA[
        <table>
          <tr><td>TS ELEANOR (SH162024)</td></tr>
          <tr><td><hr></td></tr>
          <tr><td>0600 UTC FEB 22, 2024</td></tr>
          <tr><td>Storm Location:</td></tr>
          <tr><td><b>20.0 S, 58.5 E</b></td></tr>
          <tr><td>Min Sea Level Pressure:</td></tr>
          <tr><td>990 mb / 29.23 in Hg</td></tr>
          <tr><td>Maximum Intensity:</td></tr>
          <tr><td>60 kt / 69 mph / 111 kph</td></tr>
        </table>
      ]]></description>
      <Point><coordinates>58.5,-20</coordinates></Point>
    </Placemark>
    <Placemark>
      <name>1200 UTC FEB 22</name>
      <styleUrl>#ts</styleUrl>
      <description><![CDATA[
        <table>
          <tr><td>TS ELEANOR (SH162024)</td></tr>
          <tr><td><hr></td></tr>
          <tr><td>1200 UTC FEB 22, 2024</td></tr>
          <tr><td>Storm Location:</td></tr>
          <tr><td><b>21.1 S, 58.1 E</b></td></tr>
          <tr><td>Min Sea Level Pressure:</td></tr>
          <tr><td>992 mb / 29.29 in Hg</td></tr>
          <tr><td>Maximum Intensity:</td></tr>
          <tr><td>55 kt / 63 mph / 102 kph</td></tr>
        </table>
      ]]></description>
      <Point><coordinates>58.1,-21.1</coordinates></Point>
    </Placemark>
    <Placemark>
      <name>1800 UTC FEB 22</name>
      <styleUrl>#ts</styleUrl>
      <description><![CDATA[
        <table>
          <tr><td>TS ELEANOR (SH162024)</td></tr>
          <tr><td><hr></td></tr>
          <tr><td>1800 UTC FEB 22, 2024</td></tr>
          <tr><td>Storm Location:</td></tr>
          <tr><td><b>22.2 S, 58.4 E</b></td></tr>
          <tr><td>Min Sea Level Pressure:</td></tr>
          <tr><td>992 mb / 29.29 in Hg</td></tr>
          <tr><td>Maximum Intensity:</td></tr>
          <tr><td>55 kt / 63 mph / 102 kph</td></tr>
        </table>
      ]]></description>
      <Point><coordinates>58.4,-22.2</coordinates></Point>
    </Placemark>
    <Placemark>
      <name>0000 UTC FEB 23</name>
      <styleUrl>#ts</styleUrl>
      <description><![CDATA[
        <table>
          <tr><td>TS ELEANOR (SH162024)</td></tr>
          <tr><td><hr></td></tr>
          <tr><td>0000 UTC FEB 23, 2024</td></tr>
          <tr><td>Storm Location:</td></tr>
          <tr><td><b>22.7 S, 58.5 E</b></td></tr>
          <tr><td>Min Sea Level Pressure:</td></tr>
          <tr><td>992 mb / 29.29 in Hg</td></tr>
          <tr><td>Maximum Intensity:</td></tr>
          <tr><td>55 kt / 63 mph / 102 kph</td></tr>
        </table>
      ]]></description>
      <Point><coordinates>58.5,-22.7</coordinates></Point>
    </Placemark>
    <Placemark>
      <name>0600 UTC FEB 23</name>
      <styleUrl>#ts</styleUrl>
      <description><![CDATA[
        <table>
          <tr><td>TS ELEANOR (SH162024)</td></tr>
          <tr><td><hr></td></tr>
          <tr><td>0600 UTC FEB 23, 2024</td></tr>
          <tr><td>Storm Location:</td></tr>
          <tr><td><b>23.4 S, 58.4 E</b></td></tr>
          <tr><td>Min Sea Level Pressure:</td></tr>
          <tr><td>994 mb / 29.35 in Hg</td></tr>
          <tr><td>Maximum Intensity:</td></tr>
          <tr><td>50 kt / 58 mph / 93 kph</td></tr>
        </table>
      ]]></description>
      <Point><coordinates>58.4,-23.4</coordinates></Point>
    </Placemark>
    <Placemark>
      <name>1200 UTC FEB 23</name>
      <styleUrl>#ts</styleUrl>
      <description><![CDATA[
        <table>
          <tr><td>TS ELEANOR (SH162024)</td></tr>
          <tr><td><hr></td></tr>
          <tr><td>1200 UTC FEB 23, 2024</td></tr>
          <tr><td>Storm Location:</td></tr>
          <tr><td><b>23.5 S, 58.4 E</b></td></tr>
          <tr><td>Min Sea Level Pressure:</td></tr>
          <tr><td>994 mb / 29.35 in Hg</td></tr>
          <tr><td>Maximum Intensity:</td></tr>
          <tr><td>50 kt / 58 mph / 93 kph</td></tr>
        </table>
      ]]></description>
      <Point><coordinates>58.4,-23.5</coordinates></Point>
    </Placemark>
    <Placemark>
      <name>1800 UTC FEB 23</name>
      <styleUrl>#ts</styleUrl>
      <description><![CDATA[
        <table>
          <tr><td>TS ELEANOR (SH162024)</td></tr>
          <tr><td><hr></td></tr>
          <tr><td>1800 UTC FEB 23, 2024</td></tr>
          <tr><td>Storm Location:</td></tr>
          <tr><td><b>23.6 S, 58.5 E</b></td></tr>
          <tr><td>Min Sea Level Pressure:</td></tr>
          <tr><td>996 mb / 29.41 in Hg</td></tr>
          <tr><td>Maximum Intensity:</td></tr>
          <tr><td>45 kt / 52 mph / 83 kph</td></tr>
        </table>
      ]]></description>
      <Point><coordinates>58.5,-23.6</coordinates></Point>
    </Placemark>
    <Placemark>
      <name>0000 UTC FEB 24</name>
      <styleUrl>#ts</styleUrl>
      <description><![CDATA[
        <table>
          <tr><td>TS ELEANOR (SH162024)</td></tr>
          <tr><td><hr></td></tr>
          <tr><td>0000 UTC FEB 24, 2024</td></tr>
          <tr><td>Storm Location:</td></tr>
          <tr><td><b>23.5 S, 57.9 E</b></td></tr>
          <tr><td>Min Sea Level Pressure:</td></tr>
          <tr><td>1001 mb / 29.56 in Hg</td></tr>
          <tr><td>Maximum Intensity:</td></tr>
          <tr><td>35 kt / 40 mph / 65 kph</td></tr>
        </table>
      ]]></description>
      <Point><coordinates>57.9,-23.5</coordinates></Point>
    </Placemark>
    <Placemark>
      <name>0600 UTC FEB 24</name>
      <styleUrl>#td</styleUrl>
      <description><![CDATA[
        <table>
          <tr><td>TD ELEANOR (SH162024)</td></tr>
          <tr><td><hr></td></tr>
          <tr><td>0600 UTC FEB 24, 2024</td></tr>
          <tr><td>Storm Location:</td></tr>
          <tr><td><b>23.2 S, 57.4 E</b></td></tr>
          <tr><td>Min Sea Level Pressure:</td></tr>
          <tr><td>1006 mb / 29.71 in Hg</td></tr>
          <tr><td>Maximum Intensity:</td></tr>
          <tr><td>30 kt / 35 mph / 56 kph</td></tr>
        </table>
      ]]></description>
      <Point><coordinates>57.4,-23.2</coordinates></Point>
    </Placemark>
    <Placemark>
      <name>1200 UTC FEB 24</name>
      <styleUrl>#td</styleUrl>
      <description><![CDATA[
        <table>
          <tr><td>TD ELEANOR (SH162024)</td></tr>
          <tr><td><hr></td></tr>
          <tr><td>1200 UTC FEB 24, 2024</td></tr>
          <tr><td>Storm Location:</td></tr>
          <tr><td><b>22.9 S, 56.9 E</b></td></tr>
          <tr><td>Min Sea Level Pressure:</td></tr>
          <tr><td>1008 mb / 29.77 in Hg</td></tr>
          <tr><td>Maximum Intensity:</td></tr>
          <tr><td>25 kt / 29 mph / 46 kph</td></tr>
        </table>
      ]]></description>
      <Point><coordinates>56.9,-22.9</coordinates></Point>
    </Placemark>
    <Placemark>
      <name>1800 UTC FEB 24</name>
      <styleUrl>#td</styleUrl>
      <description><![CDATA[
        <table>
          <tr><td>TD ELEANOR (SH162024)</td></tr>
          <tr><td><hr></td></tr>
          <tr><td>1800 UTC FEB 24, 2024</td></tr>
          <tr><td>Storm Location:</td></tr>
          <tr><td><b>22.5 S, 56.3 E</b></td></tr>
          <tr><td>Min Sea Level Pressure:</td></tr>
          <tr><td>1008 mb / 29.77 in Hg</td></tr>
          <tr><td>Maximum Intensity:</td></tr>
          <tr><td>25 kt / 29 mph / 46 kph</td></tr>
        </table>
      ]]></description>
      <Point><coordinates>56.3,-22.5</coordinates></Point>
    </Placemark>
    <Placemark>
      <name>0000 UTC FEB 25</name>
      <styleUrl>#td</styleUrl>
      <description><![CDATA[
        <table>
          <tr><td>TD ELEANOR (SH162024)</td></tr>
          <tr><td><hr></td></tr>
          <tr><td>0000 UTC FEB 25, 2024</td></tr>
          <tr><td>Storm Location:</td></tr>
          <tr><td><b>22.2 S, 54.8 E</b></td></tr>
          <tr><td>Min Sea Level Pressure:</td></tr>
          <tr><td>1009 mb / 29.80 in Hg</td></tr>
          <tr><td>Maximum Intensity:</td></tr>
          <tr><td>25 kt / 29 mph / 46 kph</td></tr>
        </table>
      ]]></description>
      <Point><coordinates>54.8,-22.2</coordinates></Point>
    </Placemark>
    <Placemark>
      <name>0600 UTC FEB 25</name>
      <styleUrl>#td</styleUrl>
      <description><![CDATA[
        <table>
          <tr><td>TD ELEANOR (SH162024)</td></tr>
          <tr><td><hr></td></tr>
          <tr><td>0600 UTC FEB 25, 2024</td></tr>
          <tr><td>Storm Location:</td></tr>
          <tr><td><b>21.7 S, 53.4 E</b></td></tr>
          <tr><td>Min Sea Level Pressure:</td></tr>
          <tr><td>1009 mb / 29.80 in Hg</td></tr>
          <tr><td>Maximum Intensity:</td></tr>
          <tr><td>25 kt / 29 mph / 46 kph</td></tr>
        </table>
      ]]></description>
      <Point><coordinates>53.4,-21.7</coordinates></Point>
    </Placemark>
    <Placemark>
      <name>1200 UTC FEB 25</name>
      <styleUrl>#td</styleUrl>
      <description><![CDATA[
        <table>
          <tr><td>TD ELEANOR (SH162024)</td></tr>
          <tr><td><hr></td></tr>
          <tr><td>1200 UTC FEB 25, 2024</td></tr>
          <tr><td>Storm Location:</td></tr>
          <tr><td><b>21.3 S, 52.1 E</b></td></tr>
          <tr><td>Min Sea Level Pressure:</td></tr>
          <tr><td>1009 mb / 29.80 in Hg</td></tr>
          <tr><td>Maximum Intensity:</td></tr>
          <tr><td>25 kt / 29 mph / 46 kph</td></tr>
        </table>
      ]]></description>
      <Point><coordinates>52.1,-21.3</coordinates></Point>
    </Placemark>
    <Placemark>
      <name>1800 UTC FEB 25</name>
      <styleUrl>#db</styleUrl>
      <description><![CDATA[
        <table>
          <tr><td>DB ELEANOR (SH162024)</td></tr>
          <tr><td><hr></td></tr>
          <tr><td>1800 UTC FEB 25, 2024</td></tr>
          <tr><td>Storm Location:</td></tr>
          <tr><td><b>20.9 S, 51.1 E</b></td></tr>
          <tr><td>Min Sea Level Pressure:</td></tr>
          <tr><td>1010 mb / 29.83 in Hg</td></tr>
          <tr><td>Maximum Intensity:</td></tr>
          <tr><td>20 kt / 23 mph / 37 kph</td></tr>
        </table>
      ]]></description>
      <Point><coordinates>51.1,-20.9</coordinates></Point>
    </Placemark>
  </Document>
</kml>
