<?xml version="1.0" encoding="UTF-8"?>
<kml xmlns="http://www.opengis.net/kml/2.2">
  <Document>
    <name>SH172024</name>
    <open>0</open>

    <!-- =====  Document header ===== -->
    <description><![CDATA[
      <table>
        <tr><td><b>Title:</b> Tropical Cyclone Best Track for SH172024</td></tr>
      </table>
    ]]></description>

    <!-- =====  Styles (ids must be unique)  ===== -->
	<Style id="pt"> 
		<IconStyle> 
			<scale>1.0</scale> 
			<Icon> 
				<href>ex_nhemi.png</href> 
			</Icon> 
             <hotSpot x="15" y="17" xunits="pixels" yunits="pixels"/>
		</IconStyle> 
		<LabelStyle> 
			<scale>1.0</scale> 
		</LabelStyle> 
	</Style>
	<Style id="cat5"> 
		<IconStyle> 
			<scale>1.0</scale> 
			<Icon> 
				<href>cat5_nhemi.png</href> 
			</Icon> 
             <hotSpot x="15" y="17" xunits="pixels" yunits="pixels"/>
		</IconStyle> 
		<LabelStyle> 
			<scale>1.0</scale> 
		</LabelStyle> 
	</Style>
	<Style id="db"> 
		<IconStyle> 
			<scale>1.0</scale> 
			<Icon> 
				<href>ex_nhemi.png</href> 
			</Icon> 
             <hotSpot x="15" y="17" xunits="pixels" yunits="pixels"/>
		</IconStyle> 
		<LabelStyle> 
			<scale>1.0</scale> 
		</LabelStyle> 
	</Style>
	<Style id="cat3"> 
		<IconStyle> 
			<scale>1.0</scale> 
			<Icon> 
				<href>cat3_nhemi.png</href> 
			</Icon> 
             <hotSpot x="15" y="17" xunits="pixels" yunits="pixels"/>
		</IconStyle> 
		<LabelStyle> 
			<scale>1.0</scale> 
		</LabelStyle> 
	</Style>
	<Style id="ss"> 
		<IconStyle> 
			<scale>1.0</scale> 
			<Icon> 
				<href>ts_nhemi.png</href> 
			</Icon> 
             <hotSpot x="15" y="17" xunits="pixels" yunits="pixels"/>
		</IconStyle> 
		<LabelStyle> 
			<scale>1.0</scale> 
		</LabelStyle> 
	</Style>
	<Style id="lo"> 
		<IconStyle> 
			<scale>1.0</scale> 
			<Icon> 
				<href>ex_nhemi.png</href> 
			</Icon> 
             <hotSpot x="15" y="17" xunits="pixels" yunits="pixels"/>
		</IconStyle> 
		<LabelStyle> 
			<scale>1.0</scale> 
		</LabelStyle> 
	</Style>
	<Style id="cat4"> 
		<IconStyle> 
			<scale>1.0</scale> 
			<Icon> 
				<href>cat4_nhemi.png</href> 
			</Icon> 
             <hotSpot x="15" y="17" xunits="pixels" yunits="pixels"/>
		</IconStyle> 
		<LabelStyle> 
			<scale>1.0</scale> 
		</LabelStyle> 
	</Style>
	<Style id="cat2"> 
		<IconStyle> 
			<scale>1.0</scale> 
			<Icon> 
				<href>cat2_nhemi.png</href> 
			</Icon> 
             <hotSpot x="15" y="17" xunits="pixels" yunits="pixels"/>
		</IconStyle> 
		<LabelStyle> 
			<scale>1.0</scale> 
		</LabelStyle> 
	</Style>
	<Style id="ts"> 
		<IconStyle> 
			<scale>1.0</scale> 
			<Icon> 
				<href>ts_nhemi.png</href> 
			</Icon> 
             <hotSpot x="15" y="17" xunits="pixels" yunits="pixels"/>
		</IconStyle> 
		<LabelStyle> 
			<scale>1.0</scale> 
		</LabelStyle> 
	</Style>
	<Style id="cat1"> 
		<IconStyle> 
			<scale>1.0</scale> 
			<Icon> 
				<href>cat1_nhemi.png</href> 
			</Icon> 
             <hotSpot x="15" y="17" xunits="pixels" yunits="pixels"/>
		</IconStyle> 
		<LabelStyle> 
			<scale>1.0</scale> 
		</LabelStyle> 
	</Style>
	<Style id="ex"> 
		<IconStyle> 
			<scale>1.0</scale> 
			<Icon> 
				<href>ex_nhemi.png</href> 
			</Icon> 
             <hotSpot x="15" y="17" xunits="pixels" yunits="pixels"/>
		</IconStyle> 
		<LabelStyle> 
			<scale>1.0</scale> 
		</LabelStyle> 
	</Style>
	<Style id="tc"> 
		<IconStyle> 
			<scale>1.0</scale> 
			<Icon> 
				<href>ex_nhemi.png</href> 
			</Icon> 
             <hotSpot x="15" y="17" xunits="pixels" yunits="pixels"/>
		</IconStyle> 
		<LabelStyle> 
			<scale>1.0</scale> 
		</LabelStyle> 
	</Style>
	<Style id="wv"> 
		<IconStyle> 
			<scale>1.0</scale> 
			<Icon> 
				<href>ex_nhemi.png</href> 
			</Icon> 
             <hotSpot x="15" y="17" xunits="pixels" yunits="pixels"/>
		</IconStyle> 
		<LabelStyle> 
			<scale>1.0</scale> 
		</LabelStyle> 
	</Style>
	<Style id="td"> 
		<IconStyle> 
			<scale>1.0</scale> 
			<Icon> 
				<href>td_nhemi.png</href> 
			</Icon> 
             <hotSpot x="15" y="17" xunits="pixels" yunits="pixels"/>
		</IconStyle> 
		<LabelStyle> 
			<scale>1.0</scale> 
		</LabelStyle> 
	</Style>
	<Style id="sd"> 
		<IconStyle> 
			<scale>1.0</scale> 
			<Icon> 
				<href>ex_nhemi.png</href> 
			</Icon> 
             <hotSpot x="15" y="17" xunits="pixels" yunits="pixels"/>
		</IconStyle> 
		<LabelStyle> 
			<scale>1.0</scale> 
		</LabelStyle> 
	</Style>

    <Placemark>
      <name>1800 UTC MAR 5</name>
      <styleUrl>#td</styleUrl>
      <description><![CDATA[
        <table>
          <tr><td>TD FILIPO (SH172024)</td></tr>
          <tr><td><hr></td></tr>
          <tr><td>1800 UTC MAR 5, 2024</td></tr>
          <tr><td>Storm Location:</td></tr>
          <tr><td><b>21.3 S, 41.6 E</b></td></tr>
          <tr><td>Min Sea Level Pressure:</td></tr>
          <tr><td>1004 mb / 29.65 in Hg</td></tr>
          <tr><td>Maximum Intensity:</td></tr>
          <tr><td>25 kt / 29 mph / 46 kph</td></tr>
        </table>
      ]]></description>
      <Point><coordinates>41.6,-21.3</coordinates></Point>
    </Placemark>
    <Placemark>
      <name>0000 UTC MAR 6</name>
      <styleUrl>#td</styleUrl>
      <description><![CDATA[
        <table>
          <tr><td>TD FILIPO (SH172024)</td></tr>
          <tr><td><hr></td></tr>
          <tr><td>0000 UTC MAR 6, 2024</td></tr>
          <tr><td>Storm Location:</td></tr>
          <tr><td><b>21.7 S, 41.3 E</b></td></tr>
          <tr><td>Min Sea Level Pressure:</td></tr>
          <tr><td>1004 mb / 29.65 in Hg</td></tr>
          <tr><td>Maximum Intensity:</td></tr>
          <tr><td>25 kt / 29 mph / 46 kph</td></tr>
        </table>
      ]]></description>
      <Point><coordinates>41.3,-21.7</coordinates></Point>
    </Placemark>
    <Placemark>
      <name>0600 UTC MAR 6</name>
      <styleUrl>#td</styleUrl>
      <description><![CDATA[
        <table>
          <tr><td>TD FILIPO (SH172024)</td></tr>
          <tr><td><hr></td></tr>
          <tr><td>0600 UTC MAR 6, 2024</td></tr>
          <tr><td>Storm Location:</td></tr>
          <tr><td><b>22.2 S, 41.2 E</b></td></tr>
          <tr><td>Min Sea Level Pressure:</td></tr>
          <tr><td>1003 mb / 29.62 in Hg</td></tr>
          <tr><td>Maximum Intensity:</td></tr>
          <tr><td>25 kt / 29 mph / 46 kph</td></tr>
        </table>
      ]]></description>
      <Point><coordinates>41.2,-22.2</coordinates></Point>
    </Placemark>
    <Placemark>
      <name>1200 UTC MAR 6</name>
      <styleUrl>#td</styleUrl>
      <description><![CDATA[
        <table>
          <tr><td>TD FILIPO (SH172024)</td></tr>
          <tr><td><hr></td></tr>
          <tr><td>1200 UTC MAR 6, 2024</td></tr>
          <tr><td>Storm Location:</td></tr>
          <tr><td><b>22.5 S, 41.4 E</b></td></tr>
          <tr><td>Min Sea Level Pressure:</td></tr>
          <tr><td>1003 mb / 29.62 in Hg</td></tr>
          <tr><td>Maximum Intensity:</td></tr>
          <tr><td>25 kt / 29 mph / 46 kph</td></tr>
        </table>
      ]]></description>
      <Point><coordinates>41.4,-22.5</coordinates></Point>
    </Placemark>
    <Placemark>
      <name>1800 UTC MAR 6</name>
      <styleUrl>#td</styleUrl>
      <description><![CDATA[
        <table>
          <tr><td>TD FILIPO (SH172024)</td></tr>
          <tr><td><hr></td></tr>
          <tr><td>1800 UTC MAR 6, 2024</td></tr>
          <tr><td>Storm Location:</td></tr>
          <tr><td><b>22.8 S, 41.6 E</b></td></tr>
          <tr><td>Min Sea Level Pressure:</td></tr>
          <tr><td>1003 mb / 29.62 in Hg</td></tr>
          <tr><td>Maximum Intensity:</td></tr>
          <tr><td>25 kt / 29 mph / 46 kph</td></tr>
        </table>
      ]]></description>
      <Point><coordinates>41.6,-22.8</coordinates></Point>
    </Placemark>
    <Placemark>
      <name>0000 UTC MAR 7</name>
      <styleUrl>#td</styleUrl>
      <description><![CDATA[
        <table>
          <tr><td>TD FILIPO (SH172024)</td></tr>
          <tr><td><hr></td></tr>
          <tr><td>0000 UTC MAR 7, 2024</td></tr>
          <tr><td>Storm Location:</td></tr>
          <tr><td><b>22.9 S, 41.7 E</b></td></tr>
          <tr><td>Min Sea Level Pressure:</td></tr>
          <tr><td>1003 mb / 29.62 in Hg</td></tr>
          <tr><td>Maximum Intensity:</td></tr>
          <tr><td>25 kt / 29 mph / 46 kph</td></tr>
        </table>
      ]]></description>
      <Point><coordinates>41.7,-22.9</coordinates></Point>
    </Placemark>
    <Placemark>
      <name>0600 UTC MAR 7</name>
      <styleUrl>#td</styleUrl>
      <description><![CDATA[
        <table>
          <tr><td>TD FILIPO (SH172024)</td></tr>
          <tr><td><hr></td></tr>
          <tr><td>0600 UTC MAR 7, 2024</td></tr>
          <tr><td>Storm Location:</td></tr>
          <tr><td><b>23.1 S, 41.8 E</b></td></tr>
          <tr><td>Min Sea Level Pressure:</td></tr>
          <tr><td>1004 mb / 29.65 in Hg</td></tr>
          <tr><td>Maximum Intensity:</td></tr>
          <tr><td>25 kt / 29 mph / 46 kph</td></tr>
        </table>
      ]]></description>
      <Point><coordinates>41.8,-23.1</coordinates></Point>
    </Placemark>
    <Placemark>
      <name>1200 UTC MAR 7</name>
      <styleUrl>#db</styleUrl>
      <description><![CDATA[
        <table>
          <tr><td>DB FILIPO (SH172024)</td></tr>
          <tr><td><hr></td></tr>
          <tr><td>1200 UTC MAR 7, 2024</td></tr>
          <tr><td>Storm Location:</td></tr>
          <tr><td><b>23.1 S, 41.9 E</b></td></tr>
          <tr><td>Min Sea Level Pressure:</td></tr>
          <tr><td>1008 mb / 29.77 in Hg</td></tr>
          <tr><td>Maximum Intensity:</td></tr>
          <tr><td>20 kt / 23 mph / 37 kph</td></tr>
        </table>
      ]]></description>
      <Point><coordinates>41.9,-23.1</coordinates></Point>
    </Placemark>
    <Placemark>
      <name>1800 UTC MAR 7</name>
      <styleUrl>#db</styleUrl>
      <description><![CDATA[
        <table>
          <tr><td>DB FILIPO (SH172024)</td></tr>
          <tr><td><hr></td></tr>
          <tr><td>1800 UTC MAR 7, 2024</td></tr>
          <tr><td>Storm Location:</td></tr>
          <tr><td><b>23.0 S, 42.0 E</b></td></tr>
          <tr><td>Min Sea Level Pressure:</td></tr>
          <tr><td>1008 mb / 29.77 in Hg</td></tr>
          <tr><td>Maximum Intensity:</td></tr>
          <tr><td>20 kt / 23 mph / 37 kph</td></tr>
        </table>
      ]]></description>
      <Point><coordinates>42,-23</coordinates></Point>
    </Placemark>
    <Placemark>
      <name>0000 UTC MAR 8</name>
      <styleUrl>#db</styleUrl>
      <description><![CDATA[
        <table>
          <tr><td>DB FILIPO (SH172024)</td></tr>
          <tr><td><hr></td></tr>
          <tr><td>0000 UTC MAR 8, 2024</td></tr>
          <tr><td>Storm Location:</td></tr>
          <tr><td><b>23.4 S, 41.7 E</b></td></tr>
          <tr><td>Min Sea Level Pressure:</td></tr>
          <tr><td>1008 mb / 29.77 in Hg</td></tr>
          <tr><td>Maximum Intensity:</td></tr>
          <tr><td>20 kt / 23 mph / 37 kph</td></tr>
        </table>
      ]]></description>
      <Point><coordinates>41.7,-23.4</coordinates></Point>
    </Placemark>
    <Placemark>
      <name>0600 UTC MAR 8</name>
      <styleUrl>#db</styleUrl>
      <description><![CDATA[
        <table>
          <tr><td>DB FILIPO (SH172024)</td></tr>
          <tr><td><hr></td></tr>
          <tr><td>0600 UTC MAR 8, 2024</td></tr>
          <tr><td>Storm Location:</td></tr>
          <tr><td><b>23.7 S, 41.0 E</b></td></tr>
          <tr><td>Min Sea Level Pressure:</td></tr>
          <tr><td>1009 mb / 29.80 in Hg</td></tr>
          <tr><td>Maximum Intensity:</td></tr>
          <tr><td>20 kt / 23 mph / 37 kph</td></tr>
        </table>
      ]]></description>
      <Point><coordinates>41,-23.7</coordinates></Point>
    </Placemark>
    <Placemark>
      <name>1200 UTC MAR 8</name>
      <styleUrl>#td</styleUrl>
      <description><![CDATA[
        <table>
          <tr><td>TD FILIPO (SH172024)</td></tr>
          <tr><td><hr></td></tr>
          <tr><td>1200 UTC MAR 8, 2024</td></tr>
          <tr><td>Storm Location:</td></tr>
          <tr><td><b>23.3 S, 41.3 E</b></td></tr>
          <tr><td>Min Sea Level Pressure:</td></tr>
          <tr><td>1006 mb / 29.71 in Hg</td></tr>
          <tr><td>Maximum Intensity:</td></tr>
          <tr><td>25 kt / 29 mph / 46 kph</td></tr>
        </table>
      ]]></description>
      <Point><coordinates>41.3,-23.3</coordinates></Point>
    </Placemark>
    <Placemark>
      <name>1800 UTC MAR 8</name>
      <styleUrl>#db</styleUrl>
      <description><![CDATA[
        <table>
          <tr><td>DB FILIPO (SH172024)</td></tr>
          <tr><td><hr></td></tr>
          <tr><td>1800 UTC MAR 8, 2024</td></tr>
          <tr><td>Storm Location:</td></tr>
          <tr><td><b>23.2 S, 41.4 E</b></td></tr>
          <tr><td>Min Sea Level Pressure:</td></tr>
          <tr><td>1008 mb / 29.77 in Hg</td></tr>
          <tr><td>Maximum Intensity:</td></tr>
          <tr><td>20 kt / 23 mph / 37 kph</td></tr>
        </table>
      ]]></description>
      <Point><coordinates>41.4,-23.2</coordinates></Point>
    </Placemark>
    <Placemark>
      <name>0000 UTC MAR 9</name>
      <styleUrl>#db</styleUrl>
      <description><![CDATA[
        <table>
          <tr><td>DB FILIPO (SH172024)</td></tr>
          <tr><td><hr></td></tr>
          <tr><td>0000 UTC MAR 9, 2024</td></tr>
          <tr><td>Storm Location:</td></tr>
          <tr><td><b>23.1 S, 41.5 E</b></td></tr>
          <tr><td>Min Sea Level Pressure:</td></tr>
          <tr><td>1009 mb / 29.80 in Hg</td></tr>
          <tr><td>Maximum Intensity:</td></tr>
          <tr><td>20 kt / 23 mph / 37 kph</td></tr>
        </table>
      ]]></description>
      <Point><coordinates>41.5,-23.1</coordinates></Point>
    </Placemark>
    <Placemark>
      <name>0600 UTC MAR 9</name>
      <styleUrl>#td</styleUrl>
      <description><![CDATA[
        <table>
          <tr><td>TD FILIPO (SH172024)</td></tr>
          <tr><td><hr></td></tr>
          <tr><td>0600 UTC MAR 9, 2024</td></tr>
          <tr><td>Storm Location:</td></tr>
          <tr><td><b>22.5 S, 41.2 E</b></td></tr>
          <tr><td>Min Sea Level Pressure:</td></tr>
          <tr><td>1007 mb / 29.74 in Hg</td></tr>
          <tr><td>Maximum Intensity:</td></tr>
          <tr><td>25 kt / 29 mph / 46 kph</td></tr>
        </table>
      ]]></description>
      <Point><coordinates>41.2,-22.5</coordinates></Point>
    </Placemark>
    <Placemark>
      <name>1200 UTC MAR 9</name>
      <styleUrl>#td</styleUrl>
      <description><![CDATA[
        <table>
          <tr><td>TD FILIPO (SH172024)</td></tr>
          <tr><td><hr></td></tr>
          <tr><td>1200 UTC MAR 9, 2024</td></tr>
          <tr><td>Storm Location:</td></tr>
          <tr><td><b>21.8 S, 40.8 E</b></td></tr>
          <tr><td>Min Sea Level Pressure:</td></tr>
          <tr><td>1007 mb / 29.74 in Hg</td></tr>
          <tr><td>Maximum Intensity:</td></tr>
          <tr><td>25 kt / 29 mph / 46 kph</td></tr>
        </table>
      ]]></description>
      <Point><coordinates>40.8,-21.8</coordinates></Point>
    </Placemark>
    <Placemark>
      <name>1800 UTC MAR 9</name>
      <styleUrl>#td</styleUrl>
      <description><![CDATA[
        <table>
          <tr><td>TD FILIPO (SH172024)</td></tr>
          <tr><td><hr></td></tr>
          <tr><td>1800 UTC MAR 9, 2024</td></tr>
          <tr><td>Storm Location:</td></tr>
          <tr><td><b>21.2 S, 40.4 E</b></td></tr>
          <tr><td>Min Sea Level Pressure:</td></tr>
          <tr><td>1007 mb / 29.74 in Hg</td></tr>
          <tr><td>Maximum Intensity:</td></tr>
          <tr><td>25 kt / 29 mph / 46 kph</td></tr>
        </table>
      ]]></description>
      <Point><coordinates>40.4,-21.2</coordinates></Point>
    </Placemark>
    <Placemark>
      <name>0000 UTC MAR 10</name>
      <styleUrl>#td</styleUrl>
      <description><![CDATA[
        <table>
          <tr><td>TD FILIPO (SH172024)</td></tr>
          <tr><td><hr></td></tr>
          <tr><td>0000 UTC MAR 10, 2024</td></tr>
          <tr><td>Storm Location:</td></tr>
          <tr><td><b>20.3 S, 39.8 E</b></td></tr>
          <tr><td>Min Sea Level Pressure:</td></tr>
          <tr><td>1007 mb / 29.74 in Hg</td></tr>
          <tr><td>Maximum Intensity:</td></tr>
          <tr><td>25 kt / 29 mph / 46 kph</td></tr>
        </table>
      ]]></description>
      <Point><coordinates>39.8,-20.3</coordinates></Point>
    </Placemark>
    <Placemark>
      <name>0600 UTC MAR 10</name>
      <styleUrl>#td</styleUrl>
      <description><![CDATA[
        <table>
          <tr><td>TD FILIPO (SH172024)</td></tr>
          <tr><td><hr></td></tr>
          <tr><td>0600 UTC MAR 10, 2024</td></tr>
          <tr><td>Storm Location:</td></tr>
          <tr><td><b>20.2 S, 39.4 E</b></td></tr>
          <tr><td>Min Sea Level Pressure:</td></tr>
          <tr><td>1005 mb / 29.68 in Hg</td></tr>
          <tr><td>Maximum Intensity:</td></tr>
          <tr><td>30 kt / 35 mph / 56 kph</td></tr>
        </table>
      ]]></description>
      <Point><coordinates>39.4,-20.2</coordinates></Point>
    </Placemark>
    <Placemark>
      <name>1200 UTC MAR 10</name>
      <styleUrl>#ts</styleUrl>
      <description><![CDATA[
        <table>
          <tr><td>TS FILIPO (SH172024)</td></tr>
          <tr><td><hr></td></tr>
          <tr><td>1200 UTC MAR 10, 2024</td></tr>
          <tr><td>Storm Location:</td></tr>
          <tr><td><b>20.1 S, 38.9 E</b></td></tr>
          <tr><td>Min Sea Level Pressure:</td></tr>
          <tr><td>1002 mb / 29.59 in Hg</td></tr>
          <tr><td>Maximum Intensity:</td></tr>
          <tr><td>35 kt / 40 mph / 65 kph</td></tr>
        </table>
      ]]></description>
      <Point><coordinates>38.9,-20.1</coordinates></Point>
    </Placemark>
    <Placemark>
      <name>1800 UTC MAR 10</name>
      <styleUrl>#ts</styleUrl>
      <description><![CDATA[
        <table>
          <tr><td>TS FILIPO (SH172024)</td></tr>
          <tr><td><hr></td></tr>
          <tr><td>1800 UTC MAR 10, 2024</td></tr>
          <tr><td>Storm Location:</td></tr>
          <tr><td><b>20.0 S, 38.3 E</b></td></tr>
          <tr><td>Min Sea Level Pressure:</td></tr>
          <tr><td>1002 mb / 29.59 in Hg</td></tr>
          <tr><td>Maximum Intensity:</td></tr>
          <tr><td>35 kt / 40 mph / 65 kph</td></tr>
        </table>
      ]]></description>
      <Point><coordinates>38.3,-20</coordinates></Point>
    </Placemark>
    <Placemark>
      <name>0000 UTC MAR 11</name>
      <styleUrl>#ts</styleUrl>
      <description><![CDATA[
        <table>
          <tr><td>TS FILIPO (SH172024)</td></tr>
          <tr><td><hr></td></tr>
          <tr><td>0000 UTC MAR 11, 2024</td></tr>
          <tr><td>Storm Location:</td></tr>
          <tr><td><b>20.0 S, 37.7 E</b></td></tr>
          <tr><td>Min Sea Level Pressure:</td></tr>
          <tr><td>1000 mb / 29.53 in Hg</td></tr>
          <tr><td>Maximum Intensity:</td></tr>
          <tr><td>40 kt / 46 mph / 74 kph</td></tr>
        </table>
      ]]></description>
      <Point><coordinates>37.7,-20</coordinates></Point>
    </Placemark>
    <Placemark>
      <name>0600 UTC MAR 11</name>
      <styleUrl>#ts</styleUrl>
      <description><![CDATA[
        <table>
          <tr><td>TS FILIPO (SH172024)</td></tr>
          <tr><td><hr></td></tr>
          <tr><td>0600 UTC MAR 11, 2024</td></tr>
          <tr><td>Storm Location:</td></tr>
          <tr><td><b>20.3 S, 37.0 E</b></td></tr>
          <tr><td>Min Sea Level Pressure:</td></tr>
          <tr><td>998 mb / 29.47 in Hg</td></tr>
          <tr><td>Maximum Intensity:</td></tr>
          <tr><td>45 kt / 52 mph / 83 kph</td></tr>
        </table>
      ]]></description>
      <Point><coordinates>37,-20.3</coordinates></Point>
    </Placemark>
    <Placemark>
      <name>1200 UTC MAR 11</name>
      <styleUrl>#ts</styleUrl>
      <description><![CDATA[
        <table>
          <tr><td>TS FILIPO (SH172024)</td></tr>
          <tr><td><hr></td></tr>
          <tr><td>1200 UTC MAR 11, 2024</td></tr>
          <tr><td>Storm Location:</td></tr>
          <tr><td><b>20.5 S, 36.5 E</b></td></tr>
          <tr><td>Min Sea Level Pressure:</td></tr>
          <tr><td>998 mb / 29.47 in Hg</td></tr>
          <tr><td>Maximum Intensity:</td></tr>
          <tr><td>50 kt / 58 mph / 93 kph</td></tr>
        </table>
      ]]></description>
      <Point><coordinates>36.5,-20.5</coordinates></Point>
    </Placemark>
    <Placemark>
      <name>1800 UTC MAR 11</name>
      <styleUrl>#ts</styleUrl>
      <description><![CDATA[
        <table>
          <tr><td>TS FILIPO (SH172024)</td></tr>
          <tr><td><hr></td></tr>
          <tr><td>1800 UTC MAR 11, 2024</td></tr>
          <tr><td>Storm Location:</td></tr>
          <tr><td><b>20.7 S, 36.0 E</b></td></tr>
          <tr><td>Min Sea Level Pressure:</td></tr>
          <tr><td>997 mb / 29.44 in Hg</td></tr>
          <tr><td>Maximum Intensity:</td></tr>
          <tr><td>50 kt / 58 mph / 93 kph</td></tr>
        </table>
      ]]></description>
      <Point><coordinates>36,-20.7</coordinates></Point>
    </Placemark>
    <Placemark>
      <name>0000 UTC MAR 12</name>
      <styleUrl>#ts</styleUrl>
      <description><![CDATA[
        <table>
          <tr><td>TS FILIPO (SH172024)</td></tr>
          <tr><td><hr></td></tr>
          <tr><td>0000 UTC MAR 12, 2024</td></tr>
          <tr><td>Storm Location:</td></tr>
          <tr><td><b>21.1 S, 35.6 E</b></td></tr>
          <tr><td>Min Sea Level Pressure:</td></tr>
          <tr><td>993 mb / 29.32 in Hg</td></tr>
          <tr><td>Maximum Intensity:</td></tr>
          <tr><td>55 kt / 63 mph / 102 kph</td></tr>
        </table>
      ]]></description>
      <Point><coordinates>35.6,-21.1</coordinates></Point>
    </Placemark>
    <Placemark>
      <name>0600 UTC MAR 12</name>
      <styleUrl>#ts</styleUrl>
      <description><![CDATA[
        <table>
          <tr><td>TS FILIPO (SH172024)</td></tr>
          <tr><td><hr></td></tr>
          <tr><td>0600 UTC MAR 12, 2024</td></tr>
          <tr><td>Storm Location:</td></tr>
          <tr><td><b>21.5 S, 35.0 E</b></td></tr>
          <tr><td>Min Sea Level Pressure:</td></tr>
          <tr><td>997 mb / 29.44 in Hg</td></tr>
          <tr><td>Maximum Intensity:</td></tr>
          <tr><td>45 kt / 52 mph / 83 kph</td></tr>
        </table>
      ]]></description>
      <Point><coordinates>35,-21.5</coordinates></Point>
    </Placemark>
    <Placemark>
      <name>1200 UTC MAR 12</name>
      <styleUrl>#ts</styleUrl>
      <description><![CDATA[
        <table>
          <tr><td>TS FILIPO (SH172024)</td></tr>
          <tr><td><hr></td></tr>
          <tr><td>1200 UTC MAR 12, 2024</td></tr>
          <tr><td>Storm Location:</td></tr>
          <tr><td><b>23.0 S, 34.1 E</b></td></tr>
          <tr><td>Min Sea Level Pressure:</td></tr>
          <tr><td>1000 mb / 29.53 in Hg</td></tr>
          <tr><td>Maximum Intensity:</td></tr>
          <tr><td>40 kt / 46 mph / 74 kph</td></tr>
        </table>
      ]]></description>
      <Point><coordinates>34.1,-23</coordinates></Point>
    </Placemark>
    <Placemark>
      <name>1800 UTC MAR 12</name>
      <styleUrl>#ts</styleUrl>
      <description><![CDATA[
        <table>
          <tr><td>TS FILIPO (SH172024)</td></tr>
          <tr><td><hr></td></tr>
          <tr><td>1800 UTC MAR 12, 2024</td></tr>
          <tr><td>Storm Location:</td></tr>
          <tr><td><b>24.0 S, 33.7 E</b></td></tr>
          <tr><td>Min Sea Level Pressure:</td></tr>
          <tr><td>1005 mb / 29.68 in Hg</td></tr>
          <tr><td>Maximum Intensity:</td></tr>
          <tr><td>35 kt / 40 mph / 65 kph</td></tr>
        </table>
      ]]></description>
      <Point><coordinates>33.7,-24</coordinates></Point>
    </Placemark>
    <Placemark>
      <name>0000 UTC MAR 13</name>
      <styleUrl>#td</styleUrl>
      <description><![CDATA[
        <table>
          <tr><td>TD FILIPO (SH172024)</td></tr>
          <tr><td><hr></td></tr>
          <tr><td>0000 UTC MAR 13, 2024</td></tr>
          <tr><td>Storm Location:</td></tr>
          <tr><td><b>25.0 S, 33.2 E</b></td></tr>
          <tr><td>Min Sea Level Pressure:</td></tr>
          <tr><td>1007 mb / 29.74 in Hg</td></tr>
          <tr><td>Maximum Intensity:</td></tr>
          <tr><td>30 kt / 35 mph / 56 kph</td></tr>
        </table>
      ]]></description>
      <Point><coordinates>33.2,-25</coordinates></Point>
    </Placemark>
    <Placemark>
      <name>0600 UTC MAR 13</name>
      <styleUrl>#ts</styleUrl>
      <description><![CDATA[
        <table>
          <tr><td>TS FILIPO (SH172024)</td></tr>
          <tr><td><hr></td></tr>
          <tr><td>0600 UTC MAR 13, 2024</td></tr>
          <tr><td>Storm Location:</td></tr>
          <tr><td><b>25.8 S, 33.0 E</b></td></tr>
          <tr><td>Min Sea Level Pressure:</td></tr>
          <tr><td>1002 mb / 29.59 in Hg</td></tr>
          <tr><td>Maximum Intensity:</td></tr>
          <tr><td>35 kt / 40 mph / 65 kph</td></tr>
        </table>
      ]]></description>
      <Point><coordinates>33,-25.8</coordinates></Point>
    </Placemark>
    <Placemark>
      <name>1200 UTC MAR 13</name>
      <styleUrl>#ts</styleUrl>
      <description><![CDATA[
        <table>
          <tr><td>TS FILIPO (SH172024)</td></tr>
          <tr><td><hr></td></tr>
          <tr><td>1200 UTC MAR 13, 2024</td></tr>
          <tr><td>Storm Location:</td></tr>
          <tr><td><b>26.8 S, 33.9 E</b></td></tr>
          <tr><td>Min Sea Level Pressure:</td></tr>
          <tr><td>996 mb / 29.41 in Hg</td></tr>
          <tr><td>Maximum Intensity:</td></tr>
          <tr><td>45 kt / 52 mph / 83 kph</td></tr>
        </table>
      ]]></description>
      <Point><coordinates>33.9,-26.8</coordinates></Point>
    </Placemark>
    <Placemark>
      <name>1800 UTC MAR 13</name>
      <styleUrl>#pt</styleUrl>
      <description><![CDATA[
        <table>
          <tr><td>XX FILIPO (SH172024)</td></tr>
          <tr><td><hr></td></tr>
          <tr><td>1800 UTC MAR 13, 2024</td></tr>
          <tr><td>Storm Location:</td></tr>
          <tr><td><b>27.7 S, 35.0 E</b></td></tr>
          <tr><td>Min Sea Level Pressure:</td></tr>
          <tr><td>996 mb / 29.41 in Hg</td></tr>
          <tr><td>Maximum Intensity:</td></tr>
          <tr><td>45 kt / 52 mph / 83 kph</td></tr>
        </table>
      ]]></description>
      <Point><coordinates>35,-27.7</coordinates></Point>
    </Placemark>
    <Placemark>
      <name>0000 UTC MAR 14</name>
      <styleUrl>#pt</styleUrl>
      <description><![CDATA[
        <table>
          <tr><td>XX FILIPO (SH172024)</td></tr>
          <tr><td><hr></td></tr>
          <tr><td>0000 UTC MAR 14, 2024</td></tr>
          <tr><td>Storm Location:</td></tr>
          <tr><td><b>29.6 S, 37.0 E</b></td></tr>
          <tr><td>Min Sea Level Pressure:</td></tr>
          <tr><td>996 mb / 29.41 in Hg</td></tr>
          <tr><td>Maximum Intensity:</td></tr>
          <tr><td>45 kt / 52 mph / 83 kph</td></tr>
        </table>
      ]]></description>
      <Point><coordinates>37,-29.6</coordinates></Point>
    </Placemark>
    <Placemark>
      <name>0600 UTC MAR 14</name>
      <styleUrl>#pt</styleUrl>
      <description><![CDATA[
        <table>
          <tr><td>XX FILIPO (SH172024)</td></tr>
          <tr><td><hr></td></tr>
          <tr><td>0600 UTC MAR 14, 2024</td></tr>
          <tr><td>Storm Location:</td></tr>
          <tr><td><b>31.6 S, 39.1 E</b></td></tr>
          <tr><td>Min Sea Level Pressure:</td></tr>
          <tr><td>987 mb / 29.15 in Hg</td></tr>
          <tr><td>Maximum Intensity:</td></tr>
          <tr><td>55 kt / 63 mph / 102 kph</td></tr>
        </table>
      ]]></description>
      <Point><coordinates>39.1,-31.6</coordinates></Point>
    </Placemark>
    <Placemark>
      <name>1200 UTC MAR 14</name>
      <styleUrl>#pt</styleUrl>
      <description><![CDATA[
        <table>
          <tr><td>XX FILIPO (SH172024)</td></tr>
          <tr><td><hr></td></tr>
          <tr><td>1200 UTC MAR 14, 2024</td></tr>
          <tr><td>Storm Location:</td></tr>
          <tr><td><b>33.4 S, 42.5 E</b></td></tr>
          <tr><td>Min Sea Level Pressure:</td></tr>
          <tr><td>985 mb / 29.09 in Hg</td></tr>
          <tr><td>Maximum Intensity:</td></tr>
          <tr><td>55 kt / 63 mph / 102 kph</td></tr>
        </table>
      ]]></description>
      <Point><coordinates>42.5,-33.4</coordinates></Point>
    </Placemark>
    <Placemark>
      <name>1800 UTC MAR 14</name>
      <styleUrl>#ex</styleUrl>
      <description><![CDATA[
        <table>
          <tr><td>EX FILIPO (SH172024)</td></tr>
          <tr><td><hr></td></tr>
          <tr><td>1800 UTC MAR 14, 2024</td></tr>
          <tr><td>Storm Location:</td></tr>
          <tr><td><b>35.2 S, 46.1 E</b></td></tr>
          <tr><td>Min Sea Level Pressure:</td></tr>
          <tr><td>984 mb / 29.06 in Hg</td></tr>
          <tr><td>Maximum Intensity:</td></tr>
          <tr><td>55 kt / 63 mph / 102 kph</td></tr>
        </table>
      ]]></description>
      <Point><coordinates>46.1,-35.2</coordinates></Point>
    </Placemark>
  </Document>
</kml>
