<?xml version="1.0" encoding="UTF-8"?>
<kml xmlns="http://www.opengis.net/kml/2.2">
  <Document>
    <name>SH182024</name>
    <open>0</open>

    <!-- =====  Document header ===== -->
    <description><![CDATA[
      <table>
        <tr><td><b>Title:</b> Tropical Cyclone Best Track for SH182024</td></tr>
      </table>
    ]]></description>

    <!-- =====  Styles (ids must be unique)  ===== -->
	<Style id="pt"> 
		<IconStyle> 
			<scale>1.0</scale> 
			<Icon> 
				<href>ex_nhemi.png</href> 
			</Icon> 
             <hotSpot x="15" y="17" xunits="pixels" yunits="pixels"/>
		</IconStyle> 
		<LabelStyle> 
			<scale>1.0</scale> 
		</LabelStyle> 
	</Style>
	<Style id="cat5"> 
		<IconStyle> 
			<scale>1.0</scale> 
			<Icon> 
				<href>cat5_nhemi.png</href> 
			</Icon> 
             <hotSpot x="15" y="17" xunits="pixels" yunits="pixels"/>
		</IconStyle> 
		<LabelStyle> 
			<scale>1.0</scale> 
		</LabelStyle> 
	</Style>
	<Style id="db"> 
		<IconStyle> 
			<scale>1.0</scale> 
			<Icon> 
				<href>ex_nhemi.png</href> 
			</Icon> 
             <hotSpot x="15" y="17" xunits="pixels" yunits="pixels"/>
		</IconStyle> 
		<LabelStyle> 
			<scale>1.0</scale> 
		</LabelStyle> 
	</Style>
	<Style id="cat3"> 
		<IconStyle> 
			<scale>1.0</scale> 
			<Icon> 
				<href>cat3_nhemi.png</href> 
			</Icon> 
             <hotSpot x="15" y="17" xunits="pixels" yunits="pixels"/>
		</IconStyle> 
		<LabelStyle> 
			<scale>1.0</scale> 
		</LabelStyle> 
	</Style>
	<Style id="ss"> 
		<IconStyle> 
			<scale>1.0</scale> 
			<Icon> 
				<href>ts_nhemi.png</href> 
			</Icon> 
             <hotSpot x="15" y="17" xunits="pixels" yunits="pixels"/>
		</IconStyle> 
		<LabelStyle> 
			<scale>1.0</scale> 
		</LabelStyle> 
	</Style>
	<Style id="lo"> 
		<IconStyle> 
			<scale>1.0</scale> 
			<Icon> 
				<href>ex_nhemi.png</href> 
			</Icon> 
             <hotSpot x="15" y="17" xunits="pixels" yunits="pixels"/>
		</IconStyle> 
		<LabelStyle> 
			<scale>1.0</scale> 
		</LabelStyle> 
	</Style>
	<Style id="cat4"> 
		<IconStyle> 
			<scale>1.0</scale> 
			<Icon> 
				<href>cat4_nhemi.png</href> 
			</Icon> 
             <hotSpot x="15" y="17" xunits="pixels" yunits="pixels"/>
		</IconStyle> 
		<LabelStyle> 
			<scale>1.0</scale> 
		</LabelStyle> 
	</Style>
	<Style id="cat2"> 
		<IconStyle> 
			<scale>1.0</scale> 
			<Icon> 
				<href>cat2_nhemi.png</href> 
			</Icon> 
             <hotSpot x="15" y="17" xunits="pixels" yunits="pixels"/>
		</IconStyle> 
		<LabelStyle> 
			<scale>1.0</scale> 
		</LabelStyle> 
	</Style>
	<Style id="ts"> 
		<IconStyle> 
			<scale>1.0</scale> 
			<Icon> 
				<href>ts_nhemi.png</href> 
			</Icon> 
             <hotSpot x="15" y="17" xunits="pixels" yunits="pixels"/>
		</IconStyle> 
		<LabelStyle> 
			<scale>1.0</scale> 
		</LabelStyle> 
	</Style>
	<Style id="cat1"> 
		<IconStyle> 
			<scale>1.0</scale> 
			<Icon> 
				<href>cat1_nhemi.png</href> 
			</Icon> 
             <hotSpot x="15" y="17" xunits="pixels" yunits="pixels"/>
		</IconStyle> 
		<LabelStyle> 
			<scale>1.0</scale> 
		</LabelStyle> 
	</Style>
	<Style id="ex"> 
		<IconStyle> 
			<scale>1.0</scale> 
			<Icon> 
				<href>ex_nhemi.png</href> 
			</Icon> 
             <hotSpot x="15" y="17" xunits="pixels" yunits="pixels"/>
		</IconStyle> 
		<LabelStyle> 
			<scale>1.0</scale> 
		</LabelStyle> 
	</Style>
	<Style id="tc"> 
		<IconStyle> 
			<scale>1.0</scale> 
			<Icon> 
				<href>ex_nhemi.png</href> 
			</Icon> 
             <hotSpot x="15" y="17" xunits="pixels" yunits="pixels"/>
		</IconStyle> 
		<LabelStyle> 
			<scale>1.0</scale> 
		</LabelStyle> 
	</Style>
	<Style id="wv"> 
		<IconStyle> 
			<scale>1.0</scale> 
			<Icon> 
				<href>ex_nhemi.png</href> 
			</Icon> 
             <hotSpot x="15" y="17" xunits="pixels" yunits="pixels"/>
		</IconStyle> 
		<LabelStyle> 
			<scale>1.0</scale> 
		</LabelStyle> 
	</Style>
	<Style id="td"> 
		<IconStyle> 
			<scale>1.0</scale> 
			<Icon> 
				<href>td_nhemi.png</href> 
			</Icon> 
             <hotSpot x="15" y="17" xunits="pixels" yunits="pixels"/>
		</IconStyle> 
		<LabelStyle> 
			<scale>1.0</scale> 
		</LabelStyle> 
	</Style>
	<Style id="sd"> 
		<IconStyle> 
			<scale>1.0</scale> 
			<Icon> 
				<href>ex_nhemi.png</href> 
			</Icon> 
             <hotSpot x="15" y="17" xunits="pixels" yunits="pixels"/>
		</IconStyle> 
		<LabelStyle> 
			<scale>1.0</scale> 
		</LabelStyle> 
	</Style>

    <Placemark>
      <name>1200 UTC MAR 9</name>
      <styleUrl>#td</styleUrl>
      <description><![CDATA[
        <table>
          <tr><td>TD NEVILLE (SH182024)</td></tr>
          <tr><td><hr></td></tr>
          <tr><td>1200 UTC MAR 9, 2024</td></tr>
          <tr><td>Storm Location:</td></tr>
          <tr><td><b>13.2 S, 95.7 E</b></td></tr>
          <tr><td>Min Sea Level Pressure:</td></tr>
          <tr><td>1004 mb / 29.65 in Hg</td></tr>
          <tr><td>Maximum Intensity:</td></tr>
          <tr><td>25 kt / 29 mph / 46 kph</td></tr>
        </table>
      ]]></description>
      <Point><coordinates>95.7,-13.2</coordinates></Point>
    </Placemark>
    <Placemark>
      <name>1800 UTC MAR 9</name>
      <styleUrl>#td</styleUrl>
      <description><![CDATA[
        <table>
          <tr><td>TD NEVILLE (SH182024)</td></tr>
          <tr><td><hr></td></tr>
          <tr><td>1800 UTC MAR 9, 2024</td></tr>
          <tr><td>Storm Location:</td></tr>
          <tr><td><b>12.7 S, 96.0 E</b></td></tr>
          <tr><td>Min Sea Level Pressure:</td></tr>
          <tr><td>1003 mb / 29.62 in Hg</td></tr>
          <tr><td>Maximum Intensity:</td></tr>
          <tr><td>30 kt / 35 mph / 56 kph</td></tr>
        </table>
      ]]></description>
      <Point><coordinates>96,-12.7</coordinates></Point>
    </Placemark>
    <Placemark>
      <name>0000 UTC MAR 10</name>
      <styleUrl>#td</styleUrl>
      <description><![CDATA[
        <table>
          <tr><td>TD NEVILLE (SH182024)</td></tr>
          <tr><td><hr></td></tr>
          <tr><td>0000 UTC MAR 10, 2024</td></tr>
          <tr><td>Storm Location:</td></tr>
          <tr><td><b>12.5 S, 96.5 E</b></td></tr>
          <tr><td>Min Sea Level Pressure:</td></tr>
          <tr><td>1003 mb / 29.62 in Hg</td></tr>
          <tr><td>Maximum Intensity:</td></tr>
          <tr><td>30 kt / 35 mph / 56 kph</td></tr>
        </table>
      ]]></description>
      <Point><coordinates>96.5,-12.5</coordinates></Point>
    </Placemark>
    <Placemark>
      <name>0600 UTC MAR 10</name>
      <styleUrl>#td</styleUrl>
      <description><![CDATA[
        <table>
          <tr><td>TD NEVILLE (SH182024)</td></tr>
          <tr><td><hr></td></tr>
          <tr><td>0600 UTC MAR 10, 2024</td></tr>
          <tr><td>Storm Location:</td></tr>
          <tr><td><b>12.3 S, 97.3 E</b></td></tr>
          <tr><td>Min Sea Level Pressure:</td></tr>
          <tr><td>1002 mb / 29.59 in Hg</td></tr>
          <tr><td>Maximum Intensity:</td></tr>
          <tr><td>30 kt / 35 mph / 56 kph</td></tr>
        </table>
      ]]></description>
      <Point><coordinates>97.3,-12.3</coordinates></Point>
    </Placemark>
    <Placemark>
      <name>1200 UTC MAR 10</name>
      <styleUrl>#td</styleUrl>
      <description><![CDATA[
        <table>
          <tr><td>TD NEVILLE (SH182024)</td></tr>
          <tr><td><hr></td></tr>
          <tr><td>1200 UTC MAR 10, 2024</td></tr>
          <tr><td>Storm Location:</td></tr>
          <tr><td><b>12.2 S, 98.1 E</b></td></tr>
          <tr><td>Min Sea Level Pressure:</td></tr>
          <tr><td>1002 mb / 29.59 in Hg</td></tr>
          <tr><td>Maximum Intensity:</td></tr>
          <tr><td>30 kt / 35 mph / 56 kph</td></tr>
        </table>
      ]]></description>
      <Point><coordinates>98.1,-12.2</coordinates></Point>
    </Placemark>
    <Placemark>
      <name>1800 UTC MAR 10</name>
      <styleUrl>#td</styleUrl>
      <description><![CDATA[
        <table>
          <tr><td>TD NEVILLE (SH182024)</td></tr>
          <tr><td><hr></td></tr>
          <tr><td>1800 UTC MAR 10, 2024</td></tr>
          <tr><td>Storm Location:</td></tr>
          <tr><td><b>12.0 S, 99.2 E</b></td></tr>
          <tr><td>Min Sea Level Pressure:</td></tr>
          <tr><td>1002 mb / 29.59 in Hg</td></tr>
          <tr><td>Maximum Intensity:</td></tr>
          <tr><td>30 kt / 35 mph / 56 kph</td></tr>
        </table>
      ]]></description>
      <Point><coordinates>99.2,-12</coordinates></Point>
    </Placemark>
    <Placemark>
      <name>0000 UTC MAR 11</name>
      <styleUrl>#ts</styleUrl>
      <description><![CDATA[
        <table>
          <tr><td>TS NEVILLE (SH182024)</td></tr>
          <tr><td><hr></td></tr>
          <tr><td>0000 UTC MAR 11, 2024</td></tr>
          <tr><td>Storm Location:</td></tr>
          <tr><td><b>12.0 S, 100.1 E</b></td></tr>
          <tr><td>Min Sea Level Pressure:</td></tr>
          <tr><td>1000 mb / 29.53 in Hg</td></tr>
          <tr><td>Maximum Intensity:</td></tr>
          <tr><td>35 kt / 40 mph / 65 kph</td></tr>
        </table>
      ]]></description>
      <Point><coordinates>100.1,-12</coordinates></Point>
    </Placemark>
    <Placemark>
      <name>0600 UTC MAR 11</name>
      <styleUrl>#ts</styleUrl>
      <description><![CDATA[
        <table>
          <tr><td>TS NEVILLE (SH182024)</td></tr>
          <tr><td><hr></td></tr>
          <tr><td>0600 UTC MAR 11, 2024</td></tr>
          <tr><td>Storm Location:</td></tr>
          <tr><td><b>12.1 S, 101.6 E</b></td></tr>
          <tr><td>Min Sea Level Pressure:</td></tr>
          <tr><td>1000 mb / 29.53 in Hg</td></tr>
          <tr><td>Maximum Intensity:</td></tr>
          <tr><td>35 kt / 40 mph / 65 kph</td></tr>
        </table>
      ]]></description>
      <Point><coordinates>101.6,-12.1</coordinates></Point>
    </Placemark>
    <Placemark>
      <name>1200 UTC MAR 11</name>
      <styleUrl>#ts</styleUrl>
      <description><![CDATA[
        <table>
          <tr><td>TS NEVILLE (SH182024)</td></tr>
          <tr><td><hr></td></tr>
          <tr><td>1200 UTC MAR 11, 2024</td></tr>
          <tr><td>Storm Location:</td></tr>
          <tr><td><b>12.3 S, 102.9 E</b></td></tr>
          <tr><td>Min Sea Level Pressure:</td></tr>
          <tr><td>1000 mb / 29.53 in Hg</td></tr>
          <tr><td>Maximum Intensity:</td></tr>
          <tr><td>35 kt / 40 mph / 65 kph</td></tr>
        </table>
      ]]></description>
      <Point><coordinates>102.9,-12.3</coordinates></Point>
    </Placemark>
    <Placemark>
      <name>1800 UTC MAR 11</name>
      <styleUrl>#ts</styleUrl>
      <description><![CDATA[
        <table>
          <tr><td>TS NEVILLE (SH182024)</td></tr>
          <tr><td><hr></td></tr>
          <tr><td>1800 UTC MAR 11, 2024</td></tr>
          <tr><td>Storm Location:</td></tr>
          <tr><td><b>12.8 S, 104.3 E</b></td></tr>
          <tr><td>Min Sea Level Pressure:</td></tr>
          <tr><td>999 mb / 29.50 in Hg</td></tr>
          <tr><td>Maximum Intensity:</td></tr>
          <tr><td>35 kt / 40 mph / 65 kph</td></tr>
        </table>
      ]]></description>
      <Point><coordinates>104.3,-12.8</coordinates></Point>
    </Placemark>
    <Placemark>
      <name>0000 UTC MAR 12</name>
      <styleUrl>#ts</styleUrl>
      <description><![CDATA[
        <table>
          <tr><td>TS NEVILLE (SH182024)</td></tr>
          <tr><td><hr></td></tr>
          <tr><td>0000 UTC MAR 12, 2024</td></tr>
          <tr><td>Storm Location:</td></tr>
          <tr><td><b>13.3 S, 105.6 E</b></td></tr>
          <tr><td>Min Sea Level Pressure:</td></tr>
          <tr><td>997 mb / 29.44 in Hg</td></tr>
          <tr><td>Maximum Intensity:</td></tr>
          <tr><td>40 kt / 46 mph / 74 kph</td></tr>
        </table>
      ]]></description>
      <Point><coordinates>105.6,-13.3</coordinates></Point>
    </Placemark>
    <Placemark>
      <name>0600 UTC MAR 12</name>
      <styleUrl>#ts</styleUrl>
      <description><![CDATA[
        <table>
          <tr><td>TS NEVILLE (SH182024)</td></tr>
          <tr><td><hr></td></tr>
          <tr><td>0600 UTC MAR 12, 2024</td></tr>
          <tr><td>Storm Location:</td></tr>
          <tr><td><b>13.5 S, 106.7 E</b></td></tr>
          <tr><td>Min Sea Level Pressure:</td></tr>
          <tr><td>997 mb / 29.44 in Hg</td></tr>
          <tr><td>Maximum Intensity:</td></tr>
          <tr><td>40 kt / 46 mph / 74 kph</td></tr>
        </table>
      ]]></description>
      <Point><coordinates>106.7,-13.5</coordinates></Point>
    </Placemark>
    <Placemark>
      <name>1200 UTC MAR 12</name>
      <styleUrl>#ts</styleUrl>
      <description><![CDATA[
        <table>
          <tr><td>TS NEVILLE (SH182024)</td></tr>
          <tr><td><hr></td></tr>
          <tr><td>1200 UTC MAR 12, 2024</td></tr>
          <tr><td>Storm Location:</td></tr>
          <tr><td><b>13.8 S, 107.7 E</b></td></tr>
          <tr><td>Min Sea Level Pressure:</td></tr>
          <tr><td>999 mb / 29.50 in Hg</td></tr>
          <tr><td>Maximum Intensity:</td></tr>
          <tr><td>35 kt / 40 mph / 65 kph</td></tr>
        </table>
      ]]></description>
      <Point><coordinates>107.7,-13.8</coordinates></Point>
    </Placemark>
    <Placemark>
      <name>1800 UTC MAR 12</name>
      <styleUrl>#ts</styleUrl>
      <description><![CDATA[
        <table>
          <tr><td>TS NEVILLE (SH182024)</td></tr>
          <tr><td><hr></td></tr>
          <tr><td>1800 UTC MAR 12, 2024</td></tr>
          <tr><td>Storm Location:</td></tr>
          <tr><td><b>14.3 S, 109.4 E</b></td></tr>
          <tr><td>Min Sea Level Pressure:</td></tr>
          <tr><td>1000 mb / 29.53 in Hg</td></tr>
          <tr><td>Maximum Intensity:</td></tr>
          <tr><td>35 kt / 40 mph / 65 kph</td></tr>
        </table>
      ]]></description>
      <Point><coordinates>109.4,-14.3</coordinates></Point>
    </Placemark>
    <Placemark>
      <name>0000 UTC MAR 13</name>
      <styleUrl>#ts</styleUrl>
      <description><![CDATA[
        <table>
          <tr><td>TS NEVILLE (SH182024)</td></tr>
          <tr><td><hr></td></tr>
          <tr><td>0000 UTC MAR 13, 2024</td></tr>
          <tr><td>Storm Location:</td></tr>
          <tr><td><b>15.1 S, 110.4 E</b></td></tr>
          <tr><td>Min Sea Level Pressure:</td></tr>
          <tr><td>1000 mb / 29.53 in Hg</td></tr>
          <tr><td>Maximum Intensity:</td></tr>
          <tr><td>35 kt / 40 mph / 65 kph</td></tr>
        </table>
      ]]></description>
      <Point><coordinates>110.4,-15.1</coordinates></Point>
    </Placemark>
    <Placemark>
      <name>0600 UTC MAR 13</name>
      <styleUrl>#ts</styleUrl>
      <description><![CDATA[
        <table>
          <tr><td>TS NEVILLE (SH182024)</td></tr>
          <tr><td><hr></td></tr>
          <tr><td>0600 UTC MAR 13, 2024</td></tr>
          <tr><td>Storm Location:</td></tr>
          <tr><td><b>15.7 S, 111.4 E</b></td></tr>
          <tr><td>Min Sea Level Pressure:</td></tr>
          <tr><td>999 mb / 29.50 in Hg</td></tr>
          <tr><td>Maximum Intensity:</td></tr>
          <tr><td>35 kt / 40 mph / 65 kph</td></tr>
        </table>
      ]]></description>
      <Point><coordinates>111.4,-15.7</coordinates></Point>
    </Placemark>
    <Placemark>
      <name>1200 UTC MAR 13</name>
      <styleUrl>#ts</styleUrl>
      <description><![CDATA[
        <table>
          <tr><td>TS NEVILLE (SH182024)</td></tr>
          <tr><td><hr></td></tr>
          <tr><td>1200 UTC MAR 13, 2024</td></tr>
          <tr><td>Storm Location:</td></tr>
          <tr><td><b>15.8 S, 112.3 E</b></td></tr>
          <tr><td>Min Sea Level Pressure:</td></tr>
          <tr><td>998 mb / 29.47 in Hg</td></tr>
          <tr><td>Maximum Intensity:</td></tr>
          <tr><td>35 kt / 40 mph / 65 kph</td></tr>
        </table>
      ]]></description>
      <Point><coordinates>112.3,-15.8</coordinates></Point>
    </Placemark>
    <Placemark>
      <name>1800 UTC MAR 13</name>
      <styleUrl>#ts</styleUrl>
      <description><![CDATA[
        <table>
          <tr><td>TS NEVILLE (SH182024)</td></tr>
          <tr><td><hr></td></tr>
          <tr><td>1800 UTC MAR 13, 2024</td></tr>
          <tr><td>Storm Location:</td></tr>
          <tr><td><b>15.8 S, 113.0 E</b></td></tr>
          <tr><td>Min Sea Level Pressure:</td></tr>
          <tr><td>997 mb / 29.44 in Hg</td></tr>
          <tr><td>Maximum Intensity:</td></tr>
          <tr><td>35 kt / 40 mph / 65 kph</td></tr>
        </table>
      ]]></description>
      <Point><coordinates>113,-15.8</coordinates></Point>
    </Placemark>
    <Placemark>
      <name>0000 UTC MAR 14</name>
      <styleUrl>#ts</styleUrl>
      <description><![CDATA[
        <table>
          <tr><td>TS NEVILLE (SH182024)</td></tr>
          <tr><td><hr></td></tr>
          <tr><td>0000 UTC MAR 14, 2024</td></tr>
          <tr><td>Storm Location:</td></tr>
          <tr><td><b>15.7 S, 113.8 E</b></td></tr>
          <tr><td>Min Sea Level Pressure:</td></tr>
          <tr><td>997 mb / 29.44 in Hg</td></tr>
          <tr><td>Maximum Intensity:</td></tr>
          <tr><td>35 kt / 40 mph / 65 kph</td></tr>
        </table>
      ]]></description>
      <Point><coordinates>113.8,-15.7</coordinates></Point>
    </Placemark>
    <Placemark>
      <name>0600 UTC MAR 14</name>
      <styleUrl>#ts</styleUrl>
      <description><![CDATA[
        <table>
          <tr><td>TS NEVILLE (SH182024)</td></tr>
          <tr><td><hr></td></tr>
          <tr><td>0600 UTC MAR 14, 2024</td></tr>
          <tr><td>Storm Location:</td></tr>
          <tr><td><b>16.3 S, 115.0 E</b></td></tr>
          <tr><td>Min Sea Level Pressure:</td></tr>
          <tr><td>997 mb / 29.44 in Hg</td></tr>
          <tr><td>Maximum Intensity:</td></tr>
          <tr><td>35 kt / 40 mph / 65 kph</td></tr>
        </table>
      ]]></description>
      <Point><coordinates>115,-16.3</coordinates></Point>
    </Placemark>
    <Placemark>
      <name>1200 UTC MAR 14</name>
      <styleUrl>#ts</styleUrl>
      <description><![CDATA[
        <table>
          <tr><td>TS NEVILLE (SH182024)</td></tr>
          <tr><td><hr></td></tr>
          <tr><td>1200 UTC MAR 14, 2024</td></tr>
          <tr><td>Storm Location:</td></tr>
          <tr><td><b>16.7 S, 115.4 E</b></td></tr>
          <tr><td>Min Sea Level Pressure:</td></tr>
          <tr><td>997 mb / 29.44 in Hg</td></tr>
          <tr><td>Maximum Intensity:</td></tr>
          <tr><td>35 kt / 40 mph / 65 kph</td></tr>
        </table>
      ]]></description>
      <Point><coordinates>115.4,-16.7</coordinates></Point>
    </Placemark>
    <Placemark>
      <name>1800 UTC MAR 14</name>
      <styleUrl>#ts</styleUrl>
      <description><![CDATA[
        <table>
          <tr><td>TS NEVILLE (SH182024)</td></tr>
          <tr><td><hr></td></tr>
          <tr><td>1800 UTC MAR 14, 2024</td></tr>
          <tr><td>Storm Location:</td></tr>
          <tr><td><b>17.3 S, 115.4 E</b></td></tr>
          <tr><td>Min Sea Level Pressure:</td></tr>
          <tr><td>997 mb / 29.44 in Hg</td></tr>
          <tr><td>Maximum Intensity:</td></tr>
          <tr><td>35 kt / 40 mph / 65 kph</td></tr>
        </table>
      ]]></description>
      <Point><coordinates>115.4,-17.3</coordinates></Point>
    </Placemark>
    <Placemark>
      <name>0000 UTC MAR 15</name>
      <styleUrl>#td</styleUrl>
      <description><![CDATA[
        <table>
          <tr><td>TD NEVILLE (SH182024)</td></tr>
          <tr><td><hr></td></tr>
          <tr><td>0000 UTC MAR 15, 2024</td></tr>
          <tr><td>Storm Location:</td></tr>
          <tr><td><b>17.6 S, 115.3 E</b></td></tr>
          <tr><td>Min Sea Level Pressure:</td></tr>
          <tr><td>1000 mb / 29.53 in Hg</td></tr>
          <tr><td>Maximum Intensity:</td></tr>
          <tr><td>30 kt / 35 mph / 56 kph</td></tr>
        </table>
      ]]></description>
      <Point><coordinates>115.3,-17.6</coordinates></Point>
    </Placemark>
    <Placemark>
      <name>0600 UTC MAR 15</name>
      <styleUrl>#td</styleUrl>
      <description><![CDATA[
        <table>
          <tr><td>TD NEVILLE (SH182024)</td></tr>
          <tr><td><hr></td></tr>
          <tr><td>0600 UTC MAR 15, 2024</td></tr>
          <tr><td>Storm Location:</td></tr>
          <tr><td><b>17.8 S, 115.2 E</b></td></tr>
          <tr><td>Min Sea Level Pressure:</td></tr>
          <tr><td>1000 mb / 29.53 in Hg</td></tr>
          <tr><td>Maximum Intensity:</td></tr>
          <tr><td>30 kt / 35 mph / 56 kph</td></tr>
        </table>
      ]]></description>
      <Point><coordinates>115.2,-17.8</coordinates></Point>
    </Placemark>
    <Placemark>
      <name>1200 UTC MAR 15</name>
      <styleUrl>#ts</styleUrl>
      <description><![CDATA[
        <table>
          <tr><td>TS NEVILLE (SH182024)</td></tr>
          <tr><td><hr></td></tr>
          <tr><td>1200 UTC MAR 15, 2024</td></tr>
          <tr><td>Storm Location:</td></tr>
          <tr><td><b>17.9 S, 115.0 E</b></td></tr>
          <tr><td>Min Sea Level Pressure:</td></tr>
          <tr><td>997 mb / 29.44 in Hg</td></tr>
          <tr><td>Maximum Intensity:</td></tr>
          <tr><td>35 kt / 40 mph / 65 kph</td></tr>
        </table>
      ]]></description>
      <Point><coordinates>115,-17.9</coordinates></Point>
    </Placemark>
    <Placemark>
      <name>1800 UTC MAR 15</name>
      <styleUrl>#ts</styleUrl>
      <description><![CDATA[
        <table>
          <tr><td>TS NEVILLE (SH182024)</td></tr>
          <tr><td><hr></td></tr>
          <tr><td>1800 UTC MAR 15, 2024</td></tr>
          <tr><td>Storm Location:</td></tr>
          <tr><td><b>17.8 S, 114.8 E</b></td></tr>
          <tr><td>Min Sea Level Pressure:</td></tr>
          <tr><td>997 mb / 29.44 in Hg</td></tr>
          <tr><td>Maximum Intensity:</td></tr>
          <tr><td>35 kt / 40 mph / 65 kph</td></tr>
        </table>
      ]]></description>
      <Point><coordinates>114.8,-17.8</coordinates></Point>
    </Placemark>
    <Placemark>
      <name>0000 UTC MAR 16</name>
      <styleUrl>#td</styleUrl>
      <description><![CDATA[
        <table>
          <tr><td>TD NEVILLE (SH182024)</td></tr>
          <tr><td><hr></td></tr>
          <tr><td>0000 UTC MAR 16, 2024</td></tr>
          <tr><td>Storm Location:</td></tr>
          <tr><td><b>17.5 S, 114.3 E</b></td></tr>
          <tr><td>Min Sea Level Pressure:</td></tr>
          <tr><td>1000 mb / 29.53 in Hg</td></tr>
          <tr><td>Maximum Intensity:</td></tr>
          <tr><td>30 kt / 35 mph / 56 kph</td></tr>
        </table>
      ]]></description>
      <Point><coordinates>114.3,-17.5</coordinates></Point>
    </Placemark>
    <Placemark>
      <name>0600 UTC MAR 16</name>
      <styleUrl>#td</styleUrl>
      <description><![CDATA[
        <table>
          <tr><td>TD NEVILLE (SH182024)</td></tr>
          <tr><td><hr></td></tr>
          <tr><td>0600 UTC MAR 16, 2024</td></tr>
          <tr><td>Storm Location:</td></tr>
          <tr><td><b>17.4 S, 114.1 E</b></td></tr>
          <tr><td>Min Sea Level Pressure:</td></tr>
          <tr><td>1000 mb / 29.53 in Hg</td></tr>
          <tr><td>Maximum Intensity:</td></tr>
          <tr><td>30 kt / 35 mph / 56 kph</td></tr>
        </table>
      ]]></description>
      <Point><coordinates>114.1,-17.4</coordinates></Point>
    </Placemark>
    <Placemark>
      <name>1200 UTC MAR 16</name>
      <styleUrl>#td</styleUrl>
      <description><![CDATA[
        <table>
          <tr><td>TD NEVILLE (SH182024)</td></tr>
          <tr><td><hr></td></tr>
          <tr><td>1200 UTC MAR 16, 2024</td></tr>
          <tr><td>Storm Location:</td></tr>
          <tr><td><b>17.4 S, 113.9 E</b></td></tr>
          <tr><td>Min Sea Level Pressure:</td></tr>
          <tr><td>999 mb / 29.50 in Hg</td></tr>
          <tr><td>Maximum Intensity:</td></tr>
          <tr><td>30 kt / 35 mph / 56 kph</td></tr>
        </table>
      ]]></description>
      <Point><coordinates>113.9,-17.4</coordinates></Point>
    </Placemark>
    <Placemark>
      <name>1800 UTC MAR 16</name>
      <styleUrl>#td</styleUrl>
      <description><![CDATA[
        <table>
          <tr><td>TD NEVILLE (SH182024)</td></tr>
          <tr><td><hr></td></tr>
          <tr><td>1800 UTC MAR 16, 2024</td></tr>
          <tr><td>Storm Location:</td></tr>
          <tr><td><b>17.3 S, 113.8 E</b></td></tr>
          <tr><td>Min Sea Level Pressure:</td></tr>
          <tr><td>999 mb / 29.50 in Hg</td></tr>
          <tr><td>Maximum Intensity:</td></tr>
          <tr><td>30 kt / 35 mph / 56 kph</td></tr>
        </table>
      ]]></description>
      <Point><coordinates>113.8,-17.3</coordinates></Point>
    </Placemark>
    <Placemark>
      <name>0000 UTC MAR 17</name>
      <styleUrl>#ts</styleUrl>
      <description><![CDATA[
        <table>
          <tr><td>TS NEVILLE (SH182024)</td></tr>
          <tr><td><hr></td></tr>
          <tr><td>0000 UTC MAR 17, 2024</td></tr>
          <tr><td>Storm Location:</td></tr>
          <tr><td><b>17.3 S, 113.5 E</b></td></tr>
          <tr><td>Min Sea Level Pressure:</td></tr>
          <tr><td>997 mb / 29.44 in Hg</td></tr>
          <tr><td>Maximum Intensity:</td></tr>
          <tr><td>35 kt / 40 mph / 65 kph</td></tr>
        </table>
      ]]></description>
      <Point><coordinates>113.5,-17.3</coordinates></Point>
    </Placemark>
    <Placemark>
      <name>0600 UTC MAR 17</name>
      <styleUrl>#ts</styleUrl>
      <description><![CDATA[
        <table>
          <tr><td>TS NEVILLE (SH182024)</td></tr>
          <tr><td><hr></td></tr>
          <tr><td>0600 UTC MAR 17, 2024</td></tr>
          <tr><td>Storm Location:</td></tr>
          <tr><td><b>17.4 S, 113.2 E</b></td></tr>
          <tr><td>Min Sea Level Pressure:</td></tr>
          <tr><td>995 mb / 29.38 in Hg</td></tr>
          <tr><td>Maximum Intensity:</td></tr>
          <tr><td>35 kt / 40 mph / 65 kph</td></tr>
        </table>
      ]]></description>
      <Point><coordinates>113.2,-17.4</coordinates></Point>
    </Placemark>
    <Placemark>
      <name>1200 UTC MAR 17</name>
      <styleUrl>#ts</styleUrl>
      <description><![CDATA[
        <table>
          <tr><td>TS NEVILLE (SH182024)</td></tr>
          <tr><td><hr></td></tr>
          <tr><td>1200 UTC MAR 17, 2024</td></tr>
          <tr><td>Storm Location:</td></tr>
          <tr><td><b>17.2 S, 112.9 E</b></td></tr>
          <tr><td>Min Sea Level Pressure:</td></tr>
          <tr><td>997 mb / 29.44 in Hg</td></tr>
          <tr><td>Maximum Intensity:</td></tr>
          <tr><td>35 kt / 40 mph / 65 kph</td></tr>
        </table>
      ]]></description>
      <Point><coordinates>112.9,-17.2</coordinates></Point>
    </Placemark>
    <Placemark>
      <name>1800 UTC MAR 17</name>
      <styleUrl>#td</styleUrl>
      <description><![CDATA[
        <table>
          <tr><td>TD NEVILLE (SH182024)</td></tr>
          <tr><td><hr></td></tr>
          <tr><td>1800 UTC MAR 17, 2024</td></tr>
          <tr><td>Storm Location:</td></tr>
          <tr><td><b>17.1 S, 112.8 E</b></td></tr>
          <tr><td>Min Sea Level Pressure:</td></tr>
          <tr><td>1000 mb / 29.53 in Hg</td></tr>
          <tr><td>Maximum Intensity:</td></tr>
          <tr><td>30 kt / 35 mph / 56 kph</td></tr>
        </table>
      ]]></description>
      <Point><coordinates>112.8,-17.1</coordinates></Point>
    </Placemark>
    <Placemark>
      <name>0000 UTC MAR 18</name>
      <styleUrl>#td</styleUrl>
      <description><![CDATA[
        <table>
          <tr><td>TD NEVILLE (SH182024)</td></tr>
          <tr><td><hr></td></tr>
          <tr><td>0000 UTC MAR 18, 2024</td></tr>
          <tr><td>Storm Location:</td></tr>
          <tr><td><b>17.1 S, 112.6 E</b></td></tr>
          <tr><td>Min Sea Level Pressure:</td></tr>
          <tr><td>1002 mb / 29.59 in Hg</td></tr>
          <tr><td>Maximum Intensity:</td></tr>
          <tr><td>25 kt / 29 mph / 46 kph</td></tr>
        </table>
      ]]></description>
      <Point><coordinates>112.6,-17.1</coordinates></Point>
    </Placemark>
    <Placemark>
      <name>0600 UTC MAR 18</name>
      <styleUrl>#td</styleUrl>
      <description><![CDATA[
        <table>
          <tr><td>TD NEVILLE (SH182024)</td></tr>
          <tr><td><hr></td></tr>
          <tr><td>0600 UTC MAR 18, 2024</td></tr>
          <tr><td>Storm Location:</td></tr>
          <tr><td><b>17.2 S, 112.4 E</b></td></tr>
          <tr><td>Min Sea Level Pressure:</td></tr>
          <tr><td>999 mb / 29.50 in Hg</td></tr>
          <tr><td>Maximum Intensity:</td></tr>
          <tr><td>30 kt / 35 mph / 56 kph</td></tr>
        </table>
      ]]></description>
      <Point><coordinates>112.4,-17.2</coordinates></Point>
    </Placemark>
    <Placemark>
      <name>1200 UTC MAR 18</name>
      <styleUrl>#td</styleUrl>
      <description><![CDATA[
        <table>
          <tr><td>TD NEVILLE (SH182024)</td></tr>
          <tr><td><hr></td></tr>
          <tr><td>1200 UTC MAR 18, 2024</td></tr>
          <tr><td>Storm Location:</td></tr>
          <tr><td><b>17.4 S, 112.3 E</b></td></tr>
          <tr><td>Min Sea Level Pressure:</td></tr>
          <tr><td>999 mb / 29.50 in Hg</td></tr>
          <tr><td>Maximum Intensity:</td></tr>
          <tr><td>30 kt / 35 mph / 56 kph</td></tr>
        </table>
      ]]></description>
      <Point><coordinates>112.3,-17.4</coordinates></Point>
    </Placemark>
    <Placemark>
      <name>1800 UTC MAR 18</name>
      <styleUrl>#td</styleUrl>
      <description><![CDATA[
        <table>
          <tr><td>TD NEVILLE (SH182024)</td></tr>
          <tr><td><hr></td></tr>
          <tr><td>1800 UTC MAR 18, 2024</td></tr>
          <tr><td>Storm Location:</td></tr>
          <tr><td><b>17.5 S, 112.2 E</b></td></tr>
          <tr><td>Min Sea Level Pressure:</td></tr>
          <tr><td>999 mb / 29.50 in Hg</td></tr>
          <tr><td>Maximum Intensity:</td></tr>
          <tr><td>30 kt / 35 mph / 56 kph</td></tr>
        </table>
      ]]></description>
      <Point><coordinates>112.2,-17.5</coordinates></Point>
    </Placemark>
    <Placemark>
      <name>0000 UTC MAR 19</name>
      <styleUrl>#td</styleUrl>
      <description><![CDATA[
        <table>
          <tr><td>TD NEVILLE (SH182024)</td></tr>
          <tr><td><hr></td></tr>
          <tr><td>0000 UTC MAR 19, 2024</td></tr>
          <tr><td>Storm Location:</td></tr>
          <tr><td><b>17.6 S, 112.0 E</b></td></tr>
          <tr><td>Min Sea Level Pressure:</td></tr>
          <tr><td>998 mb / 29.47 in Hg</td></tr>
          <tr><td>Maximum Intensity:</td></tr>
          <tr><td>30 kt / 35 mph / 56 kph</td></tr>
        </table>
      ]]></description>
      <Point><coordinates>112,-17.6</coordinates></Point>
    </Placemark>
    <Placemark>
      <name>0600 UTC MAR 19</name>
      <styleUrl>#ts</styleUrl>
      <description><![CDATA[
        <table>
          <tr><td>TS NEVILLE (SH182024)</td></tr>
          <tr><td><hr></td></tr>
          <tr><td>0600 UTC MAR 19, 2024</td></tr>
          <tr><td>Storm Location:</td></tr>
          <tr><td><b>17.7 S, 111.8 E</b></td></tr>
          <tr><td>Min Sea Level Pressure:</td></tr>
          <tr><td>996 mb / 29.41 in Hg</td></tr>
          <tr><td>Maximum Intensity:</td></tr>
          <tr><td>35 kt / 40 mph / 65 kph</td></tr>
        </table>
      ]]></description>
      <Point><coordinates>111.8,-17.7</coordinates></Point>
    </Placemark>
    <Placemark>
      <name>1200 UTC MAR 19</name>
      <styleUrl>#td</styleUrl>
      <description><![CDATA[
        <table>
          <tr><td>TD NEVILLE (SH182024)</td></tr>
          <tr><td><hr></td></tr>
          <tr><td>1200 UTC MAR 19, 2024</td></tr>
          <tr><td>Storm Location:</td></tr>
          <tr><td><b>17.8 S, 111.6 E</b></td></tr>
          <tr><td>Min Sea Level Pressure:</td></tr>
          <tr><td>1000 mb / 29.53 in Hg</td></tr>
          <tr><td>Maximum Intensity:</td></tr>
          <tr><td>30 kt / 35 mph / 56 kph</td></tr>
        </table>
      ]]></description>
      <Point><coordinates>111.6,-17.8</coordinates></Point>
    </Placemark>
    <Placemark>
      <name>1800 UTC MAR 19</name>
      <styleUrl>#ts</styleUrl>
      <description><![CDATA[
        <table>
          <tr><td>TS NEVILLE (SH182024)</td></tr>
          <tr><td><hr></td></tr>
          <tr><td>1800 UTC MAR 19, 2024</td></tr>
          <tr><td>Storm Location:</td></tr>
          <tr><td><b>17.9 S, 110.8 E</b></td></tr>
          <tr><td>Min Sea Level Pressure:</td></tr>
          <tr><td>998 mb / 29.47 in Hg</td></tr>
          <tr><td>Maximum Intensity:</td></tr>
          <tr><td>35 kt / 40 mph / 65 kph</td></tr>
        </table>
      ]]></description>
      <Point><coordinates>110.8,-17.9</coordinates></Point>
    </Placemark>
    <Placemark>
      <name>0000 UTC MAR 20</name>
      <styleUrl>#ts</styleUrl>
      <description><![CDATA[
        <table>
          <tr><td>TS NEVILLE (SH182024)</td></tr>
          <tr><td><hr></td></tr>
          <tr><td>0000 UTC MAR 20, 2024</td></tr>
          <tr><td>Storm Location:</td></tr>
          <tr><td><b>17.9 S, 110.2 E</b></td></tr>
          <tr><td>Min Sea Level Pressure:</td></tr>
          <tr><td>998 mb / 29.47 in Hg</td></tr>
          <tr><td>Maximum Intensity:</td></tr>
          <tr><td>35 kt / 40 mph / 65 kph</td></tr>
        </table>
      ]]></description>
      <Point><coordinates>110.2,-17.9</coordinates></Point>
    </Placemark>
    <Placemark>
      <name>0600 UTC MAR 20</name>
      <styleUrl>#ts</styleUrl>
      <description><![CDATA[
        <table>
          <tr><td>TS NEVILLE (SH182024)</td></tr>
          <tr><td><hr></td></tr>
          <tr><td>0600 UTC MAR 20, 2024</td></tr>
          <tr><td>Storm Location:</td></tr>
          <tr><td><b>17.9 S, 109.6 E</b></td></tr>
          <tr><td>Min Sea Level Pressure:</td></tr>
          <tr><td>995 mb / 29.38 in Hg</td></tr>
          <tr><td>Maximum Intensity:</td></tr>
          <tr><td>45 kt / 52 mph / 83 kph</td></tr>
        </table>
      ]]></description>
      <Point><coordinates>109.6,-17.9</coordinates></Point>
    </Placemark>
    <Placemark>
      <name>1200 UTC MAR 20</name>
      <styleUrl>#ts</styleUrl>
      <description><![CDATA[
        <table>
          <tr><td>TS NEVILLE (SH182024)</td></tr>
          <tr><td><hr></td></tr>
          <tr><td>1200 UTC MAR 20, 2024</td></tr>
          <tr><td>Storm Location:</td></tr>
          <tr><td><b>17.9 S, 108.8 E</b></td></tr>
          <tr><td>Min Sea Level Pressure:</td></tr>
          <tr><td>990 mb / 29.23 in Hg</td></tr>
          <tr><td>Maximum Intensity:</td></tr>
          <tr><td>55 kt / 63 mph / 102 kph</td></tr>
        </table>
      ]]></description>
      <Point><coordinates>108.8,-17.9</coordinates></Point>
    </Placemark>
    <Placemark>
      <name>1800 UTC MAR 20</name>
      <styleUrl>#ts</styleUrl>
      <description><![CDATA[
        <table>
          <tr><td>TS NEVILLE (SH182024)</td></tr>
          <tr><td><hr></td></tr>
          <tr><td>1800 UTC MAR 20, 2024</td></tr>
          <tr><td>Storm Location:</td></tr>
          <tr><td><b>17.9 S, 107.8 E</b></td></tr>
          <tr><td>Min Sea Level Pressure:</td></tr>
          <tr><td>989 mb / 29.21 in Hg</td></tr>
          <tr><td>Maximum Intensity:</td></tr>
          <tr><td>60 kt / 69 mph / 111 kph</td></tr>
        </table>
      ]]></description>
      <Point><coordinates>107.8,-17.9</coordinates></Point>
    </Placemark>
    <Placemark>
      <name>0000 UTC MAR 21</name>
      <styleUrl>#cat1</styleUrl>
      <description><![CDATA[
        <table>
          <tr><td>HU NEVILLE (SH182024)</td></tr>
          <tr><td><hr></td></tr>
          <tr><td>0000 UTC MAR 21, 2024</td></tr>
          <tr><td>Storm Location:</td></tr>
          <tr><td><b>17.9 S, 106.9 E</b></td></tr>
          <tr><td>Min Sea Level Pressure:</td></tr>
          <tr><td>983 mb / 29.03 in Hg</td></tr>
          <tr><td>Maximum Intensity:</td></tr>
          <tr><td>70 kt / 81 mph / 130 kph</td></tr>
        </table>
      ]]></description>
      <Point><coordinates>106.9,-17.9</coordinates></Point>
    </Placemark>
    <Placemark>
      <name>0600 UTC MAR 21</name>
      <styleUrl>#cat1</styleUrl>
      <description><![CDATA[
        <table>
          <tr><td>HU NEVILLE (SH182024)</td></tr>
          <tr><td><hr></td></tr>
          <tr><td>0600 UTC MAR 21, 2024</td></tr>
          <tr><td>Storm Location:</td></tr>
          <tr><td><b>17.9 S, 105.9 E</b></td></tr>
          <tr><td>Min Sea Level Pressure:</td></tr>
          <tr><td>979 mb / 28.91 in Hg</td></tr>
          <tr><td>Maximum Intensity:</td></tr>
          <tr><td>75 kt / 86 mph / 139 kph</td></tr>
        </table>
      ]]></description>
      <Point><coordinates>105.9,-17.9</coordinates></Point>
    </Placemark>
    <Placemark>
      <name>1200 UTC MAR 21</name>
      <styleUrl>#cat3</styleUrl>
      <description><![CDATA[
        <table>
          <tr><td>HU NEVILLE (SH182024)</td></tr>
          <tr><td><hr></td></tr>
          <tr><td>1200 UTC MAR 21, 2024</td></tr>
          <tr><td>Storm Location:</td></tr>
          <tr><td><b>17.8 S, 105.1 E</b></td></tr>
          <tr><td>Min Sea Level Pressure:</td></tr>
          <tr><td>956 mb / 28.23 in Hg</td></tr>
          <tr><td>Maximum Intensity:</td></tr>
          <tr><td>105 kt / 121 mph / 194 kph</td></tr>
        </table>
      ]]></description>
      <Point><coordinates>105.1,-17.8</coordinates></Point>
    </Placemark>
    <Placemark>
      <name>1500 UTC MAR 21</name>
      <styleUrl>#cat4</styleUrl>
      <description><![CDATA[
        <table>
          <tr><td>HU NEVILLE (SH182024)</td></tr>
          <tr><td><hr></td></tr>
          <tr><td>1500 UTC MAR 21, 2024</td></tr>
          <tr><td>Storm Location:</td></tr>
          <tr><td><b>17.8 S, 104.3 E</b></td></tr>
          <tr><td>Min Sea Level Pressure:</td></tr>
          <tr><td>947 mb / 27.97 in Hg</td></tr>
          <tr><td>Maximum Intensity:</td></tr>
          <tr><td>115 kt / 132 mph / 213 kph</td></tr>
        </table>
      ]]></description>
      <Point><coordinates>104.3,-17.8</coordinates></Point>
    </Placemark>
    <Placemark>
      <name>1800 UTC MAR 21</name>
      <styleUrl>#cat3</styleUrl>
      <description><![CDATA[
        <table>
          <tr><td>HU NEVILLE (SH182024)</td></tr>
          <tr><td><hr></td></tr>
          <tr><td>1800 UTC MAR 21, 2024</td></tr>
          <tr><td>Storm Location:</td></tr>
          <tr><td><b>17.7 S, 103.7 E</b></td></tr>
          <tr><td>Min Sea Level Pressure:</td></tr>
          <tr><td>954 mb / 28.17 in Hg</td></tr>
          <tr><td>Maximum Intensity:</td></tr>
          <tr><td>110 kt / 127 mph / 204 kph</td></tr>
        </table>
      ]]></description>
      <Point><coordinates>103.7,-17.7</coordinates></Point>
    </Placemark>
    <Placemark>
      <name>0000 UTC MAR 22</name>
      <styleUrl>#cat4</styleUrl>
      <description><![CDATA[
        <table>
          <tr><td>HU NEVILLE (SH182024)</td></tr>
          <tr><td><hr></td></tr>
          <tr><td>0000 UTC MAR 22, 2024</td></tr>
          <tr><td>Storm Location:</td></tr>
          <tr><td><b>17.8 S, 102.7 E</b></td></tr>
          <tr><td>Min Sea Level Pressure:</td></tr>
          <tr><td>952 mb / 28.11 in Hg</td></tr>
          <tr><td>Maximum Intensity:</td></tr>
          <tr><td>115 kt / 132 mph / 213 kph</td></tr>
        </table>
      ]]></description>
      <Point><coordinates>102.7,-17.8</coordinates></Point>
    </Placemark>
    <Placemark>
      <name>0600 UTC MAR 22</name>
      <styleUrl>#cat3</styleUrl>
      <description><![CDATA[
        <table>
          <tr><td>HU NEVILLE (SH182024)</td></tr>
          <tr><td><hr></td></tr>
          <tr><td>0600 UTC MAR 22, 2024</td></tr>
          <tr><td>Storm Location:</td></tr>
          <tr><td><b>18.1 S, 101.2 E</b></td></tr>
          <tr><td>Min Sea Level Pressure:</td></tr>
          <tr><td>960 mb / 28.35 in Hg</td></tr>
          <tr><td>Maximum Intensity:</td></tr>
          <tr><td>100 kt / 115 mph / 185 kph</td></tr>
        </table>
      ]]></description>
      <Point><coordinates>101.2,-18.1</coordinates></Point>
    </Placemark>
    <Placemark>
      <name>1200 UTC MAR 22</name>
      <styleUrl>#cat2</styleUrl>
      <description><![CDATA[
        <table>
          <tr><td>HU NEVILLE (SH182024)</td></tr>
          <tr><td><hr></td></tr>
          <tr><td>1200 UTC MAR 22, 2024</td></tr>
          <tr><td>Storm Location:</td></tr>
          <tr><td><b>18.4 S, 99.7 E</b></td></tr>
          <tr><td>Min Sea Level Pressure:</td></tr>
          <tr><td>968 mb / 28.59 in Hg</td></tr>
          <tr><td>Maximum Intensity:</td></tr>
          <tr><td>90 kt / 104 mph / 167 kph</td></tr>
        </table>
      ]]></description>
      <Point><coordinates>99.7,-18.4</coordinates></Point>
    </Placemark>
    <Placemark>
      <name>1800 UTC MAR 22</name>
      <styleUrl>#cat2</styleUrl>
      <description><![CDATA[
        <table>
          <tr><td>HU NEVILLE (SH182024)</td></tr>
          <tr><td><hr></td></tr>
          <tr><td>1800 UTC MAR 22, 2024</td></tr>
          <tr><td>Storm Location:</td></tr>
          <tr><td><b>18.6 S, 97.9 E</b></td></tr>
          <tr><td>Min Sea Level Pressure:</td></tr>
          <tr><td>969 mb / 28.61 in Hg</td></tr>
          <tr><td>Maximum Intensity:</td></tr>
          <tr><td>90 kt / 104 mph / 167 kph</td></tr>
        </table>
      ]]></description>
      <Point><coordinates>97.9,-18.6</coordinates></Point>
    </Placemark>
    <Placemark>
      <name>0000 UTC MAR 23</name>
      <styleUrl>#cat2</styleUrl>
      <description><![CDATA[
        <table>
          <tr><td>HU NEVILLE (SH182024)</td></tr>
          <tr><td><hr></td></tr>
          <tr><td>0000 UTC MAR 23, 2024</td></tr>
          <tr><td>Storm Location:</td></tr>
          <tr><td><b>19.2 S, 96.5 E</b></td></tr>
          <tr><td>Min Sea Level Pressure:</td></tr>
          <tr><td>969 mb / 28.61 in Hg</td></tr>
          <tr><td>Maximum Intensity:</td></tr>
          <tr><td>90 kt / 104 mph / 167 kph</td></tr>
        </table>
      ]]></description>
      <Point><coordinates>96.5,-19.2</coordinates></Point>
    </Placemark>
    <Placemark>
      <name>0600 UTC MAR 23</name>
      <styleUrl>#cat1</styleUrl>
      <description><![CDATA[
        <table>
          <tr><td>HU NEVILLE (SH182024)</td></tr>
          <tr><td><hr></td></tr>
          <tr><td>0600 UTC MAR 23, 2024</td></tr>
          <tr><td>Storm Location:</td></tr>
          <tr><td><b>19.8 S, 94.8 E</b></td></tr>
          <tr><td>Min Sea Level Pressure:</td></tr>
          <tr><td>980 mb / 28.94 in Hg</td></tr>
          <tr><td>Maximum Intensity:</td></tr>
          <tr><td>80 kt / 92 mph / 148 kph</td></tr>
        </table>
      ]]></description>
      <Point><coordinates>94.8,-19.8</coordinates></Point>
    </Placemark>
    <Placemark>
      <name>1200 UTC MAR 23</name>
      <styleUrl>#cat1</styleUrl>
      <description><![CDATA[
        <table>
          <tr><td>HU NEVILLE (SH182024)</td></tr>
          <tr><td><hr></td></tr>
          <tr><td>1200 UTC MAR 23, 2024</td></tr>
          <tr><td>Storm Location:</td></tr>
          <tr><td><b>20.5 S, 93.8 E</b></td></tr>
          <tr><td>Min Sea Level Pressure:</td></tr>
          <tr><td>985 mb / 29.09 in Hg</td></tr>
          <tr><td>Maximum Intensity:</td></tr>
          <tr><td>70 kt / 81 mph / 130 kph</td></tr>
        </table>
      ]]></description>
      <Point><coordinates>93.8,-20.5</coordinates></Point>
    </Placemark>
    <Placemark>
      <name>1800 UTC MAR 23</name>
      <styleUrl>#ts</styleUrl>
      <description><![CDATA[
        <table>
          <tr><td>TS NEVILLE (SH182024)</td></tr>
          <tr><td><hr></td></tr>
          <tr><td>1800 UTC MAR 23, 2024</td></tr>
          <tr><td>Storm Location:</td></tr>
          <tr><td><b>21.3 S, 92.6 E</b></td></tr>
          <tr><td>Min Sea Level Pressure:</td></tr>
          <tr><td>992 mb / 29.29 in Hg</td></tr>
          <tr><td>Maximum Intensity:</td></tr>
          <tr><td>60 kt / 69 mph / 111 kph</td></tr>
        </table>
      ]]></description>
      <Point><coordinates>92.6,-21.3</coordinates></Point>
    </Placemark>
    <Placemark>
      <name>0000 UTC MAR 24</name>
      <styleUrl>#ts</styleUrl>
      <description><![CDATA[
        <table>
          <tr><td>TS NEVILLE (SH182024)</td></tr>
          <tr><td><hr></td></tr>
          <tr><td>0000 UTC MAR 24, 2024</td></tr>
          <tr><td>Storm Location:</td></tr>
          <tr><td><b>22.2 S, 91.2 E</b></td></tr>
          <tr><td>Min Sea Level Pressure:</td></tr>
          <tr><td>996 mb / 29.41 in Hg</td></tr>
          <tr><td>Maximum Intensity:</td></tr>
          <tr><td>55 kt / 63 mph / 102 kph</td></tr>
        </table>
      ]]></description>
      <Point><coordinates>91.2,-22.2</coordinates></Point>
    </Placemark>
    <Placemark>
      <name>0600 UTC MAR 24</name>
      <styleUrl>#ts</styleUrl>
      <description><![CDATA[
        <table>
          <tr><td>TS NEVILLE (SH182024)</td></tr>
          <tr><td><hr></td></tr>
          <tr><td>0600 UTC MAR 24, 2024</td></tr>
          <tr><td>Storm Location:</td></tr>
          <tr><td><b>22.7 S, 90.2 E</b></td></tr>
          <tr><td>Min Sea Level Pressure:</td></tr>
          <tr><td>1003 mb / 29.62 in Hg</td></tr>
          <tr><td>Maximum Intensity:</td></tr>
          <tr><td>45 kt / 52 mph / 83 kph</td></tr>
        </table>
      ]]></description>
      <Point><coordinates>90.2,-22.7</coordinates></Point>
    </Placemark>
    <Placemark>
      <name>1200 UTC MAR 24</name>
      <styleUrl>#ts</styleUrl>
      <description><![CDATA[
        <table>
          <tr><td>TS NEVILLE (SH182024)</td></tr>
          <tr><td><hr></td></tr>
          <tr><td>1200 UTC MAR 24, 2024</td></tr>
          <tr><td>Storm Location:</td></tr>
          <tr><td><b>23.0 S, 89.0 E</b></td></tr>
          <tr><td>Min Sea Level Pressure:</td></tr>
          <tr><td>1001 mb / 29.56 in Hg</td></tr>
          <tr><td>Maximum Intensity:</td></tr>
          <tr><td>40 kt / 46 mph / 74 kph</td></tr>
        </table>
      ]]></description>
      <Point><coordinates>89,-23</coordinates></Point>
    </Placemark>
    <Placemark>
      <name>1800 UTC MAR 24</name>
      <styleUrl>#ts</styleUrl>
      <description><![CDATA[
        <table>
          <tr><td>TS NEVILLE (SH182024)</td></tr>
          <tr><td><hr></td></tr>
          <tr><td>1800 UTC MAR 24, 2024</td></tr>
          <tr><td>Storm Location:</td></tr>
          <tr><td><b>23.4 S, 88.1 E</b></td></tr>
          <tr><td>Min Sea Level Pressure:</td></tr>
          <tr><td>1006 mb / 29.71 in Hg</td></tr>
          <tr><td>Maximum Intensity:</td></tr>
          <tr><td>35 kt / 40 mph / 65 kph</td></tr>
        </table>
      ]]></description>
      <Point><coordinates>88.1,-23.4</coordinates></Point>
    </Placemark>
    <Placemark>
      <name>0000 UTC MAR 25</name>
      <styleUrl>#td</styleUrl>
      <description><![CDATA[
        <table>
          <tr><td>TD NEVILLE (SH182024)</td></tr>
          <tr><td><hr></td></tr>
          <tr><td>0000 UTC MAR 25, 2024</td></tr>
          <tr><td>Storm Location:</td></tr>
          <tr><td><b>23.8 S, 86.8 E</b></td></tr>
          <tr><td>Min Sea Level Pressure:</td></tr>
          <tr><td>1010 mb / 29.83 in Hg</td></tr>
          <tr><td>Maximum Intensity:</td></tr>
          <tr><td>25 kt / 29 mph / 46 kph</td></tr>
        </table>
      ]]></description>
      <Point><coordinates>86.8,-23.8</coordinates></Point>
    </Placemark>
    <Placemark>
      <name>0600 UTC MAR 25</name>
      <styleUrl>#td</styleUrl>
      <description><![CDATA[
        <table>
          <tr><td>TD NEVILLE (SH182024)</td></tr>
          <tr><td><hr></td></tr>
          <tr><td>0600 UTC MAR 25, 2024</td></tr>
          <tr><td>Storm Location:</td></tr>
          <tr><td><b>24.7 S, 86.3 E</b></td></tr>
          <tr><td>Min Sea Level Pressure:</td></tr>
          <tr><td>1010 mb / 29.83 in Hg</td></tr>
          <tr><td>Maximum Intensity:</td></tr>
          <tr><td>25 kt / 29 mph / 46 kph</td></tr>
        </table>
      ]]></description>
      <Point><coordinates>86.3,-24.7</coordinates></Point>
    </Placemark>
    <Placemark>
      <name>1200 UTC MAR 25</name>
      <styleUrl>#db</styleUrl>
      <description><![CDATA[
        <table>
          <tr><td>DB NEVILLE (SH182024)</td></tr>
          <tr><td><hr></td></tr>
          <tr><td>1200 UTC MAR 25, 2024</td></tr>
          <tr><td>Storm Location:</td></tr>
          <tr><td><b>25.4 S, 86.0 E</b></td></tr>
          <tr><td>Min Sea Level Pressure:</td></tr>
          <tr><td>1012 mb / 29.88 in Hg</td></tr>
          <tr><td>Maximum Intensity:</td></tr>
          <tr><td>20 kt / 23 mph / 37 kph</td></tr>
        </table>
      ]]></description>
      <Point><coordinates>86,-25.4</coordinates></Point>
    </Placemark>
  </Document>
</kml>
