<?xml version="1.0" encoding="UTF-8"?>
<kml xmlns="http://www.opengis.net/kml/2.2">
  <Document>
    <name>SH192024</name>
    <open>0</open>

    <!-- =====  Document header ===== -->
    <description><![CDATA[
      <table>
        <tr><td><b>Title:</b> Tropical Cyclone Best Track for SH192024</td></tr>
      </table>
    ]]></description>

    <!-- =====  Styles (ids must be unique)  ===== -->
	<Style id="pt"> 
		<IconStyle> 
			<scale>1.0</scale> 
			<Icon> 
				<href>ex_nhemi.png</href> 
			</Icon> 
             <hotSpot x="15" y="17" xunits="pixels" yunits="pixels"/>
		</IconStyle> 
		<LabelStyle> 
			<scale>1.0</scale> 
		</LabelStyle> 
	</Style>
	<Style id="cat5"> 
		<IconStyle> 
			<scale>1.0</scale> 
			<Icon> 
				<href>cat5_nhemi.png</href> 
			</Icon> 
             <hotSpot x="15" y="17" xunits="pixels" yunits="pixels"/>
		</IconStyle> 
		<LabelStyle> 
			<scale>1.0</scale> 
		</LabelStyle> 
	</Style>
	<Style id="db"> 
		<IconStyle> 
			<scale>1.0</scale> 
			<Icon> 
				<href>ex_nhemi.png</href> 
			</Icon> 
             <hotSpot x="15" y="17" xunits="pixels" yunits="pixels"/>
		</IconStyle> 
		<LabelStyle> 
			<scale>1.0</scale> 
		</LabelStyle> 
	</Style>
	<Style id="cat3"> 
		<IconStyle> 
			<scale>1.0</scale> 
			<Icon> 
				<href>cat3_nhemi.png</href> 
			</Icon> 
             <hotSpot x="15" y="17" xunits="pixels" yunits="pixels"/>
		</IconStyle> 
		<LabelStyle> 
			<scale>1.0</scale> 
		</LabelStyle> 
	</Style>
	<Style id="ss"> 
		<IconStyle> 
			<scale>1.0</scale> 
			<Icon> 
				<href>ts_nhemi.png</href> 
			</Icon> 
             <hotSpot x="15" y="17" xunits="pixels" yunits="pixels"/>
		</IconStyle> 
		<LabelStyle> 
			<scale>1.0</scale> 
		</LabelStyle> 
	</Style>
	<Style id="lo"> 
		<IconStyle> 
			<scale>1.0</scale> 
			<Icon> 
				<href>ex_nhemi.png</href> 
			</Icon> 
             <hotSpot x="15" y="17" xunits="pixels" yunits="pixels"/>
		</IconStyle> 
		<LabelStyle> 
			<scale>1.0</scale> 
		</LabelStyle> 
	</Style>
	<Style id="cat4"> 
		<IconStyle> 
			<scale>1.0</scale> 
			<Icon> 
				<href>cat4_nhemi.png</href> 
			</Icon> 
             <hotSpot x="15" y="17" xunits="pixels" yunits="pixels"/>
		</IconStyle> 
		<LabelStyle> 
			<scale>1.0</scale> 
		</LabelStyle> 
	</Style>
	<Style id="cat2"> 
		<IconStyle> 
			<scale>1.0</scale> 
			<Icon> 
				<href>cat2_nhemi.png</href> 
			</Icon> 
             <hotSpot x="15" y="17" xunits="pixels" yunits="pixels"/>
		</IconStyle> 
		<LabelStyle> 
			<scale>1.0</scale> 
		</LabelStyle> 
	</Style>
	<Style id="ts"> 
		<IconStyle> 
			<scale>1.0</scale> 
			<Icon> 
				<href>ts_nhemi.png</href> 
			</Icon> 
             <hotSpot x="15" y="17" xunits="pixels" yunits="pixels"/>
		</IconStyle> 
		<LabelStyle> 
			<scale>1.0</scale> 
		</LabelStyle> 
	</Style>
	<Style id="cat1"> 
		<IconStyle> 
			<scale>1.0</scale> 
			<Icon> 
				<href>cat1_nhemi.png</href> 
			</Icon> 
             <hotSpot x="15" y="17" xunits="pixels" yunits="pixels"/>
		</IconStyle> 
		<LabelStyle> 
			<scale>1.0</scale> 
		</LabelStyle> 
	</Style>
	<Style id="ex"> 
		<IconStyle> 
			<scale>1.0</scale> 
			<Icon> 
				<href>ex_nhemi.png</href> 
			</Icon> 
             <hotSpot x="15" y="17" xunits="pixels" yunits="pixels"/>
		</IconStyle> 
		<LabelStyle> 
			<scale>1.0</scale> 
		</LabelStyle> 
	</Style>
	<Style id="tc"> 
		<IconStyle> 
			<scale>1.0</scale> 
			<Icon> 
				<href>ex_nhemi.png</href> 
			</Icon> 
             <hotSpot x="15" y="17" xunits="pixels" yunits="pixels"/>
		</IconStyle> 
		<LabelStyle> 
			<scale>1.0</scale> 
		</LabelStyle> 
	</Style>
	<Style id="wv"> 
		<IconStyle> 
			<scale>1.0</scale> 
			<Icon> 
				<href>ex_nhemi.png</href> 
			</Icon> 
             <hotSpot x="15" y="17" xunits="pixels" yunits="pixels"/>
		</IconStyle> 
		<LabelStyle> 
			<scale>1.0</scale> 
		</LabelStyle> 
	</Style>
	<Style id="td"> 
		<IconStyle> 
			<scale>1.0</scale> 
			<Icon> 
				<href>td_nhemi.png</href> 
			</Icon> 
             <hotSpot x="15" y="17" xunits="pixels" yunits="pixels"/>
		</IconStyle> 
		<LabelStyle> 
			<scale>1.0</scale> 
		</LabelStyle> 
	</Style>
	<Style id="sd"> 
		<IconStyle> 
			<scale>1.0</scale> 
			<Icon> 
				<href>ex_nhemi.png</href> 
			</Icon> 
             <hotSpot x="15" y="17" xunits="pixels" yunits="pixels"/>
		</IconStyle> 
		<LabelStyle> 
			<scale>1.0</scale> 
		</LabelStyle> 
	</Style>

    <Placemark>
      <name>1200 UTC MAR 12</name>
      <styleUrl>#db</styleUrl>
      <description><![CDATA[
        <table>
          <tr><td>DB MEGAN (SH192024)</td></tr>
          <tr><td><hr></td></tr>
          <tr><td>1200 UTC MAR 12, 2024</td></tr>
          <tr><td>Storm Location:</td></tr>
          <tr><td><b>13.7 S, 127.8 E</b></td></tr>
          <tr><td>Min Sea Level Pressure:</td></tr>
          <tr><td>1003 mb / 29.62 in Hg</td></tr>
          <tr><td>Maximum Intensity:</td></tr>
          <tr><td>15 kt / 17 mph / 28 kph</td></tr>
        </table>
      ]]></description>
      <Point><coordinates>127.8,-13.7</coordinates></Point>
    </Placemark>
    <Placemark>
      <name>1800 UTC MAR 12</name>
      <styleUrl>#db</styleUrl>
      <description><![CDATA[
        <table>
          <tr><td>DB MEGAN (SH192024)</td></tr>
          <tr><td><hr></td></tr>
          <tr><td>1800 UTC MAR 12, 2024</td></tr>
          <tr><td>Storm Location:</td></tr>
          <tr><td><b>13.0 S, 128.4 E</b></td></tr>
          <tr><td>Min Sea Level Pressure:</td></tr>
          <tr><td>1002 mb / 29.59 in Hg</td></tr>
          <tr><td>Maximum Intensity:</td></tr>
          <tr><td>15 kt / 17 mph / 28 kph</td></tr>
        </table>
      ]]></description>
      <Point><coordinates>128.4,-13</coordinates></Point>
    </Placemark>
    <Placemark>
      <name>0000 UTC MAR 13</name>
      <styleUrl>#db</styleUrl>
      <description><![CDATA[
        <table>
          <tr><td>DB MEGAN (SH192024)</td></tr>
          <tr><td><hr></td></tr>
          <tr><td>0000 UTC MAR 13, 2024</td></tr>
          <tr><td>Storm Location:</td></tr>
          <tr><td><b>12.5 S, 128.8 E</b></td></tr>
          <tr><td>Min Sea Level Pressure:</td></tr>
          <tr><td>997 mb / 29.44 in Hg</td></tr>
          <tr><td>Maximum Intensity:</td></tr>
          <tr><td>20 kt / 23 mph / 37 kph</td></tr>
        </table>
      ]]></description>
      <Point><coordinates>128.8,-12.5</coordinates></Point>
    </Placemark>
    <Placemark>
      <name>0600 UTC MAR 13</name>
      <styleUrl>#td</styleUrl>
      <description><![CDATA[
        <table>
          <tr><td>TD MEGAN (SH192024)</td></tr>
          <tr><td><hr></td></tr>
          <tr><td>0600 UTC MAR 13, 2024</td></tr>
          <tr><td>Storm Location:</td></tr>
          <tr><td><b>11.9 S, 129.6 E</b></td></tr>
          <tr><td>Min Sea Level Pressure:</td></tr>
          <tr><td>992 mb / 29.29 in Hg</td></tr>
          <tr><td>Maximum Intensity:</td></tr>
          <tr><td>25 kt / 29 mph / 46 kph</td></tr>
        </table>
      ]]></description>
      <Point><coordinates>129.6,-11.9</coordinates></Point>
    </Placemark>
    <Placemark>
      <name>1200 UTC MAR 13</name>
      <styleUrl>#td</styleUrl>
      <description><![CDATA[
        <table>
          <tr><td>TD MEGAN (SH192024)</td></tr>
          <tr><td><hr></td></tr>
          <tr><td>1200 UTC MAR 13, 2024</td></tr>
          <tr><td>Storm Location:</td></tr>
          <tr><td><b>11.6 S, 130.7 E</b></td></tr>
          <tr><td>Min Sea Level Pressure:</td></tr>
          <tr><td>992 mb / 29.29 in Hg</td></tr>
          <tr><td>Maximum Intensity:</td></tr>
          <tr><td>25 kt / 29 mph / 46 kph</td></tr>
        </table>
      ]]></description>
      <Point><coordinates>130.7,-11.6</coordinates></Point>
    </Placemark>
    <Placemark>
      <name>1800 UTC MAR 13</name>
      <styleUrl>#td</styleUrl>
      <description><![CDATA[
        <table>
          <tr><td>TD MEGAN (SH192024)</td></tr>
          <tr><td><hr></td></tr>
          <tr><td>1800 UTC MAR 13, 2024</td></tr>
          <tr><td>Storm Location:</td></tr>
          <tr><td><b>11.6 S, 131.7 E</b></td></tr>
          <tr><td>Min Sea Level Pressure:</td></tr>
          <tr><td>993 mb / 29.32 in Hg</td></tr>
          <tr><td>Maximum Intensity:</td></tr>
          <tr><td>25 kt / 29 mph / 46 kph</td></tr>
        </table>
      ]]></description>
      <Point><coordinates>131.7,-11.6</coordinates></Point>
    </Placemark>
    <Placemark>
      <name>0000 UTC MAR 14</name>
      <styleUrl>#td</styleUrl>
      <description><![CDATA[
        <table>
          <tr><td>TD MEGAN (SH192024)</td></tr>
          <tr><td><hr></td></tr>
          <tr><td>0000 UTC MAR 14, 2024</td></tr>
          <tr><td>Storm Location:</td></tr>
          <tr><td><b>11.6 S, 132.7 E</b></td></tr>
          <tr><td>Min Sea Level Pressure:</td></tr>
          <tr><td>993 mb / 29.32 in Hg</td></tr>
          <tr><td>Maximum Intensity:</td></tr>
          <tr><td>25 kt / 29 mph / 46 kph</td></tr>
        </table>
      ]]></description>
      <Point><coordinates>132.7,-11.6</coordinates></Point>
    </Placemark>
    <Placemark>
      <name>0600 UTC MAR 14</name>
      <styleUrl>#td</styleUrl>
      <description><![CDATA[
        <table>
          <tr><td>TD MEGAN (SH192024)</td></tr>
          <tr><td><hr></td></tr>
          <tr><td>0600 UTC MAR 14, 2024</td></tr>
          <tr><td>Storm Location:</td></tr>
          <tr><td><b>11.7 S, 133.6 E</b></td></tr>
          <tr><td>Min Sea Level Pressure:</td></tr>
          <tr><td>992 mb / 29.29 in Hg</td></tr>
          <tr><td>Maximum Intensity:</td></tr>
          <tr><td>25 kt / 29 mph / 46 kph</td></tr>
        </table>
      ]]></description>
      <Point><coordinates>133.6,-11.7</coordinates></Point>
    </Placemark>
    <Placemark>
      <name>1200 UTC MAR 14</name>
      <styleUrl>#td</styleUrl>
      <description><![CDATA[
        <table>
          <tr><td>TD MEGAN (SH192024)</td></tr>
          <tr><td><hr></td></tr>
          <tr><td>1200 UTC MAR 14, 2024</td></tr>
          <tr><td>Storm Location:</td></tr>
          <tr><td><b>11.9 S, 134.5 E</b></td></tr>
          <tr><td>Min Sea Level Pressure:</td></tr>
          <tr><td>994 mb / 29.35 in Hg</td></tr>
          <tr><td>Maximum Intensity:</td></tr>
          <tr><td>25 kt / 29 mph / 46 kph</td></tr>
        </table>
      ]]></description>
      <Point><coordinates>134.5,-11.9</coordinates></Point>
    </Placemark>
    <Placemark>
      <name>1800 UTC MAR 14</name>
      <styleUrl>#td</styleUrl>
      <description><![CDATA[
        <table>
          <tr><td>TD MEGAN (SH192024)</td></tr>
          <tr><td><hr></td></tr>
          <tr><td>1800 UTC MAR 14, 2024</td></tr>
          <tr><td>Storm Location:</td></tr>
          <tr><td><b>12.2 S, 135.5 E</b></td></tr>
          <tr><td>Min Sea Level Pressure:</td></tr>
          <tr><td>994 mb / 29.35 in Hg</td></tr>
          <tr><td>Maximum Intensity:</td></tr>
          <tr><td>25 kt / 29 mph / 46 kph</td></tr>
        </table>
      ]]></description>
      <Point><coordinates>135.5,-12.2</coordinates></Point>
    </Placemark>
    <Placemark>
      <name>0000 UTC MAR 15</name>
      <styleUrl>#td</styleUrl>
      <description><![CDATA[
        <table>
          <tr><td>TD MEGAN (SH192024)</td></tr>
          <tr><td><hr></td></tr>
          <tr><td>0000 UTC MAR 15, 2024</td></tr>
          <tr><td>Storm Location:</td></tr>
          <tr><td><b>12.4 S, 136.5 E</b></td></tr>
          <tr><td>Min Sea Level Pressure:</td></tr>
          <tr><td>993 mb / 29.32 in Hg</td></tr>
          <tr><td>Maximum Intensity:</td></tr>
          <tr><td>30 kt / 35 mph / 56 kph</td></tr>
        </table>
      ]]></description>
      <Point><coordinates>136.5,-12.4</coordinates></Point>
    </Placemark>
    <Placemark>
      <name>0600 UTC MAR 15</name>
      <styleUrl>#ts</styleUrl>
      <description><![CDATA[
        <table>
          <tr><td>TS MEGAN (SH192024)</td></tr>
          <tr><td><hr></td></tr>
          <tr><td>0600 UTC MAR 15, 2024</td></tr>
          <tr><td>Storm Location:</td></tr>
          <tr><td><b>12.9 S, 137.1 E</b></td></tr>
          <tr><td>Min Sea Level Pressure:</td></tr>
          <tr><td>995 mb / 29.38 in Hg</td></tr>
          <tr><td>Maximum Intensity:</td></tr>
          <tr><td>35 kt / 40 mph / 65 kph</td></tr>
        </table>
      ]]></description>
      <Point><coordinates>137.1,-12.9</coordinates></Point>
    </Placemark>
    <Placemark>
      <name>1200 UTC MAR 15</name>
      <styleUrl>#ts</styleUrl>
      <description><![CDATA[
        <table>
          <tr><td>TS MEGAN (SH192024)</td></tr>
          <tr><td><hr></td></tr>
          <tr><td>1200 UTC MAR 15, 2024</td></tr>
          <tr><td>Storm Location:</td></tr>
          <tr><td><b>13.4 S, 137.3 E</b></td></tr>
          <tr><td>Min Sea Level Pressure:</td></tr>
          <tr><td>997 mb / 29.44 in Hg</td></tr>
          <tr><td>Maximum Intensity:</td></tr>
          <tr><td>35 kt / 40 mph / 65 kph</td></tr>
        </table>
      ]]></description>
      <Point><coordinates>137.3,-13.4</coordinates></Point>
    </Placemark>
    <Placemark>
      <name>1800 UTC MAR 15</name>
      <styleUrl>#ts</styleUrl>
      <description><![CDATA[
        <table>
          <tr><td>TS MEGAN (SH192024)</td></tr>
          <tr><td><hr></td></tr>
          <tr><td>1800 UTC MAR 15, 2024</td></tr>
          <tr><td>Storm Location:</td></tr>
          <tr><td><b>13.6 S, 137.7 E</b></td></tr>
          <tr><td>Min Sea Level Pressure:</td></tr>
          <tr><td>995 mb / 29.38 in Hg</td></tr>
          <tr><td>Maximum Intensity:</td></tr>
          <tr><td>40 kt / 46 mph / 74 kph</td></tr>
        </table>
      ]]></description>
      <Point><coordinates>137.7,-13.6</coordinates></Point>
    </Placemark>
    <Placemark>
      <name>0000 UTC MAR 16</name>
      <styleUrl>#ts</styleUrl>
      <description><![CDATA[
        <table>
          <tr><td>TS MEGAN (SH192024)</td></tr>
          <tr><td><hr></td></tr>
          <tr><td>0000 UTC MAR 16, 2024</td></tr>
          <tr><td>Storm Location:</td></tr>
          <tr><td><b>13.8 S, 138.0 E</b></td></tr>
          <tr><td>Min Sea Level Pressure:</td></tr>
          <tr><td>995 mb / 29.38 in Hg</td></tr>
          <tr><td>Maximum Intensity:</td></tr>
          <tr><td>45 kt / 52 mph / 83 kph</td></tr>
        </table>
      ]]></description>
      <Point><coordinates>138,-13.8</coordinates></Point>
    </Placemark>
    <Placemark>
      <name>0600 UTC MAR 16</name>
      <styleUrl>#ts</styleUrl>
      <description><![CDATA[
        <table>
          <tr><td>TS MEGAN (SH192024)</td></tr>
          <tr><td><hr></td></tr>
          <tr><td>0600 UTC MAR 16, 2024</td></tr>
          <tr><td>Storm Location:</td></tr>
          <tr><td><b>14.2 S, 137.9 E</b></td></tr>
          <tr><td>Min Sea Level Pressure:</td></tr>
          <tr><td>987 mb / 29.15 in Hg</td></tr>
          <tr><td>Maximum Intensity:</td></tr>
          <tr><td>50 kt / 58 mph / 93 kph</td></tr>
        </table>
      ]]></description>
      <Point><coordinates>137.9,-14.2</coordinates></Point>
    </Placemark>
    <Placemark>
      <name>1200 UTC MAR 16</name>
      <styleUrl>#ts</styleUrl>
      <description><![CDATA[
        <table>
          <tr><td>TS MEGAN (SH192024)</td></tr>
          <tr><td><hr></td></tr>
          <tr><td>1200 UTC MAR 16, 2024</td></tr>
          <tr><td>Storm Location:</td></tr>
          <tr><td><b>14.5 S, 137.8 E</b></td></tr>
          <tr><td>Min Sea Level Pressure:</td></tr>
          <tr><td>987 mb / 29.15 in Hg</td></tr>
          <tr><td>Maximum Intensity:</td></tr>
          <tr><td>55 kt / 63 mph / 102 kph</td></tr>
        </table>
      ]]></description>
      <Point><coordinates>137.8,-14.5</coordinates></Point>
    </Placemark>
    <Placemark>
      <name>1800 UTC MAR 16</name>
      <styleUrl>#cat1</styleUrl>
      <description><![CDATA[
        <table>
          <tr><td>HU MEGAN (SH192024)</td></tr>
          <tr><td><hr></td></tr>
          <tr><td>1800 UTC MAR 16, 2024</td></tr>
          <tr><td>Storm Location:</td></tr>
          <tr><td><b>14.7 S, 137.6 E</b></td></tr>
          <tr><td>Min Sea Level Pressure:</td></tr>
          <tr><td>975 mb / 28.79 in Hg</td></tr>
          <tr><td>Maximum Intensity:</td></tr>
          <tr><td>70 kt / 81 mph / 130 kph</td></tr>
        </table>
      ]]></description>
      <Point><coordinates>137.6,-14.7</coordinates></Point>
    </Placemark>
    <Placemark>
      <name>0000 UTC MAR 17</name>
      <styleUrl>#cat1</styleUrl>
      <description><![CDATA[
        <table>
          <tr><td>HU MEGAN (SH192024)</td></tr>
          <tr><td><hr></td></tr>
          <tr><td>0000 UTC MAR 17, 2024</td></tr>
          <tr><td>Storm Location:</td></tr>
          <tr><td><b>15.0 S, 137.4 E</b></td></tr>
          <tr><td>Min Sea Level Pressure:</td></tr>
          <tr><td>975 mb / 28.79 in Hg</td></tr>
          <tr><td>Maximum Intensity:</td></tr>
          <tr><td>75 kt / 86 mph / 139 kph</td></tr>
        </table>
      ]]></description>
      <Point><coordinates>137.4,-15</coordinates></Point>
    </Placemark>
    <Placemark>
      <name>0600 UTC MAR 17</name>
      <styleUrl>#cat1</styleUrl>
      <description><![CDATA[
        <table>
          <tr><td>HU MEGAN (SH192024)</td></tr>
          <tr><td><hr></td></tr>
          <tr><td>0600 UTC MAR 17, 2024</td></tr>
          <tr><td>Storm Location:</td></tr>
          <tr><td><b>15.1 S, 137.1 E</b></td></tr>
          <tr><td>Min Sea Level Pressure:</td></tr>
          <tr><td>965 mb / 28.50 in Hg</td></tr>
          <tr><td>Maximum Intensity:</td></tr>
          <tr><td>80 kt / 92 mph / 148 kph</td></tr>
        </table>
      ]]></description>
      <Point><coordinates>137.1,-15.1</coordinates></Point>
    </Placemark>
    <Placemark>
      <name>1200 UTC MAR 17</name>
      <styleUrl>#cat2</styleUrl>
      <description><![CDATA[
        <table>
          <tr><td>HU MEGAN (SH192024)</td></tr>
          <tr><td><hr></td></tr>
          <tr><td>1200 UTC MAR 17, 2024</td></tr>
          <tr><td>Storm Location:</td></tr>
          <tr><td><b>14.9 S, 137.4 E</b></td></tr>
          <tr><td>Min Sea Level Pressure:</td></tr>
          <tr><td>965 mb / 28.50 in Hg</td></tr>
          <tr><td>Maximum Intensity:</td></tr>
          <tr><td>85 kt / 98 mph / 157 kph</td></tr>
        </table>
      ]]></description>
      <Point><coordinates>137.4,-14.9</coordinates></Point>
    </Placemark>
    <Placemark>
      <name>1800 UTC MAR 17</name>
      <styleUrl>#cat2</styleUrl>
      <description><![CDATA[
        <table>
          <tr><td>HU MEGAN (SH192024)</td></tr>
          <tr><td><hr></td></tr>
          <tr><td>1800 UTC MAR 17, 2024</td></tr>
          <tr><td>Storm Location:</td></tr>
          <tr><td><b>15.3 S, 137.2 E</b></td></tr>
          <tr><td>Min Sea Level Pressure:</td></tr>
          <tr><td>960 mb / 28.35 in Hg</td></tr>
          <tr><td>Maximum Intensity:</td></tr>
          <tr><td>90 kt / 104 mph / 167 kph</td></tr>
        </table>
      ]]></description>
      <Point><coordinates>137.2,-15.3</coordinates></Point>
    </Placemark>
    <Placemark>
      <name>0000 UTC MAR 18</name>
      <styleUrl>#cat2</styleUrl>
      <description><![CDATA[
        <table>
          <tr><td>HU MEGAN (SH192024)</td></tr>
          <tr><td><hr></td></tr>
          <tr><td>0000 UTC MAR 18, 2024</td></tr>
          <tr><td>Storm Location:</td></tr>
          <tr><td><b>15.6 S, 137.1 E</b></td></tr>
          <tr><td>Min Sea Level Pressure:</td></tr>
          <tr><td>964 mb / 28.47 in Hg</td></tr>
          <tr><td>Maximum Intensity:</td></tr>
          <tr><td>85 kt / 98 mph / 157 kph</td></tr>
        </table>
      ]]></description>
      <Point><coordinates>137.1,-15.6</coordinates></Point>
    </Placemark>
    <Placemark>
      <name>0600 UTC MAR 18</name>
      <styleUrl>#cat1</styleUrl>
      <description><![CDATA[
        <table>
          <tr><td>HU MEGAN (SH192024)</td></tr>
          <tr><td><hr></td></tr>
          <tr><td>0600 UTC MAR 18, 2024</td></tr>
          <tr><td>Storm Location:</td></tr>
          <tr><td><b>16.0 S, 136.8 E</b></td></tr>
          <tr><td>Min Sea Level Pressure:</td></tr>
          <tr><td>974 mb / 28.76 in Hg</td></tr>
          <tr><td>Maximum Intensity:</td></tr>
          <tr><td>70 kt / 81 mph / 130 kph</td></tr>
        </table>
      ]]></description>
      <Point><coordinates>136.8,-16</coordinates></Point>
    </Placemark>
    <Placemark>
      <name>1200 UTC MAR 18</name>
      <styleUrl>#ts</styleUrl>
      <description><![CDATA[
        <table>
          <tr><td>TS MEGAN (SH192024)</td></tr>
          <tr><td><hr></td></tr>
          <tr><td>1200 UTC MAR 18, 2024</td></tr>
          <tr><td>Storm Location:</td></tr>
          <tr><td><b>16.3 S, 136.4 E</b></td></tr>
          <tr><td>Min Sea Level Pressure:</td></tr>
          <tr><td>987 mb / 29.15 in Hg</td></tr>
          <tr><td>Maximum Intensity:</td></tr>
          <tr><td>55 kt / 63 mph / 102 kph</td></tr>
        </table>
      ]]></description>
      <Point><coordinates>136.4,-16.3</coordinates></Point>
    </Placemark>
    <Placemark>
      <name>1800 UTC MAR 18</name>
      <styleUrl>#ts</styleUrl>
      <description><![CDATA[
        <table>
          <tr><td>TS MEGAN (SH192024)</td></tr>
          <tr><td><hr></td></tr>
          <tr><td>1800 UTC MAR 18, 2024</td></tr>
          <tr><td>Storm Location:</td></tr>
          <tr><td><b>16.6 S, 135.9 E</b></td></tr>
          <tr><td>Min Sea Level Pressure:</td></tr>
          <tr><td>993 mb / 29.32 in Hg</td></tr>
          <tr><td>Maximum Intensity:</td></tr>
          <tr><td>45 kt / 52 mph / 83 kph</td></tr>
        </table>
      ]]></description>
      <Point><coordinates>135.9,-16.6</coordinates></Point>
    </Placemark>
    <Placemark>
      <name>0000 UTC MAR 19</name>
      <styleUrl>#td</styleUrl>
      <description><![CDATA[
        <table>
          <tr><td>TD MEGAN (SH192024)</td></tr>
          <tr><td><hr></td></tr>
          <tr><td>0000 UTC MAR 19, 2024</td></tr>
          <tr><td>Storm Location:</td></tr>
          <tr><td><b>16.9 S, 135.6 E</b></td></tr>
          <tr><td>Min Sea Level Pressure:</td></tr>
          <tr><td>1001 mb / 29.56 in Hg</td></tr>
          <tr><td>Maximum Intensity:</td></tr>
          <tr><td>30 kt / 35 mph / 56 kph</td></tr>
        </table>
      ]]></description>
      <Point><coordinates>135.6,-16.9</coordinates></Point>
    </Placemark>
    <Placemark>
      <name>0600 UTC MAR 19</name>
      <styleUrl>#td</styleUrl>
      <description><![CDATA[
        <table>
          <tr><td>TD MEGAN (SH192024)</td></tr>
          <tr><td><hr></td></tr>
          <tr><td>0600 UTC MAR 19, 2024</td></tr>
          <tr><td>Storm Location:</td></tr>
          <tr><td><b>17.2 S, 135.3 E</b></td></tr>
          <tr><td>Min Sea Level Pressure:</td></tr>
          <tr><td>1002 mb / 29.59 in Hg</td></tr>
          <tr><td>Maximum Intensity:</td></tr>
          <tr><td>25 kt / 29 mph / 46 kph</td></tr>
        </table>
      ]]></description>
      <Point><coordinates>135.3,-17.2</coordinates></Point>
    </Placemark>
    <Placemark>
      <name>1200 UTC MAR 19</name>
      <styleUrl>#td</styleUrl>
      <description><![CDATA[
        <table>
          <tr><td>TD MEGAN (SH192024)</td></tr>
          <tr><td><hr></td></tr>
          <tr><td>1200 UTC MAR 19, 2024</td></tr>
          <tr><td>Storm Location:</td></tr>
          <tr><td><b>17.4 S, 134.9 E</b></td></tr>
          <tr><td>Min Sea Level Pressure:</td></tr>
          <tr><td>1002 mb / 29.59 in Hg</td></tr>
          <tr><td>Maximum Intensity:</td></tr>
          <tr><td>25 kt / 29 mph / 46 kph</td></tr>
        </table>
      ]]></description>
      <Point><coordinates>134.9,-17.4</coordinates></Point>
    </Placemark>
    <Placemark>
      <name>1800 UTC MAR 19</name>
      <styleUrl>#td</styleUrl>
      <description><![CDATA[
        <table>
          <tr><td>TD MEGAN (SH192024)</td></tr>
          <tr><td><hr></td></tr>
          <tr><td>1800 UTC MAR 19, 2024</td></tr>
          <tr><td>Storm Location:</td></tr>
          <tr><td><b>17.6 S, 134.6 E</b></td></tr>
          <tr><td>Min Sea Level Pressure:</td></tr>
          <tr><td>1004 mb / 29.65 in Hg</td></tr>
          <tr><td>Maximum Intensity:</td></tr>
          <tr><td>25 kt / 29 mph / 46 kph</td></tr>
        </table>
      ]]></description>
      <Point><coordinates>134.6,-17.6</coordinates></Point>
    </Placemark>
    <Placemark>
      <name>0000 UTC MAR 20</name>
      <styleUrl>#db</styleUrl>
      <description><![CDATA[
        <table>
          <tr><td>DB MEGAN (SH192024)</td></tr>
          <tr><td><hr></td></tr>
          <tr><td>0000 UTC MAR 20, 2024</td></tr>
          <tr><td>Storm Location:</td></tr>
          <tr><td><b>17.6 S, 134.1 E</b></td></tr>
          <tr><td>Min Sea Level Pressure:</td></tr>
          <tr><td>1006 mb / 29.71 in Hg</td></tr>
          <tr><td>Maximum Intensity:</td></tr>
          <tr><td>20 kt / 23 mph / 37 kph</td></tr>
        </table>
      ]]></description>
      <Point><coordinates>134.1,-17.6</coordinates></Point>
    </Placemark>
    <Placemark>
      <name>0600 UTC MAR 20</name>
      <styleUrl>#db</styleUrl>
      <description><![CDATA[
        <table>
          <tr><td>DB MEGAN (SH192024)</td></tr>
          <tr><td><hr></td></tr>
          <tr><td>0600 UTC MAR 20, 2024</td></tr>
          <tr><td>Storm Location:</td></tr>
          <tr><td><b>17.6 S, 134.1 E</b></td></tr>
          <tr><td>Min Sea Level Pressure:</td></tr>
          <tr><td>1007 mb / 29.74 in Hg</td></tr>
          <tr><td>Maximum Intensity:</td></tr>
          <tr><td>15 kt / 17 mph / 28 kph</td></tr>
        </table>
      ]]></description>
      <Point><coordinates>134.1,-17.6</coordinates></Point>
    </Placemark>
  </Document>
</kml>
