<?xml version="1.0" encoding="UTF-8"?>
<kml xmlns="http://www.opengis.net/kml/2.2">
  <Document>
    <name>SH202024</name>
    <open>0</open>

    <!-- =====  Document header ===== -->
    <description><![CDATA[
      <table>
        <tr><td><b>Title:</b> Tropical Cyclone Best Track for SH202024</td></tr>
      </table>
    ]]></description>

    <!-- =====  Styles (ids must be unique)  ===== -->
	<Style id="pt"> 
		<IconStyle> 
			<scale>1.0</scale> 
			<Icon> 
				<href>ex_nhemi.png</href> 
			</Icon> 
             <hotSpot x="15" y="17" xunits="pixels" yunits="pixels"/>
		</IconStyle> 
		<LabelStyle> 
			<scale>1.0</scale> 
		</LabelStyle> 
	</Style>
	<Style id="cat5"> 
		<IconStyle> 
			<scale>1.0</scale> 
			<Icon> 
				<href>cat5_nhemi.png</href> 
			</Icon> 
             <hotSpot x="15" y="17" xunits="pixels" yunits="pixels"/>
		</IconStyle> 
		<LabelStyle> 
			<scale>1.0</scale> 
		</LabelStyle> 
	</Style>
	<Style id="db"> 
		<IconStyle> 
			<scale>1.0</scale> 
			<Icon> 
				<href>ex_nhemi.png</href> 
			</Icon> 
             <hotSpot x="15" y="17" xunits="pixels" yunits="pixels"/>
		</IconStyle> 
		<LabelStyle> 
			<scale>1.0</scale> 
		</LabelStyle> 
	</Style>
	<Style id="cat3"> 
		<IconStyle> 
			<scale>1.0</scale> 
			<Icon> 
				<href>cat3_nhemi.png</href> 
			</Icon> 
             <hotSpot x="15" y="17" xunits="pixels" yunits="pixels"/>
		</IconStyle> 
		<LabelStyle> 
			<scale>1.0</scale> 
		</LabelStyle> 
	</Style>
	<Style id="ss"> 
		<IconStyle> 
			<scale>1.0</scale> 
			<Icon> 
				<href>ts_nhemi.png</href> 
			</Icon> 
             <hotSpot x="15" y="17" xunits="pixels" yunits="pixels"/>
		</IconStyle> 
		<LabelStyle> 
			<scale>1.0</scale> 
		</LabelStyle> 
	</Style>
	<Style id="lo"> 
		<IconStyle> 
			<scale>1.0</scale> 
			<Icon> 
				<href>ex_nhemi.png</href> 
			</Icon> 
             <hotSpot x="15" y="17" xunits="pixels" yunits="pixels"/>
		</IconStyle> 
		<LabelStyle> 
			<scale>1.0</scale> 
		</LabelStyle> 
	</Style>
	<Style id="cat4"> 
		<IconStyle> 
			<scale>1.0</scale> 
			<Icon> 
				<href>cat4_nhemi.png</href> 
			</Icon> 
             <hotSpot x="15" y="17" xunits="pixels" yunits="pixels"/>
		</IconStyle> 
		<LabelStyle> 
			<scale>1.0</scale> 
		</LabelStyle> 
	</Style>
	<Style id="cat2"> 
		<IconStyle> 
			<scale>1.0</scale> 
			<Icon> 
				<href>cat2_nhemi.png</href> 
			</Icon> 
             <hotSpot x="15" y="17" xunits="pixels" yunits="pixels"/>
		</IconStyle> 
		<LabelStyle> 
			<scale>1.0</scale> 
		</LabelStyle> 
	</Style>
	<Style id="ts"> 
		<IconStyle> 
			<scale>1.0</scale> 
			<Icon> 
				<href>ts_nhemi.png</href> 
			</Icon> 
             <hotSpot x="15" y="17" xunits="pixels" yunits="pixels"/>
		</IconStyle> 
		<LabelStyle> 
			<scale>1.0</scale> 
		</LabelStyle> 
	</Style>
	<Style id="cat1"> 
		<IconStyle> 
			<scale>1.0</scale> 
			<Icon> 
				<href>cat1_nhemi.png</href> 
			</Icon> 
             <hotSpot x="15" y="17" xunits="pixels" yunits="pixels"/>
		</IconStyle> 
		<LabelStyle> 
			<scale>1.0</scale> 
		</LabelStyle> 
	</Style>
	<Style id="ex"> 
		<IconStyle> 
			<scale>1.0</scale> 
			<Icon> 
				<href>ex_nhemi.png</href> 
			</Icon> 
             <hotSpot x="15" y="17" xunits="pixels" yunits="pixels"/>
		</IconStyle> 
		<LabelStyle> 
			<scale>1.0</scale> 
		</LabelStyle> 
	</Style>
	<Style id="tc"> 
		<IconStyle> 
			<scale>1.0</scale> 
			<Icon> 
				<href>ex_nhemi.png</href> 
			</Icon> 
             <hotSpot x="15" y="17" xunits="pixels" yunits="pixels"/>
		</IconStyle> 
		<LabelStyle> 
			<scale>1.0</scale> 
		</LabelStyle> 
	</Style>
	<Style id="wv"> 
		<IconStyle> 
			<scale>1.0</scale> 
			<Icon> 
				<href>ex_nhemi.png</href> 
			</Icon> 
             <hotSpot x="15" y="17" xunits="pixels" yunits="pixels"/>
		</IconStyle> 
		<LabelStyle> 
			<scale>1.0</scale> 
		</LabelStyle> 
	</Style>
	<Style id="td"> 
		<IconStyle> 
			<scale>1.0</scale> 
			<Icon> 
				<href>td_nhemi.png</href> 
			</Icon> 
             <hotSpot x="15" y="17" xunits="pixels" yunits="pixels"/>
		</IconStyle> 
		<LabelStyle> 
			<scale>1.0</scale> 
		</LabelStyle> 
	</Style>
	<Style id="sd"> 
		<IconStyle> 
			<scale>1.0</scale> 
			<Icon> 
				<href>ex_nhemi.png</href> 
			</Icon> 
             <hotSpot x="15" y="17" xunits="pixels" yunits="pixels"/>
		</IconStyle> 
		<LabelStyle> 
			<scale>1.0</scale> 
		</LabelStyle> 
	</Style>

    <Placemark>
      <name>0600 UTC MAR 24</name>
      <styleUrl>#td</styleUrl>
      <description><![CDATA[
        <table>
          <tr><td>TD GAMANE (SH202024)</td></tr>
          <tr><td><hr></td></tr>
          <tr><td>0600 UTC MAR 24, 2024</td></tr>
          <tr><td>Storm Location:</td></tr>
          <tr><td><b>12.1 S, 53.9 E</b></td></tr>
          <tr><td>Min Sea Level Pressure:</td></tr>
          <tr><td>1007 mb / 29.74 in Hg</td></tr>
          <tr><td>Maximum Intensity:</td></tr>
          <tr><td>25 kt / 29 mph / 46 kph</td></tr>
        </table>
      ]]></description>
      <Point><coordinates>53.9,-12.1</coordinates></Point>
    </Placemark>
    <Placemark>
      <name>1200 UTC MAR 24</name>
      <styleUrl>#td</styleUrl>
      <description><![CDATA[
        <table>
          <tr><td>TD GAMANE (SH202024)</td></tr>
          <tr><td><hr></td></tr>
          <tr><td>1200 UTC MAR 24, 2024</td></tr>
          <tr><td>Storm Location:</td></tr>
          <tr><td><b>12.3 S, 53.3 E</b></td></tr>
          <tr><td>Min Sea Level Pressure:</td></tr>
          <tr><td>1007 mb / 29.74 in Hg</td></tr>
          <tr><td>Maximum Intensity:</td></tr>
          <tr><td>25 kt / 29 mph / 46 kph</td></tr>
        </table>
      ]]></description>
      <Point><coordinates>53.3,-12.3</coordinates></Point>
    </Placemark>
    <Placemark>
      <name>1800 UTC MAR 24</name>
      <styleUrl>#td</styleUrl>
      <description><![CDATA[
        <table>
          <tr><td>TD GAMANE (SH202024)</td></tr>
          <tr><td><hr></td></tr>
          <tr><td>1800 UTC MAR 24, 2024</td></tr>
          <tr><td>Storm Location:</td></tr>
          <tr><td><b>12.6 S, 52.7 E</b></td></tr>
          <tr><td>Min Sea Level Pressure:</td></tr>
          <tr><td>1007 mb / 29.74 in Hg</td></tr>
          <tr><td>Maximum Intensity:</td></tr>
          <tr><td>25 kt / 29 mph / 46 kph</td></tr>
        </table>
      ]]></description>
      <Point><coordinates>52.7,-12.6</coordinates></Point>
    </Placemark>
    <Placemark>
      <name>0000 UTC MAR 25</name>
      <styleUrl>#td</styleUrl>
      <description><![CDATA[
        <table>
          <tr><td>TD GAMANE (SH202024)</td></tr>
          <tr><td><hr></td></tr>
          <tr><td>0000 UTC MAR 25, 2024</td></tr>
          <tr><td>Storm Location:</td></tr>
          <tr><td><b>12.7 S, 52.2 E</b></td></tr>
          <tr><td>Min Sea Level Pressure:</td></tr>
          <tr><td>1007 mb / 29.74 in Hg</td></tr>
          <tr><td>Maximum Intensity:</td></tr>
          <tr><td>25 kt / 29 mph / 46 kph</td></tr>
        </table>
      ]]></description>
      <Point><coordinates>52.2,-12.7</coordinates></Point>
    </Placemark>
    <Placemark>
      <name>0600 UTC MAR 25</name>
      <styleUrl>#td</styleUrl>
      <description><![CDATA[
        <table>
          <tr><td>TD GAMANE (SH202024)</td></tr>
          <tr><td><hr></td></tr>
          <tr><td>0600 UTC MAR 25, 2024</td></tr>
          <tr><td>Storm Location:</td></tr>
          <tr><td><b>12.7 S, 51.7 E</b></td></tr>
          <tr><td>Min Sea Level Pressure:</td></tr>
          <tr><td>1007 mb / 29.74 in Hg</td></tr>
          <tr><td>Maximum Intensity:</td></tr>
          <tr><td>25 kt / 29 mph / 46 kph</td></tr>
        </table>
      ]]></description>
      <Point><coordinates>51.7,-12.7</coordinates></Point>
    </Placemark>
    <Placemark>
      <name>1200 UTC MAR 25</name>
      <styleUrl>#td</styleUrl>
      <description><![CDATA[
        <table>
          <tr><td>TD GAMANE (SH202024)</td></tr>
          <tr><td><hr></td></tr>
          <tr><td>1200 UTC MAR 25, 2024</td></tr>
          <tr><td>Storm Location:</td></tr>
          <tr><td><b>12.7 S, 51.4 E</b></td></tr>
          <tr><td>Min Sea Level Pressure:</td></tr>
          <tr><td>1005 mb / 29.68 in Hg</td></tr>
          <tr><td>Maximum Intensity:</td></tr>
          <tr><td>30 kt / 35 mph / 56 kph</td></tr>
        </table>
      ]]></description>
      <Point><coordinates>51.4,-12.7</coordinates></Point>
    </Placemark>
    <Placemark>
      <name>1800 UTC MAR 25</name>
      <styleUrl>#ts</styleUrl>
      <description><![CDATA[
        <table>
          <tr><td>TS GAMANE (SH202024)</td></tr>
          <tr><td><hr></td></tr>
          <tr><td>1800 UTC MAR 25, 2024</td></tr>
          <tr><td>Storm Location:</td></tr>
          <tr><td><b>12.7 S, 51.1 E</b></td></tr>
          <tr><td>Min Sea Level Pressure:</td></tr>
          <tr><td>1005 mb / 29.68 in Hg</td></tr>
          <tr><td>Maximum Intensity:</td></tr>
          <tr><td>35 kt / 40 mph / 65 kph</td></tr>
        </table>
      ]]></description>
      <Point><coordinates>51.1,-12.7</coordinates></Point>
    </Placemark>
    <Placemark>
      <name>0000 UTC MAR 26</name>
      <styleUrl>#ts</styleUrl>
      <description><![CDATA[
        <table>
          <tr><td>TS GAMANE (SH202024)</td></tr>
          <tr><td><hr></td></tr>
          <tr><td>0000 UTC MAR 26, 2024</td></tr>
          <tr><td>Storm Location:</td></tr>
          <tr><td><b>12.7 S, 50.8 E</b></td></tr>
          <tr><td>Min Sea Level Pressure:</td></tr>
          <tr><td>1000 mb / 29.53 in Hg</td></tr>
          <tr><td>Maximum Intensity:</td></tr>
          <tr><td>40 kt / 46 mph / 74 kph</td></tr>
        </table>
      ]]></description>
      <Point><coordinates>50.8,-12.7</coordinates></Point>
    </Placemark>
    <Placemark>
      <name>0600 UTC MAR 26</name>
      <styleUrl>#ts</styleUrl>
      <description><![CDATA[
        <table>
          <tr><td>TS GAMANE (SH202024)</td></tr>
          <tr><td><hr></td></tr>
          <tr><td>0600 UTC MAR 26, 2024</td></tr>
          <tr><td>Storm Location:</td></tr>
          <tr><td><b>12.5 S, 50.6 E</b></td></tr>
          <tr><td>Min Sea Level Pressure:</td></tr>
          <tr><td>997 mb / 29.44 in Hg</td></tr>
          <tr><td>Maximum Intensity:</td></tr>
          <tr><td>50 kt / 58 mph / 93 kph</td></tr>
        </table>
      ]]></description>
      <Point><coordinates>50.6,-12.5</coordinates></Point>
    </Placemark>
    <Placemark>
      <name>1200 UTC MAR 26</name>
      <styleUrl>#ts</styleUrl>
      <description><![CDATA[
        <table>
          <tr><td>TS GAMANE (SH202024)</td></tr>
          <tr><td><hr></td></tr>
          <tr><td>1200 UTC MAR 26, 2024</td></tr>
          <tr><td>Storm Location:</td></tr>
          <tr><td><b>12.5 S, 50.7 E</b></td></tr>
          <tr><td>Min Sea Level Pressure:</td></tr>
          <tr><td>988 mb / 29.18 in Hg</td></tr>
          <tr><td>Maximum Intensity:</td></tr>
          <tr><td>60 kt / 69 mph / 111 kph</td></tr>
        </table>
      ]]></description>
      <Point><coordinates>50.7,-12.5</coordinates></Point>
    </Placemark>
    <Placemark>
      <name>1800 UTC MAR 26</name>
      <styleUrl>#cat1</styleUrl>
      <description><![CDATA[
        <table>
          <tr><td>HU GAMANE (SH202024)</td></tr>
          <tr><td><hr></td></tr>
          <tr><td>1800 UTC MAR 26, 2024</td></tr>
          <tr><td>Storm Location:</td></tr>
          <tr><td><b>12.8 S, 50.4 E</b></td></tr>
          <tr><td>Min Sea Level Pressure:</td></tr>
          <tr><td>988 mb / 29.18 in Hg</td></tr>
          <tr><td>Maximum Intensity:</td></tr>
          <tr><td>65 kt / 75 mph / 120 kph</td></tr>
        </table>
      ]]></description>
      <Point><coordinates>50.4,-12.8</coordinates></Point>
    </Placemark>
    <Placemark>
      <name>0000 UTC MAR 27</name>
      <styleUrl>#cat2</styleUrl>
      <description><![CDATA[
        <table>
          <tr><td>HU GAMANE (SH202024)</td></tr>
          <tr><td><hr></td></tr>
          <tr><td>0000 UTC MAR 27, 2024</td></tr>
          <tr><td>Storm Location:</td></tr>
          <tr><td><b>12.9 S, 50.0 E</b></td></tr>
          <tr><td>Min Sea Level Pressure:</td></tr>
          <tr><td>971 mb / 28.67 in Hg</td></tr>
          <tr><td>Maximum Intensity:</td></tr>
          <tr><td>85 kt / 98 mph / 157 kph</td></tr>
        </table>
      ]]></description>
      <Point><coordinates>50,-12.9</coordinates></Point>
    </Placemark>
    <Placemark>
      <name>0600 UTC MAR 27</name>
      <styleUrl>#cat1</styleUrl>
      <description><![CDATA[
        <table>
          <tr><td>HU GAMANE (SH202024)</td></tr>
          <tr><td><hr></td></tr>
          <tr><td>0600 UTC MAR 27, 2024</td></tr>
          <tr><td>Storm Location:</td></tr>
          <tr><td><b>12.9 S, 49.7 E</b></td></tr>
          <tr><td>Min Sea Level Pressure:</td></tr>
          <tr><td>978 mb / 28.88 in Hg</td></tr>
          <tr><td>Maximum Intensity:</td></tr>
          <tr><td>80 kt / 92 mph / 148 kph</td></tr>
        </table>
      ]]></description>
      <Point><coordinates>49.7,-12.9</coordinates></Point>
    </Placemark>
    <Placemark>
      <name>1200 UTC MAR 27</name>
      <styleUrl>#ts</styleUrl>
      <description><![CDATA[
        <table>
          <tr><td>TS GAMANE (SH202024)</td></tr>
          <tr><td><hr></td></tr>
          <tr><td>1200 UTC MAR 27, 2024</td></tr>
          <tr><td>Storm Location:</td></tr>
          <tr><td><b>13.2 S, 49.3 E</b></td></tr>
          <tr><td>Min Sea Level Pressure:</td></tr>
          <tr><td>991 mb / 29.26 in Hg</td></tr>
          <tr><td>Maximum Intensity:</td></tr>
          <tr><td>55 kt / 63 mph / 102 kph</td></tr>
        </table>
      ]]></description>
      <Point><coordinates>49.3,-13.2</coordinates></Point>
    </Placemark>
    <Placemark>
      <name>1800 UTC MAR 27</name>
      <styleUrl>#ts</styleUrl>
      <description><![CDATA[
        <table>
          <tr><td>TS GAMANE (SH202024)</td></tr>
          <tr><td><hr></td></tr>
          <tr><td>1800 UTC MAR 27, 2024</td></tr>
          <tr><td>Storm Location:</td></tr>
          <tr><td><b>13.4 S, 48.9 E</b></td></tr>
          <tr><td>Min Sea Level Pressure:</td></tr>
          <tr><td>999 mb / 29.50 in Hg</td></tr>
          <tr><td>Maximum Intensity:</td></tr>
          <tr><td>45 kt / 52 mph / 83 kph</td></tr>
        </table>
      ]]></description>
      <Point><coordinates>48.9,-13.4</coordinates></Point>
    </Placemark>
    <Placemark>
      <name>0000 UTC MAR 28</name>
      <styleUrl>#ts</styleUrl>
      <description><![CDATA[
        <table>
          <tr><td>TS GAMANE (SH202024)</td></tr>
          <tr><td><hr></td></tr>
          <tr><td>0000 UTC MAR 28, 2024</td></tr>
          <tr><td>Storm Location:</td></tr>
          <tr><td><b>13.5 S, 48.1 E</b></td></tr>
          <tr><td>Min Sea Level Pressure:</td></tr>
          <tr><td>1003 mb / 29.62 in Hg</td></tr>
          <tr><td>Maximum Intensity:</td></tr>
          <tr><td>35 kt / 40 mph / 65 kph</td></tr>
        </table>
      ]]></description>
      <Point><coordinates>48.1,-13.5</coordinates></Point>
    </Placemark>
    <Placemark>
      <name>0600 UTC MAR 28</name>
      <styleUrl>#td</styleUrl>
      <description><![CDATA[
        <table>
          <tr><td>TD GAMANE (SH202024)</td></tr>
          <tr><td><hr></td></tr>
          <tr><td>0600 UTC MAR 28, 2024</td></tr>
          <tr><td>Storm Location:</td></tr>
          <tr><td><b>13.4 S, 47.3 E</b></td></tr>
          <tr><td>Min Sea Level Pressure:</td></tr>
          <tr><td>1005 mb / 29.68 in Hg</td></tr>
          <tr><td>Maximum Intensity:</td></tr>
          <tr><td>30 kt / 35 mph / 56 kph</td></tr>
        </table>
      ]]></description>
      <Point><coordinates>47.3,-13.4</coordinates></Point>
    </Placemark>
    <Placemark>
      <name>1200 UTC MAR 28</name>
      <styleUrl>#td</styleUrl>
      <description><![CDATA[
        <table>
          <tr><td>TD GAMANE (SH202024)</td></tr>
          <tr><td><hr></td></tr>
          <tr><td>1200 UTC MAR 28, 2024</td></tr>
          <tr><td>Storm Location:</td></tr>
          <tr><td><b>13.9 S, 47.3 E</b></td></tr>
          <tr><td>Min Sea Level Pressure:</td></tr>
          <tr><td>1007 mb / 29.74 in Hg</td></tr>
          <tr><td>Maximum Intensity:</td></tr>
          <tr><td>25 kt / 29 mph / 46 kph</td></tr>
        </table>
      ]]></description>
      <Point><coordinates>47.3,-13.9</coordinates></Point>
    </Placemark>
    <Placemark>
      <name>1800 UTC MAR 28</name>
      <styleUrl>#db</styleUrl>
      <description><![CDATA[
        <table>
          <tr><td>DB GAMANE (SH202024)</td></tr>
          <tr><td><hr></td></tr>
          <tr><td>1800 UTC MAR 28, 2024</td></tr>
          <tr><td>Storm Location:</td></tr>
          <tr><td><b>14.1 S, 47.5 E</b></td></tr>
          <tr><td>Min Sea Level Pressure:</td></tr>
          <tr><td>1011 mb / 29.85 in Hg</td></tr>
          <tr><td>Maximum Intensity:</td></tr>
          <tr><td>20 kt / 23 mph / 37 kph</td></tr>
        </table>
      ]]></description>
      <Point><coordinates>47.5,-14.1</coordinates></Point>
    </Placemark>
    <Placemark>
      <name>0000 UTC MAR 29</name>
      <styleUrl>#db</styleUrl>
      <description><![CDATA[
        <table>
          <tr><td>DB GAMANE (SH202024)</td></tr>
          <tr><td><hr></td></tr>
          <tr><td>0000 UTC MAR 29, 2024</td></tr>
          <tr><td>Storm Location:</td></tr>
          <tr><td><b>14.3 S, 47.7 E</b></td></tr>
          <tr><td>Min Sea Level Pressure:</td></tr>
          <tr><td>1011 mb / 29.85 in Hg</td></tr>
          <tr><td>Maximum Intensity:</td></tr>
          <tr><td>20 kt / 23 mph / 37 kph</td></tr>
        </table>
      ]]></description>
      <Point><coordinates>47.7,-14.3</coordinates></Point>
    </Placemark>
    <Placemark>
      <name>0600 UTC MAR 29</name>
      <styleUrl>#db</styleUrl>
      <description><![CDATA[
        <table>
          <tr><td>DB GAMANE (SH202024)</td></tr>
          <tr><td><hr></td></tr>
          <tr><td>0600 UTC MAR 29, 2024</td></tr>
          <tr><td>Storm Location:</td></tr>
          <tr><td><b>14.6 S, 48.1 E</b></td></tr>
          <tr><td>Min Sea Level Pressure:</td></tr>
          <tr><td>1013 mb / 29.91 in Hg</td></tr>
          <tr><td>Maximum Intensity:</td></tr>
          <tr><td>15 kt / 17 mph / 28 kph</td></tr>
        </table>
      ]]></description>
      <Point><coordinates>48.1,-14.6</coordinates></Point>
    </Placemark>
  </Document>
</kml>
