<?xml version="1.0" encoding="UTF-8"?>
<kml xmlns="http://www.opengis.net/kml/2.2">
  <Document>
    <name>SH212024</name>
    <open>0</open>

    <!-- =====  Document header ===== -->
    <description><![CDATA[
      <table>
        <tr><td><b>Title:</b> Tropical Cyclone Best Track for SH212024</td></tr>
      </table>
    ]]></description>

    <!-- =====  Styles (ids must be unique)  ===== -->
	<Style id="pt"> 
		<IconStyle> 
			<scale>1.0</scale> 
			<Icon> 
				<href>ex_nhemi.png</href> 
			</Icon> 
             <hotSpot x="15" y="17" xunits="pixels" yunits="pixels"/>
		</IconStyle> 
		<LabelStyle> 
			<scale>1.0</scale> 
		</LabelStyle> 
	</Style>
	<Style id="cat5"> 
		<IconStyle> 
			<scale>1.0</scale> 
			<Icon> 
				<href>cat5_nhemi.png</href> 
			</Icon> 
             <hotSpot x="15" y="17" xunits="pixels" yunits="pixels"/>
		</IconStyle> 
		<LabelStyle> 
			<scale>1.0</scale> 
		</LabelStyle> 
	</Style>
	<Style id="db"> 
		<IconStyle> 
			<scale>1.0</scale> 
			<Icon> 
				<href>ex_nhemi.png</href> 
			</Icon> 
             <hotSpot x="15" y="17" xunits="pixels" yunits="pixels"/>
		</IconStyle> 
		<LabelStyle> 
			<scale>1.0</scale> 
		</LabelStyle> 
	</Style>
	<Style id="cat3"> 
		<IconStyle> 
			<scale>1.0</scale> 
			<Icon> 
				<href>cat3_nhemi.png</href> 
			</Icon> 
             <hotSpot x="15" y="17" xunits="pixels" yunits="pixels"/>
		</IconStyle> 
		<LabelStyle> 
			<scale>1.0</scale> 
		</LabelStyle> 
	</Style>
	<Style id="ss"> 
		<IconStyle> 
			<scale>1.0</scale> 
			<Icon> 
				<href>ts_nhemi.png</href> 
			</Icon> 
             <hotSpot x="15" y="17" xunits="pixels" yunits="pixels"/>
		</IconStyle> 
		<LabelStyle> 
			<scale>1.0</scale> 
		</LabelStyle> 
	</Style>
	<Style id="lo"> 
		<IconStyle> 
			<scale>1.0</scale> 
			<Icon> 
				<href>ex_nhemi.png</href> 
			</Icon> 
             <hotSpot x="15" y="17" xunits="pixels" yunits="pixels"/>
		</IconStyle> 
		<LabelStyle> 
			<scale>1.0</scale> 
		</LabelStyle> 
	</Style>
	<Style id="cat4"> 
		<IconStyle> 
			<scale>1.0</scale> 
			<Icon> 
				<href>cat4_nhemi.png</href> 
			</Icon> 
             <hotSpot x="15" y="17" xunits="pixels" yunits="pixels"/>
		</IconStyle> 
		<LabelStyle> 
			<scale>1.0</scale> 
		</LabelStyle> 
	</Style>
	<Style id="cat2"> 
		<IconStyle> 
			<scale>1.0</scale> 
			<Icon> 
				<href>cat2_nhemi.png</href> 
			</Icon> 
             <hotSpot x="15" y="17" xunits="pixels" yunits="pixels"/>
		</IconStyle> 
		<LabelStyle> 
			<scale>1.0</scale> 
		</LabelStyle> 
	</Style>
	<Style id="ts"> 
		<IconStyle> 
			<scale>1.0</scale> 
			<Icon> 
				<href>ts_nhemi.png</href> 
			</Icon> 
             <hotSpot x="15" y="17" xunits="pixels" yunits="pixels"/>
		</IconStyle> 
		<LabelStyle> 
			<scale>1.0</scale> 
		</LabelStyle> 
	</Style>
	<Style id="cat1"> 
		<IconStyle> 
			<scale>1.0</scale> 
			<Icon> 
				<href>cat1_nhemi.png</href> 
			</Icon> 
             <hotSpot x="15" y="17" xunits="pixels" yunits="pixels"/>
		</IconStyle> 
		<LabelStyle> 
			<scale>1.0</scale> 
		</LabelStyle> 
	</Style>
	<Style id="ex"> 
		<IconStyle> 
			<scale>1.0</scale> 
			<Icon> 
				<href>ex_nhemi.png</href> 
			</Icon> 
             <hotSpot x="15" y="17" xunits="pixels" yunits="pixels"/>
		</IconStyle> 
		<LabelStyle> 
			<scale>1.0</scale> 
		</LabelStyle> 
	</Style>
	<Style id="tc"> 
		<IconStyle> 
			<scale>1.0</scale> 
			<Icon> 
				<href>ex_nhemi.png</href> 
			</Icon> 
             <hotSpot x="15" y="17" xunits="pixels" yunits="pixels"/>
		</IconStyle> 
		<LabelStyle> 
			<scale>1.0</scale> 
		</LabelStyle> 
	</Style>
	<Style id="wv"> 
		<IconStyle> 
			<scale>1.0</scale> 
			<Icon> 
				<href>ex_nhemi.png</href> 
			</Icon> 
             <hotSpot x="15" y="17" xunits="pixels" yunits="pixels"/>
		</IconStyle> 
		<LabelStyle> 
			<scale>1.0</scale> 
		</LabelStyle> 
	</Style>
	<Style id="td"> 
		<IconStyle> 
			<scale>1.0</scale> 
			<Icon> 
				<href>td_nhemi.png</href> 
			</Icon> 
             <hotSpot x="15" y="17" xunits="pixels" yunits="pixels"/>
		</IconStyle> 
		<LabelStyle> 
			<scale>1.0</scale> 
		</LabelStyle> 
	</Style>
	<Style id="sd"> 
		<IconStyle> 
			<scale>1.0</scale> 
			<Icon> 
				<href>ex_nhemi.png</href> 
			</Icon> 
             <hotSpot x="15" y="17" xunits="pixels" yunits="pixels"/>
		</IconStyle> 
		<LabelStyle> 
			<scale>1.0</scale> 
		</LabelStyle> 
	</Style>

    <Placemark>
      <name>1200 UTC APR 4</name>
      <styleUrl>#db</styleUrl>
      <description><![CDATA[
        <table>
          <tr><td>DB OLGA (SH212024)</td></tr>
          <tr><td><hr></td></tr>
          <tr><td>1200 UTC APR 4, 2024</td></tr>
          <tr><td>Storm Location:</td></tr>
          <tr><td><b>10.3 S, 120.0 E</b></td></tr>
          <tr><td>Min Sea Level Pressure:</td></tr>
          <tr><td>1006 mb / 29.71 in Hg</td></tr>
          <tr><td>Maximum Intensity:</td></tr>
          <tr><td>20 kt / 23 mph / 37 kph</td></tr>
        </table>
      ]]></description>
      <Point><coordinates>120,-10.3</coordinates></Point>
    </Placemark>
    <Placemark>
      <name>1800 UTC APR 4</name>
      <styleUrl>#td</styleUrl>
      <description><![CDATA[
        <table>
          <tr><td>TD OLGA (SH212024)</td></tr>
          <tr><td><hr></td></tr>
          <tr><td>1800 UTC APR 4, 2024</td></tr>
          <tr><td>Storm Location:</td></tr>
          <tr><td><b>10.9 S, 119.6 E</b></td></tr>
          <tr><td>Min Sea Level Pressure:</td></tr>
          <tr><td>1004 mb / 29.65 in Hg</td></tr>
          <tr><td>Maximum Intensity:</td></tr>
          <tr><td>25 kt / 29 mph / 46 kph</td></tr>
        </table>
      ]]></description>
      <Point><coordinates>119.6,-10.9</coordinates></Point>
    </Placemark>
    <Placemark>
      <name>0000 UTC APR 5</name>
      <styleUrl>#td</styleUrl>
      <description><![CDATA[
        <table>
          <tr><td>TD OLGA (SH212024)</td></tr>
          <tr><td><hr></td></tr>
          <tr><td>0000 UTC APR 5, 2024</td></tr>
          <tr><td>Storm Location:</td></tr>
          <tr><td><b>11.6 S, 119.7 E</b></td></tr>
          <tr><td>Min Sea Level Pressure:</td></tr>
          <tr><td>1003 mb / 29.62 in Hg</td></tr>
          <tr><td>Maximum Intensity:</td></tr>
          <tr><td>25 kt / 29 mph / 46 kph</td></tr>
        </table>
      ]]></description>
      <Point><coordinates>119.7,-11.6</coordinates></Point>
    </Placemark>
    <Placemark>
      <name>0600 UTC APR 5</name>
      <styleUrl>#td</styleUrl>
      <description><![CDATA[
        <table>
          <tr><td>TD OLGA (SH212024)</td></tr>
          <tr><td><hr></td></tr>
          <tr><td>0600 UTC APR 5, 2024</td></tr>
          <tr><td>Storm Location:</td></tr>
          <tr><td><b>12.0 S, 119.8 E</b></td></tr>
          <tr><td>Min Sea Level Pressure:</td></tr>
          <tr><td>1001 mb / 29.56 in Hg</td></tr>
          <tr><td>Maximum Intensity:</td></tr>
          <tr><td>30 kt / 35 mph / 56 kph</td></tr>
        </table>
      ]]></description>
      <Point><coordinates>119.8,-12</coordinates></Point>
    </Placemark>
    <Placemark>
      <name>1200 UTC APR 5</name>
      <styleUrl>#ts</styleUrl>
      <description><![CDATA[
        <table>
          <tr><td>TS OLGA (SH212024)</td></tr>
          <tr><td><hr></td></tr>
          <tr><td>1200 UTC APR 5, 2024</td></tr>
          <tr><td>Storm Location:</td></tr>
          <tr><td><b>12.3 S, 119.9 E</b></td></tr>
          <tr><td>Min Sea Level Pressure:</td></tr>
          <tr><td>1000 mb / 29.53 in Hg</td></tr>
          <tr><td>Maximum Intensity:</td></tr>
          <tr><td>35 kt / 40 mph / 65 kph</td></tr>
        </table>
      ]]></description>
      <Point><coordinates>119.9,-12.3</coordinates></Point>
    </Placemark>
    <Placemark>
      <name>1800 UTC APR 5</name>
      <styleUrl>#ts</styleUrl>
      <description><![CDATA[
        <table>
          <tr><td>TS OLGA (SH212024)</td></tr>
          <tr><td><hr></td></tr>
          <tr><td>1800 UTC APR 5, 2024</td></tr>
          <tr><td>Storm Location:</td></tr>
          <tr><td><b>12.5 S, 120.0 E</b></td></tr>
          <tr><td>Min Sea Level Pressure:</td></tr>
          <tr><td>998 mb / 29.47 in Hg</td></tr>
          <tr><td>Maximum Intensity:</td></tr>
          <tr><td>40 kt / 46 mph / 74 kph</td></tr>
        </table>
      ]]></description>
      <Point><coordinates>120,-12.5</coordinates></Point>
    </Placemark>
    <Placemark>
      <name>0000 UTC APR 6</name>
      <styleUrl>#ts</styleUrl>
      <description><![CDATA[
        <table>
          <tr><td>TS OLGA (SH212024)</td></tr>
          <tr><td><hr></td></tr>
          <tr><td>0000 UTC APR 6, 2024</td></tr>
          <tr><td>Storm Location:</td></tr>
          <tr><td><b>12.7 S, 120.1 E</b></td></tr>
          <tr><td>Min Sea Level Pressure:</td></tr>
          <tr><td>995 mb / 29.38 in Hg</td></tr>
          <tr><td>Maximum Intensity:</td></tr>
          <tr><td>45 kt / 52 mph / 83 kph</td></tr>
        </table>
      ]]></description>
      <Point><coordinates>120.1,-12.7</coordinates></Point>
    </Placemark>
    <Placemark>
      <name>0600 UTC APR 6</name>
      <styleUrl>#ts</styleUrl>
      <description><![CDATA[
        <table>
          <tr><td>TS OLGA (SH212024)</td></tr>
          <tr><td><hr></td></tr>
          <tr><td>0600 UTC APR 6, 2024</td></tr>
          <tr><td>Storm Location:</td></tr>
          <tr><td><b>13.0 S, 120.2 E</b></td></tr>
          <tr><td>Min Sea Level Pressure:</td></tr>
          <tr><td>992 mb / 29.29 in Hg</td></tr>
          <tr><td>Maximum Intensity:</td></tr>
          <tr><td>50 kt / 58 mph / 93 kph</td></tr>
        </table>
      ]]></description>
      <Point><coordinates>120.2,-13</coordinates></Point>
    </Placemark>
    <Placemark>
      <name>1200 UTC APR 6</name>
      <styleUrl>#ts</styleUrl>
      <description><![CDATA[
        <table>
          <tr><td>TS OLGA (SH212024)</td></tr>
          <tr><td><hr></td></tr>
          <tr><td>1200 UTC APR 6, 2024</td></tr>
          <tr><td>Storm Location:</td></tr>
          <tr><td><b>13.4 S, 120.2 E</b></td></tr>
          <tr><td>Min Sea Level Pressure:</td></tr>
          <tr><td>989 mb / 29.21 in Hg</td></tr>
          <tr><td>Maximum Intensity:</td></tr>
          <tr><td>55 kt / 63 mph / 102 kph</td></tr>
        </table>
      ]]></description>
      <Point><coordinates>120.2,-13.4</coordinates></Point>
    </Placemark>
    <Placemark>
      <name>1800 UTC APR 6</name>
      <styleUrl>#cat1</styleUrl>
      <description><![CDATA[
        <table>
          <tr><td>HU OLGA (SH212024)</td></tr>
          <tr><td><hr></td></tr>
          <tr><td>1800 UTC APR 6, 2024</td></tr>
          <tr><td>Storm Location:</td></tr>
          <tr><td><b>14.2 S, 119.8 E</b></td></tr>
          <tr><td>Min Sea Level Pressure:</td></tr>
          <tr><td>983 mb / 29.03 in Hg</td></tr>
          <tr><td>Maximum Intensity:</td></tr>
          <tr><td>65 kt / 75 mph / 120 kph</td></tr>
        </table>
      ]]></description>
      <Point><coordinates>119.8,-14.2</coordinates></Point>
    </Placemark>
    <Placemark>
      <name>0000 UTC APR 7</name>
      <styleUrl>#cat1</styleUrl>
      <description><![CDATA[
        <table>
          <tr><td>HU OLGA (SH212024)</td></tr>
          <tr><td><hr></td></tr>
          <tr><td>0000 UTC APR 7, 2024</td></tr>
          <tr><td>Storm Location:</td></tr>
          <tr><td><b>14.4 S, 119.3 E</b></td></tr>
          <tr><td>Min Sea Level Pressure:</td></tr>
          <tr><td>976 mb / 28.82 in Hg</td></tr>
          <tr><td>Maximum Intensity:</td></tr>
          <tr><td>80 kt / 92 mph / 148 kph</td></tr>
        </table>
      ]]></description>
      <Point><coordinates>119.3,-14.4</coordinates></Point>
    </Placemark>
    <Placemark>
      <name>0600 UTC APR 7</name>
      <styleUrl>#cat3</styleUrl>
      <description><![CDATA[
        <table>
          <tr><td>HU OLGA (SH212024)</td></tr>
          <tr><td><hr></td></tr>
          <tr><td>0600 UTC APR 7, 2024</td></tr>
          <tr><td>Storm Location:</td></tr>
          <tr><td><b>14.8 S, 119.2 E</b></td></tr>
          <tr><td>Min Sea Level Pressure:</td></tr>
          <tr><td>953 mb / 28.14 in Hg</td></tr>
          <tr><td>Maximum Intensity:</td></tr>
          <tr><td>105 kt / 121 mph / 194 kph</td></tr>
        </table>
      ]]></description>
      <Point><coordinates>119.2,-14.8</coordinates></Point>
    </Placemark>
    <Placemark>
      <name>1200 UTC APR 7</name>
      <styleUrl>#cat4</styleUrl>
      <description><![CDATA[
        <table>
          <tr><td>HU OLGA (SH212024)</td></tr>
          <tr><td><hr></td></tr>
          <tr><td>1200 UTC APR 7, 2024</td></tr>
          <tr><td>Storm Location:</td></tr>
          <tr><td><b>15.4 S, 119.2 E</b></td></tr>
          <tr><td>Min Sea Level Pressure:</td></tr>
          <tr><td>944 mb / 27.88 in Hg</td></tr>
          <tr><td>Maximum Intensity:</td></tr>
          <tr><td>115 kt / 132 mph / 213 kph</td></tr>
        </table>
      ]]></description>
      <Point><coordinates>119.2,-15.4</coordinates></Point>
    </Placemark>
    <Placemark>
      <name>1800 UTC APR 7</name>
      <styleUrl>#cat3</styleUrl>
      <description><![CDATA[
        <table>
          <tr><td>HU OLGA (SH212024)</td></tr>
          <tr><td><hr></td></tr>
          <tr><td>1800 UTC APR 7, 2024</td></tr>
          <tr><td>Storm Location:</td></tr>
          <tr><td><b>16.0 S, 118.9 E</b></td></tr>
          <tr><td>Min Sea Level Pressure:</td></tr>
          <tr><td>949 mb / 28.02 in Hg</td></tr>
          <tr><td>Maximum Intensity:</td></tr>
          <tr><td>110 kt / 127 mph / 204 kph</td></tr>
        </table>
      ]]></description>
      <Point><coordinates>118.9,-16</coordinates></Point>
    </Placemark>
    <Placemark>
      <name>0000 UTC APR 8</name>
      <styleUrl>#cat3</styleUrl>
      <description><![CDATA[
        <table>
          <tr><td>HU OLGA (SH212024)</td></tr>
          <tr><td><hr></td></tr>
          <tr><td>0000 UTC APR 8, 2024</td></tr>
          <tr><td>Storm Location:</td></tr>
          <tr><td><b>16.4 S, 118.7 E</b></td></tr>
          <tr><td>Min Sea Level Pressure:</td></tr>
          <tr><td>952 mb / 28.11 in Hg</td></tr>
          <tr><td>Maximum Intensity:</td></tr>
          <tr><td>110 kt / 127 mph / 204 kph</td></tr>
        </table>
      ]]></description>
      <Point><coordinates>118.7,-16.4</coordinates></Point>
    </Placemark>
    <Placemark>
      <name>0600 UTC APR 8</name>
      <styleUrl>#cat2</styleUrl>
      <description><![CDATA[
        <table>
          <tr><td>HU OLGA (SH212024)</td></tr>
          <tr><td><hr></td></tr>
          <tr><td>0600 UTC APR 8, 2024</td></tr>
          <tr><td>Storm Location:</td></tr>
          <tr><td><b>16.4 S, 118.7 E</b></td></tr>
          <tr><td>Min Sea Level Pressure:</td></tr>
          <tr><td>965 mb / 28.50 in Hg</td></tr>
          <tr><td>Maximum Intensity:</td></tr>
          <tr><td>90 kt / 104 mph / 167 kph</td></tr>
        </table>
      ]]></description>
      <Point><coordinates>118.7,-16.4</coordinates></Point>
    </Placemark>
    <Placemark>
      <name>1200 UTC APR 8</name>
      <styleUrl>#ts</styleUrl>
      <description><![CDATA[
        <table>
          <tr><td>TS OLGA (SH212024)</td></tr>
          <tr><td><hr></td></tr>
          <tr><td>1200 UTC APR 8, 2024</td></tr>
          <tr><td>Storm Location:</td></tr>
          <tr><td><b>16.7 S, 118.6 E</b></td></tr>
          <tr><td>Min Sea Level Pressure:</td></tr>
          <tr><td>986 mb / 29.12 in Hg</td></tr>
          <tr><td>Maximum Intensity:</td></tr>
          <tr><td>60 kt / 69 mph / 111 kph</td></tr>
        </table>
      ]]></description>
      <Point><coordinates>118.6,-16.7</coordinates></Point>
    </Placemark>
    <Placemark>
      <name>1800 UTC APR 8</name>
      <styleUrl>#ts</styleUrl>
      <description><![CDATA[
        <table>
          <tr><td>TS OLGA (SH212024)</td></tr>
          <tr><td><hr></td></tr>
          <tr><td>1800 UTC APR 8, 2024</td></tr>
          <tr><td>Storm Location:</td></tr>
          <tr><td><b>16.9 S, 118.1 E</b></td></tr>
          <tr><td>Min Sea Level Pressure:</td></tr>
          <tr><td>993 mb / 29.32 in Hg</td></tr>
          <tr><td>Maximum Intensity:</td></tr>
          <tr><td>50 kt / 58 mph / 93 kph</td></tr>
        </table>
      ]]></description>
      <Point><coordinates>118.1,-16.9</coordinates></Point>
    </Placemark>
    <Placemark>
      <name>0000 UTC APR 9</name>
      <styleUrl>#ts</styleUrl>
      <description><![CDATA[
        <table>
          <tr><td>TS OLGA (SH212024)</td></tr>
          <tr><td><hr></td></tr>
          <tr><td>0000 UTC APR 9, 2024</td></tr>
          <tr><td>Storm Location:</td></tr>
          <tr><td><b>17.2 S, 117.5 E</b></td></tr>
          <tr><td>Min Sea Level Pressure:</td></tr>
          <tr><td>997 mb / 29.44 in Hg</td></tr>
          <tr><td>Maximum Intensity:</td></tr>
          <tr><td>45 kt / 52 mph / 83 kph</td></tr>
        </table>
      ]]></description>
      <Point><coordinates>117.5,-17.2</coordinates></Point>
    </Placemark>
    <Placemark>
      <name>0600 UTC APR 9</name>
      <styleUrl>#ts</styleUrl>
      <description><![CDATA[
        <table>
          <tr><td>TS OLGA (SH212024)</td></tr>
          <tr><td><hr></td></tr>
          <tr><td>0600 UTC APR 9, 2024</td></tr>
          <tr><td>Storm Location:</td></tr>
          <tr><td><b>17.6 S, 116.6 E</b></td></tr>
          <tr><td>Min Sea Level Pressure:</td></tr>
          <tr><td>999 mb / 29.50 in Hg</td></tr>
          <tr><td>Maximum Intensity:</td></tr>
          <tr><td>40 kt / 46 mph / 74 kph</td></tr>
        </table>
      ]]></description>
      <Point><coordinates>116.6,-17.6</coordinates></Point>
    </Placemark>
    <Placemark>
      <name>1200 UTC APR 9</name>
      <styleUrl>#ts</styleUrl>
      <description><![CDATA[
        <table>
          <tr><td>TS OLGA (SH212024)</td></tr>
          <tr><td><hr></td></tr>
          <tr><td>1200 UTC APR 9, 2024</td></tr>
          <tr><td>Storm Location:</td></tr>
          <tr><td><b>18.0 S, 116.5 E</b></td></tr>
          <tr><td>Min Sea Level Pressure:</td></tr>
          <tr><td>1002 mb / 29.59 in Hg</td></tr>
          <tr><td>Maximum Intensity:</td></tr>
          <tr><td>35 kt / 40 mph / 65 kph</td></tr>
        </table>
      ]]></description>
      <Point><coordinates>116.5,-18</coordinates></Point>
    </Placemark>
    <Placemark>
      <name>1800 UTC APR 9</name>
      <styleUrl>#ts</styleUrl>
      <description><![CDATA[
        <table>
          <tr><td>TS OLGA (SH212024)</td></tr>
          <tr><td><hr></td></tr>
          <tr><td>1800 UTC APR 9, 2024</td></tr>
          <tr><td>Storm Location:</td></tr>
          <tr><td><b>18.5 S, 116.2 E</b></td></tr>
          <tr><td>Min Sea Level Pressure:</td></tr>
          <tr><td>1002 mb / 29.59 in Hg</td></tr>
          <tr><td>Maximum Intensity:</td></tr>
          <tr><td>35 kt / 40 mph / 65 kph</td></tr>
        </table>
      ]]></description>
      <Point><coordinates>116.2,-18.5</coordinates></Point>
    </Placemark>
    <Placemark>
      <name>0000 UTC APR 10</name>
      <styleUrl>#ts</styleUrl>
      <description><![CDATA[
        <table>
          <tr><td>TS OLGA (SH212024)</td></tr>
          <tr><td><hr></td></tr>
          <tr><td>0000 UTC APR 10, 2024</td></tr>
          <tr><td>Storm Location:</td></tr>
          <tr><td><b>18.9 S, 116.1 E</b></td></tr>
          <tr><td>Min Sea Level Pressure:</td></tr>
          <tr><td>1003 mb / 29.62 in Hg</td></tr>
          <tr><td>Maximum Intensity:</td></tr>
          <tr><td>35 kt / 40 mph / 65 kph</td></tr>
        </table>
      ]]></description>
      <Point><coordinates>116.1,-18.9</coordinates></Point>
    </Placemark>
    <Placemark>
      <name>0600 UTC APR 10</name>
      <styleUrl>#ts</styleUrl>
      <description><![CDATA[
        <table>
          <tr><td>TS OLGA (SH212024)</td></tr>
          <tr><td><hr></td></tr>
          <tr><td>0600 UTC APR 10, 2024</td></tr>
          <tr><td>Storm Location:</td></tr>
          <tr><td><b>19.7 S, 115.6 E</b></td></tr>
          <tr><td>Min Sea Level Pressure:</td></tr>
          <tr><td>1002 mb / 29.59 in Hg</td></tr>
          <tr><td>Maximum Intensity:</td></tr>
          <tr><td>35 kt / 40 mph / 65 kph</td></tr>
        </table>
      ]]></description>
      <Point><coordinates>115.6,-19.7</coordinates></Point>
    </Placemark>
    <Placemark>
      <name>1200 UTC APR 10</name>
      <styleUrl>#ts</styleUrl>
      <description><![CDATA[
        <table>
          <tr><td>TS OLGA (SH212024)</td></tr>
          <tr><td><hr></td></tr>
          <tr><td>1200 UTC APR 10, 2024</td></tr>
          <tr><td>Storm Location:</td></tr>
          <tr><td><b>20.4 S, 115.1 E</b></td></tr>
          <tr><td>Min Sea Level Pressure:</td></tr>
          <tr><td>1005 mb / 29.68 in Hg</td></tr>
          <tr><td>Maximum Intensity:</td></tr>
          <tr><td>35 kt / 40 mph / 65 kph</td></tr>
        </table>
      ]]></description>
      <Point><coordinates>115.1,-20.4</coordinates></Point>
    </Placemark>
    <Placemark>
      <name>1800 UTC APR 10</name>
      <styleUrl>#td</styleUrl>
      <description><![CDATA[
        <table>
          <tr><td>TD OLGA (SH212024)</td></tr>
          <tr><td><hr></td></tr>
          <tr><td>1800 UTC APR 10, 2024</td></tr>
          <tr><td>Storm Location:</td></tr>
          <tr><td><b>21.0 S, 114.7 E</b></td></tr>
          <tr><td>Min Sea Level Pressure:</td></tr>
          <tr><td>1008 mb / 29.77 in Hg</td></tr>
          <tr><td>Maximum Intensity:</td></tr>
          <tr><td>30 kt / 35 mph / 56 kph</td></tr>
        </table>
      ]]></description>
      <Point><coordinates>114.7,-21</coordinates></Point>
    </Placemark>
    <Placemark>
      <name>0000 UTC APR 11</name>
      <styleUrl>#td</styleUrl>
      <description><![CDATA[
        <table>
          <tr><td>TD OLGA (SH212024)</td></tr>
          <tr><td><hr></td></tr>
          <tr><td>0000 UTC APR 11, 2024</td></tr>
          <tr><td>Storm Location:</td></tr>
          <tr><td><b>21.7 S, 114.0 E</b></td></tr>
          <tr><td>Min Sea Level Pressure:</td></tr>
          <tr><td>1006 mb / 29.71 in Hg</td></tr>
          <tr><td>Maximum Intensity:</td></tr>
          <tr><td>30 kt / 35 mph / 56 kph</td></tr>
        </table>
      ]]></description>
      <Point><coordinates>114,-21.7</coordinates></Point>
    </Placemark>
    <Placemark>
      <name>0600 UTC APR 11</name>
      <styleUrl>#td</styleUrl>
      <description><![CDATA[
        <table>
          <tr><td>TD OLGA (SH212024)</td></tr>
          <tr><td><hr></td></tr>
          <tr><td>0600 UTC APR 11, 2024</td></tr>
          <tr><td>Storm Location:</td></tr>
          <tr><td><b>22.1 S, 113.7 E</b></td></tr>
          <tr><td>Min Sea Level Pressure:</td></tr>
          <tr><td>1009 mb / 29.80 in Hg</td></tr>
          <tr><td>Maximum Intensity:</td></tr>
          <tr><td>25 kt / 29 mph / 46 kph</td></tr>
        </table>
      ]]></description>
      <Point><coordinates>113.7,-22.1</coordinates></Point>
    </Placemark>
    <Placemark>
      <name>1200 UTC APR 11</name>
      <styleUrl>#db</styleUrl>
      <description><![CDATA[
        <table>
          <tr><td>DB OLGA (SH212024)</td></tr>
          <tr><td><hr></td></tr>
          <tr><td>1200 UTC APR 11, 2024</td></tr>
          <tr><td>Storm Location:</td></tr>
          <tr><td><b>21.9 S, 113.6 E</b></td></tr>
          <tr><td>Min Sea Level Pressure:</td></tr>
          <tr><td>1010 mb / 29.83 in Hg</td></tr>
          <tr><td>Maximum Intensity:</td></tr>
          <tr><td>20 kt / 23 mph / 37 kph</td></tr>
        </table>
      ]]></description>
      <Point><coordinates>113.6,-21.9</coordinates></Point>
    </Placemark>
  </Document>
</kml>
