<?xml version="1.0" encoding="UTF-8"?>
<kml xmlns="http://www.opengis.net/kml/2.2">
  <Document>
    <name>SH222024</name>
    <open>0</open>

    <!-- =====  Document header ===== -->
    <description><![CDATA[
      <table>
        <tr><td><b>Title:</b> Tropical Cyclone Best Track for SH222024</td></tr>
      </table>
    ]]></description>

    <!-- =====  Styles (ids must be unique)  ===== -->
	<Style id="pt"> 
		<IconStyle> 
			<scale>1.0</scale> 
			<Icon> 
				<href>ex_nhemi.png</href> 
			</Icon> 
             <hotSpot x="15" y="17" xunits="pixels" yunits="pixels"/>
		</IconStyle> 
		<LabelStyle> 
			<scale>1.0</scale> 
		</LabelStyle> 
	</Style>
	<Style id="cat5"> 
		<IconStyle> 
			<scale>1.0</scale> 
			<Icon> 
				<href>cat5_nhemi.png</href> 
			</Icon> 
             <hotSpot x="15" y="17" xunits="pixels" yunits="pixels"/>
		</IconStyle> 
		<LabelStyle> 
			<scale>1.0</scale> 
		</LabelStyle> 
	</Style>
	<Style id="db"> 
		<IconStyle> 
			<scale>1.0</scale> 
			<Icon> 
				<href>ex_nhemi.png</href> 
			</Icon> 
             <hotSpot x="15" y="17" xunits="pixels" yunits="pixels"/>
		</IconStyle> 
		<LabelStyle> 
			<scale>1.0</scale> 
		</LabelStyle> 
	</Style>
	<Style id="cat3"> 
		<IconStyle> 
			<scale>1.0</scale> 
			<Icon> 
				<href>cat3_nhemi.png</href> 
			</Icon> 
             <hotSpot x="15" y="17" xunits="pixels" yunits="pixels"/>
		</IconStyle> 
		<LabelStyle> 
			<scale>1.0</scale> 
		</LabelStyle> 
	</Style>
	<Style id="ss"> 
		<IconStyle> 
			<scale>1.0</scale> 
			<Icon> 
				<href>ts_nhemi.png</href> 
			</Icon> 
             <hotSpot x="15" y="17" xunits="pixels" yunits="pixels"/>
		</IconStyle> 
		<LabelStyle> 
			<scale>1.0</scale> 
		</LabelStyle> 
	</Style>
	<Style id="lo"> 
		<IconStyle> 
			<scale>1.0</scale> 
			<Icon> 
				<href>ex_nhemi.png</href> 
			</Icon> 
             <hotSpot x="15" y="17" xunits="pixels" yunits="pixels"/>
		</IconStyle> 
		<LabelStyle> 
			<scale>1.0</scale> 
		</LabelStyle> 
	</Style>
	<Style id="cat4"> 
		<IconStyle> 
			<scale>1.0</scale> 
			<Icon> 
				<href>cat4_nhemi.png</href> 
			</Icon> 
             <hotSpot x="15" y="17" xunits="pixels" yunits="pixels"/>
		</IconStyle> 
		<LabelStyle> 
			<scale>1.0</scale> 
		</LabelStyle> 
	</Style>
	<Style id="cat2"> 
		<IconStyle> 
			<scale>1.0</scale> 
			<Icon> 
				<href>cat2_nhemi.png</href> 
			</Icon> 
             <hotSpot x="15" y="17" xunits="pixels" yunits="pixels"/>
		</IconStyle> 
		<LabelStyle> 
			<scale>1.0</scale> 
		</LabelStyle> 
	</Style>
	<Style id="ts"> 
		<IconStyle> 
			<scale>1.0</scale> 
			<Icon> 
				<href>ts_nhemi.png</href> 
			</Icon> 
             <hotSpot x="15" y="17" xunits="pixels" yunits="pixels"/>
		</IconStyle> 
		<LabelStyle> 
			<scale>1.0</scale> 
		</LabelStyle> 
	</Style>
	<Style id="cat1"> 
		<IconStyle> 
			<scale>1.0</scale> 
			<Icon> 
				<href>cat1_nhemi.png</href> 
			</Icon> 
             <hotSpot x="15" y="17" xunits="pixels" yunits="pixels"/>
		</IconStyle> 
		<LabelStyle> 
			<scale>1.0</scale> 
		</LabelStyle> 
	</Style>
	<Style id="ex"> 
		<IconStyle> 
			<scale>1.0</scale> 
			<Icon> 
				<href>ex_nhemi.png</href> 
			</Icon> 
             <hotSpot x="15" y="17" xunits="pixels" yunits="pixels"/>
		</IconStyle> 
		<LabelStyle> 
			<scale>1.0</scale> 
		</LabelStyle> 
	</Style>
	<Style id="tc"> 
		<IconStyle> 
			<scale>1.0</scale> 
			<Icon> 
				<href>ex_nhemi.png</href> 
			</Icon> 
             <hotSpot x="15" y="17" xunits="pixels" yunits="pixels"/>
		</IconStyle> 
		<LabelStyle> 
			<scale>1.0</scale> 
		</LabelStyle> 
	</Style>
	<Style id="wv"> 
		<IconStyle> 
			<scale>1.0</scale> 
			<Icon> 
				<href>ex_nhemi.png</href> 
			</Icon> 
             <hotSpot x="15" y="17" xunits="pixels" yunits="pixels"/>
		</IconStyle> 
		<LabelStyle> 
			<scale>1.0</scale> 
		</LabelStyle> 
	</Style>
	<Style id="td"> 
		<IconStyle> 
			<scale>1.0</scale> 
			<Icon> 
				<href>td_nhemi.png</href> 
			</Icon> 
             <hotSpot x="15" y="17" xunits="pixels" yunits="pixels"/>
		</IconStyle> 
		<LabelStyle> 
			<scale>1.0</scale> 
		</LabelStyle> 
	</Style>
	<Style id="sd"> 
		<IconStyle> 
			<scale>1.0</scale> 
			<Icon> 
				<href>ex_nhemi.png</href> 
			</Icon> 
             <hotSpot x="15" y="17" xunits="pixels" yunits="pixels"/>
		</IconStyle> 
		<LabelStyle> 
			<scale>1.0</scale> 
		</LabelStyle> 
	</Style>

    <Placemark>
      <name>0000 UTC APR 9</name>
      <styleUrl>#db</styleUrl>
      <description><![CDATA[
        <table>
          <tr><td>DB PAUL (SH222024)</td></tr>
          <tr><td><hr></td></tr>
          <tr><td>0000 UTC APR 9, 2024</td></tr>
          <tr><td>Storm Location:</td></tr>
          <tr><td><b>10.5 S, 152.4 E</b></td></tr>
          <tr><td>Min Sea Level Pressure:</td></tr>
          <tr><td>1010 mb / 29.83 in Hg</td></tr>
          <tr><td>Maximum Intensity:</td></tr>
          <tr><td>15 kt / 17 mph / 28 kph</td></tr>
        </table>
      ]]></description>
      <Point><coordinates>152.4,-10.5</coordinates></Point>
    </Placemark>
    <Placemark>
      <name>0600 UTC APR 9</name>
      <styleUrl>#db</styleUrl>
      <description><![CDATA[
        <table>
          <tr><td>DB PAUL (SH222024)</td></tr>
          <tr><td><hr></td></tr>
          <tr><td>0600 UTC APR 9, 2024</td></tr>
          <tr><td>Storm Location:</td></tr>
          <tr><td><b>10.9 S, 152.6 E</b></td></tr>
          <tr><td>Min Sea Level Pressure:</td></tr>
          <tr><td>1010 mb / 29.83 in Hg</td></tr>
          <tr><td>Maximum Intensity:</td></tr>
          <tr><td>15 kt / 17 mph / 28 kph</td></tr>
        </table>
      ]]></description>
      <Point><coordinates>152.6,-10.9</coordinates></Point>
    </Placemark>
    <Placemark>
      <name>1200 UTC APR 9</name>
      <styleUrl>#db</styleUrl>
      <description><![CDATA[
        <table>
          <tr><td>DB PAUL (SH222024)</td></tr>
          <tr><td><hr></td></tr>
          <tr><td>1200 UTC APR 9, 2024</td></tr>
          <tr><td>Storm Location:</td></tr>
          <tr><td><b>11.4 S, 152.7 E</b></td></tr>
          <tr><td>Min Sea Level Pressure:</td></tr>
          <tr><td>1008 mb / 29.77 in Hg</td></tr>
          <tr><td>Maximum Intensity:</td></tr>
          <tr><td>20 kt / 23 mph / 37 kph</td></tr>
        </table>
      ]]></description>
      <Point><coordinates>152.7,-11.4</coordinates></Point>
    </Placemark>
    <Placemark>
      <name>1800 UTC APR 9</name>
      <styleUrl>#td</styleUrl>
      <description><![CDATA[
        <table>
          <tr><td>TD PAUL (SH222024)</td></tr>
          <tr><td><hr></td></tr>
          <tr><td>1800 UTC APR 9, 2024</td></tr>
          <tr><td>Storm Location:</td></tr>
          <tr><td><b>11.8 S, 152.4 E</b></td></tr>
          <tr><td>Min Sea Level Pressure:</td></tr>
          <tr><td>1006 mb / 29.71 in Hg</td></tr>
          <tr><td>Maximum Intensity:</td></tr>
          <tr><td>25 kt / 29 mph / 46 kph</td></tr>
        </table>
      ]]></description>
      <Point><coordinates>152.4,-11.8</coordinates></Point>
    </Placemark>
    <Placemark>
      <name>0000 UTC APR 10</name>
      <styleUrl>#td</styleUrl>
      <description><![CDATA[
        <table>
          <tr><td>TD PAUL (SH222024)</td></tr>
          <tr><td><hr></td></tr>
          <tr><td>0000 UTC APR 10, 2024</td></tr>
          <tr><td>Storm Location:</td></tr>
          <tr><td><b>12.3 S, 152.7 E</b></td></tr>
          <tr><td>Min Sea Level Pressure:</td></tr>
          <tr><td>1004 mb / 29.65 in Hg</td></tr>
          <tr><td>Maximum Intensity:</td></tr>
          <tr><td>30 kt / 35 mph / 56 kph</td></tr>
        </table>
      ]]></description>
      <Point><coordinates>152.7,-12.3</coordinates></Point>
    </Placemark>
    <Placemark>
      <name>0600 UTC APR 10</name>
      <styleUrl>#td</styleUrl>
      <description><![CDATA[
        <table>
          <tr><td>TD PAUL (SH222024)</td></tr>
          <tr><td><hr></td></tr>
          <tr><td>0600 UTC APR 10, 2024</td></tr>
          <tr><td>Storm Location:</td></tr>
          <tr><td><b>12.9 S, 153.2 E</b></td></tr>
          <tr><td>Min Sea Level Pressure:</td></tr>
          <tr><td>1003 mb / 29.62 in Hg</td></tr>
          <tr><td>Maximum Intensity:</td></tr>
          <tr><td>30 kt / 35 mph / 56 kph</td></tr>
        </table>
      ]]></description>
      <Point><coordinates>153.2,-12.9</coordinates></Point>
    </Placemark>
    <Placemark>
      <name>1200 UTC APR 10</name>
      <styleUrl>#ts</styleUrl>
      <description><![CDATA[
        <table>
          <tr><td>TS PAUL (SH222024)</td></tr>
          <tr><td><hr></td></tr>
          <tr><td>1200 UTC APR 10, 2024</td></tr>
          <tr><td>Storm Location:</td></tr>
          <tr><td><b>13.3 S, 153.9 E</b></td></tr>
          <tr><td>Min Sea Level Pressure:</td></tr>
          <tr><td>1000 mb / 29.53 in Hg</td></tr>
          <tr><td>Maximum Intensity:</td></tr>
          <tr><td>35 kt / 40 mph / 65 kph</td></tr>
        </table>
      ]]></description>
      <Point><coordinates>153.9,-13.3</coordinates></Point>
    </Placemark>
    <Placemark>
      <name>1800 UTC APR 10</name>
      <styleUrl>#ts</styleUrl>
      <description><![CDATA[
        <table>
          <tr><td>TS PAUL (SH222024)</td></tr>
          <tr><td><hr></td></tr>
          <tr><td>1800 UTC APR 10, 2024</td></tr>
          <tr><td>Storm Location:</td></tr>
          <tr><td><b>13.8 S, 154.4 E</b></td></tr>
          <tr><td>Min Sea Level Pressure:</td></tr>
          <tr><td>998 mb / 29.47 in Hg</td></tr>
          <tr><td>Maximum Intensity:</td></tr>
          <tr><td>40 kt / 46 mph / 74 kph</td></tr>
        </table>
      ]]></description>
      <Point><coordinates>154.4,-13.8</coordinates></Point>
    </Placemark>
    <Placemark>
      <name>0000 UTC APR 11</name>
      <styleUrl>#ts</styleUrl>
      <description><![CDATA[
        <table>
          <tr><td>TS PAUL (SH222024)</td></tr>
          <tr><td><hr></td></tr>
          <tr><td>0000 UTC APR 11, 2024</td></tr>
          <tr><td>Storm Location:</td></tr>
          <tr><td><b>14.2 S, 155.0 E</b></td></tr>
          <tr><td>Min Sea Level Pressure:</td></tr>
          <tr><td>995 mb / 29.38 in Hg</td></tr>
          <tr><td>Maximum Intensity:</td></tr>
          <tr><td>45 kt / 52 mph / 83 kph</td></tr>
        </table>
      ]]></description>
      <Point><coordinates>155,-14.2</coordinates></Point>
    </Placemark>
    <Placemark>
      <name>0600 UTC APR 11</name>
      <styleUrl>#ts</styleUrl>
      <description><![CDATA[
        <table>
          <tr><td>TS PAUL (SH222024)</td></tr>
          <tr><td><hr></td></tr>
          <tr><td>0600 UTC APR 11, 2024</td></tr>
          <tr><td>Storm Location:</td></tr>
          <tr><td><b>14.5 S, 155.5 E</b></td></tr>
          <tr><td>Min Sea Level Pressure:</td></tr>
          <tr><td>993 mb / 29.32 in Hg</td></tr>
          <tr><td>Maximum Intensity:</td></tr>
          <tr><td>50 kt / 58 mph / 93 kph</td></tr>
        </table>
      ]]></description>
      <Point><coordinates>155.5,-14.5</coordinates></Point>
    </Placemark>
    <Placemark>
      <name>1200 UTC APR 11</name>
      <styleUrl>#ts</styleUrl>
      <description><![CDATA[
        <table>
          <tr><td>TS PAUL (SH222024)</td></tr>
          <tr><td><hr></td></tr>
          <tr><td>1200 UTC APR 11, 2024</td></tr>
          <tr><td>Storm Location:</td></tr>
          <tr><td><b>14.9 S, 156.0 E</b></td></tr>
          <tr><td>Min Sea Level Pressure:</td></tr>
          <tr><td>995 mb / 29.38 in Hg</td></tr>
          <tr><td>Maximum Intensity:</td></tr>
          <tr><td>45 kt / 52 mph / 83 kph</td></tr>
        </table>
      ]]></description>
      <Point><coordinates>156,-14.9</coordinates></Point>
    </Placemark>
    <Placemark>
      <name>1800 UTC APR 11</name>
      <styleUrl>#ts</styleUrl>
      <description><![CDATA[
        <table>
          <tr><td>TS PAUL (SH222024)</td></tr>
          <tr><td><hr></td></tr>
          <tr><td>1800 UTC APR 11, 2024</td></tr>
          <tr><td>Storm Location:</td></tr>
          <tr><td><b>14.9 S, 156.4 E</b></td></tr>
          <tr><td>Min Sea Level Pressure:</td></tr>
          <tr><td>998 mb / 29.47 in Hg</td></tr>
          <tr><td>Maximum Intensity:</td></tr>
          <tr><td>40 kt / 46 mph / 74 kph</td></tr>
        </table>
      ]]></description>
      <Point><coordinates>156.4,-14.9</coordinates></Point>
    </Placemark>
    <Placemark>
      <name>0000 UTC APR 12</name>
      <styleUrl>#ts</styleUrl>
      <description><![CDATA[
        <table>
          <tr><td>TS PAUL (SH222024)</td></tr>
          <tr><td><hr></td></tr>
          <tr><td>0000 UTC APR 12, 2024</td></tr>
          <tr><td>Storm Location:</td></tr>
          <tr><td><b>14.6 S, 156.5 E</b></td></tr>
          <tr><td>Min Sea Level Pressure:</td></tr>
          <tr><td>999 mb / 29.50 in Hg</td></tr>
          <tr><td>Maximum Intensity:</td></tr>
          <tr><td>40 kt / 46 mph / 74 kph</td></tr>
        </table>
      ]]></description>
      <Point><coordinates>156.5,-14.6</coordinates></Point>
    </Placemark>
    <Placemark>
      <name>0600 UTC APR 12</name>
      <styleUrl>#td</styleUrl>
      <description><![CDATA[
        <table>
          <tr><td>TD PAUL (SH222024)</td></tr>
          <tr><td><hr></td></tr>
          <tr><td>0600 UTC APR 12, 2024</td></tr>
          <tr><td>Storm Location:</td></tr>
          <tr><td><b>14.1 S, 155.2 E</b></td></tr>
          <tr><td>Min Sea Level Pressure:</td></tr>
          <tr><td>1006 mb / 29.71 in Hg</td></tr>
          <tr><td>Maximum Intensity:</td></tr>
          <tr><td>25 kt / 29 mph / 46 kph</td></tr>
        </table>
      ]]></description>
      <Point><coordinates>155.2,-14.1</coordinates></Point>
    </Placemark>
    <Placemark>
      <name>1200 UTC APR 12</name>
      <styleUrl>#db</styleUrl>
      <description><![CDATA[
        <table>
          <tr><td>DB PAUL (SH222024)</td></tr>
          <tr><td><hr></td></tr>
          <tr><td>1200 UTC APR 12, 2024</td></tr>
          <tr><td>Storm Location:</td></tr>
          <tr><td><b>13.7 S, 154.6 E</b></td></tr>
          <tr><td>Min Sea Level Pressure:</td></tr>
          <tr><td>1008 mb / 29.77 in Hg</td></tr>
          <tr><td>Maximum Intensity:</td></tr>
          <tr><td>20 kt / 23 mph / 37 kph</td></tr>
        </table>
      ]]></description>
      <Point><coordinates>154.6,-13.7</coordinates></Point>
    </Placemark>
    <Placemark>
      <name>1800 UTC APR 12</name>
      <styleUrl>#db</styleUrl>
      <description><![CDATA[
        <table>
          <tr><td>DB PAUL (SH222024)</td></tr>
          <tr><td><hr></td></tr>
          <tr><td>1800 UTC APR 12, 2024</td></tr>
          <tr><td>Storm Location:</td></tr>
          <tr><td><b>13.4 S, 153.6 E</b></td></tr>
          <tr><td>Min Sea Level Pressure:</td></tr>
          <tr><td>1009 mb / 29.80 in Hg</td></tr>
          <tr><td>Maximum Intensity:</td></tr>
          <tr><td>20 kt / 23 mph / 37 kph</td></tr>
        </table>
      ]]></description>
      <Point><coordinates>153.6,-13.4</coordinates></Point>
    </Placemark>
  </Document>
</kml>
