<?xml version="1.0" encoding="UTF-8"?>
<kml xmlns="http://www.opengis.net/kml/2.2">
  <Document>
    <name>SH232024</name>
    <open>0</open>

    <!-- =====  Document header ===== -->
    <description><![CDATA[
      <table>
        <tr><td><b>Title:</b> Tropical Cyclone Best Track for SH232024</td></tr>
      </table>
    ]]></description>

    <!-- =====  Styles (ids must be unique)  ===== -->
	<Style id="pt"> 
		<IconStyle> 
			<scale>1.0</scale> 
			<Icon> 
				<href>ex_nhemi.png</href> 
			</Icon> 
             <hotSpot x="15" y="17" xunits="pixels" yunits="pixels"/>
		</IconStyle> 
		<LabelStyle> 
			<scale>1.0</scale> 
		</LabelStyle> 
	</Style>
	<Style id="cat5"> 
		<IconStyle> 
			<scale>1.0</scale> 
			<Icon> 
				<href>cat5_nhemi.png</href> 
			</Icon> 
             <hotSpot x="15" y="17" xunits="pixels" yunits="pixels"/>
		</IconStyle> 
		<LabelStyle> 
			<scale>1.0</scale> 
		</LabelStyle> 
	</Style>
	<Style id="db"> 
		<IconStyle> 
			<scale>1.0</scale> 
			<Icon> 
				<href>ex_nhemi.png</href> 
			</Icon> 
             <hotSpot x="15" y="17" xunits="pixels" yunits="pixels"/>
		</IconStyle> 
		<LabelStyle> 
			<scale>1.0</scale> 
		</LabelStyle> 
	</Style>
	<Style id="cat3"> 
		<IconStyle> 
			<scale>1.0</scale> 
			<Icon> 
				<href>cat3_nhemi.png</href> 
			</Icon> 
             <hotSpot x="15" y="17" xunits="pixels" yunits="pixels"/>
		</IconStyle> 
		<LabelStyle> 
			<scale>1.0</scale> 
		</LabelStyle> 
	</Style>
	<Style id="ss"> 
		<IconStyle> 
			<scale>1.0</scale> 
			<Icon> 
				<href>ts_nhemi.png</href> 
			</Icon> 
             <hotSpot x="15" y="17" xunits="pixels" yunits="pixels"/>
		</IconStyle> 
		<LabelStyle> 
			<scale>1.0</scale> 
		</LabelStyle> 
	</Style>
	<Style id="lo"> 
		<IconStyle> 
			<scale>1.0</scale> 
			<Icon> 
				<href>ex_nhemi.png</href> 
			</Icon> 
             <hotSpot x="15" y="17" xunits="pixels" yunits="pixels"/>
		</IconStyle> 
		<LabelStyle> 
			<scale>1.0</scale> 
		</LabelStyle> 
	</Style>
	<Style id="cat4"> 
		<IconStyle> 
			<scale>1.0</scale> 
			<Icon> 
				<href>cat4_nhemi.png</href> 
			</Icon> 
             <hotSpot x="15" y="17" xunits="pixels" yunits="pixels"/>
		</IconStyle> 
		<LabelStyle> 
			<scale>1.0</scale> 
		</LabelStyle> 
	</Style>
	<Style id="cat2"> 
		<IconStyle> 
			<scale>1.0</scale> 
			<Icon> 
				<href>cat2_nhemi.png</href> 
			</Icon> 
             <hotSpot x="15" y="17" xunits="pixels" yunits="pixels"/>
		</IconStyle> 
		<LabelStyle> 
			<scale>1.0</scale> 
		</LabelStyle> 
	</Style>
	<Style id="ts"> 
		<IconStyle> 
			<scale>1.0</scale> 
			<Icon> 
				<href>ts_nhemi.png</href> 
			</Icon> 
             <hotSpot x="15" y="17" xunits="pixels" yunits="pixels"/>
		</IconStyle> 
		<LabelStyle> 
			<scale>1.0</scale> 
		</LabelStyle> 
	</Style>
	<Style id="cat1"> 
		<IconStyle> 
			<scale>1.0</scale> 
			<Icon> 
				<href>cat1_nhemi.png</href> 
			</Icon> 
             <hotSpot x="15" y="17" xunits="pixels" yunits="pixels"/>
		</IconStyle> 
		<LabelStyle> 
			<scale>1.0</scale> 
		</LabelStyle> 
	</Style>
	<Style id="ex"> 
		<IconStyle> 
			<scale>1.0</scale> 
			<Icon> 
				<href>ex_nhemi.png</href> 
			</Icon> 
             <hotSpot x="15" y="17" xunits="pixels" yunits="pixels"/>
		</IconStyle> 
		<LabelStyle> 
			<scale>1.0</scale> 
		</LabelStyle> 
	</Style>
	<Style id="tc"> 
		<IconStyle> 
			<scale>1.0</scale> 
			<Icon> 
				<href>ex_nhemi.png</href> 
			</Icon> 
             <hotSpot x="15" y="17" xunits="pixels" yunits="pixels"/>
		</IconStyle> 
		<LabelStyle> 
			<scale>1.0</scale> 
		</LabelStyle> 
	</Style>
	<Style id="wv"> 
		<IconStyle> 
			<scale>1.0</scale> 
			<Icon> 
				<href>ex_nhemi.png</href> 
			</Icon> 
             <hotSpot x="15" y="17" xunits="pixels" yunits="pixels"/>
		</IconStyle> 
		<LabelStyle> 
			<scale>1.0</scale> 
		</LabelStyle> 
	</Style>
	<Style id="td"> 
		<IconStyle> 
			<scale>1.0</scale> 
			<Icon> 
				<href>td_nhemi.png</href> 
			</Icon> 
             <hotSpot x="15" y="17" xunits="pixels" yunits="pixels"/>
		</IconStyle> 
		<LabelStyle> 
			<scale>1.0</scale> 
		</LabelStyle> 
	</Style>
	<Style id="sd"> 
		<IconStyle> 
			<scale>1.0</scale> 
			<Icon> 
				<href>ex_nhemi.png</href> 
			</Icon> 
             <hotSpot x="15" y="17" xunits="pixels" yunits="pixels"/>
		</IconStyle> 
		<LabelStyle> 
			<scale>1.0</scale> 
		</LabelStyle> 
	</Style>

    <Placemark>
      <name>1800 UTC APR 29</name>
      <styleUrl>#db</styleUrl>
      <description><![CDATA[
        <table>
          <tr><td>DB HIDAYA (SH232024)</td></tr>
          <tr><td><hr></td></tr>
          <tr><td>1800 UTC APR 29, 2024</td></tr>
          <tr><td>Storm Location:</td></tr>
          <tr><td><b>6.9 S, 47.4 E</b></td></tr>
          <tr><td>Min Sea Level Pressure:</td></tr>
          <tr><td>1010 mb / 29.83 in Hg</td></tr>
          <tr><td>Maximum Intensity:</td></tr>
          <tr><td>15 kt / 17 mph / 28 kph</td></tr>
        </table>
      ]]></description>
      <Point><coordinates>47.4,-6.9</coordinates></Point>
    </Placemark>
    <Placemark>
      <name>0000 UTC APR 30</name>
      <styleUrl>#db</styleUrl>
      <description><![CDATA[
        <table>
          <tr><td>DB HIDAYA (SH232024)</td></tr>
          <tr><td><hr></td></tr>
          <tr><td>0000 UTC APR 30, 2024</td></tr>
          <tr><td>Storm Location:</td></tr>
          <tr><td><b>6.9 S, 46.5 E</b></td></tr>
          <tr><td>Min Sea Level Pressure:</td></tr>
          <tr><td>1009 mb / 29.80 in Hg</td></tr>
          <tr><td>Maximum Intensity:</td></tr>
          <tr><td>15 kt / 17 mph / 28 kph</td></tr>
        </table>
      ]]></description>
      <Point><coordinates>46.5,-6.9</coordinates></Point>
    </Placemark>
    <Placemark>
      <name>0600 UTC APR 30</name>
      <styleUrl>#db</styleUrl>
      <description><![CDATA[
        <table>
          <tr><td>DB HIDAYA (SH232024)</td></tr>
          <tr><td><hr></td></tr>
          <tr><td>0600 UTC APR 30, 2024</td></tr>
          <tr><td>Storm Location:</td></tr>
          <tr><td><b>7.0 S, 45.9 E</b></td></tr>
          <tr><td>Min Sea Level Pressure:</td></tr>
          <tr><td>1008 mb / 29.77 in Hg</td></tr>
          <tr><td>Maximum Intensity:</td></tr>
          <tr><td>20 kt / 23 mph / 37 kph</td></tr>
        </table>
      ]]></description>
      <Point><coordinates>45.9,-7</coordinates></Point>
    </Placemark>
    <Placemark>
      <name>1200 UTC APR 30</name>
      <styleUrl>#td</styleUrl>
      <description><![CDATA[
        <table>
          <tr><td>TD HIDAYA (SH232024)</td></tr>
          <tr><td><hr></td></tr>
          <tr><td>1200 UTC APR 30, 2024</td></tr>
          <tr><td>Storm Location:</td></tr>
          <tr><td><b>7.6 S, 45.7 E</b></td></tr>
          <tr><td>Min Sea Level Pressure:</td></tr>
          <tr><td>1006 mb / 29.71 in Hg</td></tr>
          <tr><td>Maximum Intensity:</td></tr>
          <tr><td>25 kt / 29 mph / 46 kph</td></tr>
        </table>
      ]]></description>
      <Point><coordinates>45.7,-7.6</coordinates></Point>
    </Placemark>
    <Placemark>
      <name>1800 UTC APR 30</name>
      <styleUrl>#td</styleUrl>
      <description><![CDATA[
        <table>
          <tr><td>TD HIDAYA (SH232024)</td></tr>
          <tr><td><hr></td></tr>
          <tr><td>1800 UTC APR 30, 2024</td></tr>
          <tr><td>Storm Location:</td></tr>
          <tr><td><b>8.0 S, 45.6 E</b></td></tr>
          <tr><td>Min Sea Level Pressure:</td></tr>
          <tr><td>1004 mb / 29.65 in Hg</td></tr>
          <tr><td>Maximum Intensity:</td></tr>
          <tr><td>25 kt / 29 mph / 46 kph</td></tr>
        </table>
      ]]></description>
      <Point><coordinates>45.6,-8</coordinates></Point>
    </Placemark>
    <Placemark>
      <name>0000 UTC MAY 1</name>
      <styleUrl>#td</styleUrl>
      <description><![CDATA[
        <table>
          <tr><td>TD HIDAYA (SH232024)</td></tr>
          <tr><td><hr></td></tr>
          <tr><td>0000 UTC MAY 1, 2024</td></tr>
          <tr><td>Storm Location:</td></tr>
          <tr><td><b>8.4 S, 45.4 E</b></td></tr>
          <tr><td>Min Sea Level Pressure:</td></tr>
          <tr><td>1002 mb / 29.59 in Hg</td></tr>
          <tr><td>Maximum Intensity:</td></tr>
          <tr><td>25 kt / 29 mph / 46 kph</td></tr>
        </table>
      ]]></description>
      <Point><coordinates>45.4,-8.4</coordinates></Point>
    </Placemark>
    <Placemark>
      <name>0600 UTC MAY 1</name>
      <styleUrl>#td</styleUrl>
      <description><![CDATA[
        <table>
          <tr><td>TD HIDAYA (SH232024)</td></tr>
          <tr><td><hr></td></tr>
          <tr><td>0600 UTC MAY 1, 2024</td></tr>
          <tr><td>Storm Location:</td></tr>
          <tr><td><b>8.7 S, 45.2 E</b></td></tr>
          <tr><td>Min Sea Level Pressure:</td></tr>
          <tr><td>999 mb / 29.50 in Hg</td></tr>
          <tr><td>Maximum Intensity:</td></tr>
          <tr><td>30 kt / 35 mph / 56 kph</td></tr>
        </table>
      ]]></description>
      <Point><coordinates>45.2,-8.7</coordinates></Point>
    </Placemark>
    <Placemark>
      <name>1200 UTC MAY 1</name>
      <styleUrl>#ts</styleUrl>
      <description><![CDATA[
        <table>
          <tr><td>TS HIDAYA (SH232024)</td></tr>
          <tr><td><hr></td></tr>
          <tr><td>1200 UTC MAY 1, 2024</td></tr>
          <tr><td>Storm Location:</td></tr>
          <tr><td><b>8.8 S, 45.1 E</b></td></tr>
          <tr><td>Min Sea Level Pressure:</td></tr>
          <tr><td>997 mb / 29.44 in Hg</td></tr>
          <tr><td>Maximum Intensity:</td></tr>
          <tr><td>35 kt / 40 mph / 65 kph</td></tr>
        </table>
      ]]></description>
      <Point><coordinates>45.1,-8.8</coordinates></Point>
    </Placemark>
    <Placemark>
      <name>1800 UTC MAY 1</name>
      <styleUrl>#ts</styleUrl>
      <description><![CDATA[
        <table>
          <tr><td>TS HIDAYA (SH232024)</td></tr>
          <tr><td><hr></td></tr>
          <tr><td>1800 UTC MAY 1, 2024</td></tr>
          <tr><td>Storm Location:</td></tr>
          <tr><td><b>8.8 S, 44.9 E</b></td></tr>
          <tr><td>Min Sea Level Pressure:</td></tr>
          <tr><td>997 mb / 29.44 in Hg</td></tr>
          <tr><td>Maximum Intensity:</td></tr>
          <tr><td>35 kt / 40 mph / 65 kph</td></tr>
        </table>
      ]]></description>
      <Point><coordinates>44.9,-8.8</coordinates></Point>
    </Placemark>
    <Placemark>
      <name>0000 UTC MAY 2</name>
      <styleUrl>#ts</styleUrl>
      <description><![CDATA[
        <table>
          <tr><td>TS HIDAYA (SH232024)</td></tr>
          <tr><td><hr></td></tr>
          <tr><td>0000 UTC MAY 2, 2024</td></tr>
          <tr><td>Storm Location:</td></tr>
          <tr><td><b>8.8 S, 44.4 E</b></td></tr>
          <tr><td>Min Sea Level Pressure:</td></tr>
          <tr><td>996 mb / 29.41 in Hg</td></tr>
          <tr><td>Maximum Intensity:</td></tr>
          <tr><td>40 kt / 46 mph / 74 kph</td></tr>
        </table>
      ]]></description>
      <Point><coordinates>44.4,-8.8</coordinates></Point>
    </Placemark>
    <Placemark>
      <name>0600 UTC MAY 2</name>
      <styleUrl>#ts</styleUrl>
      <description><![CDATA[
        <table>
          <tr><td>TS HIDAYA (SH232024)</td></tr>
          <tr><td><hr></td></tr>
          <tr><td>0600 UTC MAY 2, 2024</td></tr>
          <tr><td>Storm Location:</td></tr>
          <tr><td><b>8.8 S, 44.1 E</b></td></tr>
          <tr><td>Min Sea Level Pressure:</td></tr>
          <tr><td>996 mb / 29.41 in Hg</td></tr>
          <tr><td>Maximum Intensity:</td></tr>
          <tr><td>45 kt / 52 mph / 83 kph</td></tr>
        </table>
      ]]></description>
      <Point><coordinates>44.1,-8.8</coordinates></Point>
    </Placemark>
    <Placemark>
      <name>1200 UTC MAY 2</name>
      <styleUrl>#ts</styleUrl>
      <description><![CDATA[
        <table>
          <tr><td>TS HIDAYA (SH232024)</td></tr>
          <tr><td><hr></td></tr>
          <tr><td>1200 UTC MAY 2, 2024</td></tr>
          <tr><td>Storm Location:</td></tr>
          <tr><td><b>8.8 S, 43.9 E</b></td></tr>
          <tr><td>Min Sea Level Pressure:</td></tr>
          <tr><td>996 mb / 29.41 in Hg</td></tr>
          <tr><td>Maximum Intensity:</td></tr>
          <tr><td>45 kt / 52 mph / 83 kph</td></tr>
        </table>
      ]]></description>
      <Point><coordinates>43.9,-8.8</coordinates></Point>
    </Placemark>
    <Placemark>
      <name>1800 UTC MAY 2</name>
      <styleUrl>#ts</styleUrl>
      <description><![CDATA[
        <table>
          <tr><td>TS HIDAYA (SH232024)</td></tr>
          <tr><td><hr></td></tr>
          <tr><td>1800 UTC MAY 2, 2024</td></tr>
          <tr><td>Storm Location:</td></tr>
          <tr><td><b>8.8 S, 43.7 E</b></td></tr>
          <tr><td>Min Sea Level Pressure:</td></tr>
          <tr><td>987 mb / 29.15 in Hg</td></tr>
          <tr><td>Maximum Intensity:</td></tr>
          <tr><td>60 kt / 69 mph / 111 kph</td></tr>
        </table>
      ]]></description>
      <Point><coordinates>43.7,-8.8</coordinates></Point>
    </Placemark>
    <Placemark>
      <name>0000 UTC MAY 3</name>
      <styleUrl>#cat1</styleUrl>
      <description><![CDATA[
        <table>
          <tr><td>HU HIDAYA (SH232024)</td></tr>
          <tr><td><hr></td></tr>
          <tr><td>0000 UTC MAY 3, 2024</td></tr>
          <tr><td>Storm Location:</td></tr>
          <tr><td><b>8.7 S, 43.2 E</b></td></tr>
          <tr><td>Min Sea Level Pressure:</td></tr>
          <tr><td>979 mb / 28.91 in Hg</td></tr>
          <tr><td>Maximum Intensity:</td></tr>
          <tr><td>75 kt / 86 mph / 139 kph</td></tr>
        </table>
      ]]></description>
      <Point><coordinates>43.2,-8.7</coordinates></Point>
    </Placemark>
    <Placemark>
      <name>0600 UTC MAY 3</name>
      <styleUrl>#cat1</styleUrl>
      <description><![CDATA[
        <table>
          <tr><td>HU HIDAYA (SH232024)</td></tr>
          <tr><td><hr></td></tr>
          <tr><td>0600 UTC MAY 3, 2024</td></tr>
          <tr><td>Storm Location:</td></tr>
          <tr><td><b>8.4 S, 42.3 E</b></td></tr>
          <tr><td>Min Sea Level Pressure:</td></tr>
          <tr><td>977 mb / 28.85 in Hg</td></tr>
          <tr><td>Maximum Intensity:</td></tr>
          <tr><td>80 kt / 92 mph / 148 kph</td></tr>
        </table>
      ]]></description>
      <Point><coordinates>42.3,-8.4</coordinates></Point>
    </Placemark>
    <Placemark>
      <name>1200 UTC MAY 3</name>
      <styleUrl>#cat1</styleUrl>
      <description><![CDATA[
        <table>
          <tr><td>HU HIDAYA (SH232024)</td></tr>
          <tr><td><hr></td></tr>
          <tr><td>1200 UTC MAY 3, 2024</td></tr>
          <tr><td>Storm Location:</td></tr>
          <tr><td><b>8.1 S, 41.4 E</b></td></tr>
          <tr><td>Min Sea Level Pressure:</td></tr>
          <tr><td>979 mb / 28.91 in Hg</td></tr>
          <tr><td>Maximum Intensity:</td></tr>
          <tr><td>75 kt / 86 mph / 139 kph</td></tr>
        </table>
      ]]></description>
      <Point><coordinates>41.4,-8.1</coordinates></Point>
    </Placemark>
    <Placemark>
      <name>1800 UTC MAY 3</name>
      <styleUrl>#cat1</styleUrl>
      <description><![CDATA[
        <table>
          <tr><td>HU HIDAYA (SH232024)</td></tr>
          <tr><td><hr></td></tr>
          <tr><td>1800 UTC MAY 3, 2024</td></tr>
          <tr><td>Storm Location:</td></tr>
          <tr><td><b>8.0 S, 41.1 E</b></td></tr>
          <tr><td>Min Sea Level Pressure:</td></tr>
          <tr><td>985 mb / 29.09 in Hg</td></tr>
          <tr><td>Maximum Intensity:</td></tr>
          <tr><td>70 kt / 81 mph / 130 kph</td></tr>
        </table>
      ]]></description>
      <Point><coordinates>41.1,-8</coordinates></Point>
    </Placemark>
    <Placemark>
      <name>0000 UTC MAY 4</name>
      <styleUrl>#ts</styleUrl>
      <description><![CDATA[
        <table>
          <tr><td>TS HIDAYA (SH232024)</td></tr>
          <tr><td><hr></td></tr>
          <tr><td>0000 UTC MAY 4, 2024</td></tr>
          <tr><td>Storm Location:</td></tr>
          <tr><td><b>7.9 S, 40.6 E</b></td></tr>
          <tr><td>Min Sea Level Pressure:</td></tr>
          <tr><td>990 mb / 29.23 in Hg</td></tr>
          <tr><td>Maximum Intensity:</td></tr>
          <tr><td>60 kt / 69 mph / 111 kph</td></tr>
        </table>
      ]]></description>
      <Point><coordinates>40.6,-7.9</coordinates></Point>
    </Placemark>
    <Placemark>
      <name>0600 UTC MAY 4</name>
      <styleUrl>#ts</styleUrl>
      <description><![CDATA[
        <table>
          <tr><td>TS HIDAYA (SH232024)</td></tr>
          <tr><td><hr></td></tr>
          <tr><td>0600 UTC MAY 4, 2024</td></tr>
          <tr><td>Storm Location:</td></tr>
          <tr><td><b>7.8 S, 39.8 E</b></td></tr>
          <tr><td>Min Sea Level Pressure:</td></tr>
          <tr><td>994 mb / 29.35 in Hg</td></tr>
          <tr><td>Maximum Intensity:</td></tr>
          <tr><td>50 kt / 58 mph / 93 kph</td></tr>
        </table>
      ]]></description>
      <Point><coordinates>39.8,-7.8</coordinates></Point>
    </Placemark>
    <Placemark>
      <name>1200 UTC MAY 4</name>
      <styleUrl>#ts</styleUrl>
      <description><![CDATA[
        <table>
          <tr><td>TS HIDAYA (SH232024)</td></tr>
          <tr><td><hr></td></tr>
          <tr><td>1200 UTC MAY 4, 2024</td></tr>
          <tr><td>Storm Location:</td></tr>
          <tr><td><b>7.7 S, 38.6 E</b></td></tr>
          <tr><td>Min Sea Level Pressure:</td></tr>
          <tr><td>1002 mb / 29.59 in Hg</td></tr>
          <tr><td>Maximum Intensity:</td></tr>
          <tr><td>35 kt / 40 mph / 65 kph</td></tr>
        </table>
      ]]></description>
      <Point><coordinates>38.6,-7.7</coordinates></Point>
    </Placemark>
  </Document>
</kml>
