<?xml version="1.0" encoding="UTF-8"?>
<kml xmlns="http://www.opengis.net/kml/2.2">
  <Document>
    <name>SH242024</name>
    <open>0</open>

    <!-- =====  Document header ===== -->
    <description><![CDATA[
      <table>
        <tr><td><b>Title:</b> Tropical Cyclone Best Track for SH242024</td></tr>
      </table>
    ]]></description>

    <!-- =====  Styles (ids must be unique)  ===== -->
	<Style id="pt"> 
		<IconStyle> 
			<scale>1.0</scale> 
			<Icon> 
				<href>ex_nhemi.png</href> 
			</Icon> 
             <hotSpot x="15" y="17" xunits="pixels" yunits="pixels"/>
		</IconStyle> 
		<LabelStyle> 
			<scale>1.0</scale> 
		</LabelStyle> 
	</Style>
	<Style id="cat5"> 
		<IconStyle> 
			<scale>1.0</scale> 
			<Icon> 
				<href>cat5_nhemi.png</href> 
			</Icon> 
             <hotSpot x="15" y="17" xunits="pixels" yunits="pixels"/>
		</IconStyle> 
		<LabelStyle> 
			<scale>1.0</scale> 
		</LabelStyle> 
	</Style>
	<Style id="db"> 
		<IconStyle> 
			<scale>1.0</scale> 
			<Icon> 
				<href>ex_nhemi.png</href> 
			</Icon> 
             <hotSpot x="15" y="17" xunits="pixels" yunits="pixels"/>
		</IconStyle> 
		<LabelStyle> 
			<scale>1.0</scale> 
		</LabelStyle> 
	</Style>
	<Style id="cat3"> 
		<IconStyle> 
			<scale>1.0</scale> 
			<Icon> 
				<href>cat3_nhemi.png</href> 
			</Icon> 
             <hotSpot x="15" y="17" xunits="pixels" yunits="pixels"/>
		</IconStyle> 
		<LabelStyle> 
			<scale>1.0</scale> 
		</LabelStyle> 
	</Style>
	<Style id="ss"> 
		<IconStyle> 
			<scale>1.0</scale> 
			<Icon> 
				<href>ts_nhemi.png</href> 
			</Icon> 
             <hotSpot x="15" y="17" xunits="pixels" yunits="pixels"/>
		</IconStyle> 
		<LabelStyle> 
			<scale>1.0</scale> 
		</LabelStyle> 
	</Style>
	<Style id="lo"> 
		<IconStyle> 
			<scale>1.0</scale> 
			<Icon> 
				<href>ex_nhemi.png</href> 
			</Icon> 
             <hotSpot x="15" y="17" xunits="pixels" yunits="pixels"/>
		</IconStyle> 
		<LabelStyle> 
			<scale>1.0</scale> 
		</LabelStyle> 
	</Style>
	<Style id="cat4"> 
		<IconStyle> 
			<scale>1.0</scale> 
			<Icon> 
				<href>cat4_nhemi.png</href> 
			</Icon> 
             <hotSpot x="15" y="17" xunits="pixels" yunits="pixels"/>
		</IconStyle> 
		<LabelStyle> 
			<scale>1.0</scale> 
		</LabelStyle> 
	</Style>
	<Style id="cat2"> 
		<IconStyle> 
			<scale>1.0</scale> 
			<Icon> 
				<href>cat2_nhemi.png</href> 
			</Icon> 
             <hotSpot x="15" y="17" xunits="pixels" yunits="pixels"/>
		</IconStyle> 
		<LabelStyle> 
			<scale>1.0</scale> 
		</LabelStyle> 
	</Style>
	<Style id="ts"> 
		<IconStyle> 
			<scale>1.0</scale> 
			<Icon> 
				<href>ts_nhemi.png</href> 
			</Icon> 
             <hotSpot x="15" y="17" xunits="pixels" yunits="pixels"/>
		</IconStyle> 
		<LabelStyle> 
			<scale>1.0</scale> 
		</LabelStyle> 
	</Style>
	<Style id="cat1"> 
		<IconStyle> 
			<scale>1.0</scale> 
			<Icon> 
				<href>cat1_nhemi.png</href> 
			</Icon> 
             <hotSpot x="15" y="17" xunits="pixels" yunits="pixels"/>
		</IconStyle> 
		<LabelStyle> 
			<scale>1.0</scale> 
		</LabelStyle> 
	</Style>
	<Style id="ex"> 
		<IconStyle> 
			<scale>1.0</scale> 
			<Icon> 
				<href>ex_nhemi.png</href> 
			</Icon> 
             <hotSpot x="15" y="17" xunits="pixels" yunits="pixels"/>
		</IconStyle> 
		<LabelStyle> 
			<scale>1.0</scale> 
		</LabelStyle> 
	</Style>
	<Style id="tc"> 
		<IconStyle> 
			<scale>1.0</scale> 
			<Icon> 
				<href>ex_nhemi.png</href> 
			</Icon> 
             <hotSpot x="15" y="17" xunits="pixels" yunits="pixels"/>
		</IconStyle> 
		<LabelStyle> 
			<scale>1.0</scale> 
		</LabelStyle> 
	</Style>
	<Style id="wv"> 
		<IconStyle> 
			<scale>1.0</scale> 
			<Icon> 
				<href>ex_nhemi.png</href> 
			</Icon> 
             <hotSpot x="15" y="17" xunits="pixels" yunits="pixels"/>
		</IconStyle> 
		<LabelStyle> 
			<scale>1.0</scale> 
		</LabelStyle> 
	</Style>
	<Style id="td"> 
		<IconStyle> 
			<scale>1.0</scale> 
			<Icon> 
				<href>td_nhemi.png</href> 
			</Icon> 
             <hotSpot x="15" y="17" xunits="pixels" yunits="pixels"/>
		</IconStyle> 
		<LabelStyle> 
			<scale>1.0</scale> 
		</LabelStyle> 
	</Style>
	<Style id="sd"> 
		<IconStyle> 
			<scale>1.0</scale> 
			<Icon> 
				<href>ex_nhemi.png</href> 
			</Icon> 
             <hotSpot x="15" y="17" xunits="pixels" yunits="pixels"/>
		</IconStyle> 
		<LabelStyle> 
			<scale>1.0</scale> 
		</LabelStyle> 
	</Style>

    <Placemark>
      <name>1800 UTC MAY 13</name>
      <styleUrl>#db</styleUrl>
      <description><![CDATA[
        <table>
          <tr><td>DB IALY (SH242024)</td></tr>
          <tr><td><hr></td></tr>
          <tr><td>1800 UTC MAY 13, 2024</td></tr>
          <tr><td>Storm Location:</td></tr>
          <tr><td><b>8.3 S, 54.7 E</b></td></tr>
          <tr><td>Min Sea Level Pressure:</td></tr>
          <tr><td>1005 mb / 29.68 in Hg</td></tr>
          <tr><td>Maximum Intensity:</td></tr>
          <tr><td>15 kt / 17 mph / 28 kph</td></tr>
        </table>
      ]]></description>
      <Point><coordinates>54.7,-8.3</coordinates></Point>
    </Placemark>
    <Placemark>
      <name>0000 UTC MAY 14</name>
      <styleUrl>#db</styleUrl>
      <description><![CDATA[
        <table>
          <tr><td>DB IALY (SH242024)</td></tr>
          <tr><td><hr></td></tr>
          <tr><td>0000 UTC MAY 14, 2024</td></tr>
          <tr><td>Storm Location:</td></tr>
          <tr><td><b>9.3 S, 54.6 E</b></td></tr>
          <tr><td>Min Sea Level Pressure:</td></tr>
          <tr><td>1002 mb / 29.59 in Hg</td></tr>
          <tr><td>Maximum Intensity:</td></tr>
          <tr><td>20 kt / 23 mph / 37 kph</td></tr>
        </table>
      ]]></description>
      <Point><coordinates>54.6,-9.3</coordinates></Point>
    </Placemark>
    <Placemark>
      <name>0600 UTC MAY 14</name>
      <styleUrl>#db</styleUrl>
      <description><![CDATA[
        <table>
          <tr><td>DB IALY (SH242024)</td></tr>
          <tr><td><hr></td></tr>
          <tr><td>0600 UTC MAY 14, 2024</td></tr>
          <tr><td>Storm Location:</td></tr>
          <tr><td><b>9.6 S, 53.8 E</b></td></tr>
          <tr><td>Min Sea Level Pressure:</td></tr>
          <tr><td>999 mb / 29.50 in Hg</td></tr>
          <tr><td>Maximum Intensity:</td></tr>
          <tr><td>20 kt / 23 mph / 37 kph</td></tr>
        </table>
      ]]></description>
      <Point><coordinates>53.8,-9.6</coordinates></Point>
    </Placemark>
    <Placemark>
      <name>1200 UTC MAY 14</name>
      <styleUrl>#td</styleUrl>
      <description><![CDATA[
        <table>
          <tr><td>TD IALY (SH242024)</td></tr>
          <tr><td><hr></td></tr>
          <tr><td>1200 UTC MAY 14, 2024</td></tr>
          <tr><td>Storm Location:</td></tr>
          <tr><td><b>9.0 S, 53.2 E</b></td></tr>
          <tr><td>Min Sea Level Pressure:</td></tr>
          <tr><td>997 mb / 29.44 in Hg</td></tr>
          <tr><td>Maximum Intensity:</td></tr>
          <tr><td>25 kt / 29 mph / 46 kph</td></tr>
        </table>
      ]]></description>
      <Point><coordinates>53.2,-9</coordinates></Point>
    </Placemark>
    <Placemark>
      <name>1800 UTC MAY 14</name>
      <styleUrl>#td</styleUrl>
      <description><![CDATA[
        <table>
          <tr><td>TD IALY (SH242024)</td></tr>
          <tr><td><hr></td></tr>
          <tr><td>1800 UTC MAY 14, 2024</td></tr>
          <tr><td>Storm Location:</td></tr>
          <tr><td><b>8.4 S, 52.7 E</b></td></tr>
          <tr><td>Min Sea Level Pressure:</td></tr>
          <tr><td>995 mb / 29.38 in Hg</td></tr>
          <tr><td>Maximum Intensity:</td></tr>
          <tr><td>30 kt / 35 mph / 56 kph</td></tr>
        </table>
      ]]></description>
      <Point><coordinates>52.7,-8.4</coordinates></Point>
    </Placemark>
    <Placemark>
      <name>0000 UTC MAY 15</name>
      <styleUrl>#td</styleUrl>
      <description><![CDATA[
        <table>
          <tr><td>TD IALY (SH242024)</td></tr>
          <tr><td><hr></td></tr>
          <tr><td>0000 UTC MAY 15, 2024</td></tr>
          <tr><td>Storm Location:</td></tr>
          <tr><td><b>8.0 S, 52.6 E</b></td></tr>
          <tr><td>Min Sea Level Pressure:</td></tr>
          <tr><td>995 mb / 29.38 in Hg</td></tr>
          <tr><td>Maximum Intensity:</td></tr>
          <tr><td>30 kt / 35 mph / 56 kph</td></tr>
        </table>
      ]]></description>
      <Point><coordinates>52.6,-8</coordinates></Point>
    </Placemark>
    <Placemark>
      <name>0600 UTC MAY 15</name>
      <styleUrl>#td</styleUrl>
      <description><![CDATA[
        <table>
          <tr><td>TD IALY (SH242024)</td></tr>
          <tr><td><hr></td></tr>
          <tr><td>0600 UTC MAY 15, 2024</td></tr>
          <tr><td>Storm Location:</td></tr>
          <tr><td><b>7.8 S, 52.8 E</b></td></tr>
          <tr><td>Min Sea Level Pressure:</td></tr>
          <tr><td>995 mb / 29.38 in Hg</td></tr>
          <tr><td>Maximum Intensity:</td></tr>
          <tr><td>30 kt / 35 mph / 56 kph</td></tr>
        </table>
      ]]></description>
      <Point><coordinates>52.8,-7.8</coordinates></Point>
    </Placemark>
    <Placemark>
      <name>1200 UTC MAY 15</name>
      <styleUrl>#td</styleUrl>
      <description><![CDATA[
        <table>
          <tr><td>TD IALY (SH242024)</td></tr>
          <tr><td><hr></td></tr>
          <tr><td>1200 UTC MAY 15, 2024</td></tr>
          <tr><td>Storm Location:</td></tr>
          <tr><td><b>7.9 S, 53.0 E</b></td></tr>
          <tr><td>Min Sea Level Pressure:</td></tr>
          <tr><td>998 mb / 29.47 in Hg</td></tr>
          <tr><td>Maximum Intensity:</td></tr>
          <tr><td>25 kt / 29 mph / 46 kph</td></tr>
        </table>
      ]]></description>
      <Point><coordinates>53,-7.9</coordinates></Point>
    </Placemark>
    <Placemark>
      <name>1800 UTC MAY 15</name>
      <styleUrl>#td</styleUrl>
      <description><![CDATA[
        <table>
          <tr><td>TD IALY (SH242024)</td></tr>
          <tr><td><hr></td></tr>
          <tr><td>1800 UTC MAY 15, 2024</td></tr>
          <tr><td>Storm Location:</td></tr>
          <tr><td><b>8.1 S, 53.1 E</b></td></tr>
          <tr><td>Min Sea Level Pressure:</td></tr>
          <tr><td>998 mb / 29.47 in Hg</td></tr>
          <tr><td>Maximum Intensity:</td></tr>
          <tr><td>25 kt / 29 mph / 46 kph</td></tr>
        </table>
      ]]></description>
      <Point><coordinates>53.1,-8.1</coordinates></Point>
    </Placemark>
    <Placemark>
      <name>0000 UTC MAY 16</name>
      <styleUrl>#td</styleUrl>
      <description><![CDATA[
        <table>
          <tr><td>TD IALY (SH242024)</td></tr>
          <tr><td><hr></td></tr>
          <tr><td>0000 UTC MAY 16, 2024</td></tr>
          <tr><td>Storm Location:</td></tr>
          <tr><td><b>8.5 S, 53.1 E</b></td></tr>
          <tr><td>Min Sea Level Pressure:</td></tr>
          <tr><td>996 mb / 29.41 in Hg</td></tr>
          <tr><td>Maximum Intensity:</td></tr>
          <tr><td>30 kt / 35 mph / 56 kph</td></tr>
        </table>
      ]]></description>
      <Point><coordinates>53.1,-8.5</coordinates></Point>
    </Placemark>
    <Placemark>
      <name>0600 UTC MAY 16</name>
      <styleUrl>#ts</styleUrl>
      <description><![CDATA[
        <table>
          <tr><td>TS IALY (SH242024)</td></tr>
          <tr><td><hr></td></tr>
          <tr><td>0600 UTC MAY 16, 2024</td></tr>
          <tr><td>Storm Location:</td></tr>
          <tr><td><b>8.8 S, 52.8 E</b></td></tr>
          <tr><td>Min Sea Level Pressure:</td></tr>
          <tr><td>994 mb / 29.35 in Hg</td></tr>
          <tr><td>Maximum Intensity:</td></tr>
          <tr><td>35 kt / 40 mph / 65 kph</td></tr>
        </table>
      ]]></description>
      <Point><coordinates>52.8,-8.8</coordinates></Point>
    </Placemark>
    <Placemark>
      <name>1200 UTC MAY 16</name>
      <styleUrl>#ts</styleUrl>
      <description><![CDATA[
        <table>
          <tr><td>TS IALY (SH242024)</td></tr>
          <tr><td><hr></td></tr>
          <tr><td>1200 UTC MAY 16, 2024</td></tr>
          <tr><td>Storm Location:</td></tr>
          <tr><td><b>9.1 S, 52.5 E</b></td></tr>
          <tr><td>Min Sea Level Pressure:</td></tr>
          <tr><td>994 mb / 29.35 in Hg</td></tr>
          <tr><td>Maximum Intensity:</td></tr>
          <tr><td>35 kt / 40 mph / 65 kph</td></tr>
        </table>
      ]]></description>
      <Point><coordinates>52.5,-9.1</coordinates></Point>
    </Placemark>
    <Placemark>
      <name>1800 UTC MAY 16</name>
      <styleUrl>#ts</styleUrl>
      <description><![CDATA[
        <table>
          <tr><td>TS IALY (SH242024)</td></tr>
          <tr><td><hr></td></tr>
          <tr><td>1800 UTC MAY 16, 2024</td></tr>
          <tr><td>Storm Location:</td></tr>
          <tr><td><b>9.4 S, 52.2 E</b></td></tr>
          <tr><td>Min Sea Level Pressure:</td></tr>
          <tr><td>992 mb / 29.29 in Hg</td></tr>
          <tr><td>Maximum Intensity:</td></tr>
          <tr><td>40 kt / 46 mph / 74 kph</td></tr>
        </table>
      ]]></description>
      <Point><coordinates>52.2,-9.4</coordinates></Point>
    </Placemark>
    <Placemark>
      <name>0000 UTC MAY 17</name>
      <styleUrl>#ts</styleUrl>
      <description><![CDATA[
        <table>
          <tr><td>TS IALY (SH242024)</td></tr>
          <tr><td><hr></td></tr>
          <tr><td>0000 UTC MAY 17, 2024</td></tr>
          <tr><td>Storm Location:</td></tr>
          <tr><td><b>9.2 S, 51.6 E</b></td></tr>
          <tr><td>Min Sea Level Pressure:</td></tr>
          <tr><td>992 mb / 29.29 in Hg</td></tr>
          <tr><td>Maximum Intensity:</td></tr>
          <tr><td>40 kt / 46 mph / 74 kph</td></tr>
        </table>
      ]]></description>
      <Point><coordinates>51.6,-9.2</coordinates></Point>
    </Placemark>
    <Placemark>
      <name>0600 UTC MAY 17</name>
      <styleUrl>#ts</styleUrl>
      <description><![CDATA[
        <table>
          <tr><td>TS IALY (SH242024)</td></tr>
          <tr><td><hr></td></tr>
          <tr><td>0600 UTC MAY 17, 2024</td></tr>
          <tr><td>Storm Location:</td></tr>
          <tr><td><b>9.0 S, 51.0 E</b></td></tr>
          <tr><td>Min Sea Level Pressure:</td></tr>
          <tr><td>992 mb / 29.29 in Hg</td></tr>
          <tr><td>Maximum Intensity:</td></tr>
          <tr><td>40 kt / 46 mph / 74 kph</td></tr>
        </table>
      ]]></description>
      <Point><coordinates>51,-9</coordinates></Point>
    </Placemark>
    <Placemark>
      <name>1200 UTC MAY 17</name>
      <styleUrl>#ts</styleUrl>
      <description><![CDATA[
        <table>
          <tr><td>TS IALY (SH242024)</td></tr>
          <tr><td><hr></td></tr>
          <tr><td>1200 UTC MAY 17, 2024</td></tr>
          <tr><td>Storm Location:</td></tr>
          <tr><td><b>8.7 S, 50.4 E</b></td></tr>
          <tr><td>Min Sea Level Pressure:</td></tr>
          <tr><td>994 mb / 29.35 in Hg</td></tr>
          <tr><td>Maximum Intensity:</td></tr>
          <tr><td>35 kt / 40 mph / 65 kph</td></tr>
        </table>
      ]]></description>
      <Point><coordinates>50.4,-8.7</coordinates></Point>
    </Placemark>
    <Placemark>
      <name>1800 UTC MAY 17</name>
      <styleUrl>#ts</styleUrl>
      <description><![CDATA[
        <table>
          <tr><td>TS IALY (SH242024)</td></tr>
          <tr><td><hr></td></tr>
          <tr><td>1800 UTC MAY 17, 2024</td></tr>
          <tr><td>Storm Location:</td></tr>
          <tr><td><b>8.3 S, 49.8 E</b></td></tr>
          <tr><td>Min Sea Level Pressure:</td></tr>
          <tr><td>992 mb / 29.29 in Hg</td></tr>
          <tr><td>Maximum Intensity:</td></tr>
          <tr><td>40 kt / 46 mph / 74 kph</td></tr>
        </table>
      ]]></description>
      <Point><coordinates>49.8,-8.3</coordinates></Point>
    </Placemark>
    <Placemark>
      <name>0000 UTC MAY 18</name>
      <styleUrl>#ts</styleUrl>
      <description><![CDATA[
        <table>
          <tr><td>TS IALY (SH242024)</td></tr>
          <tr><td><hr></td></tr>
          <tr><td>0000 UTC MAY 18, 2024</td></tr>
          <tr><td>Storm Location:</td></tr>
          <tr><td><b>8.2 S, 49.1 E</b></td></tr>
          <tr><td>Min Sea Level Pressure:</td></tr>
          <tr><td>992 mb / 29.29 in Hg</td></tr>
          <tr><td>Maximum Intensity:</td></tr>
          <tr><td>40 kt / 46 mph / 74 kph</td></tr>
        </table>
      ]]></description>
      <Point><coordinates>49.1,-8.2</coordinates></Point>
    </Placemark>
    <Placemark>
      <name>0600 UTC MAY 18</name>
      <styleUrl>#ts</styleUrl>
      <description><![CDATA[
        <table>
          <tr><td>TS IALY (SH242024)</td></tr>
          <tr><td><hr></td></tr>
          <tr><td>0600 UTC MAY 18, 2024</td></tr>
          <tr><td>Storm Location:</td></tr>
          <tr><td><b>8.0 S, 48.4 E</b></td></tr>
          <tr><td>Min Sea Level Pressure:</td></tr>
          <tr><td>990 mb / 29.23 in Hg</td></tr>
          <tr><td>Maximum Intensity:</td></tr>
          <tr><td>45 kt / 52 mph / 83 kph</td></tr>
        </table>
      ]]></description>
      <Point><coordinates>48.4,-8</coordinates></Point>
    </Placemark>
    <Placemark>
      <name>1200 UTC MAY 18</name>
      <styleUrl>#ts</styleUrl>
      <description><![CDATA[
        <table>
          <tr><td>TS IALY (SH242024)</td></tr>
          <tr><td><hr></td></tr>
          <tr><td>1200 UTC MAY 18, 2024</td></tr>
          <tr><td>Storm Location:</td></tr>
          <tr><td><b>7.9 S, 47.7 E</b></td></tr>
          <tr><td>Min Sea Level Pressure:</td></tr>
          <tr><td>990 mb / 29.23 in Hg</td></tr>
          <tr><td>Maximum Intensity:</td></tr>
          <tr><td>45 kt / 52 mph / 83 kph</td></tr>
        </table>
      ]]></description>
      <Point><coordinates>47.7,-7.9</coordinates></Point>
    </Placemark>
    <Placemark>
      <name>1800 UTC MAY 18</name>
      <styleUrl>#ts</styleUrl>
      <description><![CDATA[
        <table>
          <tr><td>TS IALY (SH242024)</td></tr>
          <tr><td><hr></td></tr>
          <tr><td>1800 UTC MAY 18, 2024</td></tr>
          <tr><td>Storm Location:</td></tr>
          <tr><td><b>7.7 S, 47.1 E</b></td></tr>
          <tr><td>Min Sea Level Pressure:</td></tr>
          <tr><td>988 mb / 29.18 in Hg</td></tr>
          <tr><td>Maximum Intensity:</td></tr>
          <tr><td>50 kt / 58 mph / 93 kph</td></tr>
        </table>
      ]]></description>
      <Point><coordinates>47.1,-7.7</coordinates></Point>
    </Placemark>
    <Placemark>
      <name>0000 UTC MAY 19</name>
      <styleUrl>#ts</styleUrl>
      <description><![CDATA[
        <table>
          <tr><td>TS IALY (SH242024)</td></tr>
          <tr><td><hr></td></tr>
          <tr><td>0000 UTC MAY 19, 2024</td></tr>
          <tr><td>Storm Location:</td></tr>
          <tr><td><b>7.5 S, 46.5 E</b></td></tr>
          <tr><td>Min Sea Level Pressure:</td></tr>
          <tr><td>985 mb / 29.09 in Hg</td></tr>
          <tr><td>Maximum Intensity:</td></tr>
          <tr><td>55 kt / 63 mph / 102 kph</td></tr>
        </table>
      ]]></description>
      <Point><coordinates>46.5,-7.5</coordinates></Point>
    </Placemark>
    <Placemark>
      <name>0300 UTC MAY 19</name>
      <styleUrl>#ts</styleUrl>
      <description><![CDATA[
        <table>
          <tr><td>TS IALY (SH242024)</td></tr>
          <tr><td><hr></td></tr>
          <tr><td>0300 UTC MAY 19, 2024</td></tr>
          <tr><td>Storm Location:</td></tr>
          <tr><td><b>7.4 S, 46.2 E</b></td></tr>
          <tr><td>Min Sea Level Pressure:</td></tr>
          <tr><td>982 mb / 29.00 in Hg</td></tr>
          <tr><td>Maximum Intensity:</td></tr>
          <tr><td>60 kt / 69 mph / 111 kph</td></tr>
        </table>
      ]]></description>
      <Point><coordinates>46.2,-7.4</coordinates></Point>
    </Placemark>
    <Placemark>
      <name>0600 UTC MAY 19</name>
      <styleUrl>#ts</styleUrl>
      <description><![CDATA[
        <table>
          <tr><td>TS IALY (SH242024)</td></tr>
          <tr><td><hr></td></tr>
          <tr><td>0600 UTC MAY 19, 2024</td></tr>
          <tr><td>Storm Location:</td></tr>
          <tr><td><b>7.4 S, 45.9 E</b></td></tr>
          <tr><td>Min Sea Level Pressure:</td></tr>
          <tr><td>984 mb / 29.06 in Hg</td></tr>
          <tr><td>Maximum Intensity:</td></tr>
          <tr><td>55 kt / 63 mph / 102 kph</td></tr>
        </table>
      ]]></description>
      <Point><coordinates>45.9,-7.4</coordinates></Point>
    </Placemark>
    <Placemark>
      <name>1200 UTC MAY 19</name>
      <styleUrl>#ts</styleUrl>
      <description><![CDATA[
        <table>
          <tr><td>TS IALY (SH242024)</td></tr>
          <tr><td><hr></td></tr>
          <tr><td>1200 UTC MAY 19, 2024</td></tr>
          <tr><td>Storm Location:</td></tr>
          <tr><td><b>7.2 S, 45.4 E</b></td></tr>
          <tr><td>Min Sea Level Pressure:</td></tr>
          <tr><td>984 mb / 29.06 in Hg</td></tr>
          <tr><td>Maximum Intensity:</td></tr>
          <tr><td>55 kt / 63 mph / 102 kph</td></tr>
        </table>
      ]]></description>
      <Point><coordinates>45.4,-7.2</coordinates></Point>
    </Placemark>
    <Placemark>
      <name>1800 UTC MAY 19</name>
      <styleUrl>#ts</styleUrl>
      <description><![CDATA[
        <table>
          <tr><td>TS IALY (SH242024)</td></tr>
          <tr><td><hr></td></tr>
          <tr><td>1800 UTC MAY 19, 2024</td></tr>
          <tr><td>Storm Location:</td></tr>
          <tr><td><b>7.0 S, 45.0 E</b></td></tr>
          <tr><td>Min Sea Level Pressure:</td></tr>
          <tr><td>984 mb / 29.06 in Hg</td></tr>
          <tr><td>Maximum Intensity:</td></tr>
          <tr><td>55 kt / 63 mph / 102 kph</td></tr>
        </table>
      ]]></description>
      <Point><coordinates>45,-7</coordinates></Point>
    </Placemark>
    <Placemark>
      <name>0000 UTC MAY 20</name>
      <styleUrl>#ts</styleUrl>
      <description><![CDATA[
        <table>
          <tr><td>TS IALY (SH242024)</td></tr>
          <tr><td><hr></td></tr>
          <tr><td>0000 UTC MAY 20, 2024</td></tr>
          <tr><td>Storm Location:</td></tr>
          <tr><td><b>6.6 S, 44.5 E</b></td></tr>
          <tr><td>Min Sea Level Pressure:</td></tr>
          <tr><td>984 mb / 29.06 in Hg</td></tr>
          <tr><td>Maximum Intensity:</td></tr>
          <tr><td>55 kt / 63 mph / 102 kph</td></tr>
        </table>
      ]]></description>
      <Point><coordinates>44.5,-6.6</coordinates></Point>
    </Placemark>
    <Placemark>
      <name>0600 UTC MAY 20</name>
      <styleUrl>#ts</styleUrl>
      <description><![CDATA[
        <table>
          <tr><td>TS IALY (SH242024)</td></tr>
          <tr><td><hr></td></tr>
          <tr><td>0600 UTC MAY 20, 2024</td></tr>
          <tr><td>Storm Location:</td></tr>
          <tr><td><b>6.3 S, 43.9 E</b></td></tr>
          <tr><td>Min Sea Level Pressure:</td></tr>
          <tr><td>988 mb / 29.18 in Hg</td></tr>
          <tr><td>Maximum Intensity:</td></tr>
          <tr><td>50 kt / 58 mph / 93 kph</td></tr>
        </table>
      ]]></description>
      <Point><coordinates>43.9,-6.3</coordinates></Point>
    </Placemark>
    <Placemark>
      <name>1200 UTC MAY 20</name>
      <styleUrl>#ts</styleUrl>
      <description><![CDATA[
        <table>
          <tr><td>TS IALY (SH242024)</td></tr>
          <tr><td><hr></td></tr>
          <tr><td>1200 UTC MAY 20, 2024</td></tr>
          <tr><td>Storm Location:</td></tr>
          <tr><td><b>5.9 S, 43.6 E</b></td></tr>
          <tr><td>Min Sea Level Pressure:</td></tr>
          <tr><td>990 mb / 29.23 in Hg</td></tr>
          <tr><td>Maximum Intensity:</td></tr>
          <tr><td>45 kt / 52 mph / 83 kph</td></tr>
        </table>
      ]]></description>
      <Point><coordinates>43.6,-5.9</coordinates></Point>
    </Placemark>
    <Placemark>
      <name>1800 UTC MAY 20</name>
      <styleUrl>#ts</styleUrl>
      <description><![CDATA[
        <table>
          <tr><td>TS IALY (SH242024)</td></tr>
          <tr><td><hr></td></tr>
          <tr><td>1800 UTC MAY 20, 2024</td></tr>
          <tr><td>Storm Location:</td></tr>
          <tr><td><b>5.6 S, 43.3 E</b></td></tr>
          <tr><td>Min Sea Level Pressure:</td></tr>
          <tr><td>986 mb / 29.12 in Hg</td></tr>
          <tr><td>Maximum Intensity:</td></tr>
          <tr><td>55 kt / 63 mph / 102 kph</td></tr>
        </table>
      ]]></description>
      <Point><coordinates>43.3,-5.6</coordinates></Point>
    </Placemark>
    <Placemark>
      <name>0000 UTC MAY 21</name>
      <styleUrl>#ts</styleUrl>
      <description><![CDATA[
        <table>
          <tr><td>TS IALY (SH242024)</td></tr>
          <tr><td><hr></td></tr>
          <tr><td>0000 UTC MAY 21, 2024</td></tr>
          <tr><td>Storm Location:</td></tr>
          <tr><td><b>5.3 S, 42.9 E</b></td></tr>
          <tr><td>Min Sea Level Pressure:</td></tr>
          <tr><td>986 mb / 29.12 in Hg</td></tr>
          <tr><td>Maximum Intensity:</td></tr>
          <tr><td>55 kt / 63 mph / 102 kph</td></tr>
        </table>
      ]]></description>
      <Point><coordinates>42.9,-5.3</coordinates></Point>
    </Placemark>
    <Placemark>
      <name>0600 UTC MAY 21</name>
      <styleUrl>#cat1</styleUrl>
      <description><![CDATA[
        <table>
          <tr><td>HU IALY (SH242024)</td></tr>
          <tr><td><hr></td></tr>
          <tr><td>0600 UTC MAY 21, 2024</td></tr>
          <tr><td>Storm Location:</td></tr>
          <tr><td><b>4.9 S, 42.5 E</b></td></tr>
          <tr><td>Min Sea Level Pressure:</td></tr>
          <tr><td>983 mb / 29.03 in Hg</td></tr>
          <tr><td>Maximum Intensity:</td></tr>
          <tr><td>65 kt / 75 mph / 120 kph</td></tr>
        </table>
      ]]></description>
      <Point><coordinates>42.5,-4.9</coordinates></Point>
    </Placemark>
    <Placemark>
      <name>1200 UTC MAY 21</name>
      <styleUrl>#ts</styleUrl>
      <description><![CDATA[
        <table>
          <tr><td>TS IALY (SH242024)</td></tr>
          <tr><td><hr></td></tr>
          <tr><td>1200 UTC MAY 21, 2024</td></tr>
          <tr><td>Storm Location:</td></tr>
          <tr><td><b>4.6 S, 42.0 E</b></td></tr>
          <tr><td>Min Sea Level Pressure:</td></tr>
          <tr><td>985 mb / 29.09 in Hg</td></tr>
          <tr><td>Maximum Intensity:</td></tr>
          <tr><td>60 kt / 69 mph / 111 kph</td></tr>
        </table>
      ]]></description>
      <Point><coordinates>42,-4.6</coordinates></Point>
    </Placemark>
    <Placemark>
      <name>1800 UTC MAY 21</name>
      <styleUrl>#ts</styleUrl>
      <description><![CDATA[
        <table>
          <tr><td>TS IALY (SH242024)</td></tr>
          <tr><td><hr></td></tr>
          <tr><td>1800 UTC MAY 21, 2024</td></tr>
          <tr><td>Storm Location:</td></tr>
          <tr><td><b>4.1 S, 41.9 E</b></td></tr>
          <tr><td>Min Sea Level Pressure:</td></tr>
          <tr><td>985 mb / 29.09 in Hg</td></tr>
          <tr><td>Maximum Intensity:</td></tr>
          <tr><td>60 kt / 69 mph / 111 kph</td></tr>
        </table>
      ]]></description>
      <Point><coordinates>41.9,-4.1</coordinates></Point>
    </Placemark>
    <Placemark>
      <name>0000 UTC MAY 22</name>
      <styleUrl>#ts</styleUrl>
      <description><![CDATA[
        <table>
          <tr><td>TS IALY (SH242024)</td></tr>
          <tr><td><hr></td></tr>
          <tr><td>0000 UTC MAY 22, 2024</td></tr>
          <tr><td>Storm Location:</td></tr>
          <tr><td><b>3.7 S, 41.9 E</b></td></tr>
          <tr><td>Min Sea Level Pressure:</td></tr>
          <tr><td>983 mb / 29.03 in Hg</td></tr>
          <tr><td>Maximum Intensity:</td></tr>
          <tr><td>45 kt / 52 mph / 83 kph</td></tr>
        </table>
      ]]></description>
      <Point><coordinates>41.9,-3.7</coordinates></Point>
    </Placemark>
    <Placemark>
      <name>0600 UTC MAY 22</name>
      <styleUrl>#ts</styleUrl>
      <description><![CDATA[
        <table>
          <tr><td>TS IALY (SH242024)</td></tr>
          <tr><td><hr></td></tr>
          <tr><td>0600 UTC MAY 22, 2024</td></tr>
          <tr><td>Storm Location:</td></tr>
          <tr><td><b>3.4 S, 41.9 E</b></td></tr>
          <tr><td>Min Sea Level Pressure:</td></tr>
          <tr><td>996 mb / 29.41 in Hg</td></tr>
          <tr><td>Maximum Intensity:</td></tr>
          <tr><td>40 kt / 46 mph / 74 kph</td></tr>
        </table>
      ]]></description>
      <Point><coordinates>41.9,-3.4</coordinates></Point>
    </Placemark>
    <Placemark>
      <name>1200 UTC MAY 22</name>
      <styleUrl>#td</styleUrl>
      <description><![CDATA[
        <table>
          <tr><td>TD IALY (SH242024)</td></tr>
          <tr><td><hr></td></tr>
          <tr><td>1200 UTC MAY 22, 2024</td></tr>
          <tr><td>Storm Location:</td></tr>
          <tr><td><b>3.1 S, 41.8 E</b></td></tr>
          <tr><td>Min Sea Level Pressure:</td></tr>
          <tr><td>1000 mb / 29.53 in Hg</td></tr>
          <tr><td>Maximum Intensity:</td></tr>
          <tr><td>30 kt / 35 mph / 56 kph</td></tr>
        </table>
      ]]></description>
      <Point><coordinates>41.8,-3.1</coordinates></Point>
    </Placemark>
  </Document>
</kml>
