<?xml version="1.0" encoding="UTF-8"?>
<kml xmlns="http://www.opengis.net/kml/2.2">
  <Document>
    <name>WP012024</name>
    <open>0</open>

    <!-- =====  Document header ===== -->
    <description><![CDATA[
      <table>
        <tr><td><b>Title:</b> Tropical Cyclone Best Track for WP012024</td></tr>
      </table>
    ]]></description>

    <!-- =====  Styles (ids must be unique)  ===== -->
	<Style id="pt"> 
		<IconStyle> 
			<scale>1.0</scale> 
			<Icon> 
				<href>ex_nhemi.png</href> 
			</Icon> 
             <hotSpot x="15" y="17" xunits="pixels" yunits="pixels"/>
		</IconStyle> 
		<LabelStyle> 
			<scale>1.0</scale> 
		</LabelStyle> 
	</Style>
	<Style id="cat5"> 
		<IconStyle> 
			<scale>1.0</scale> 
			<Icon> 
				<href>cat5_nhemi.png</href> 
			</Icon> 
             <hotSpot x="15" y="17" xunits="pixels" yunits="pixels"/>
		</IconStyle> 
		<LabelStyle> 
			<scale>1.0</scale> 
		</LabelStyle> 
	</Style>
	<Style id="db"> 
		<IconStyle> 
			<scale>1.0</scale> 
			<Icon> 
				<href>ex_nhemi.png</href> 
			</Icon> 
             <hotSpot x="15" y="17" xunits="pixels" yunits="pixels"/>
		</IconStyle> 
		<LabelStyle> 
			<scale>1.0</scale> 
		</LabelStyle> 
	</Style>
	<Style id="cat3"> 
		<IconStyle> 
			<scale>1.0</scale> 
			<Icon> 
				<href>cat3_nhemi.png</href> 
			</Icon> 
             <hotSpot x="15" y="17" xunits="pixels" yunits="pixels"/>
		</IconStyle> 
		<LabelStyle> 
			<scale>1.0</scale> 
		</LabelStyle> 
	</Style>
	<Style id="ss"> 
		<IconStyle> 
			<scale>1.0</scale> 
			<Icon> 
				<href>ts_nhemi.png</href> 
			</Icon> 
             <hotSpot x="15" y="17" xunits="pixels" yunits="pixels"/>
		</IconStyle> 
		<LabelStyle> 
			<scale>1.0</scale> 
		</LabelStyle> 
	</Style>
	<Style id="lo"> 
		<IconStyle> 
			<scale>1.0</scale> 
			<Icon> 
				<href>ex_nhemi.png</href> 
			</Icon> 
             <hotSpot x="15" y="17" xunits="pixels" yunits="pixels"/>
		</IconStyle> 
		<LabelStyle> 
			<scale>1.0</scale> 
		</LabelStyle> 
	</Style>
	<Style id="cat4"> 
		<IconStyle> 
			<scale>1.0</scale> 
			<Icon> 
				<href>cat4_nhemi.png</href> 
			</Icon> 
             <hotSpot x="15" y="17" xunits="pixels" yunits="pixels"/>
		</IconStyle> 
		<LabelStyle> 
			<scale>1.0</scale> 
		</LabelStyle> 
	</Style>
	<Style id="cat2"> 
		<IconStyle> 
			<scale>1.0</scale> 
			<Icon> 
				<href>cat2_nhemi.png</href> 
			</Icon> 
             <hotSpot x="15" y="17" xunits="pixels" yunits="pixels"/>
		</IconStyle> 
		<LabelStyle> 
			<scale>1.0</scale> 
		</LabelStyle> 
	</Style>
	<Style id="ts"> 
		<IconStyle> 
			<scale>1.0</scale> 
			<Icon> 
				<href>ts_nhemi.png</href> 
			</Icon> 
             <hotSpot x="15" y="17" xunits="pixels" yunits="pixels"/>
		</IconStyle> 
		<LabelStyle> 
			<scale>1.0</scale> 
		</LabelStyle> 
	</Style>
	<Style id="cat1"> 
		<IconStyle> 
			<scale>1.0</scale> 
			<Icon> 
				<href>cat1_nhemi.png</href> 
			</Icon> 
             <hotSpot x="15" y="17" xunits="pixels" yunits="pixels"/>
		</IconStyle> 
		<LabelStyle> 
			<scale>1.0</scale> 
		</LabelStyle> 
	</Style>
	<Style id="ex"> 
		<IconStyle> 
			<scale>1.0</scale> 
			<Icon> 
				<href>ex_nhemi.png</href> 
			</Icon> 
             <hotSpot x="15" y="17" xunits="pixels" yunits="pixels"/>
		</IconStyle> 
		<LabelStyle> 
			<scale>1.0</scale> 
		</LabelStyle> 
	</Style>
	<Style id="tc"> 
		<IconStyle> 
			<scale>1.0</scale> 
			<Icon> 
				<href>ex_nhemi.png</href> 
			</Icon> 
             <hotSpot x="15" y="17" xunits="pixels" yunits="pixels"/>
		</IconStyle> 
		<LabelStyle> 
			<scale>1.0</scale> 
		</LabelStyle> 
	</Style>
	<Style id="wv"> 
		<IconStyle> 
			<scale>1.0</scale> 
			<Icon> 
				<href>ex_nhemi.png</href> 
			</Icon> 
             <hotSpot x="15" y="17" xunits="pixels" yunits="pixels"/>
		</IconStyle> 
		<LabelStyle> 
			<scale>1.0</scale> 
		</LabelStyle> 
	</Style>
	<Style id="td"> 
		<IconStyle> 
			<scale>1.0</scale> 
			<Icon> 
				<href>td_nhemi.png</href> 
			</Icon> 
             <hotSpot x="15" y="17" xunits="pixels" yunits="pixels"/>
		</IconStyle> 
		<LabelStyle> 
			<scale>1.0</scale> 
		</LabelStyle> 
	</Style>
	<Style id="sd"> 
		<IconStyle> 
			<scale>1.0</scale> 
			<Icon> 
				<href>ex_nhemi.png</href> 
			</Icon> 
             <hotSpot x="15" y="17" xunits="pixels" yunits="pixels"/>
		</IconStyle> 
		<LabelStyle> 
			<scale>1.0</scale> 
		</LabelStyle> 
	</Style>

    <Placemark>
      <name>0000 UTC MAY 20</name>
      <styleUrl>#db</styleUrl>
      <description><![CDATA[
        <table>
          <tr><td>DB EWINIAR (WP012024)</td></tr>
          <tr><td><hr></td></tr>
          <tr><td>0000 UTC MAY 20, 2024</td></tr>
          <tr><td>Storm Location:</td></tr>
          <tr><td><b>2.5 N, 142.2 E</b></td></tr>
          <tr><td>Min Sea Level Pressure:</td></tr>
          <tr><td>1014 mb / 29.94 in Hg</td></tr>
          <tr><td>Maximum Intensity:</td></tr>
          <tr><td>10 kt / 12 mph / 19 kph</td></tr>
        </table>
      ]]></description>
      <Point><coordinates>142.2,2.5</coordinates></Point>
    </Placemark>
    <Placemark>
      <name>0600 UTC MAY 20</name>
      <styleUrl>#db</styleUrl>
      <description><![CDATA[
        <table>
          <tr><td>DB EWINIAR (WP012024)</td></tr>
          <tr><td><hr></td></tr>
          <tr><td>0600 UTC MAY 20, 2024</td></tr>
          <tr><td>Storm Location:</td></tr>
          <tr><td><b>2.2 N, 140.9 E</b></td></tr>
          <tr><td>Min Sea Level Pressure:</td></tr>
          <tr><td>1014 mb / 29.94 in Hg</td></tr>
          <tr><td>Maximum Intensity:</td></tr>
          <tr><td>10 kt / 12 mph / 19 kph</td></tr>
        </table>
      ]]></description>
      <Point><coordinates>140.9,2.2</coordinates></Point>
    </Placemark>
    <Placemark>
      <name>1200 UTC MAY 20</name>
      <styleUrl>#db</styleUrl>
      <description><![CDATA[
        <table>
          <tr><td>DB EWINIAR (WP012024)</td></tr>
          <tr><td><hr></td></tr>
          <tr><td>1200 UTC MAY 20, 2024</td></tr>
          <tr><td>Storm Location:</td></tr>
          <tr><td><b>1.9 N, 139.7 E</b></td></tr>
          <tr><td>Min Sea Level Pressure:</td></tr>
          <tr><td>1012 mb / 29.88 in Hg</td></tr>
          <tr><td>Maximum Intensity:</td></tr>
          <tr><td>15 kt / 17 mph / 28 kph</td></tr>
        </table>
      ]]></description>
      <Point><coordinates>139.7,1.9</coordinates></Point>
    </Placemark>
    <Placemark>
      <name>1800 UTC MAY 20</name>
      <styleUrl>#db</styleUrl>
      <description><![CDATA[
        <table>
          <tr><td>DB EWINIAR (WP012024)</td></tr>
          <tr><td><hr></td></tr>
          <tr><td>1800 UTC MAY 20, 2024</td></tr>
          <tr><td>Storm Location:</td></tr>
          <tr><td><b>2.6 N, 138.9 E</b></td></tr>
          <tr><td>Min Sea Level Pressure:</td></tr>
          <tr><td>1011 mb / 29.85 in Hg</td></tr>
          <tr><td>Maximum Intensity:</td></tr>
          <tr><td>15 kt / 17 mph / 28 kph</td></tr>
        </table>
      ]]></description>
      <Point><coordinates>138.9,2.6</coordinates></Point>
    </Placemark>
    <Placemark>
      <name>0000 UTC MAY 21</name>
      <styleUrl>#db</styleUrl>
      <description><![CDATA[
        <table>
          <tr><td>DB EWINIAR (WP012024)</td></tr>
          <tr><td><hr></td></tr>
          <tr><td>0000 UTC MAY 21, 2024</td></tr>
          <tr><td>Storm Location:</td></tr>
          <tr><td><b>3.1 N, 138.1 E</b></td></tr>
          <tr><td>Min Sea Level Pressure:</td></tr>
          <tr><td>1008 mb / 29.77 in Hg</td></tr>
          <tr><td>Maximum Intensity:</td></tr>
          <tr><td>15 kt / 17 mph / 28 kph</td></tr>
        </table>
      ]]></description>
      <Point><coordinates>138.1,3.1</coordinates></Point>
    </Placemark>
    <Placemark>
      <name>0600 UTC MAY 21</name>
      <styleUrl>#db</styleUrl>
      <description><![CDATA[
        <table>
          <tr><td>DB EWINIAR (WP012024)</td></tr>
          <tr><td><hr></td></tr>
          <tr><td>0600 UTC MAY 21, 2024</td></tr>
          <tr><td>Storm Location:</td></tr>
          <tr><td><b>3.7 N, 137.5 E</b></td></tr>
          <tr><td>Min Sea Level Pressure:</td></tr>
          <tr><td>1006 mb / 29.71 in Hg</td></tr>
          <tr><td>Maximum Intensity:</td></tr>
          <tr><td>15 kt / 17 mph / 28 kph</td></tr>
        </table>
      ]]></description>
      <Point><coordinates>137.5,3.7</coordinates></Point>
    </Placemark>
    <Placemark>
      <name>1200 UTC MAY 21</name>
      <styleUrl>#db</styleUrl>
      <description><![CDATA[
        <table>
          <tr><td>DB EWINIAR (WP012024)</td></tr>
          <tr><td><hr></td></tr>
          <tr><td>1200 UTC MAY 21, 2024</td></tr>
          <tr><td>Storm Location:</td></tr>
          <tr><td><b>4.2 N, 136.9 E</b></td></tr>
          <tr><td>Min Sea Level Pressure:</td></tr>
          <tr><td>1005 mb / 29.68 in Hg</td></tr>
          <tr><td>Maximum Intensity:</td></tr>
          <tr><td>15 kt / 17 mph / 28 kph</td></tr>
        </table>
      ]]></description>
      <Point><coordinates>136.9,4.2</coordinates></Point>
    </Placemark>
    <Placemark>
      <name>1800 UTC MAY 21</name>
      <styleUrl>#db</styleUrl>
      <description><![CDATA[
        <table>
          <tr><td>DB EWINIAR (WP012024)</td></tr>
          <tr><td><hr></td></tr>
          <tr><td>1800 UTC MAY 21, 2024</td></tr>
          <tr><td>Storm Location:</td></tr>
          <tr><td><b>4.6 N, 136.4 E</b></td></tr>
          <tr><td>Min Sea Level Pressure:</td></tr>
          <tr><td>1004 mb / 29.65 in Hg</td></tr>
          <tr><td>Maximum Intensity:</td></tr>
          <tr><td>15 kt / 17 mph / 28 kph</td></tr>
        </table>
      ]]></description>
      <Point><coordinates>136.4,4.6</coordinates></Point>
    </Placemark>
    <Placemark>
      <name>0000 UTC MAY 22</name>
      <styleUrl>#db</styleUrl>
      <description><![CDATA[
        <table>
          <tr><td>DB EWINIAR (WP012024)</td></tr>
          <tr><td><hr></td></tr>
          <tr><td>0000 UTC MAY 22, 2024</td></tr>
          <tr><td>Storm Location:</td></tr>
          <tr><td><b>5.1 N, 135.9 E</b></td></tr>
          <tr><td>Min Sea Level Pressure:</td></tr>
          <tr><td>1002 mb / 29.59 in Hg</td></tr>
          <tr><td>Maximum Intensity:</td></tr>
          <tr><td>15 kt / 17 mph / 28 kph</td></tr>
        </table>
      ]]></description>
      <Point><coordinates>135.9,5.1</coordinates></Point>
    </Placemark>
    <Placemark>
      <name>0600 UTC MAY 22</name>
      <styleUrl>#db</styleUrl>
      <description><![CDATA[
        <table>
          <tr><td>DB EWINIAR (WP012024)</td></tr>
          <tr><td><hr></td></tr>
          <tr><td>0600 UTC MAY 22, 2024</td></tr>
          <tr><td>Storm Location:</td></tr>
          <tr><td><b>5.3 N, 135.1 E</b></td></tr>
          <tr><td>Min Sea Level Pressure:</td></tr>
          <tr><td>1000 mb / 29.53 in Hg</td></tr>
          <tr><td>Maximum Intensity:</td></tr>
          <tr><td>20 kt / 23 mph / 37 kph</td></tr>
        </table>
      ]]></description>
      <Point><coordinates>135.1,5.3</coordinates></Point>
    </Placemark>
    <Placemark>
      <name>1200 UTC MAY 22</name>
      <styleUrl>#db</styleUrl>
      <description><![CDATA[
        <table>
          <tr><td>DB EWINIAR (WP012024)</td></tr>
          <tr><td><hr></td></tr>
          <tr><td>1200 UTC MAY 22, 2024</td></tr>
          <tr><td>Storm Location:</td></tr>
          <tr><td><b>5.4 N, 134.3 E</b></td></tr>
          <tr><td>Min Sea Level Pressure:</td></tr>
          <tr><td>1001 mb / 29.56 in Hg</td></tr>
          <tr><td>Maximum Intensity:</td></tr>
          <tr><td>20 kt / 23 mph / 37 kph</td></tr>
        </table>
      ]]></description>
      <Point><coordinates>134.3,5.4</coordinates></Point>
    </Placemark>
    <Placemark>
      <name>1800 UTC MAY 22</name>
      <styleUrl>#db</styleUrl>
      <description><![CDATA[
        <table>
          <tr><td>DB EWINIAR (WP012024)</td></tr>
          <tr><td><hr></td></tr>
          <tr><td>1800 UTC MAY 22, 2024</td></tr>
          <tr><td>Storm Location:</td></tr>
          <tr><td><b>5.6 N, 133.6 E</b></td></tr>
          <tr><td>Min Sea Level Pressure:</td></tr>
          <tr><td>1001 mb / 29.56 in Hg</td></tr>
          <tr><td>Maximum Intensity:</td></tr>
          <tr><td>20 kt / 23 mph / 37 kph</td></tr>
        </table>
      ]]></description>
      <Point><coordinates>133.6,5.6</coordinates></Point>
    </Placemark>
    <Placemark>
      <name>0000 UTC MAY 23</name>
      <styleUrl>#db</styleUrl>
      <description><![CDATA[
        <table>
          <tr><td>DB EWINIAR (WP012024)</td></tr>
          <tr><td><hr></td></tr>
          <tr><td>0000 UTC MAY 23, 2024</td></tr>
          <tr><td>Storm Location:</td></tr>
          <tr><td><b>5.8 N, 132.9 E</b></td></tr>
          <tr><td>Min Sea Level Pressure:</td></tr>
          <tr><td>1001 mb / 29.56 in Hg</td></tr>
          <tr><td>Maximum Intensity:</td></tr>
          <tr><td>20 kt / 23 mph / 37 kph</td></tr>
        </table>
      ]]></description>
      <Point><coordinates>132.9,5.8</coordinates></Point>
    </Placemark>
    <Placemark>
      <name>0600 UTC MAY 23</name>
      <styleUrl>#db</styleUrl>
      <description><![CDATA[
        <table>
          <tr><td>DB EWINIAR (WP012024)</td></tr>
          <tr><td><hr></td></tr>
          <tr><td>0600 UTC MAY 23, 2024</td></tr>
          <tr><td>Storm Location:</td></tr>
          <tr><td><b>6.9 N, 132.5 E</b></td></tr>
          <tr><td>Min Sea Level Pressure:</td></tr>
          <tr><td>1001 mb / 29.56 in Hg</td></tr>
          <tr><td>Maximum Intensity:</td></tr>
          <tr><td>20 kt / 23 mph / 37 kph</td></tr>
        </table>
      ]]></description>
      <Point><coordinates>132.5,6.9</coordinates></Point>
    </Placemark>
    <Placemark>
      <name>1200 UTC MAY 23</name>
      <styleUrl>#pt</styleUrl>
      <description><![CDATA[
        <table>
          <tr><td>XX EWINIAR (WP012024)</td></tr>
          <tr><td><hr></td></tr>
          <tr><td>1200 UTC MAY 23, 2024</td></tr>
          <tr><td>Storm Location:</td></tr>
          <tr><td><b>7.8 N, 130.8 E</b></td></tr>
          <tr><td>Min Sea Level Pressure:</td></tr>
          <tr><td>1001 mb / 29.56 in Hg</td></tr>
          <tr><td>Maximum Intensity:</td></tr>
          <tr><td>20 kt / 23 mph / 37 kph</td></tr>
        </table>
      ]]></description>
      <Point><coordinates>130.8,7.8</coordinates></Point>
    </Placemark>
    <Placemark>
      <name>1800 UTC MAY 23</name>
      <styleUrl>#db</styleUrl>
      <description><![CDATA[
        <table>
          <tr><td>DB EWINIAR (WP012024)</td></tr>
          <tr><td><hr></td></tr>
          <tr><td>1800 UTC MAY 23, 2024</td></tr>
          <tr><td>Storm Location:</td></tr>
          <tr><td><b>8.1 N, 129.1 E</b></td></tr>
          <tr><td>Min Sea Level Pressure:</td></tr>
          <tr><td>999 mb / 29.50 in Hg</td></tr>
          <tr><td>Maximum Intensity:</td></tr>
          <tr><td>20 kt / 23 mph / 37 kph</td></tr>
        </table>
      ]]></description>
      <Point><coordinates>129.1,8.1</coordinates></Point>
    </Placemark>
    <Placemark>
      <name>0000 UTC MAY 24</name>
      <styleUrl>#db</styleUrl>
      <description><![CDATA[
        <table>
          <tr><td>DB EWINIAR (WP012024)</td></tr>
          <tr><td><hr></td></tr>
          <tr><td>0000 UTC MAY 24, 2024</td></tr>
          <tr><td>Storm Location:</td></tr>
          <tr><td><b>8.4 N, 127.6 E</b></td></tr>
          <tr><td>Min Sea Level Pressure:</td></tr>
          <tr><td>1001 mb / 29.56 in Hg</td></tr>
          <tr><td>Maximum Intensity:</td></tr>
          <tr><td>20 kt / 23 mph / 37 kph</td></tr>
        </table>
      ]]></description>
      <Point><coordinates>127.6,8.4</coordinates></Point>
    </Placemark>
    <Placemark>
      <name>0600 UTC MAY 24</name>
      <styleUrl>#db</styleUrl>
      <description><![CDATA[
        <table>
          <tr><td>DB EWINIAR (WP012024)</td></tr>
          <tr><td><hr></td></tr>
          <tr><td>0600 UTC MAY 24, 2024</td></tr>
          <tr><td>Storm Location:</td></tr>
          <tr><td><b>9.4 N, 126.9 E</b></td></tr>
          <tr><td>Min Sea Level Pressure:</td></tr>
          <tr><td>1000 mb / 29.53 in Hg</td></tr>
          <tr><td>Maximum Intensity:</td></tr>
          <tr><td>20 kt / 23 mph / 37 kph</td></tr>
        </table>
      ]]></description>
      <Point><coordinates>126.9,9.4</coordinates></Point>
    </Placemark>
    <Placemark>
      <name>1200 UTC MAY 24</name>
      <styleUrl>#td</styleUrl>
      <description><![CDATA[
        <table>
          <tr><td>TD EWINIAR (WP012024)</td></tr>
          <tr><td><hr></td></tr>
          <tr><td>1200 UTC MAY 24, 2024</td></tr>
          <tr><td>Storm Location:</td></tr>
          <tr><td><b>10.4 N, 126.1 E</b></td></tr>
          <tr><td>Min Sea Level Pressure:</td></tr>
          <tr><td>998 mb / 29.47 in Hg</td></tr>
          <tr><td>Maximum Intensity:</td></tr>
          <tr><td>25 kt / 29 mph / 46 kph</td></tr>
        </table>
      ]]></description>
      <Point><coordinates>126.1,10.4</coordinates></Point>
    </Placemark>
    <Placemark>
      <name>1800 UTC MAY 24</name>
      <styleUrl>#td</styleUrl>
      <description><![CDATA[
        <table>
          <tr><td>TD EWINIAR (WP012024)</td></tr>
          <tr><td><hr></td></tr>
          <tr><td>1800 UTC MAY 24, 2024</td></tr>
          <tr><td>Storm Location:</td></tr>
          <tr><td><b>11.3 N, 125.0 E</b></td></tr>
          <tr><td>Min Sea Level Pressure:</td></tr>
          <tr><td>997 mb / 29.44 in Hg</td></tr>
          <tr><td>Maximum Intensity:</td></tr>
          <tr><td>25 kt / 29 mph / 46 kph</td></tr>
        </table>
      ]]></description>
      <Point><coordinates>125,11.3</coordinates></Point>
    </Placemark>
    <Placemark>
      <name>0000 UTC MAY 25</name>
      <styleUrl>#td</styleUrl>
      <description><![CDATA[
        <table>
          <tr><td>TD EWINIAR (WP012024)</td></tr>
          <tr><td><hr></td></tr>
          <tr><td>0000 UTC MAY 25, 2024</td></tr>
          <tr><td>Storm Location:</td></tr>
          <tr><td><b>12.3 N, 123.8 E</b></td></tr>
          <tr><td>Min Sea Level Pressure:</td></tr>
          <tr><td>996 mb / 29.41 in Hg</td></tr>
          <tr><td>Maximum Intensity:</td></tr>
          <tr><td>30 kt / 35 mph / 56 kph</td></tr>
        </table>
      ]]></description>
      <Point><coordinates>123.8,12.3</coordinates></Point>
    </Placemark>
    <Placemark>
      <name>0600 UTC MAY 25</name>
      <styleUrl>#ts</styleUrl>
      <description><![CDATA[
        <table>
          <tr><td>TS EWINIAR (WP012024)</td></tr>
          <tr><td><hr></td></tr>
          <tr><td>0600 UTC MAY 25, 2024</td></tr>
          <tr><td>Storm Location:</td></tr>
          <tr><td><b>12.7 N, 122.8 E</b></td></tr>
          <tr><td>Min Sea Level Pressure:</td></tr>
          <tr><td>1003 mb / 29.62 in Hg</td></tr>
          <tr><td>Maximum Intensity:</td></tr>
          <tr><td>35 kt / 40 mph / 65 kph</td></tr>
        </table>
      ]]></description>
      <Point><coordinates>122.8,12.7</coordinates></Point>
    </Placemark>
    <Placemark>
      <name>1200 UTC MAY 25</name>
      <styleUrl>#ts</styleUrl>
      <description><![CDATA[
        <table>
          <tr><td>TS EWINIAR (WP012024)</td></tr>
          <tr><td><hr></td></tr>
          <tr><td>1200 UTC MAY 25, 2024</td></tr>
          <tr><td>Storm Location:</td></tr>
          <tr><td><b>13.2 N, 122.3 E</b></td></tr>
          <tr><td>Min Sea Level Pressure:</td></tr>
          <tr><td>993 mb / 29.32 in Hg</td></tr>
          <tr><td>Maximum Intensity:</td></tr>
          <tr><td>45 kt / 52 mph / 83 kph</td></tr>
        </table>
      ]]></description>
      <Point><coordinates>122.3,13.2</coordinates></Point>
    </Placemark>
    <Placemark>
      <name>1800 UTC MAY 25</name>
      <styleUrl>#ts</styleUrl>
      <description><![CDATA[
        <table>
          <tr><td>TS EWINIAR (WP012024)</td></tr>
          <tr><td><hr></td></tr>
          <tr><td>1800 UTC MAY 25, 2024</td></tr>
          <tr><td>Storm Location:</td></tr>
          <tr><td><b>13.6 N, 121.9 E</b></td></tr>
          <tr><td>Min Sea Level Pressure:</td></tr>
          <tr><td>992 mb / 29.29 in Hg</td></tr>
          <tr><td>Maximum Intensity:</td></tr>
          <tr><td>50 kt / 58 mph / 93 kph</td></tr>
        </table>
      ]]></description>
      <Point><coordinates>121.9,13.6</coordinates></Point>
    </Placemark>
    <Placemark>
      <name>0000 UTC MAY 26</name>
      <styleUrl>#ts</styleUrl>
      <description><![CDATA[
        <table>
          <tr><td>TS EWINIAR (WP012024)</td></tr>
          <tr><td><hr></td></tr>
          <tr><td>0000 UTC MAY 26, 2024</td></tr>
          <tr><td>Storm Location:</td></tr>
          <tr><td><b>14.0 N, 121.4 E</b></td></tr>
          <tr><td>Min Sea Level Pressure:</td></tr>
          <tr><td>990 mb / 29.23 in Hg</td></tr>
          <tr><td>Maximum Intensity:</td></tr>
          <tr><td>55 kt / 63 mph / 102 kph</td></tr>
        </table>
      ]]></description>
      <Point><coordinates>121.4,14</coordinates></Point>
    </Placemark>
    <Placemark>
      <name>0600 UTC MAY 26</name>
      <styleUrl>#ts</styleUrl>
      <description><![CDATA[
        <table>
          <tr><td>TS EWINIAR (WP012024)</td></tr>
          <tr><td><hr></td></tr>
          <tr><td>0600 UTC MAY 26, 2024</td></tr>
          <tr><td>Storm Location:</td></tr>
          <tr><td><b>14.4 N, 121.8 E</b></td></tr>
          <tr><td>Min Sea Level Pressure:</td></tr>
          <tr><td>988 mb / 29.18 in Hg</td></tr>
          <tr><td>Maximum Intensity:</td></tr>
          <tr><td>60 kt / 69 mph / 111 kph</td></tr>
        </table>
      ]]></description>
      <Point><coordinates>121.8,14.4</coordinates></Point>
    </Placemark>
    <Placemark>
      <name>1200 UTC MAY 26</name>
      <styleUrl>#cat1</styleUrl>
      <description><![CDATA[
        <table>
          <tr><td>HU EWINIAR (WP012024)</td></tr>
          <tr><td><hr></td></tr>
          <tr><td>1200 UTC MAY 26, 2024</td></tr>
          <tr><td>Storm Location:</td></tr>
          <tr><td><b>14.9 N, 122.2 E</b></td></tr>
          <tr><td>Min Sea Level Pressure:</td></tr>
          <tr><td>969 mb / 28.61 in Hg</td></tr>
          <tr><td>Maximum Intensity:</td></tr>
          <tr><td>75 kt / 86 mph / 139 kph</td></tr>
        </table>
      ]]></description>
      <Point><coordinates>122.2,14.9</coordinates></Point>
    </Placemark>
    <Placemark>
      <name>1800 UTC MAY 26</name>
      <styleUrl>#cat2</styleUrl>
      <description><![CDATA[
        <table>
          <tr><td>HU EWINIAR (WP012024)</td></tr>
          <tr><td><hr></td></tr>
          <tr><td>1800 UTC MAY 26, 2024</td></tr>
          <tr><td>Storm Location:</td></tr>
          <tr><td><b>15.5 N, 122.5 E</b></td></tr>
          <tr><td>Min Sea Level Pressure:</td></tr>
          <tr><td>965 mb / 28.50 in Hg</td></tr>
          <tr><td>Maximum Intensity:</td></tr>
          <tr><td>85 kt / 98 mph / 157 kph</td></tr>
        </table>
      ]]></description>
      <Point><coordinates>122.5,15.5</coordinates></Point>
    </Placemark>
    <Placemark>
      <name>2100 UTC MAY 26</name>
      <styleUrl>#cat2</styleUrl>
      <description><![CDATA[
        <table>
          <tr><td>HU EWINIAR (WP012024)</td></tr>
          <tr><td><hr></td></tr>
          <tr><td>2100 UTC MAY 26, 2024</td></tr>
          <tr><td>Storm Location:</td></tr>
          <tr><td><b>15.7 N, 122.7 E</b></td></tr>
          <tr><td>Min Sea Level Pressure:</td></tr>
          <tr><td>961 mb / 28.38 in Hg</td></tr>
          <tr><td>Maximum Intensity:</td></tr>
          <tr><td>90 kt / 104 mph / 167 kph</td></tr>
        </table>
      ]]></description>
      <Point><coordinates>122.7,15.7</coordinates></Point>
    </Placemark>
    <Placemark>
      <name>0000 UTC MAY 27</name>
      <styleUrl>#cat2</styleUrl>
      <description><![CDATA[
        <table>
          <tr><td>HU EWINIAR (WP012024)</td></tr>
          <tr><td><hr></td></tr>
          <tr><td>0000 UTC MAY 27, 2024</td></tr>
          <tr><td>Storm Location:</td></tr>
          <tr><td><b>15.8 N, 122.8 E</b></td></tr>
          <tr><td>Min Sea Level Pressure:</td></tr>
          <tr><td>962 mb / 28.41 in Hg</td></tr>
          <tr><td>Maximum Intensity:</td></tr>
          <tr><td>85 kt / 98 mph / 157 kph</td></tr>
        </table>
      ]]></description>
      <Point><coordinates>122.8,15.8</coordinates></Point>
    </Placemark>
    <Placemark>
      <name>0600 UTC MAY 27</name>
      <styleUrl>#cat2</styleUrl>
      <description><![CDATA[
        <table>
          <tr><td>HU EWINIAR (WP012024)</td></tr>
          <tr><td><hr></td></tr>
          <tr><td>0600 UTC MAY 27, 2024</td></tr>
          <tr><td>Storm Location:</td></tr>
          <tr><td><b>16.4 N, 123.5 E</b></td></tr>
          <tr><td>Min Sea Level Pressure:</td></tr>
          <tr><td>962 mb / 28.41 in Hg</td></tr>
          <tr><td>Maximum Intensity:</td></tr>
          <tr><td>85 kt / 98 mph / 157 kph</td></tr>
        </table>
      ]]></description>
      <Point><coordinates>123.5,16.4</coordinates></Point>
    </Placemark>
    <Placemark>
      <name>1200 UTC MAY 27</name>
      <styleUrl>#cat2</styleUrl>
      <description><![CDATA[
        <table>
          <tr><td>HU EWINIAR (WP012024)</td></tr>
          <tr><td><hr></td></tr>
          <tr><td>1200 UTC MAY 27, 2024</td></tr>
          <tr><td>Storm Location:</td></tr>
          <tr><td><b>17.1 N, 124.0 E</b></td></tr>
          <tr><td>Min Sea Level Pressure:</td></tr>
          <tr><td>963 mb / 28.44 in Hg</td></tr>
          <tr><td>Maximum Intensity:</td></tr>
          <tr><td>85 kt / 98 mph / 157 kph</td></tr>
        </table>
      ]]></description>
      <Point><coordinates>124,17.1</coordinates></Point>
    </Placemark>
    <Placemark>
      <name>1800 UTC MAY 27</name>
      <styleUrl>#cat1</styleUrl>
      <description><![CDATA[
        <table>
          <tr><td>HU EWINIAR (WP012024)</td></tr>
          <tr><td><hr></td></tr>
          <tr><td>1800 UTC MAY 27, 2024</td></tr>
          <tr><td>Storm Location:</td></tr>
          <tr><td><b>17.8 N, 124.6 E</b></td></tr>
          <tr><td>Min Sea Level Pressure:</td></tr>
          <tr><td>976 mb / 28.82 in Hg</td></tr>
          <tr><td>Maximum Intensity:</td></tr>
          <tr><td>75 kt / 86 mph / 139 kph</td></tr>
        </table>
      ]]></description>
      <Point><coordinates>124.6,17.8</coordinates></Point>
    </Placemark>
    <Placemark>
      <name>0000 UTC MAY 28</name>
      <styleUrl>#cat1</styleUrl>
      <description><![CDATA[
        <table>
          <tr><td>HU EWINIAR (WP012024)</td></tr>
          <tr><td><hr></td></tr>
          <tr><td>0000 UTC MAY 28, 2024</td></tr>
          <tr><td>Storm Location:</td></tr>
          <tr><td><b>18.7 N, 125.7 E</b></td></tr>
          <tr><td>Min Sea Level Pressure:</td></tr>
          <tr><td>984 mb / 29.06 in Hg</td></tr>
          <tr><td>Maximum Intensity:</td></tr>
          <tr><td>65 kt / 75 mph / 120 kph</td></tr>
        </table>
      ]]></description>
      <Point><coordinates>125.7,18.7</coordinates></Point>
    </Placemark>
    <Placemark>
      <name>0600 UTC MAY 28</name>
      <styleUrl>#cat1</styleUrl>
      <description><![CDATA[
        <table>
          <tr><td>HU EWINIAR (WP012024)</td></tr>
          <tr><td><hr></td></tr>
          <tr><td>0600 UTC MAY 28, 2024</td></tr>
          <tr><td>Storm Location:</td></tr>
          <tr><td><b>19.9 N, 126.8 E</b></td></tr>
          <tr><td>Min Sea Level Pressure:</td></tr>
          <tr><td>984 mb / 29.06 in Hg</td></tr>
          <tr><td>Maximum Intensity:</td></tr>
          <tr><td>65 kt / 75 mph / 120 kph</td></tr>
        </table>
      ]]></description>
      <Point><coordinates>126.8,19.9</coordinates></Point>
    </Placemark>
    <Placemark>
      <name>1200 UTC MAY 28</name>
      <styleUrl>#cat1</styleUrl>
      <description><![CDATA[
        <table>
          <tr><td>HU EWINIAR (WP012024)</td></tr>
          <tr><td><hr></td></tr>
          <tr><td>1200 UTC MAY 28, 2024</td></tr>
          <tr><td>Storm Location:</td></tr>
          <tr><td><b>21.3 N, 128.1 E</b></td></tr>
          <tr><td>Min Sea Level Pressure:</td></tr>
          <tr><td>979 mb / 28.91 in Hg</td></tr>
          <tr><td>Maximum Intensity:</td></tr>
          <tr><td>70 kt / 81 mph / 130 kph</td></tr>
        </table>
      ]]></description>
      <Point><coordinates>128.1,21.3</coordinates></Point>
    </Placemark>
    <Placemark>
      <name>1800 UTC MAY 28</name>
      <styleUrl>#cat1</styleUrl>
      <description><![CDATA[
        <table>
          <tr><td>HU EWINIAR (WP012024)</td></tr>
          <tr><td><hr></td></tr>
          <tr><td>1800 UTC MAY 28, 2024</td></tr>
          <tr><td>Storm Location:</td></tr>
          <tr><td><b>22.8 N, 129.3 E</b></td></tr>
          <tr><td>Min Sea Level Pressure:</td></tr>
          <tr><td>973 mb / 28.73 in Hg</td></tr>
          <tr><td>Maximum Intensity:</td></tr>
          <tr><td>80 kt / 92 mph / 148 kph</td></tr>
        </table>
      ]]></description>
      <Point><coordinates>129.3,22.8</coordinates></Point>
    </Placemark>
    <Placemark>
      <name>0000 UTC MAY 29</name>
      <styleUrl>#cat1</styleUrl>
      <description><![CDATA[
        <table>
          <tr><td>HU EWINIAR (WP012024)</td></tr>
          <tr><td><hr></td></tr>
          <tr><td>0000 UTC MAY 29, 2024</td></tr>
          <tr><td>Storm Location:</td></tr>
          <tr><td><b>24.3 N, 130.8 E</b></td></tr>
          <tr><td>Min Sea Level Pressure:</td></tr>
          <tr><td>976 mb / 28.82 in Hg</td></tr>
          <tr><td>Maximum Intensity:</td></tr>
          <tr><td>75 kt / 86 mph / 139 kph</td></tr>
        </table>
      ]]></description>
      <Point><coordinates>130.8,24.3</coordinates></Point>
    </Placemark>
    <Placemark>
      <name>0600 UTC MAY 29</name>
      <styleUrl>#cat1</styleUrl>
      <description><![CDATA[
        <table>
          <tr><td>HU EWINIAR (WP012024)</td></tr>
          <tr><td><hr></td></tr>
          <tr><td>0600 UTC MAY 29, 2024</td></tr>
          <tr><td>Storm Location:</td></tr>
          <tr><td><b>25.3 N, 132.0 E</b></td></tr>
          <tr><td>Min Sea Level Pressure:</td></tr>
          <tr><td>983 mb / 29.03 in Hg</td></tr>
          <tr><td>Maximum Intensity:</td></tr>
          <tr><td>65 kt / 75 mph / 120 kph</td></tr>
        </table>
      ]]></description>
      <Point><coordinates>132,25.3</coordinates></Point>
    </Placemark>
    <Placemark>
      <name>1200 UTC MAY 29</name>
      <styleUrl>#cat1</styleUrl>
      <description><![CDATA[
        <table>
          <tr><td>HU EWINIAR (WP012024)</td></tr>
          <tr><td><hr></td></tr>
          <tr><td>1200 UTC MAY 29, 2024</td></tr>
          <tr><td>Storm Location:</td></tr>
          <tr><td><b>26.3 N, 132.9 E</b></td></tr>
          <tr><td>Min Sea Level Pressure:</td></tr>
          <tr><td>978 mb / 28.88 in Hg</td></tr>
          <tr><td>Maximum Intensity:</td></tr>
          <tr><td>70 kt / 81 mph / 130 kph</td></tr>
        </table>
      ]]></description>
      <Point><coordinates>132.9,26.3</coordinates></Point>
    </Placemark>
    <Placemark>
      <name>1800 UTC MAY 29</name>
      <styleUrl>#ts</styleUrl>
      <description><![CDATA[
        <table>
          <tr><td>TS EWINIAR (WP012024)</td></tr>
          <tr><td><hr></td></tr>
          <tr><td>1800 UTC MAY 29, 2024</td></tr>
          <tr><td>Storm Location:</td></tr>
          <tr><td><b>27.4 N, 133.8 E</b></td></tr>
          <tr><td>Min Sea Level Pressure:</td></tr>
          <tr><td>983 mb / 29.03 in Hg</td></tr>
          <tr><td>Maximum Intensity:</td></tr>
          <tr><td>60 kt / 69 mph / 111 kph</td></tr>
        </table>
      ]]></description>
      <Point><coordinates>133.8,27.4</coordinates></Point>
    </Placemark>
    <Placemark>
      <name>0000 UTC MAY 30</name>
      <styleUrl>#ts</styleUrl>
      <description><![CDATA[
        <table>
          <tr><td>TS EWINIAR (WP012024)</td></tr>
          <tr><td><hr></td></tr>
          <tr><td>0000 UTC MAY 30, 2024</td></tr>
          <tr><td>Storm Location:</td></tr>
          <tr><td><b>28.2 N, 134.7 E</b></td></tr>
          <tr><td>Min Sea Level Pressure:</td></tr>
          <tr><td>988 mb / 29.18 in Hg</td></tr>
          <tr><td>Maximum Intensity:</td></tr>
          <tr><td>50 kt / 58 mph / 93 kph</td></tr>
        </table>
      ]]></description>
      <Point><coordinates>134.7,28.2</coordinates></Point>
    </Placemark>
    <Placemark>
      <name>0600 UTC MAY 30</name>
      <styleUrl>#ts</styleUrl>
      <description><![CDATA[
        <table>
          <tr><td>TS EWINIAR (WP012024)</td></tr>
          <tr><td><hr></td></tr>
          <tr><td>0600 UTC MAY 30, 2024</td></tr>
          <tr><td>Storm Location:</td></tr>
          <tr><td><b>28.9 N, 135.7 E</b></td></tr>
          <tr><td>Min Sea Level Pressure:</td></tr>
          <tr><td>990 mb / 29.23 in Hg</td></tr>
          <tr><td>Maximum Intensity:</td></tr>
          <tr><td>45 kt / 52 mph / 83 kph</td></tr>
        </table>
      ]]></description>
      <Point><coordinates>135.7,28.9</coordinates></Point>
    </Placemark>
    <Placemark>
      <name>1200 UTC MAY 30</name>
      <styleUrl>#ts</styleUrl>
      <description><![CDATA[
        <table>
          <tr><td>TS EWINIAR (WP012024)</td></tr>
          <tr><td><hr></td></tr>
          <tr><td>1200 UTC MAY 30, 2024</td></tr>
          <tr><td>Storm Location:</td></tr>
          <tr><td><b>30.1 N, 136.8 E</b></td></tr>
          <tr><td>Min Sea Level Pressure:</td></tr>
          <tr><td>992 mb / 29.29 in Hg</td></tr>
          <tr><td>Maximum Intensity:</td></tr>
          <tr><td>40 kt / 46 mph / 74 kph</td></tr>
        </table>
      ]]></description>
      <Point><coordinates>136.8,30.1</coordinates></Point>
    </Placemark>
    <Placemark>
      <name>1800 UTC MAY 30</name>
      <styleUrl>#td</styleUrl>
      <description><![CDATA[
        <table>
          <tr><td>TD EWINIAR (WP012024)</td></tr>
          <tr><td><hr></td></tr>
          <tr><td>1800 UTC MAY 30, 2024</td></tr>
          <tr><td>Storm Location:</td></tr>
          <tr><td><b>31.4 N, 138.1 E</b></td></tr>
          <tr><td>Min Sea Level Pressure:</td></tr>
          <tr><td>994 mb / 29.35 in Hg</td></tr>
          <tr><td>Maximum Intensity:</td></tr>
          <tr><td>30 kt / 35 mph / 56 kph</td></tr>
        </table>
      ]]></description>
      <Point><coordinates>138.1,31.4</coordinates></Point>
    </Placemark>
    <Placemark>
      <name>0000 UTC MAY 31</name>
      <styleUrl>#ts</styleUrl>
      <description><![CDATA[
        <table>
          <tr><td>TS EWINIAR (WP012024)</td></tr>
          <tr><td><hr></td></tr>
          <tr><td>0000 UTC MAY 31, 2024</td></tr>
          <tr><td>Storm Location:</td></tr>
          <tr><td><b>33.2 N, 140.1 E</b></td></tr>
          <tr><td>Min Sea Level Pressure:</td></tr>
          <tr><td>998 mb / 29.47 in Hg</td></tr>
          <tr><td>Maximum Intensity:</td></tr>
          <tr><td>35 kt / 40 mph / 65 kph</td></tr>
        </table>
      ]]></description>
      <Point><coordinates>140.1,33.2</coordinates></Point>
    </Placemark>
    <Placemark>
      <name>0600 UTC MAY 31</name>
      <styleUrl>#ex</styleUrl>
      <description><![CDATA[
        <table>
          <tr><td>EX EWINIAR (WP012024)</td></tr>
          <tr><td><hr></td></tr>
          <tr><td>0600 UTC MAY 31, 2024</td></tr>
          <tr><td>Storm Location:</td></tr>
          <tr><td><b>34.6 N, 143.2 E</b></td></tr>
          <tr><td>Min Sea Level Pressure:</td></tr>
          <tr><td>990 mb / 29.23 in Hg</td></tr>
          <tr><td>Maximum Intensity:</td></tr>
          <tr><td>35 kt / 40 mph / 65 kph</td></tr>
        </table>
      ]]></description>
      <Point><coordinates>143.2,34.6</coordinates></Point>
    </Placemark>
  </Document>
</kml>
