<?xml version="1.0" encoding="UTF-8"?>
<kml xmlns="http://www.opengis.net/kml/2.2">
  <Document>
    <name>WP022024</name>
    <open>0</open>

    <!-- =====  Document header ===== -->
    <description><![CDATA[
      <table>
        <tr><td><b>Title:</b> Tropical Cyclone Best Track for WP022024</td></tr>
      </table>
    ]]></description>

    <!-- =====  Styles (ids must be unique)  ===== -->
	<Style id="pt"> 
		<IconStyle> 
			<scale>1.0</scale> 
			<Icon> 
				<href>ex_nhemi.png</href> 
			</Icon> 
             <hotSpot x="15" y="17" xunits="pixels" yunits="pixels"/>
		</IconStyle> 
		<LabelStyle> 
			<scale>1.0</scale> 
		</LabelStyle> 
	</Style>
	<Style id="cat5"> 
		<IconStyle> 
			<scale>1.0</scale> 
			<Icon> 
				<href>cat5_nhemi.png</href> 
			</Icon> 
             <hotSpot x="15" y="17" xunits="pixels" yunits="pixels"/>
		</IconStyle> 
		<LabelStyle> 
			<scale>1.0</scale> 
		</LabelStyle> 
	</Style>
	<Style id="db"> 
		<IconStyle> 
			<scale>1.0</scale> 
			<Icon> 
				<href>ex_nhemi.png</href> 
			</Icon> 
             <hotSpot x="15" y="17" xunits="pixels" yunits="pixels"/>
		</IconStyle> 
		<LabelStyle> 
			<scale>1.0</scale> 
		</LabelStyle> 
	</Style>
	<Style id="cat3"> 
		<IconStyle> 
			<scale>1.0</scale> 
			<Icon> 
				<href>cat3_nhemi.png</href> 
			</Icon> 
             <hotSpot x="15" y="17" xunits="pixels" yunits="pixels"/>
		</IconStyle> 
		<LabelStyle> 
			<scale>1.0</scale> 
		</LabelStyle> 
	</Style>
	<Style id="ss"> 
		<IconStyle> 
			<scale>1.0</scale> 
			<Icon> 
				<href>ts_nhemi.png</href> 
			</Icon> 
             <hotSpot x="15" y="17" xunits="pixels" yunits="pixels"/>
		</IconStyle> 
		<LabelStyle> 
			<scale>1.0</scale> 
		</LabelStyle> 
	</Style>
	<Style id="lo"> 
		<IconStyle> 
			<scale>1.0</scale> 
			<Icon> 
				<href>ex_nhemi.png</href> 
			</Icon> 
             <hotSpot x="15" y="17" xunits="pixels" yunits="pixels"/>
		</IconStyle> 
		<LabelStyle> 
			<scale>1.0</scale> 
		</LabelStyle> 
	</Style>
	<Style id="cat4"> 
		<IconStyle> 
			<scale>1.0</scale> 
			<Icon> 
				<href>cat4_nhemi.png</href> 
			</Icon> 
             <hotSpot x="15" y="17" xunits="pixels" yunits="pixels"/>
		</IconStyle> 
		<LabelStyle> 
			<scale>1.0</scale> 
		</LabelStyle> 
	</Style>
	<Style id="cat2"> 
		<IconStyle> 
			<scale>1.0</scale> 
			<Icon> 
				<href>cat2_nhemi.png</href> 
			</Icon> 
             <hotSpot x="15" y="17" xunits="pixels" yunits="pixels"/>
		</IconStyle> 
		<LabelStyle> 
			<scale>1.0</scale> 
		</LabelStyle> 
	</Style>
	<Style id="ts"> 
		<IconStyle> 
			<scale>1.0</scale> 
			<Icon> 
				<href>ts_nhemi.png</href> 
			</Icon> 
             <hotSpot x="15" y="17" xunits="pixels" yunits="pixels"/>
		</IconStyle> 
		<LabelStyle> 
			<scale>1.0</scale> 
		</LabelStyle> 
	</Style>
	<Style id="cat1"> 
		<IconStyle> 
			<scale>1.0</scale> 
			<Icon> 
				<href>cat1_nhemi.png</href> 
			</Icon> 
             <hotSpot x="15" y="17" xunits="pixels" yunits="pixels"/>
		</IconStyle> 
		<LabelStyle> 
			<scale>1.0</scale> 
		</LabelStyle> 
	</Style>
	<Style id="ex"> 
		<IconStyle> 
			<scale>1.0</scale> 
			<Icon> 
				<href>ex_nhemi.png</href> 
			</Icon> 
             <hotSpot x="15" y="17" xunits="pixels" yunits="pixels"/>
		</IconStyle> 
		<LabelStyle> 
			<scale>1.0</scale> 
		</LabelStyle> 
	</Style>
	<Style id="tc"> 
		<IconStyle> 
			<scale>1.0</scale> 
			<Icon> 
				<href>ex_nhemi.png</href> 
			</Icon> 
             <hotSpot x="15" y="17" xunits="pixels" yunits="pixels"/>
		</IconStyle> 
		<LabelStyle> 
			<scale>1.0</scale> 
		</LabelStyle> 
	</Style>
	<Style id="wv"> 
		<IconStyle> 
			<scale>1.0</scale> 
			<Icon> 
				<href>ex_nhemi.png</href> 
			</Icon> 
             <hotSpot x="15" y="17" xunits="pixels" yunits="pixels"/>
		</IconStyle> 
		<LabelStyle> 
			<scale>1.0</scale> 
		</LabelStyle> 
	</Style>
	<Style id="td"> 
		<IconStyle> 
			<scale>1.0</scale> 
			<Icon> 
				<href>td_nhemi.png</href> 
			</Icon> 
             <hotSpot x="15" y="17" xunits="pixels" yunits="pixels"/>
		</IconStyle> 
		<LabelStyle> 
			<scale>1.0</scale> 
		</LabelStyle> 
	</Style>
	<Style id="sd"> 
		<IconStyle> 
			<scale>1.0</scale> 
			<Icon> 
				<href>ex_nhemi.png</href> 
			</Icon> 
             <hotSpot x="15" y="17" xunits="pixels" yunits="pixels"/>
		</IconStyle> 
		<LabelStyle> 
			<scale>1.0</scale> 
		</LabelStyle> 
	</Style>

    <Placemark>
      <name>0000 UTC MAY 30</name>
      <styleUrl>#db</styleUrl>
      <description><![CDATA[
        <table>
          <tr><td>DB MALIKSI (WP022024)</td></tr>
          <tr><td><hr></td></tr>
          <tr><td>0000 UTC MAY 30, 2024</td></tr>
          <tr><td>Storm Location:</td></tr>
          <tr><td><b>17.5 N, 113.1 E</b></td></tr>
          <tr><td>Min Sea Level Pressure:</td></tr>
          <tr><td>1001 mb / 29.56 in Hg</td></tr>
          <tr><td>Maximum Intensity:</td></tr>
          <tr><td>15 kt / 17 mph / 28 kph</td></tr>
        </table>
      ]]></description>
      <Point><coordinates>113.1,17.5</coordinates></Point>
    </Placemark>
    <Placemark>
      <name>0600 UTC MAY 30</name>
      <styleUrl>#db</styleUrl>
      <description><![CDATA[
        <table>
          <tr><td>DB MALIKSI (WP022024)</td></tr>
          <tr><td><hr></td></tr>
          <tr><td>0600 UTC MAY 30, 2024</td></tr>
          <tr><td>Storm Location:</td></tr>
          <tr><td><b>17.4 N, 112.8 E</b></td></tr>
          <tr><td>Min Sea Level Pressure:</td></tr>
          <tr><td>999 mb / 29.50 in Hg</td></tr>
          <tr><td>Maximum Intensity:</td></tr>
          <tr><td>20 kt / 23 mph / 37 kph</td></tr>
        </table>
      ]]></description>
      <Point><coordinates>112.8,17.4</coordinates></Point>
    </Placemark>
    <Placemark>
      <name>1200 UTC MAY 30</name>
      <styleUrl>#td</styleUrl>
      <description><![CDATA[
        <table>
          <tr><td>TD MALIKSI (WP022024)</td></tr>
          <tr><td><hr></td></tr>
          <tr><td>1200 UTC MAY 30, 2024</td></tr>
          <tr><td>Storm Location:</td></tr>
          <tr><td><b>17.3 N, 112.5 E</b></td></tr>
          <tr><td>Min Sea Level Pressure:</td></tr>
          <tr><td>997 mb / 29.44 in Hg</td></tr>
          <tr><td>Maximum Intensity:</td></tr>
          <tr><td>25 kt / 29 mph / 46 kph</td></tr>
        </table>
      ]]></description>
      <Point><coordinates>112.5,17.3</coordinates></Point>
    </Placemark>
    <Placemark>
      <name>1800 UTC MAY 30</name>
      <styleUrl>#td</styleUrl>
      <description><![CDATA[
        <table>
          <tr><td>TD MALIKSI (WP022024)</td></tr>
          <tr><td><hr></td></tr>
          <tr><td>1800 UTC MAY 30, 2024</td></tr>
          <tr><td>Storm Location:</td></tr>
          <tr><td><b>18.9 N, 112.3 E</b></td></tr>
          <tr><td>Min Sea Level Pressure:</td></tr>
          <tr><td>997 mb / 29.44 in Hg</td></tr>
          <tr><td>Maximum Intensity:</td></tr>
          <tr><td>25 kt / 29 mph / 46 kph</td></tr>
        </table>
      ]]></description>
      <Point><coordinates>112.3,18.9</coordinates></Point>
    </Placemark>
    <Placemark>
      <name>0000 UTC MAY 31</name>
      <styleUrl>#td</styleUrl>
      <description><![CDATA[
        <table>
          <tr><td>TD MALIKSI (WP022024)</td></tr>
          <tr><td><hr></td></tr>
          <tr><td>0000 UTC MAY 31, 2024</td></tr>
          <tr><td>Storm Location:</td></tr>
          <tr><td><b>19.8 N, 112.8 E</b></td></tr>
          <tr><td>Min Sea Level Pressure:</td></tr>
          <tr><td>994 mb / 29.35 in Hg</td></tr>
          <tr><td>Maximum Intensity:</td></tr>
          <tr><td>30 kt / 35 mph / 56 kph</td></tr>
        </table>
      ]]></description>
      <Point><coordinates>112.8,19.8</coordinates></Point>
    </Placemark>
    <Placemark>
      <name>0600 UTC MAY 31</name>
      <styleUrl>#td</styleUrl>
      <description><![CDATA[
        <table>
          <tr><td>TD MALIKSI (WP022024)</td></tr>
          <tr><td><hr></td></tr>
          <tr><td>0600 UTC MAY 31, 2024</td></tr>
          <tr><td>Storm Location:</td></tr>
          <tr><td><b>20.4 N, 112.1 E</b></td></tr>
          <tr><td>Min Sea Level Pressure:</td></tr>
          <tr><td>993 mb / 29.32 in Hg</td></tr>
          <tr><td>Maximum Intensity:</td></tr>
          <tr><td>30 kt / 35 mph / 56 kph</td></tr>
        </table>
      ]]></description>
      <Point><coordinates>112.1,20.4</coordinates></Point>
    </Placemark>
    <Placemark>
      <name>1200 UTC MAY 31</name>
      <styleUrl>#td</styleUrl>
      <description><![CDATA[
        <table>
          <tr><td>TD MALIKSI (WP022024)</td></tr>
          <tr><td><hr></td></tr>
          <tr><td>1200 UTC MAY 31, 2024</td></tr>
          <tr><td>Storm Location:</td></tr>
          <tr><td><b>20.9 N, 111.5 E</b></td></tr>
          <tr><td>Min Sea Level Pressure:</td></tr>
          <tr><td>992 mb / 29.29 in Hg</td></tr>
          <tr><td>Maximum Intensity:</td></tr>
          <tr><td>30 kt / 35 mph / 56 kph</td></tr>
        </table>
      ]]></description>
      <Point><coordinates>111.5,20.9</coordinates></Point>
    </Placemark>
    <Placemark>
      <name>1800 UTC MAY 31</name>
      <styleUrl>#td</styleUrl>
      <description><![CDATA[
        <table>
          <tr><td>TD MALIKSI (WP022024)</td></tr>
          <tr><td><hr></td></tr>
          <tr><td>1800 UTC MAY 31, 2024</td></tr>
          <tr><td>Storm Location:</td></tr>
          <tr><td><b>21.5 N, 111.4 E</b></td></tr>
          <tr><td>Min Sea Level Pressure:</td></tr>
          <tr><td>990 mb / 29.23 in Hg</td></tr>
          <tr><td>Maximum Intensity:</td></tr>
          <tr><td>30 kt / 35 mph / 56 kph</td></tr>
        </table>
      ]]></description>
      <Point><coordinates>111.4,21.5</coordinates></Point>
    </Placemark>
    <Placemark>
      <name>0000 UTC JUN 1</name>
      <styleUrl>#td</styleUrl>
      <description><![CDATA[
        <table>
          <tr><td>TD MALIKSI (WP022024)</td></tr>
          <tr><td><hr></td></tr>
          <tr><td>0000 UTC JUN 1, 2024</td></tr>
          <tr><td>Storm Location:</td></tr>
          <tr><td><b>22.2 N, 111.7 E</b></td></tr>
          <tr><td>Min Sea Level Pressure:</td></tr>
          <tr><td>993 mb / 29.32 in Hg</td></tr>
          <tr><td>Maximum Intensity:</td></tr>
          <tr><td>25 kt / 29 mph / 46 kph</td></tr>
        </table>
      ]]></description>
      <Point><coordinates>111.7,22.2</coordinates></Point>
    </Placemark>
    <Placemark>
      <name>0600 UTC JUN 1</name>
      <styleUrl>#db</styleUrl>
      <description><![CDATA[
        <table>
          <tr><td>DB MALIKSI (WP022024)</td></tr>
          <tr><td><hr></td></tr>
          <tr><td>0600 UTC JUN 1, 2024</td></tr>
          <tr><td>Storm Location:</td></tr>
          <tr><td><b>23.4 N, 112.9 E</b></td></tr>
          <tr><td>Min Sea Level Pressure:</td></tr>
          <tr><td>996 mb / 29.41 in Hg</td></tr>
          <tr><td>Maximum Intensity:</td></tr>
          <tr><td>20 kt / 23 mph / 37 kph</td></tr>
        </table>
      ]]></description>
      <Point><coordinates>112.9,23.4</coordinates></Point>
    </Placemark>
  </Document>
</kml>
