<?xml version="1.0" encoding="UTF-8"?>
<kml xmlns="http://www.opengis.net/kml/2.2">
  <Document>
    <name>WP042024</name>
    <open>0</open>

    <!-- =====  Document header ===== -->
    <description><![CDATA[
      <table>
        <tr><td><b>Title:</b> Tropical Cyclone Best Track for WP042024</td></tr>
      </table>
    ]]></description>

    <!-- =====  Styles (ids must be unique)  ===== -->
	<Style id="pt"> 
		<IconStyle> 
			<scale>1.0</scale> 
			<Icon> 
				<href>ex_nhemi.png</href> 
			</Icon> 
             <hotSpot x="15" y="17" xunits="pixels" yunits="pixels"/>
		</IconStyle> 
		<LabelStyle> 
			<scale>1.0</scale> 
		</LabelStyle> 
	</Style>
	<Style id="cat5"> 
		<IconStyle> 
			<scale>1.0</scale> 
			<Icon> 
				<href>cat5_nhemi.png</href> 
			</Icon> 
             <hotSpot x="15" y="17" xunits="pixels" yunits="pixels"/>
		</IconStyle> 
		<LabelStyle> 
			<scale>1.0</scale> 
		</LabelStyle> 
	</Style>
	<Style id="db"> 
		<IconStyle> 
			<scale>1.0</scale> 
			<Icon> 
				<href>ex_nhemi.png</href> 
			</Icon> 
             <hotSpot x="15" y="17" xunits="pixels" yunits="pixels"/>
		</IconStyle> 
		<LabelStyle> 
			<scale>1.0</scale> 
		</LabelStyle> 
	</Style>
	<Style id="cat3"> 
		<IconStyle> 
			<scale>1.0</scale> 
			<Icon> 
				<href>cat3_nhemi.png</href> 
			</Icon> 
             <hotSpot x="15" y="17" xunits="pixels" yunits="pixels"/>
		</IconStyle> 
		<LabelStyle> 
			<scale>1.0</scale> 
		</LabelStyle> 
	</Style>
	<Style id="ss"> 
		<IconStyle> 
			<scale>1.0</scale> 
			<Icon> 
				<href>ts_nhemi.png</href> 
			</Icon> 
             <hotSpot x="15" y="17" xunits="pixels" yunits="pixels"/>
		</IconStyle> 
		<LabelStyle> 
			<scale>1.0</scale> 
		</LabelStyle> 
	</Style>
	<Style id="lo"> 
		<IconStyle> 
			<scale>1.0</scale> 
			<Icon> 
				<href>ex_nhemi.png</href> 
			</Icon> 
             <hotSpot x="15" y="17" xunits="pixels" yunits="pixels"/>
		</IconStyle> 
		<LabelStyle> 
			<scale>1.0</scale> 
		</LabelStyle> 
	</Style>
	<Style id="cat4"> 
		<IconStyle> 
			<scale>1.0</scale> 
			<Icon> 
				<href>cat4_nhemi.png</href> 
			</Icon> 
             <hotSpot x="15" y="17" xunits="pixels" yunits="pixels"/>
		</IconStyle> 
		<LabelStyle> 
			<scale>1.0</scale> 
		</LabelStyle> 
	</Style>
	<Style id="cat2"> 
		<IconStyle> 
			<scale>1.0</scale> 
			<Icon> 
				<href>cat2_nhemi.png</href> 
			</Icon> 
             <hotSpot x="15" y="17" xunits="pixels" yunits="pixels"/>
		</IconStyle> 
		<LabelStyle> 
			<scale>1.0</scale> 
		</LabelStyle> 
	</Style>
	<Style id="ts"> 
		<IconStyle> 
			<scale>1.0</scale> 
			<Icon> 
				<href>ts_nhemi.png</href> 
			</Icon> 
             <hotSpot x="15" y="17" xunits="pixels" yunits="pixels"/>
		</IconStyle> 
		<LabelStyle> 
			<scale>1.0</scale> 
		</LabelStyle> 
	</Style>
	<Style id="cat1"> 
		<IconStyle> 
			<scale>1.0</scale> 
			<Icon> 
				<href>cat1_nhemi.png</href> 
			</Icon> 
             <hotSpot x="15" y="17" xunits="pixels" yunits="pixels"/>
		</IconStyle> 
		<LabelStyle> 
			<scale>1.0</scale> 
		</LabelStyle> 
	</Style>
	<Style id="ex"> 
		<IconStyle> 
			<scale>1.0</scale> 
			<Icon> 
				<href>ex_nhemi.png</href> 
			</Icon> 
             <hotSpot x="15" y="17" xunits="pixels" yunits="pixels"/>
		</IconStyle> 
		<LabelStyle> 
			<scale>1.0</scale> 
		</LabelStyle> 
	</Style>
	<Style id="tc"> 
		<IconStyle> 
			<scale>1.0</scale> 
			<Icon> 
				<href>ex_nhemi.png</href> 
			</Icon> 
             <hotSpot x="15" y="17" xunits="pixels" yunits="pixels"/>
		</IconStyle> 
		<LabelStyle> 
			<scale>1.0</scale> 
		</LabelStyle> 
	</Style>
	<Style id="wv"> 
		<IconStyle> 
			<scale>1.0</scale> 
			<Icon> 
				<href>ex_nhemi.png</href> 
			</Icon> 
             <hotSpot x="15" y="17" xunits="pixels" yunits="pixels"/>
		</IconStyle> 
		<LabelStyle> 
			<scale>1.0</scale> 
		</LabelStyle> 
	</Style>
	<Style id="td"> 
		<IconStyle> 
			<scale>1.0</scale> 
			<Icon> 
				<href>td_nhemi.png</href> 
			</Icon> 
             <hotSpot x="15" y="17" xunits="pixels" yunits="pixels"/>
		</IconStyle> 
		<LabelStyle> 
			<scale>1.0</scale> 
		</LabelStyle> 
	</Style>
	<Style id="sd"> 
		<IconStyle> 
			<scale>1.0</scale> 
			<Icon> 
				<href>ex_nhemi.png</href> 
			</Icon> 
             <hotSpot x="15" y="17" xunits="pixels" yunits="pixels"/>
		</IconStyle> 
		<LabelStyle> 
			<scale>1.0</scale> 
		</LabelStyle> 
	</Style>

    <Placemark>
      <name>1200 UTC JUL 15</name>
      <styleUrl>#db</styleUrl>
      <description><![CDATA[
        <table>
          <tr><td>DB PRAPIROON (WP042024)</td></tr>
          <tr><td><hr></td></tr>
          <tr><td>1200 UTC JUL 15, 2024</td></tr>
          <tr><td>Storm Location:</td></tr>
          <tr><td><b>7.7 N, 129.7 E</b></td></tr>
          <tr><td>Min Sea Level Pressure:</td></tr>
          <tr><td>1010 mb / 29.83 in Hg</td></tr>
          <tr><td>Maximum Intensity:</td></tr>
          <tr><td>10 kt / 12 mph / 19 kph</td></tr>
        </table>
      ]]></description>
      <Point><coordinates>129.7,7.7</coordinates></Point>
    </Placemark>
    <Placemark>
      <name>1800 UTC JUL 15</name>
      <styleUrl>#db</styleUrl>
      <description><![CDATA[
        <table>
          <tr><td>DB PRAPIROON (WP042024)</td></tr>
          <tr><td><hr></td></tr>
          <tr><td>1800 UTC JUL 15, 2024</td></tr>
          <tr><td>Storm Location:</td></tr>
          <tr><td><b>8.9 N, 128.6 E</b></td></tr>
          <tr><td>Min Sea Level Pressure:</td></tr>
          <tr><td>1008 mb / 29.77 in Hg</td></tr>
          <tr><td>Maximum Intensity:</td></tr>
          <tr><td>10 kt / 12 mph / 19 kph</td></tr>
        </table>
      ]]></description>
      <Point><coordinates>128.6,8.9</coordinates></Point>
    </Placemark>
    <Placemark>
      <name>0000 UTC JUL 16</name>
      <styleUrl>#db</styleUrl>
      <description><![CDATA[
        <table>
          <tr><td>DB PRAPIROON (WP042024)</td></tr>
          <tr><td><hr></td></tr>
          <tr><td>0000 UTC JUL 16, 2024</td></tr>
          <tr><td>Storm Location:</td></tr>
          <tr><td><b>9.7 N, 127.8 E</b></td></tr>
          <tr><td>Min Sea Level Pressure:</td></tr>
          <tr><td>1006 mb / 29.71 in Hg</td></tr>
          <tr><td>Maximum Intensity:</td></tr>
          <tr><td>15 kt / 17 mph / 28 kph</td></tr>
        </table>
      ]]></description>
      <Point><coordinates>127.8,9.7</coordinates></Point>
    </Placemark>
    <Placemark>
      <name>0600 UTC JUL 16</name>
      <styleUrl>#db</styleUrl>
      <description><![CDATA[
        <table>
          <tr><td>DB PRAPIROON (WP042024)</td></tr>
          <tr><td><hr></td></tr>
          <tr><td>0600 UTC JUL 16, 2024</td></tr>
          <tr><td>Storm Location:</td></tr>
          <tr><td><b>10.1 N, 127.4 E</b></td></tr>
          <tr><td>Min Sea Level Pressure:</td></tr>
          <tr><td>1004 mb / 29.65 in Hg</td></tr>
          <tr><td>Maximum Intensity:</td></tr>
          <tr><td>15 kt / 17 mph / 28 kph</td></tr>
        </table>
      ]]></description>
      <Point><coordinates>127.4,10.1</coordinates></Point>
    </Placemark>
    <Placemark>
      <name>1200 UTC JUL 16</name>
      <styleUrl>#db</styleUrl>
      <description><![CDATA[
        <table>
          <tr><td>DB PRAPIROON (WP042024)</td></tr>
          <tr><td><hr></td></tr>
          <tr><td>1200 UTC JUL 16, 2024</td></tr>
          <tr><td>Storm Location:</td></tr>
          <tr><td><b>10.5 N, 127.0 E</b></td></tr>
          <tr><td>Min Sea Level Pressure:</td></tr>
          <tr><td>1002 mb / 29.59 in Hg</td></tr>
          <tr><td>Maximum Intensity:</td></tr>
          <tr><td>15 kt / 17 mph / 28 kph</td></tr>
        </table>
      ]]></description>
      <Point><coordinates>127,10.5</coordinates></Point>
    </Placemark>
    <Placemark>
      <name>1800 UTC JUL 16</name>
      <styleUrl>#db</styleUrl>
      <description><![CDATA[
        <table>
          <tr><td>DB PRAPIROON (WP042024)</td></tr>
          <tr><td><hr></td></tr>
          <tr><td>1800 UTC JUL 16, 2024</td></tr>
          <tr><td>Storm Location:</td></tr>
          <tr><td><b>10.8 N, 126.8 E</b></td></tr>
          <tr><td>Min Sea Level Pressure:</td></tr>
          <tr><td>1001 mb / 29.56 in Hg</td></tr>
          <tr><td>Maximum Intensity:</td></tr>
          <tr><td>15 kt / 17 mph / 28 kph</td></tr>
        </table>
      ]]></description>
      <Point><coordinates>126.8,10.8</coordinates></Point>
    </Placemark>
    <Placemark>
      <name>0000 UTC JUL 17</name>
      <styleUrl>#db</styleUrl>
      <description><![CDATA[
        <table>
          <tr><td>DB PRAPIROON (WP042024)</td></tr>
          <tr><td><hr></td></tr>
          <tr><td>0000 UTC JUL 17, 2024</td></tr>
          <tr><td>Storm Location:</td></tr>
          <tr><td><b>11.1 N, 126.7 E</b></td></tr>
          <tr><td>Min Sea Level Pressure:</td></tr>
          <tr><td>1001 mb / 29.56 in Hg</td></tr>
          <tr><td>Maximum Intensity:</td></tr>
          <tr><td>15 kt / 17 mph / 28 kph</td></tr>
        </table>
      ]]></description>
      <Point><coordinates>126.7,11.1</coordinates></Point>
    </Placemark>
    <Placemark>
      <name>0600 UTC JUL 17</name>
      <styleUrl>#db</styleUrl>
      <description><![CDATA[
        <table>
          <tr><td>DB PRAPIROON (WP042024)</td></tr>
          <tr><td><hr></td></tr>
          <tr><td>0600 UTC JUL 17, 2024</td></tr>
          <tr><td>Storm Location:</td></tr>
          <tr><td><b>11.4 N, 126.3 E</b></td></tr>
          <tr><td>Min Sea Level Pressure:</td></tr>
          <tr><td>1001 mb / 29.56 in Hg</td></tr>
          <tr><td>Maximum Intensity:</td></tr>
          <tr><td>15 kt / 17 mph / 28 kph</td></tr>
        </table>
      ]]></description>
      <Point><coordinates>126.3,11.4</coordinates></Point>
    </Placemark>
    <Placemark>
      <name>1200 UTC JUL 17</name>
      <styleUrl>#db</styleUrl>
      <description><![CDATA[
        <table>
          <tr><td>DB PRAPIROON (WP042024)</td></tr>
          <tr><td><hr></td></tr>
          <tr><td>1200 UTC JUL 17, 2024</td></tr>
          <tr><td>Storm Location:</td></tr>
          <tr><td><b>11.7 N, 125.7 E</b></td></tr>
          <tr><td>Min Sea Level Pressure:</td></tr>
          <tr><td>1003 mb / 29.62 in Hg</td></tr>
          <tr><td>Maximum Intensity:</td></tr>
          <tr><td>15 kt / 17 mph / 28 kph</td></tr>
        </table>
      ]]></description>
      <Point><coordinates>125.7,11.7</coordinates></Point>
    </Placemark>
    <Placemark>
      <name>1800 UTC JUL 17</name>
      <styleUrl>#db</styleUrl>
      <description><![CDATA[
        <table>
          <tr><td>DB PRAPIROON (WP042024)</td></tr>
          <tr><td><hr></td></tr>
          <tr><td>1800 UTC JUL 17, 2024</td></tr>
          <tr><td>Storm Location:</td></tr>
          <tr><td><b>12.1 N, 124.0 E</b></td></tr>
          <tr><td>Min Sea Level Pressure:</td></tr>
          <tr><td>1003 mb / 29.62 in Hg</td></tr>
          <tr><td>Maximum Intensity:</td></tr>
          <tr><td>15 kt / 17 mph / 28 kph</td></tr>
        </table>
      ]]></description>
      <Point><coordinates>124,12.1</coordinates></Point>
    </Placemark>
    <Placemark>
      <name>0000 UTC JUL 18</name>
      <styleUrl>#db</styleUrl>
      <description><![CDATA[
        <table>
          <tr><td>DB PRAPIROON (WP042024)</td></tr>
          <tr><td><hr></td></tr>
          <tr><td>0000 UTC JUL 18, 2024</td></tr>
          <tr><td>Storm Location:</td></tr>
          <tr><td><b>12.5 N, 122.5 E</b></td></tr>
          <tr><td>Min Sea Level Pressure:</td></tr>
          <tr><td>1003 mb / 29.62 in Hg</td></tr>
          <tr><td>Maximum Intensity:</td></tr>
          <tr><td>20 kt / 23 mph / 37 kph</td></tr>
        </table>
      ]]></description>
      <Point><coordinates>122.5,12.5</coordinates></Point>
    </Placemark>
    <Placemark>
      <name>0600 UTC JUL 18</name>
      <styleUrl>#db</styleUrl>
      <description><![CDATA[
        <table>
          <tr><td>DB PRAPIROON (WP042024)</td></tr>
          <tr><td><hr></td></tr>
          <tr><td>0600 UTC JUL 18, 2024</td></tr>
          <tr><td>Storm Location:</td></tr>
          <tr><td><b>12.6 N, 121.7 E</b></td></tr>
          <tr><td>Min Sea Level Pressure:</td></tr>
          <tr><td>1002 mb / 29.59 in Hg</td></tr>
          <tr><td>Maximum Intensity:</td></tr>
          <tr><td>20 kt / 23 mph / 37 kph</td></tr>
        </table>
      ]]></description>
      <Point><coordinates>121.7,12.6</coordinates></Point>
    </Placemark>
    <Placemark>
      <name>1200 UTC JUL 18</name>
      <styleUrl>#td</styleUrl>
      <description><![CDATA[
        <table>
          <tr><td>TD PRAPIROON (WP042024)</td></tr>
          <tr><td><hr></td></tr>
          <tr><td>1200 UTC JUL 18, 2024</td></tr>
          <tr><td>Storm Location:</td></tr>
          <tr><td><b>12.8 N, 121.0 E</b></td></tr>
          <tr><td>Min Sea Level Pressure:</td></tr>
          <tr><td>1001 mb / 29.56 in Hg</td></tr>
          <tr><td>Maximum Intensity:</td></tr>
          <tr><td>25 kt / 29 mph / 46 kph</td></tr>
        </table>
      ]]></description>
      <Point><coordinates>121,12.8</coordinates></Point>
    </Placemark>
    <Placemark>
      <name>1800 UTC JUL 18</name>
      <styleUrl>#td</styleUrl>
      <description><![CDATA[
        <table>
          <tr><td>TD PRAPIROON (WP042024)</td></tr>
          <tr><td><hr></td></tr>
          <tr><td>1800 UTC JUL 18, 2024</td></tr>
          <tr><td>Storm Location:</td></tr>
          <tr><td><b>13.1 N, 120.0 E</b></td></tr>
          <tr><td>Min Sea Level Pressure:</td></tr>
          <tr><td>1000 mb / 29.53 in Hg</td></tr>
          <tr><td>Maximum Intensity:</td></tr>
          <tr><td>25 kt / 29 mph / 46 kph</td></tr>
        </table>
      ]]></description>
      <Point><coordinates>120,13.1</coordinates></Point>
    </Placemark>
    <Placemark>
      <name>0000 UTC JUL 19</name>
      <styleUrl>#td</styleUrl>
      <description><![CDATA[
        <table>
          <tr><td>TD PRAPIROON (WP042024)</td></tr>
          <tr><td><hr></td></tr>
          <tr><td>0000 UTC JUL 19, 2024</td></tr>
          <tr><td>Storm Location:</td></tr>
          <tr><td><b>13.5 N, 119.1 E</b></td></tr>
          <tr><td>Min Sea Level Pressure:</td></tr>
          <tr><td>999 mb / 29.50 in Hg</td></tr>
          <tr><td>Maximum Intensity:</td></tr>
          <tr><td>25 kt / 29 mph / 46 kph</td></tr>
        </table>
      ]]></description>
      <Point><coordinates>119.1,13.5</coordinates></Point>
    </Placemark>
    <Placemark>
      <name>0600 UTC JUL 19</name>
      <styleUrl>#db</styleUrl>
      <description><![CDATA[
        <table>
          <tr><td>DB PRAPIROON (WP042024)</td></tr>
          <tr><td><hr></td></tr>
          <tr><td>0600 UTC JUL 19, 2024</td></tr>
          <tr><td>Storm Location:</td></tr>
          <tr><td><b>14.1 N, 117.8 E</b></td></tr>
          <tr><td>Min Sea Level Pressure:</td></tr>
          <tr><td>998 mb / 29.47 in Hg</td></tr>
          <tr><td>Maximum Intensity:</td></tr>
          <tr><td>25 kt / 29 mph / 46 kph</td></tr>
        </table>
      ]]></description>
      <Point><coordinates>117.8,14.1</coordinates></Point>
    </Placemark>
    <Placemark>
      <name>1200 UTC JUL 19</name>
      <styleUrl>#db</styleUrl>
      <description><![CDATA[
        <table>
          <tr><td>DB PRAPIROON (WP042024)</td></tr>
          <tr><td><hr></td></tr>
          <tr><td>1200 UTC JUL 19, 2024</td></tr>
          <tr><td>Storm Location:</td></tr>
          <tr><td><b>14.6 N, 116.8 E</b></td></tr>
          <tr><td>Min Sea Level Pressure:</td></tr>
          <tr><td>997 mb / 29.44 in Hg</td></tr>
          <tr><td>Maximum Intensity:</td></tr>
          <tr><td>25 kt / 29 mph / 46 kph</td></tr>
        </table>
      ]]></description>
      <Point><coordinates>116.8,14.6</coordinates></Point>
    </Placemark>
    <Placemark>
      <name>1800 UTC JUL 19</name>
      <styleUrl>#td</styleUrl>
      <description><![CDATA[
        <table>
          <tr><td>TD PRAPIROON (WP042024)</td></tr>
          <tr><td><hr></td></tr>
          <tr><td>1800 UTC JUL 19, 2024</td></tr>
          <tr><td>Storm Location:</td></tr>
          <tr><td><b>15.0 N, 115.8 E</b></td></tr>
          <tr><td>Min Sea Level Pressure:</td></tr>
          <tr><td>994 mb / 29.35 in Hg</td></tr>
          <tr><td>Maximum Intensity:</td></tr>
          <tr><td>30 kt / 35 mph / 56 kph</td></tr>
        </table>
      ]]></description>
      <Point><coordinates>115.8,15</coordinates></Point>
    </Placemark>
    <Placemark>
      <name>0000 UTC JUL 20</name>
      <styleUrl>#td</styleUrl>
      <description><![CDATA[
        <table>
          <tr><td>TD PRAPIROON (WP042024)</td></tr>
          <tr><td><hr></td></tr>
          <tr><td>0000 UTC JUL 20, 2024</td></tr>
          <tr><td>Storm Location:</td></tr>
          <tr><td><b>15.6 N, 114.6 E</b></td></tr>
          <tr><td>Min Sea Level Pressure:</td></tr>
          <tr><td>994 mb / 29.35 in Hg</td></tr>
          <tr><td>Maximum Intensity:</td></tr>
          <tr><td>30 kt / 35 mph / 56 kph</td></tr>
        </table>
      ]]></description>
      <Point><coordinates>114.6,15.6</coordinates></Point>
    </Placemark>
    <Placemark>
      <name>0600 UTC JUL 20</name>
      <styleUrl>#ts</styleUrl>
      <description><![CDATA[
        <table>
          <tr><td>TS PRAPIROON (WP042024)</td></tr>
          <tr><td><hr></td></tr>
          <tr><td>0600 UTC JUL 20, 2024</td></tr>
          <tr><td>Storm Location:</td></tr>
          <tr><td><b>15.9 N, 113.8 E</b></td></tr>
          <tr><td>Min Sea Level Pressure:</td></tr>
          <tr><td>991 mb / 29.26 in Hg</td></tr>
          <tr><td>Maximum Intensity:</td></tr>
          <tr><td>35 kt / 40 mph / 65 kph</td></tr>
        </table>
      ]]></description>
      <Point><coordinates>113.8,15.9</coordinates></Point>
    </Placemark>
    <Placemark>
      <name>1200 UTC JUL 20</name>
      <styleUrl>#ts</styleUrl>
      <description><![CDATA[
        <table>
          <tr><td>TS PRAPIROON (WP042024)</td></tr>
          <tr><td><hr></td></tr>
          <tr><td>1200 UTC JUL 20, 2024</td></tr>
          <tr><td>Storm Location:</td></tr>
          <tr><td><b>16.2 N, 112.9 E</b></td></tr>
          <tr><td>Min Sea Level Pressure:</td></tr>
          <tr><td>990 mb / 29.23 in Hg</td></tr>
          <tr><td>Maximum Intensity:</td></tr>
          <tr><td>35 kt / 40 mph / 65 kph</td></tr>
        </table>
      ]]></description>
      <Point><coordinates>112.9,16.2</coordinates></Point>
    </Placemark>
    <Placemark>
      <name>1800 UTC JUL 20</name>
      <styleUrl>#ts</styleUrl>
      <description><![CDATA[
        <table>
          <tr><td>TS PRAPIROON (WP042024)</td></tr>
          <tr><td><hr></td></tr>
          <tr><td>1800 UTC JUL 20, 2024</td></tr>
          <tr><td>Storm Location:</td></tr>
          <tr><td><b>16.0 N, 111.7 E</b></td></tr>
          <tr><td>Min Sea Level Pressure:</td></tr>
          <tr><td>990 mb / 29.23 in Hg</td></tr>
          <tr><td>Maximum Intensity:</td></tr>
          <tr><td>35 kt / 40 mph / 65 kph</td></tr>
        </table>
      ]]></description>
      <Point><coordinates>111.7,16</coordinates></Point>
    </Placemark>
    <Placemark>
      <name>0000 UTC JUL 21</name>
      <styleUrl>#ts</styleUrl>
      <description><![CDATA[
        <table>
          <tr><td>TS PRAPIROON (WP042024)</td></tr>
          <tr><td><hr></td></tr>
          <tr><td>0000 UTC JUL 21, 2024</td></tr>
          <tr><td>Storm Location:</td></tr>
          <tr><td><b>16.3 N, 111.5 E</b></td></tr>
          <tr><td>Min Sea Level Pressure:</td></tr>
          <tr><td>990 mb / 29.23 in Hg</td></tr>
          <tr><td>Maximum Intensity:</td></tr>
          <tr><td>35 kt / 40 mph / 65 kph</td></tr>
        </table>
      ]]></description>
      <Point><coordinates>111.5,16.3</coordinates></Point>
    </Placemark>
    <Placemark>
      <name>0600 UTC JUL 21</name>
      <styleUrl>#ts</styleUrl>
      <description><![CDATA[
        <table>
          <tr><td>TS PRAPIROON (WP042024)</td></tr>
          <tr><td><hr></td></tr>
          <tr><td>0600 UTC JUL 21, 2024</td></tr>
          <tr><td>Storm Location:</td></tr>
          <tr><td><b>17.2 N, 111.2 E</b></td></tr>
          <tr><td>Min Sea Level Pressure:</td></tr>
          <tr><td>990 mb / 29.23 in Hg</td></tr>
          <tr><td>Maximum Intensity:</td></tr>
          <tr><td>35 kt / 40 mph / 65 kph</td></tr>
        </table>
      ]]></description>
      <Point><coordinates>111.2,17.2</coordinates></Point>
    </Placemark>
    <Placemark>
      <name>1200 UTC JUL 21</name>
      <styleUrl>#ts</styleUrl>
      <description><![CDATA[
        <table>
          <tr><td>TS PRAPIROON (WP042024)</td></tr>
          <tr><td><hr></td></tr>
          <tr><td>1200 UTC JUL 21, 2024</td></tr>
          <tr><td>Storm Location:</td></tr>
          <tr><td><b>18.0 N, 110.8 E</b></td></tr>
          <tr><td>Min Sea Level Pressure:</td></tr>
          <tr><td>990 mb / 29.23 in Hg</td></tr>
          <tr><td>Maximum Intensity:</td></tr>
          <tr><td>35 kt / 40 mph / 65 kph</td></tr>
        </table>
      ]]></description>
      <Point><coordinates>110.8,18</coordinates></Point>
    </Placemark>
    <Placemark>
      <name>1800 UTC JUL 21</name>
      <styleUrl>#ts</styleUrl>
      <description><![CDATA[
        <table>
          <tr><td>TS PRAPIROON (WP042024)</td></tr>
          <tr><td><hr></td></tr>
          <tr><td>1800 UTC JUL 21, 2024</td></tr>
          <tr><td>Storm Location:</td></tr>
          <tr><td><b>18.9 N, 110.3 E</b></td></tr>
          <tr><td>Min Sea Level Pressure:</td></tr>
          <tr><td>989 mb / 29.21 in Hg</td></tr>
          <tr><td>Maximum Intensity:</td></tr>
          <tr><td>40 kt / 46 mph / 74 kph</td></tr>
        </table>
      ]]></description>
      <Point><coordinates>110.3,18.9</coordinates></Point>
    </Placemark>
    <Placemark>
      <name>0000 UTC JUL 22</name>
      <styleUrl>#ts</styleUrl>
      <description><![CDATA[
        <table>
          <tr><td>TS PRAPIROON (WP042024)</td></tr>
          <tr><td><hr></td></tr>
          <tr><td>0000 UTC JUL 22, 2024</td></tr>
          <tr><td>Storm Location:</td></tr>
          <tr><td><b>19.6 N, 109.2 E</b></td></tr>
          <tr><td>Min Sea Level Pressure:</td></tr>
          <tr><td>988 mb / 29.18 in Hg</td></tr>
          <tr><td>Maximum Intensity:</td></tr>
          <tr><td>35 kt / 40 mph / 65 kph</td></tr>
        </table>
      ]]></description>
      <Point><coordinates>109.2,19.6</coordinates></Point>
    </Placemark>
    <Placemark>
      <name>0600 UTC JUL 22</name>
      <styleUrl>#ts</styleUrl>
      <description><![CDATA[
        <table>
          <tr><td>TS PRAPIROON (WP042024)</td></tr>
          <tr><td><hr></td></tr>
          <tr><td>0600 UTC JUL 22, 2024</td></tr>
          <tr><td>Storm Location:</td></tr>
          <tr><td><b>20.1 N, 108.7 E</b></td></tr>
          <tr><td>Min Sea Level Pressure:</td></tr>
          <tr><td>988 mb / 29.18 in Hg</td></tr>
          <tr><td>Maximum Intensity:</td></tr>
          <tr><td>50 kt / 58 mph / 93 kph</td></tr>
        </table>
      ]]></description>
      <Point><coordinates>108.7,20.1</coordinates></Point>
    </Placemark>
    <Placemark>
      <name>1200 UTC JUL 22</name>
      <styleUrl>#ts</styleUrl>
      <description><![CDATA[
        <table>
          <tr><td>TS PRAPIROON (WP042024)</td></tr>
          <tr><td><hr></td></tr>
          <tr><td>1200 UTC JUL 22, 2024</td></tr>
          <tr><td>Storm Location:</td></tr>
          <tr><td><b>20.3 N, 108.3 E</b></td></tr>
          <tr><td>Min Sea Level Pressure:</td></tr>
          <tr><td>981 mb / 28.97 in Hg</td></tr>
          <tr><td>Maximum Intensity:</td></tr>
          <tr><td>60 kt / 69 mph / 111 kph</td></tr>
        </table>
      ]]></description>
      <Point><coordinates>108.3,20.3</coordinates></Point>
    </Placemark>
    <Placemark>
      <name>1800 UTC JUL 22</name>
      <styleUrl>#ts</styleUrl>
      <description><![CDATA[
        <table>
          <tr><td>TS PRAPIROON (WP042024)</td></tr>
          <tr><td><hr></td></tr>
          <tr><td>1800 UTC JUL 22, 2024</td></tr>
          <tr><td>Storm Location:</td></tr>
          <tr><td><b>21.1 N, 107.9 E</b></td></tr>
          <tr><td>Min Sea Level Pressure:</td></tr>
          <tr><td>983 mb / 29.03 in Hg</td></tr>
          <tr><td>Maximum Intensity:</td></tr>
          <tr><td>50 kt / 58 mph / 93 kph</td></tr>
        </table>
      ]]></description>
      <Point><coordinates>107.9,21.1</coordinates></Point>
    </Placemark>
    <Placemark>
      <name>0000 UTC JUL 23</name>
      <styleUrl>#ts</styleUrl>
      <description><![CDATA[
        <table>
          <tr><td>TS PRAPIROON (WP042024)</td></tr>
          <tr><td><hr></td></tr>
          <tr><td>0000 UTC JUL 23, 2024</td></tr>
          <tr><td>Storm Location:</td></tr>
          <tr><td><b>21.4 N, 107.6 E</b></td></tr>
          <tr><td>Min Sea Level Pressure:</td></tr>
          <tr><td>985 mb / 29.09 in Hg</td></tr>
          <tr><td>Maximum Intensity:</td></tr>
          <tr><td>40 kt / 46 mph / 74 kph</td></tr>
        </table>
      ]]></description>
      <Point><coordinates>107.6,21.4</coordinates></Point>
    </Placemark>
    <Placemark>
      <name>0600 UTC JUL 23</name>
      <styleUrl>#td</styleUrl>
      <description><![CDATA[
        <table>
          <tr><td>TD PRAPIROON (WP042024)</td></tr>
          <tr><td><hr></td></tr>
          <tr><td>0600 UTC JUL 23, 2024</td></tr>
          <tr><td>Storm Location:</td></tr>
          <tr><td><b>21.6 N, 107.4 E</b></td></tr>
          <tr><td>Min Sea Level Pressure:</td></tr>
          <tr><td>987 mb / 29.15 in Hg</td></tr>
          <tr><td>Maximum Intensity:</td></tr>
          <tr><td>30 kt / 35 mph / 56 kph</td></tr>
        </table>
      ]]></description>
      <Point><coordinates>107.4,21.6</coordinates></Point>
    </Placemark>
    <Placemark>
      <name>1200 UTC JUL 23</name>
      <styleUrl>#db</styleUrl>
      <description><![CDATA[
        <table>
          <tr><td>DB PRAPIROON (WP042024)</td></tr>
          <tr><td><hr></td></tr>
          <tr><td>1200 UTC JUL 23, 2024</td></tr>
          <tr><td>Storm Location:</td></tr>
          <tr><td><b>21.8 N, 107.2 E</b></td></tr>
          <tr><td>Min Sea Level Pressure:</td></tr>
          <tr><td>988 mb / 29.18 in Hg</td></tr>
          <tr><td>Maximum Intensity:</td></tr>
          <tr><td>20 kt / 23 mph / 37 kph</td></tr>
        </table>
      ]]></description>
      <Point><coordinates>107.2,21.8</coordinates></Point>
    </Placemark>
  </Document>
</kml>
