<?xml version="1.0" encoding="UTF-8"?>
<kml xmlns="http://www.opengis.net/kml/2.2">
  <Document>
    <name>WP052024</name>
    <open>0</open>

    <!-- =====  Document header ===== -->
    <description><![CDATA[
      <table>
        <tr><td><b>Title:</b> Tropical Cyclone Best Track for WP052024</td></tr>
      </table>
    ]]></description>

    <!-- =====  Styles (ids must be unique)  ===== -->
	<Style id="pt"> 
		<IconStyle> 
			<scale>1.0</scale> 
			<Icon> 
				<href>ex_nhemi.png</href> 
			</Icon> 
             <hotSpot x="15" y="17" xunits="pixels" yunits="pixels"/>
		</IconStyle> 
		<LabelStyle> 
			<scale>1.0</scale> 
		</LabelStyle> 
	</Style>
	<Style id="cat5"> 
		<IconStyle> 
			<scale>1.0</scale> 
			<Icon> 
				<href>cat5_nhemi.png</href> 
			</Icon> 
             <hotSpot x="15" y="17" xunits="pixels" yunits="pixels"/>
		</IconStyle> 
		<LabelStyle> 
			<scale>1.0</scale> 
		</LabelStyle> 
	</Style>
	<Style id="db"> 
		<IconStyle> 
			<scale>1.0</scale> 
			<Icon> 
				<href>ex_nhemi.png</href> 
			</Icon> 
             <hotSpot x="15" y="17" xunits="pixels" yunits="pixels"/>
		</IconStyle> 
		<LabelStyle> 
			<scale>1.0</scale> 
		</LabelStyle> 
	</Style>
	<Style id="cat3"> 
		<IconStyle> 
			<scale>1.0</scale> 
			<Icon> 
				<href>cat3_nhemi.png</href> 
			</Icon> 
             <hotSpot x="15" y="17" xunits="pixels" yunits="pixels"/>
		</IconStyle> 
		<LabelStyle> 
			<scale>1.0</scale> 
		</LabelStyle> 
	</Style>
	<Style id="ss"> 
		<IconStyle> 
			<scale>1.0</scale> 
			<Icon> 
				<href>ts_nhemi.png</href> 
			</Icon> 
             <hotSpot x="15" y="17" xunits="pixels" yunits="pixels"/>
		</IconStyle> 
		<LabelStyle> 
			<scale>1.0</scale> 
		</LabelStyle> 
	</Style>
	<Style id="lo"> 
		<IconStyle> 
			<scale>1.0</scale> 
			<Icon> 
				<href>ex_nhemi.png</href> 
			</Icon> 
             <hotSpot x="15" y="17" xunits="pixels" yunits="pixels"/>
		</IconStyle> 
		<LabelStyle> 
			<scale>1.0</scale> 
		</LabelStyle> 
	</Style>
	<Style id="cat4"> 
		<IconStyle> 
			<scale>1.0</scale> 
			<Icon> 
				<href>cat4_nhemi.png</href> 
			</Icon> 
             <hotSpot x="15" y="17" xunits="pixels" yunits="pixels"/>
		</IconStyle> 
		<LabelStyle> 
			<scale>1.0</scale> 
		</LabelStyle> 
	</Style>
	<Style id="cat2"> 
		<IconStyle> 
			<scale>1.0</scale> 
			<Icon> 
				<href>cat2_nhemi.png</href> 
			</Icon> 
             <hotSpot x="15" y="17" xunits="pixels" yunits="pixels"/>
		</IconStyle> 
		<LabelStyle> 
			<scale>1.0</scale> 
		</LabelStyle> 
	</Style>
	<Style id="ts"> 
		<IconStyle> 
			<scale>1.0</scale> 
			<Icon> 
				<href>ts_nhemi.png</href> 
			</Icon> 
             <hotSpot x="15" y="17" xunits="pixels" yunits="pixels"/>
		</IconStyle> 
		<LabelStyle> 
			<scale>1.0</scale> 
		</LabelStyle> 
	</Style>
	<Style id="cat1"> 
		<IconStyle> 
			<scale>1.0</scale> 
			<Icon> 
				<href>cat1_nhemi.png</href> 
			</Icon> 
             <hotSpot x="15" y="17" xunits="pixels" yunits="pixels"/>
		</IconStyle> 
		<LabelStyle> 
			<scale>1.0</scale> 
		</LabelStyle> 
	</Style>
	<Style id="ex"> 
		<IconStyle> 
			<scale>1.0</scale> 
			<Icon> 
				<href>ex_nhemi.png</href> 
			</Icon> 
             <hotSpot x="15" y="17" xunits="pixels" yunits="pixels"/>
		</IconStyle> 
		<LabelStyle> 
			<scale>1.0</scale> 
		</LabelStyle> 
	</Style>
	<Style id="tc"> 
		<IconStyle> 
			<scale>1.0</scale> 
			<Icon> 
				<href>ex_nhemi.png</href> 
			</Icon> 
             <hotSpot x="15" y="17" xunits="pixels" yunits="pixels"/>
		</IconStyle> 
		<LabelStyle> 
			<scale>1.0</scale> 
		</LabelStyle> 
	</Style>
	<Style id="wv"> 
		<IconStyle> 
			<scale>1.0</scale> 
			<Icon> 
				<href>ex_nhemi.png</href> 
			</Icon> 
             <hotSpot x="15" y="17" xunits="pixels" yunits="pixels"/>
		</IconStyle> 
		<LabelStyle> 
			<scale>1.0</scale> 
		</LabelStyle> 
	</Style>
	<Style id="td"> 
		<IconStyle> 
			<scale>1.0</scale> 
			<Icon> 
				<href>td_nhemi.png</href> 
			</Icon> 
             <hotSpot x="15" y="17" xunits="pixels" yunits="pixels"/>
		</IconStyle> 
		<LabelStyle> 
			<scale>1.0</scale> 
		</LabelStyle> 
	</Style>
	<Style id="sd"> 
		<IconStyle> 
			<scale>1.0</scale> 
			<Icon> 
				<href>ex_nhemi.png</href> 
			</Icon> 
             <hotSpot x="15" y="17" xunits="pixels" yunits="pixels"/>
		</IconStyle> 
		<LabelStyle> 
			<scale>1.0</scale> 
		</LabelStyle> 
	</Style>

    <Placemark>
      <name>0600 UTC JUL 19</name>
      <styleUrl>#db</styleUrl>
      <description><![CDATA[
        <table>
          <tr><td>DB GAEMI (WP052024)</td></tr>
          <tr><td><hr></td></tr>
          <tr><td>0600 UTC JUL 19, 2024</td></tr>
          <tr><td>Storm Location:</td></tr>
          <tr><td><b>13.0 N, 132.3 E</b></td></tr>
          <tr><td>Min Sea Level Pressure:</td></tr>
          <tr><td>1007 mb / 29.74 in Hg</td></tr>
          <tr><td>Maximum Intensity:</td></tr>
          <tr><td>20 kt / 23 mph / 37 kph</td></tr>
        </table>
      ]]></description>
      <Point><coordinates>132.3,13</coordinates></Point>
    </Placemark>
    <Placemark>
      <name>1200 UTC JUL 19</name>
      <styleUrl>#db</styleUrl>
      <description><![CDATA[
        <table>
          <tr><td>DB GAEMI (WP052024)</td></tr>
          <tr><td><hr></td></tr>
          <tr><td>1200 UTC JUL 19, 2024</td></tr>
          <tr><td>Storm Location:</td></tr>
          <tr><td><b>13.9 N, 130.7 E</b></td></tr>
          <tr><td>Min Sea Level Pressure:</td></tr>
          <tr><td>1003 mb / 29.62 in Hg</td></tr>
          <tr><td>Maximum Intensity:</td></tr>
          <tr><td>20 kt / 23 mph / 37 kph</td></tr>
        </table>
      ]]></description>
      <Point><coordinates>130.7,13.9</coordinates></Point>
    </Placemark>
    <Placemark>
      <name>1800 UTC JUL 19</name>
      <styleUrl>#td</styleUrl>
      <description><![CDATA[
        <table>
          <tr><td>TD GAEMI (WP052024)</td></tr>
          <tr><td><hr></td></tr>
          <tr><td>1800 UTC JUL 19, 2024</td></tr>
          <tr><td>Storm Location:</td></tr>
          <tr><td><b>14.7 N, 129.7 E</b></td></tr>
          <tr><td>Min Sea Level Pressure:</td></tr>
          <tr><td>999 mb / 29.50 in Hg</td></tr>
          <tr><td>Maximum Intensity:</td></tr>
          <tr><td>25 kt / 29 mph / 46 kph</td></tr>
        </table>
      ]]></description>
      <Point><coordinates>129.7,14.7</coordinates></Point>
    </Placemark>
    <Placemark>
      <name>0000 UTC JUL 20</name>
      <styleUrl>#td</styleUrl>
      <description><![CDATA[
        <table>
          <tr><td>TD GAEMI (WP052024)</td></tr>
          <tr><td><hr></td></tr>
          <tr><td>0000 UTC JUL 20, 2024</td></tr>
          <tr><td>Storm Location:</td></tr>
          <tr><td><b>15.7 N, 128.8 E</b></td></tr>
          <tr><td>Min Sea Level Pressure:</td></tr>
          <tr><td>997 mb / 29.44 in Hg</td></tr>
          <tr><td>Maximum Intensity:</td></tr>
          <tr><td>30 kt / 35 mph / 56 kph</td></tr>
        </table>
      ]]></description>
      <Point><coordinates>128.8,15.7</coordinates></Point>
    </Placemark>
    <Placemark>
      <name>0600 UTC JUL 20</name>
      <styleUrl>#ts</styleUrl>
      <description><![CDATA[
        <table>
          <tr><td>TS GAEMI (WP052024)</td></tr>
          <tr><td><hr></td></tr>
          <tr><td>0600 UTC JUL 20, 2024</td></tr>
          <tr><td>Storm Location:</td></tr>
          <tr><td><b>16.1 N, 128.2 E</b></td></tr>
          <tr><td>Min Sea Level Pressure:</td></tr>
          <tr><td>995 mb / 29.38 in Hg</td></tr>
          <tr><td>Maximum Intensity:</td></tr>
          <tr><td>35 kt / 40 mph / 65 kph</td></tr>
        </table>
      ]]></description>
      <Point><coordinates>128.2,16.1</coordinates></Point>
    </Placemark>
    <Placemark>
      <name>1200 UTC JUL 20</name>
      <styleUrl>#ts</styleUrl>
      <description><![CDATA[
        <table>
          <tr><td>TS GAEMI (WP052024)</td></tr>
          <tr><td><hr></td></tr>
          <tr><td>1200 UTC JUL 20, 2024</td></tr>
          <tr><td>Storm Location:</td></tr>
          <tr><td><b>16.5 N, 127.6 E</b></td></tr>
          <tr><td>Min Sea Level Pressure:</td></tr>
          <tr><td>997 mb / 29.44 in Hg</td></tr>
          <tr><td>Maximum Intensity:</td></tr>
          <tr><td>40 kt / 46 mph / 74 kph</td></tr>
        </table>
      ]]></description>
      <Point><coordinates>127.6,16.5</coordinates></Point>
    </Placemark>
    <Placemark>
      <name>1800 UTC JUL 20</name>
      <styleUrl>#ts</styleUrl>
      <description><![CDATA[
        <table>
          <tr><td>TS GAEMI (WP052024)</td></tr>
          <tr><td><hr></td></tr>
          <tr><td>1800 UTC JUL 20, 2024</td></tr>
          <tr><td>Storm Location:</td></tr>
          <tr><td><b>16.7 N, 126.7 E</b></td></tr>
          <tr><td>Min Sea Level Pressure:</td></tr>
          <tr><td>998 mb / 29.47 in Hg</td></tr>
          <tr><td>Maximum Intensity:</td></tr>
          <tr><td>40 kt / 46 mph / 74 kph</td></tr>
        </table>
      ]]></description>
      <Point><coordinates>126.7,16.7</coordinates></Point>
    </Placemark>
    <Placemark>
      <name>0000 UTC JUL 21</name>
      <styleUrl>#ts</styleUrl>
      <description><![CDATA[
        <table>
          <tr><td>TS GAEMI (WP052024)</td></tr>
          <tr><td><hr></td></tr>
          <tr><td>0000 UTC JUL 21, 2024</td></tr>
          <tr><td>Storm Location:</td></tr>
          <tr><td><b>16.9 N, 125.8 E</b></td></tr>
          <tr><td>Min Sea Level Pressure:</td></tr>
          <tr><td>997 mb / 29.44 in Hg</td></tr>
          <tr><td>Maximum Intensity:</td></tr>
          <tr><td>45 kt / 52 mph / 83 kph</td></tr>
        </table>
      ]]></description>
      <Point><coordinates>125.8,16.9</coordinates></Point>
    </Placemark>
    <Placemark>
      <name>0600 UTC JUL 21</name>
      <styleUrl>#ts</styleUrl>
      <description><![CDATA[
        <table>
          <tr><td>TS GAEMI (WP052024)</td></tr>
          <tr><td><hr></td></tr>
          <tr><td>0600 UTC JUL 21, 2024</td></tr>
          <tr><td>Storm Location:</td></tr>
          <tr><td><b>16.9 N, 125.7 E</b></td></tr>
          <tr><td>Min Sea Level Pressure:</td></tr>
          <tr><td>994 mb / 29.35 in Hg</td></tr>
          <tr><td>Maximum Intensity:</td></tr>
          <tr><td>45 kt / 52 mph / 83 kph</td></tr>
        </table>
      ]]></description>
      <Point><coordinates>125.7,16.9</coordinates></Point>
    </Placemark>
    <Placemark>
      <name>1200 UTC JUL 21</name>
      <styleUrl>#ts</styleUrl>
      <description><![CDATA[
        <table>
          <tr><td>TS GAEMI (WP052024)</td></tr>
          <tr><td><hr></td></tr>
          <tr><td>1200 UTC JUL 21, 2024</td></tr>
          <tr><td>Storm Location:</td></tr>
          <tr><td><b>17.0 N, 125.6 E</b></td></tr>
          <tr><td>Min Sea Level Pressure:</td></tr>
          <tr><td>992 mb / 29.29 in Hg</td></tr>
          <tr><td>Maximum Intensity:</td></tr>
          <tr><td>50 kt / 58 mph / 93 kph</td></tr>
        </table>
      ]]></description>
      <Point><coordinates>125.6,17</coordinates></Point>
    </Placemark>
    <Placemark>
      <name>1800 UTC JUL 21</name>
      <styleUrl>#ts</styleUrl>
      <description><![CDATA[
        <table>
          <tr><td>TS GAEMI (WP052024)</td></tr>
          <tr><td><hr></td></tr>
          <tr><td>1800 UTC JUL 21, 2024</td></tr>
          <tr><td>Storm Location:</td></tr>
          <tr><td><b>17.1 N, 125.5 E</b></td></tr>
          <tr><td>Min Sea Level Pressure:</td></tr>
          <tr><td>987 mb / 29.15 in Hg</td></tr>
          <tr><td>Maximum Intensity:</td></tr>
          <tr><td>55 kt / 63 mph / 102 kph</td></tr>
        </table>
      ]]></description>
      <Point><coordinates>125.5,17.1</coordinates></Point>
    </Placemark>
    <Placemark>
      <name>0000 UTC JUL 22</name>
      <styleUrl>#ts</styleUrl>
      <description><![CDATA[
        <table>
          <tr><td>TS GAEMI (WP052024)</td></tr>
          <tr><td><hr></td></tr>
          <tr><td>0000 UTC JUL 22, 2024</td></tr>
          <tr><td>Storm Location:</td></tr>
          <tr><td><b>17.4 N, 125.5 E</b></td></tr>
          <tr><td>Min Sea Level Pressure:</td></tr>
          <tr><td>987 mb / 29.15 in Hg</td></tr>
          <tr><td>Maximum Intensity:</td></tr>
          <tr><td>55 kt / 63 mph / 102 kph</td></tr>
        </table>
      ]]></description>
      <Point><coordinates>125.5,17.4</coordinates></Point>
    </Placemark>
    <Placemark>
      <name>0600 UTC JUL 22</name>
      <styleUrl>#cat1</styleUrl>
      <description><![CDATA[
        <table>
          <tr><td>HU GAEMI (WP052024)</td></tr>
          <tr><td><hr></td></tr>
          <tr><td>0600 UTC JUL 22, 2024</td></tr>
          <tr><td>Storm Location:</td></tr>
          <tr><td><b>17.9 N, 125.4 E</b></td></tr>
          <tr><td>Min Sea Level Pressure:</td></tr>
          <tr><td>980 mb / 28.94 in Hg</td></tr>
          <tr><td>Maximum Intensity:</td></tr>
          <tr><td>65 kt / 75 mph / 120 kph</td></tr>
        </table>
      ]]></description>
      <Point><coordinates>125.4,17.9</coordinates></Point>
    </Placemark>
    <Placemark>
      <name>1200 UTC JUL 22</name>
      <styleUrl>#cat1</styleUrl>
      <description><![CDATA[
        <table>
          <tr><td>HU GAEMI (WP052024)</td></tr>
          <tr><td><hr></td></tr>
          <tr><td>1200 UTC JUL 22, 2024</td></tr>
          <tr><td>Storm Location:</td></tr>
          <tr><td><b>18.5 N, 125.3 E</b></td></tr>
          <tr><td>Min Sea Level Pressure:</td></tr>
          <tr><td>981 mb / 28.97 in Hg</td></tr>
          <tr><td>Maximum Intensity:</td></tr>
          <tr><td>65 kt / 75 mph / 120 kph</td></tr>
        </table>
      ]]></description>
      <Point><coordinates>125.3,18.5</coordinates></Point>
    </Placemark>
    <Placemark>
      <name>1800 UTC JUL 22</name>
      <styleUrl>#cat1</styleUrl>
      <description><![CDATA[
        <table>
          <tr><td>HU GAEMI (WP052024)</td></tr>
          <tr><td><hr></td></tr>
          <tr><td>1800 UTC JUL 22, 2024</td></tr>
          <tr><td>Storm Location:</td></tr>
          <tr><td><b>19.1 N, 125.1 E</b></td></tr>
          <tr><td>Min Sea Level Pressure:</td></tr>
          <tr><td>972 mb / 28.70 in Hg</td></tr>
          <tr><td>Maximum Intensity:</td></tr>
          <tr><td>75 kt / 86 mph / 139 kph</td></tr>
        </table>
      ]]></description>
      <Point><coordinates>125.1,19.1</coordinates></Point>
    </Placemark>
    <Placemark>
      <name>0000 UTC JUL 23</name>
      <styleUrl>#cat1</styleUrl>
      <description><![CDATA[
        <table>
          <tr><td>HU GAEMI (WP052024)</td></tr>
          <tr><td><hr></td></tr>
          <tr><td>0000 UTC JUL 23, 2024</td></tr>
          <tr><td>Storm Location:</td></tr>
          <tr><td><b>19.7 N, 124.9 E</b></td></tr>
          <tr><td>Min Sea Level Pressure:</td></tr>
          <tr><td>968 mb / 28.59 in Hg</td></tr>
          <tr><td>Maximum Intensity:</td></tr>
          <tr><td>80 kt / 92 mph / 148 kph</td></tr>
        </table>
      ]]></description>
      <Point><coordinates>124.9,19.7</coordinates></Point>
    </Placemark>
    <Placemark>
      <name>0600 UTC JUL 23</name>
      <styleUrl>#cat2</styleUrl>
      <description><![CDATA[
        <table>
          <tr><td>HU GAEMI (WP052024)</td></tr>
          <tr><td><hr></td></tr>
          <tr><td>0600 UTC JUL 23, 2024</td></tr>
          <tr><td>Storm Location:</td></tr>
          <tr><td><b>20.8 N, 125.1 E</b></td></tr>
          <tr><td>Min Sea Level Pressure:</td></tr>
          <tr><td>963 mb / 28.44 in Hg</td></tr>
          <tr><td>Maximum Intensity:</td></tr>
          <tr><td>85 kt / 98 mph / 157 kph</td></tr>
        </table>
      ]]></description>
      <Point><coordinates>125.1,20.8</coordinates></Point>
    </Placemark>
    <Placemark>
      <name>1200 UTC JUL 23</name>
      <styleUrl>#cat2</styleUrl>
      <description><![CDATA[
        <table>
          <tr><td>HU GAEMI (WP052024)</td></tr>
          <tr><td><hr></td></tr>
          <tr><td>1200 UTC JUL 23, 2024</td></tr>
          <tr><td>Storm Location:</td></tr>
          <tr><td><b>22.0 N, 124.4 E</b></td></tr>
          <tr><td>Min Sea Level Pressure:</td></tr>
          <tr><td>956 mb / 28.23 in Hg</td></tr>
          <tr><td>Maximum Intensity:</td></tr>
          <tr><td>90 kt / 104 mph / 167 kph</td></tr>
        </table>
      ]]></description>
      <Point><coordinates>124.4,22</coordinates></Point>
    </Placemark>
    <Placemark>
      <name>1800 UTC JUL 23</name>
      <styleUrl>#cat3</styleUrl>
      <description><![CDATA[
        <table>
          <tr><td>HU GAEMI (WP052024)</td></tr>
          <tr><td><hr></td></tr>
          <tr><td>1800 UTC JUL 23, 2024</td></tr>
          <tr><td>Storm Location:</td></tr>
          <tr><td><b>22.9 N, 123.5 E</b></td></tr>
          <tr><td>Min Sea Level Pressure:</td></tr>
          <tr><td>934 mb / 27.58 in Hg</td></tr>
          <tr><td>Maximum Intensity:</td></tr>
          <tr><td>110 kt / 127 mph / 204 kph</td></tr>
        </table>
      ]]></description>
      <Point><coordinates>123.5,22.9</coordinates></Point>
    </Placemark>
    <Placemark>
      <name>0000 UTC JUL 24</name>
      <styleUrl>#cat4</styleUrl>
      <description><![CDATA[
        <table>
          <tr><td>HU GAEMI (WP052024)</td></tr>
          <tr><td><hr></td></tr>
          <tr><td>0000 UTC JUL 24, 2024</td></tr>
          <tr><td>Storm Location:</td></tr>
          <tr><td><b>23.5 N, 123.3 E</b></td></tr>
          <tr><td>Min Sea Level Pressure:</td></tr>
          <tr><td>928 mb / 27.40 in Hg</td></tr>
          <tr><td>Maximum Intensity:</td></tr>
          <tr><td>115 kt / 132 mph / 213 kph</td></tr>
        </table>
      ]]></description>
      <Point><coordinates>123.3,23.5</coordinates></Point>
    </Placemark>
    <Placemark>
      <name>0600 UTC JUL 24</name>
      <styleUrl>#cat4</styleUrl>
      <description><![CDATA[
        <table>
          <tr><td>HU GAEMI (WP052024)</td></tr>
          <tr><td><hr></td></tr>
          <tr><td>0600 UTC JUL 24, 2024</td></tr>
          <tr><td>Storm Location:</td></tr>
          <tr><td><b>24.2 N, 122.4 E</b></td></tr>
          <tr><td>Min Sea Level Pressure:</td></tr>
          <tr><td>919 mb / 27.14 in Hg</td></tr>
          <tr><td>Maximum Intensity:</td></tr>
          <tr><td>125 kt / 144 mph / 232 kph</td></tr>
        </table>
      ]]></description>
      <Point><coordinates>122.4,24.2</coordinates></Point>
    </Placemark>
    <Placemark>
      <name>1200 UTC JUL 24</name>
      <styleUrl>#cat3</styleUrl>
      <description><![CDATA[
        <table>
          <tr><td>HU GAEMI (WP052024)</td></tr>
          <tr><td><hr></td></tr>
          <tr><td>1200 UTC JUL 24, 2024</td></tr>
          <tr><td>Storm Location:</td></tr>
          <tr><td><b>23.7 N, 121.6 E</b></td></tr>
          <tr><td>Min Sea Level Pressure:</td></tr>
          <tr><td>931 mb / 27.49 in Hg</td></tr>
          <tr><td>Maximum Intensity:</td></tr>
          <tr><td>110 kt / 127 mph / 204 kph</td></tr>
        </table>
      ]]></description>
      <Point><coordinates>121.6,23.7</coordinates></Point>
    </Placemark>
    <Placemark>
      <name>1800 UTC JUL 24</name>
      <styleUrl>#cat2</styleUrl>
      <description><![CDATA[
        <table>
          <tr><td>HU GAEMI (WP052024)</td></tr>
          <tr><td><hr></td></tr>
          <tr><td>1800 UTC JUL 24, 2024</td></tr>
          <tr><td>Storm Location:</td></tr>
          <tr><td><b>24.5 N, 121.4 E</b></td></tr>
          <tr><td>Min Sea Level Pressure:</td></tr>
          <tr><td>943 mb / 27.85 in Hg</td></tr>
          <tr><td>Maximum Intensity:</td></tr>
          <tr><td>90 kt / 104 mph / 167 kph</td></tr>
        </table>
      ]]></description>
      <Point><coordinates>121.4,24.5</coordinates></Point>
    </Placemark>
    <Placemark>
      <name>0000 UTC JUL 25</name>
      <styleUrl>#cat1</styleUrl>
      <description><![CDATA[
        <table>
          <tr><td>HU GAEMI (WP052024)</td></tr>
          <tr><td><hr></td></tr>
          <tr><td>0000 UTC JUL 25, 2024</td></tr>
          <tr><td>Storm Location:</td></tr>
          <tr><td><b>25.2 N, 120.3 E</b></td></tr>
          <tr><td>Min Sea Level Pressure:</td></tr>
          <tr><td>957 mb / 28.26 in Hg</td></tr>
          <tr><td>Maximum Intensity:</td></tr>
          <tr><td>70 kt / 81 mph / 130 kph</td></tr>
        </table>
      ]]></description>
      <Point><coordinates>120.3,25.2</coordinates></Point>
    </Placemark>
    <Placemark>
      <name>0600 UTC JUL 25</name>
      <styleUrl>#ts</styleUrl>
      <description><![CDATA[
        <table>
          <tr><td>TS GAEMI (WP052024)</td></tr>
          <tr><td><hr></td></tr>
          <tr><td>0600 UTC JUL 25, 2024</td></tr>
          <tr><td>Storm Location:</td></tr>
          <tr><td><b>25.3 N, 119.6 E</b></td></tr>
          <tr><td>Min Sea Level Pressure:</td></tr>
          <tr><td>963 mb / 28.44 in Hg</td></tr>
          <tr><td>Maximum Intensity:</td></tr>
          <tr><td>60 kt / 69 mph / 111 kph</td></tr>
        </table>
      ]]></description>
      <Point><coordinates>119.6,25.3</coordinates></Point>
    </Placemark>
    <Placemark>
      <name>1200 UTC JUL 25</name>
      <styleUrl>#ts</styleUrl>
      <description><![CDATA[
        <table>
          <tr><td>TS GAEMI (WP052024)</td></tr>
          <tr><td><hr></td></tr>
          <tr><td>1200 UTC JUL 25, 2024</td></tr>
          <tr><td>Storm Location:</td></tr>
          <tr><td><b>25.5 N, 119.1 E</b></td></tr>
          <tr><td>Min Sea Level Pressure:</td></tr>
          <tr><td>970 mb / 28.64 in Hg</td></tr>
          <tr><td>Maximum Intensity:</td></tr>
          <tr><td>50 kt / 58 mph / 93 kph</td></tr>
        </table>
      ]]></description>
      <Point><coordinates>119.1,25.5</coordinates></Point>
    </Placemark>
    <Placemark>
      <name>1800 UTC JUL 25</name>
      <styleUrl>#ts</styleUrl>
      <description><![CDATA[
        <table>
          <tr><td>TS GAEMI (WP052024)</td></tr>
          <tr><td><hr></td></tr>
          <tr><td>1800 UTC JUL 25, 2024</td></tr>
          <tr><td>Storm Location:</td></tr>
          <tr><td><b>25.6 N, 118.6 E</b></td></tr>
          <tr><td>Min Sea Level Pressure:</td></tr>
          <tr><td>975 mb / 28.79 in Hg</td></tr>
          <tr><td>Maximum Intensity:</td></tr>
          <tr><td>40 kt / 46 mph / 74 kph</td></tr>
        </table>
      ]]></description>
      <Point><coordinates>118.6,25.6</coordinates></Point>
    </Placemark>
    <Placemark>
      <name>0000 UTC JUL 26</name>
      <styleUrl>#ts</styleUrl>
      <description><![CDATA[
        <table>
          <tr><td>TS GAEMI (WP052024)</td></tr>
          <tr><td><hr></td></tr>
          <tr><td>0000 UTC JUL 26, 2024</td></tr>
          <tr><td>Storm Location:</td></tr>
          <tr><td><b>26.0 N, 117.8 E</b></td></tr>
          <tr><td>Min Sea Level Pressure:</td></tr>
          <tr><td>979 mb / 28.91 in Hg</td></tr>
          <tr><td>Maximum Intensity:</td></tr>
          <tr><td>35 kt / 40 mph / 65 kph</td></tr>
        </table>
      ]]></description>
      <Point><coordinates>117.8,26</coordinates></Point>
    </Placemark>
    <Placemark>
      <name>0600 UTC JUL 26</name>
      <styleUrl>#td</styleUrl>
      <description><![CDATA[
        <table>
          <tr><td>TD GAEMI (WP052024)</td></tr>
          <tr><td><hr></td></tr>
          <tr><td>0600 UTC JUL 26, 2024</td></tr>
          <tr><td>Storm Location:</td></tr>
          <tr><td><b>27.6 N, 117.3 E</b></td></tr>
          <tr><td>Min Sea Level Pressure:</td></tr>
          <tr><td>971 mb / 28.67 in Hg</td></tr>
          <tr><td>Maximum Intensity:</td></tr>
          <tr><td>30 kt / 35 mph / 56 kph</td></tr>
        </table>
      ]]></description>
      <Point><coordinates>117.3,27.6</coordinates></Point>
    </Placemark>
    <Placemark>
      <name>1200 UTC JUL 26</name>
      <styleUrl>#db</styleUrl>
      <description><![CDATA[
        <table>
          <tr><td>DB GAEMI (WP052024)</td></tr>
          <tr><td><hr></td></tr>
          <tr><td>1200 UTC JUL 26, 2024</td></tr>
          <tr><td>Storm Location:</td></tr>
          <tr><td><b>28.2 N, 117.2 E</b></td></tr>
          <tr><td>Min Sea Level Pressure:</td></tr>
          <tr><td>979 mb / 28.91 in Hg</td></tr>
          <tr><td>Maximum Intensity:</td></tr>
          <tr><td>20 kt / 23 mph / 37 kph</td></tr>
        </table>
      ]]></description>
      <Point><coordinates>117.2,28.2</coordinates></Point>
    </Placemark>
  </Document>
</kml>
