<?xml version="1.0" encoding="UTF-8"?>
<kml xmlns="http://www.opengis.net/kml/2.2">
  <Document>
    <name>WP062024</name>
    <open>0</open>

    <!-- =====  Document header ===== -->
    <description><![CDATA[
      <table>
        <tr><td><b>Title:</b> Tropical Cyclone Best Track for WP062024</td></tr>
      </table>
    ]]></description>

    <!-- =====  Styles (ids must be unique)  ===== -->
	<Style id="pt"> 
		<IconStyle> 
			<scale>1.0</scale> 
			<Icon> 
				<href>ex_nhemi.png</href> 
			</Icon> 
             <hotSpot x="15" y="17" xunits="pixels" yunits="pixels"/>
		</IconStyle> 
		<LabelStyle> 
			<scale>1.0</scale> 
		</LabelStyle> 
	</Style>
	<Style id="cat5"> 
		<IconStyle> 
			<scale>1.0</scale> 
			<Icon> 
				<href>cat5_nhemi.png</href> 
			</Icon> 
             <hotSpot x="15" y="17" xunits="pixels" yunits="pixels"/>
		</IconStyle> 
		<LabelStyle> 
			<scale>1.0</scale> 
		</LabelStyle> 
	</Style>
	<Style id="db"> 
		<IconStyle> 
			<scale>1.0</scale> 
			<Icon> 
				<href>ex_nhemi.png</href> 
			</Icon> 
             <hotSpot x="15" y="17" xunits="pixels" yunits="pixels"/>
		</IconStyle> 
		<LabelStyle> 
			<scale>1.0</scale> 
		</LabelStyle> 
	</Style>
	<Style id="cat3"> 
		<IconStyle> 
			<scale>1.0</scale> 
			<Icon> 
				<href>cat3_nhemi.png</href> 
			</Icon> 
             <hotSpot x="15" y="17" xunits="pixels" yunits="pixels"/>
		</IconStyle> 
		<LabelStyle> 
			<scale>1.0</scale> 
		</LabelStyle> 
	</Style>
	<Style id="ss"> 
		<IconStyle> 
			<scale>1.0</scale> 
			<Icon> 
				<href>ts_nhemi.png</href> 
			</Icon> 
             <hotSpot x="15" y="17" xunits="pixels" yunits="pixels"/>
		</IconStyle> 
		<LabelStyle> 
			<scale>1.0</scale> 
		</LabelStyle> 
	</Style>
	<Style id="lo"> 
		<IconStyle> 
			<scale>1.0</scale> 
			<Icon> 
				<href>ex_nhemi.png</href> 
			</Icon> 
             <hotSpot x="15" y="17" xunits="pixels" yunits="pixels"/>
		</IconStyle> 
		<LabelStyle> 
			<scale>1.0</scale> 
		</LabelStyle> 
	</Style>
	<Style id="cat4"> 
		<IconStyle> 
			<scale>1.0</scale> 
			<Icon> 
				<href>cat4_nhemi.png</href> 
			</Icon> 
             <hotSpot x="15" y="17" xunits="pixels" yunits="pixels"/>
		</IconStyle> 
		<LabelStyle> 
			<scale>1.0</scale> 
		</LabelStyle> 
	</Style>
	<Style id="cat2"> 
		<IconStyle> 
			<scale>1.0</scale> 
			<Icon> 
				<href>cat2_nhemi.png</href> 
			</Icon> 
             <hotSpot x="15" y="17" xunits="pixels" yunits="pixels"/>
		</IconStyle> 
		<LabelStyle> 
			<scale>1.0</scale> 
		</LabelStyle> 
	</Style>
	<Style id="ts"> 
		<IconStyle> 
			<scale>1.0</scale> 
			<Icon> 
				<href>ts_nhemi.png</href> 
			</Icon> 
             <hotSpot x="15" y="17" xunits="pixels" yunits="pixels"/>
		</IconStyle> 
		<LabelStyle> 
			<scale>1.0</scale> 
		</LabelStyle> 
	</Style>
	<Style id="cat1"> 
		<IconStyle> 
			<scale>1.0</scale> 
			<Icon> 
				<href>cat1_nhemi.png</href> 
			</Icon> 
             <hotSpot x="15" y="17" xunits="pixels" yunits="pixels"/>
		</IconStyle> 
		<LabelStyle> 
			<scale>1.0</scale> 
		</LabelStyle> 
	</Style>
	<Style id="ex"> 
		<IconStyle> 
			<scale>1.0</scale> 
			<Icon> 
				<href>ex_nhemi.png</href> 
			</Icon> 
             <hotSpot x="15" y="17" xunits="pixels" yunits="pixels"/>
		</IconStyle> 
		<LabelStyle> 
			<scale>1.0</scale> 
		</LabelStyle> 
	</Style>
	<Style id="tc"> 
		<IconStyle> 
			<scale>1.0</scale> 
			<Icon> 
				<href>ex_nhemi.png</href> 
			</Icon> 
             <hotSpot x="15" y="17" xunits="pixels" yunits="pixels"/>
		</IconStyle> 
		<LabelStyle> 
			<scale>1.0</scale> 
		</LabelStyle> 
	</Style>
	<Style id="wv"> 
		<IconStyle> 
			<scale>1.0</scale> 
			<Icon> 
				<href>ex_nhemi.png</href> 
			</Icon> 
             <hotSpot x="15" y="17" xunits="pixels" yunits="pixels"/>
		</IconStyle> 
		<LabelStyle> 
			<scale>1.0</scale> 
		</LabelStyle> 
	</Style>
	<Style id="td"> 
		<IconStyle> 
			<scale>1.0</scale> 
			<Icon> 
				<href>td_nhemi.png</href> 
			</Icon> 
             <hotSpot x="15" y="17" xunits="pixels" yunits="pixels"/>
		</IconStyle> 
		<LabelStyle> 
			<scale>1.0</scale> 
		</LabelStyle> 
	</Style>
	<Style id="sd"> 
		<IconStyle> 
			<scale>1.0</scale> 
			<Icon> 
				<href>ex_nhemi.png</href> 
			</Icon> 
             <hotSpot x="15" y="17" xunits="pixels" yunits="pixels"/>
		</IconStyle> 
		<LabelStyle> 
			<scale>1.0</scale> 
		</LabelStyle> 
	</Style>

    <Placemark>
      <name>0000 UTC AUG 5</name>
      <styleUrl>#db</styleUrl>
      <description><![CDATA[
        <table>
          <tr><td>DB MARIA (WP062024)</td></tr>
          <tr><td><hr></td></tr>
          <tr><td>0000 UTC AUG 5, 2024</td></tr>
          <tr><td>Storm Location:</td></tr>
          <tr><td><b>23.0 N, 142.5 E</b></td></tr>
          <tr><td>Min Sea Level Pressure:</td></tr>
          <tr><td>1010 mb / 29.83 in Hg</td></tr>
          <tr><td>Maximum Intensity:</td></tr>
          <tr><td>15 kt / 17 mph / 28 kph</td></tr>
        </table>
      ]]></description>
      <Point><coordinates>142.5,23</coordinates></Point>
    </Placemark>
    <Placemark>
      <name>0600 UTC AUG 5</name>
      <styleUrl>#db</styleUrl>
      <description><![CDATA[
        <table>
          <tr><td>DB MARIA (WP062024)</td></tr>
          <tr><td><hr></td></tr>
          <tr><td>0600 UTC AUG 5, 2024</td></tr>
          <tr><td>Storm Location:</td></tr>
          <tr><td><b>24.2 N, 141.7 E</b></td></tr>
          <tr><td>Min Sea Level Pressure:</td></tr>
          <tr><td>1007 mb / 29.74 in Hg</td></tr>
          <tr><td>Maximum Intensity:</td></tr>
          <tr><td>15 kt / 17 mph / 28 kph</td></tr>
        </table>
      ]]></description>
      <Point><coordinates>141.7,24.2</coordinates></Point>
    </Placemark>
    <Placemark>
      <name>1200 UTC AUG 5</name>
      <styleUrl>#db</styleUrl>
      <description><![CDATA[
        <table>
          <tr><td>DB MARIA (WP062024)</td></tr>
          <tr><td><hr></td></tr>
          <tr><td>1200 UTC AUG 5, 2024</td></tr>
          <tr><td>Storm Location:</td></tr>
          <tr><td><b>25.2 N, 140.9 E</b></td></tr>
          <tr><td>Min Sea Level Pressure:</td></tr>
          <tr><td>1004 mb / 29.65 in Hg</td></tr>
          <tr><td>Maximum Intensity:</td></tr>
          <tr><td>20 kt / 23 mph / 37 kph</td></tr>
        </table>
      ]]></description>
      <Point><coordinates>140.9,25.2</coordinates></Point>
    </Placemark>
    <Placemark>
      <name>1800 UTC AUG 5</name>
      <styleUrl>#db</styleUrl>
      <description><![CDATA[
        <table>
          <tr><td>DB MARIA (WP062024)</td></tr>
          <tr><td><hr></td></tr>
          <tr><td>1800 UTC AUG 5, 2024</td></tr>
          <tr><td>Storm Location:</td></tr>
          <tr><td><b>25.5 N, 140.8 E</b></td></tr>
          <tr><td>Min Sea Level Pressure:</td></tr>
          <tr><td>1001 mb / 29.56 in Hg</td></tr>
          <tr><td>Maximum Intensity:</td></tr>
          <tr><td>15 kt / 17 mph / 28 kph</td></tr>
        </table>
      ]]></description>
      <Point><coordinates>140.8,25.5</coordinates></Point>
    </Placemark>
    <Placemark>
      <name>0000 UTC AUG 6</name>
      <styleUrl>#db</styleUrl>
      <description><![CDATA[
        <table>
          <tr><td>DB MARIA (WP062024)</td></tr>
          <tr><td><hr></td></tr>
          <tr><td>0000 UTC AUG 6, 2024</td></tr>
          <tr><td>Storm Location:</td></tr>
          <tr><td><b>25.7 N, 140.8 E</b></td></tr>
          <tr><td>Min Sea Level Pressure:</td></tr>
          <tr><td>999 mb / 29.50 in Hg</td></tr>
          <tr><td>Maximum Intensity:</td></tr>
          <tr><td>20 kt / 23 mph / 37 kph</td></tr>
        </table>
      ]]></description>
      <Point><coordinates>140.8,25.7</coordinates></Point>
    </Placemark>
    <Placemark>
      <name>0600 UTC AUG 6</name>
      <styleUrl>#db</styleUrl>
      <description><![CDATA[
        <table>
          <tr><td>DB MARIA (WP062024)</td></tr>
          <tr><td><hr></td></tr>
          <tr><td>0600 UTC AUG 6, 2024</td></tr>
          <tr><td>Storm Location:</td></tr>
          <tr><td><b>25.7 N, 140.7 E</b></td></tr>
          <tr><td>Min Sea Level Pressure:</td></tr>
          <tr><td>996 mb / 29.41 in Hg</td></tr>
          <tr><td>Maximum Intensity:</td></tr>
          <tr><td>20 kt / 23 mph / 37 kph</td></tr>
        </table>
      ]]></description>
      <Point><coordinates>140.7,25.7</coordinates></Point>
    </Placemark>
    <Placemark>
      <name>1200 UTC AUG 6</name>
      <styleUrl>#db</styleUrl>
      <description><![CDATA[
        <table>
          <tr><td>DB MARIA (WP062024)</td></tr>
          <tr><td><hr></td></tr>
          <tr><td>1200 UTC AUG 6, 2024</td></tr>
          <tr><td>Storm Location:</td></tr>
          <tr><td><b>25.6 N, 140.7 E</b></td></tr>
          <tr><td>Min Sea Level Pressure:</td></tr>
          <tr><td>994 mb / 29.35 in Hg</td></tr>
          <tr><td>Maximum Intensity:</td></tr>
          <tr><td>20 kt / 23 mph / 37 kph</td></tr>
        </table>
      ]]></description>
      <Point><coordinates>140.7,25.6</coordinates></Point>
    </Placemark>
    <Placemark>
      <name>1800 UTC AUG 6</name>
      <styleUrl>#td</styleUrl>
      <description><![CDATA[
        <table>
          <tr><td>TD MARIA (WP062024)</td></tr>
          <tr><td><hr></td></tr>
          <tr><td>1800 UTC AUG 6, 2024</td></tr>
          <tr><td>Storm Location:</td></tr>
          <tr><td><b>25.6 N, 140.8 E</b></td></tr>
          <tr><td>Min Sea Level Pressure:</td></tr>
          <tr><td>984 mb / 29.06 in Hg</td></tr>
          <tr><td>Maximum Intensity:</td></tr>
          <tr><td>25 kt / 29 mph / 46 kph</td></tr>
        </table>
      ]]></description>
      <Point><coordinates>140.8,25.6</coordinates></Point>
    </Placemark>
    <Placemark>
      <name>0000 UTC AUG 7</name>
      <styleUrl>#td</styleUrl>
      <description><![CDATA[
        <table>
          <tr><td>TD MARIA (WP062024)</td></tr>
          <tr><td><hr></td></tr>
          <tr><td>0000 UTC AUG 7, 2024</td></tr>
          <tr><td>Storm Location:</td></tr>
          <tr><td><b>25.5 N, 141.0 E</b></td></tr>
          <tr><td>Min Sea Level Pressure:</td></tr>
          <tr><td>981 mb / 28.97 in Hg</td></tr>
          <tr><td>Maximum Intensity:</td></tr>
          <tr><td>30 kt / 35 mph / 56 kph</td></tr>
        </table>
      ]]></description>
      <Point><coordinates>141,25.5</coordinates></Point>
    </Placemark>
    <Placemark>
      <name>0600 UTC AUG 7</name>
      <styleUrl>#td</styleUrl>
      <description><![CDATA[
        <table>
          <tr><td>TD MARIA (WP062024)</td></tr>
          <tr><td><hr></td></tr>
          <tr><td>0600 UTC AUG 7, 2024</td></tr>
          <tr><td>Storm Location:</td></tr>
          <tr><td><b>25.4 N, 141.5 E</b></td></tr>
          <tr><td>Min Sea Level Pressure:</td></tr>
          <tr><td>981 mb / 28.97 in Hg</td></tr>
          <tr><td>Maximum Intensity:</td></tr>
          <tr><td>30 kt / 35 mph / 56 kph</td></tr>
        </table>
      ]]></description>
      <Point><coordinates>141.5,25.4</coordinates></Point>
    </Placemark>
    <Placemark>
      <name>1200 UTC AUG 7</name>
      <styleUrl>#td</styleUrl>
      <description><![CDATA[
        <table>
          <tr><td>TD MARIA (WP062024)</td></tr>
          <tr><td><hr></td></tr>
          <tr><td>1200 UTC AUG 7, 2024</td></tr>
          <tr><td>Storm Location:</td></tr>
          <tr><td><b>25.3 N, 142.0 E</b></td></tr>
          <tr><td>Min Sea Level Pressure:</td></tr>
          <tr><td>981 mb / 28.97 in Hg</td></tr>
          <tr><td>Maximum Intensity:</td></tr>
          <tr><td>30 kt / 35 mph / 56 kph</td></tr>
        </table>
      ]]></description>
      <Point><coordinates>142,25.3</coordinates></Point>
    </Placemark>
    <Placemark>
      <name>1800 UTC AUG 7</name>
      <styleUrl>#ts</styleUrl>
      <description><![CDATA[
        <table>
          <tr><td>TS MARIA (WP062024)</td></tr>
          <tr><td><hr></td></tr>
          <tr><td>1800 UTC AUG 7, 2024</td></tr>
          <tr><td>Storm Location:</td></tr>
          <tr><td><b>25.5 N, 142.8 E</b></td></tr>
          <tr><td>Min Sea Level Pressure:</td></tr>
          <tr><td>979 mb / 28.91 in Hg</td></tr>
          <tr><td>Maximum Intensity:</td></tr>
          <tr><td>40 kt / 46 mph / 74 kph</td></tr>
        </table>
      ]]></description>
      <Point><coordinates>142.8,25.5</coordinates></Point>
    </Placemark>
    <Placemark>
      <name>0000 UTC AUG 8</name>
      <styleUrl>#ts</styleUrl>
      <description><![CDATA[
        <table>
          <tr><td>TS MARIA (WP062024)</td></tr>
          <tr><td><hr></td></tr>
          <tr><td>0000 UTC AUG 8, 2024</td></tr>
          <tr><td>Storm Location:</td></tr>
          <tr><td><b>26.5 N, 144.0 E</b></td></tr>
          <tr><td>Min Sea Level Pressure:</td></tr>
          <tr><td>979 mb / 28.91 in Hg</td></tr>
          <tr><td>Maximum Intensity:</td></tr>
          <tr><td>40 kt / 46 mph / 74 kph</td></tr>
        </table>
      ]]></description>
      <Point><coordinates>144,26.5</coordinates></Point>
    </Placemark>
    <Placemark>
      <name>0600 UTC AUG 8</name>
      <styleUrl>#ts</styleUrl>
      <description><![CDATA[
        <table>
          <tr><td>TS MARIA (WP062024)</td></tr>
          <tr><td><hr></td></tr>
          <tr><td>0600 UTC AUG 8, 2024</td></tr>
          <tr><td>Storm Location:</td></tr>
          <tr><td><b>27.8 N, 144.9 E</b></td></tr>
          <tr><td>Min Sea Level Pressure:</td></tr>
          <tr><td>985 mb / 29.09 in Hg</td></tr>
          <tr><td>Maximum Intensity:</td></tr>
          <tr><td>50 kt / 58 mph / 93 kph</td></tr>
        </table>
      ]]></description>
      <Point><coordinates>144.9,27.8</coordinates></Point>
    </Placemark>
    <Placemark>
      <name>1200 UTC AUG 8</name>
      <styleUrl>#cat1</styleUrl>
      <description><![CDATA[
        <table>
          <tr><td>HU MARIA (WP062024)</td></tr>
          <tr><td><hr></td></tr>
          <tr><td>1200 UTC AUG 8, 2024</td></tr>
          <tr><td>Storm Location:</td></tr>
          <tr><td><b>28.8 N, 145.3 E</b></td></tr>
          <tr><td>Min Sea Level Pressure:</td></tr>
          <tr><td>973 mb / 28.73 in Hg</td></tr>
          <tr><td>Maximum Intensity:</td></tr>
          <tr><td>70 kt / 81 mph / 130 kph</td></tr>
        </table>
      ]]></description>
      <Point><coordinates>145.3,28.8</coordinates></Point>
    </Placemark>
    <Placemark>
      <name>1800 UTC AUG 8</name>
      <styleUrl>#cat1</styleUrl>
      <description><![CDATA[
        <table>
          <tr><td>HU MARIA (WP062024)</td></tr>
          <tr><td><hr></td></tr>
          <tr><td>1800 UTC AUG 8, 2024</td></tr>
          <tr><td>Storm Location:</td></tr>
          <tr><td><b>30.1 N, 145.7 E</b></td></tr>
          <tr><td>Min Sea Level Pressure:</td></tr>
          <tr><td>973 mb / 28.73 in Hg</td></tr>
          <tr><td>Maximum Intensity:</td></tr>
          <tr><td>65 kt / 75 mph / 120 kph</td></tr>
        </table>
      ]]></description>
      <Point><coordinates>145.7,30.1</coordinates></Point>
    </Placemark>
    <Placemark>
      <name>0000 UTC AUG 9</name>
      <styleUrl>#ts</styleUrl>
      <description><![CDATA[
        <table>
          <tr><td>TS MARIA (WP062024)</td></tr>
          <tr><td><hr></td></tr>
          <tr><td>0000 UTC AUG 9, 2024</td></tr>
          <tr><td>Storm Location:</td></tr>
          <tr><td><b>30.8 N, 145.9 E</b></td></tr>
          <tr><td>Min Sea Level Pressure:</td></tr>
          <tr><td>977 mb / 28.85 in Hg</td></tr>
          <tr><td>Maximum Intensity:</td></tr>
          <tr><td>60 kt / 69 mph / 111 kph</td></tr>
        </table>
      ]]></description>
      <Point><coordinates>145.9,30.8</coordinates></Point>
    </Placemark>
    <Placemark>
      <name>0600 UTC AUG 9</name>
      <styleUrl>#ts</styleUrl>
      <description><![CDATA[
        <table>
          <tr><td>TS MARIA (WP062024)</td></tr>
          <tr><td><hr></td></tr>
          <tr><td>0600 UTC AUG 9, 2024</td></tr>
          <tr><td>Storm Location:</td></tr>
          <tr><td><b>32.3 N, 146.1 E</b></td></tr>
          <tr><td>Min Sea Level Pressure:</td></tr>
          <tr><td>977 mb / 28.85 in Hg</td></tr>
          <tr><td>Maximum Intensity:</td></tr>
          <tr><td>60 kt / 69 mph / 111 kph</td></tr>
        </table>
      ]]></description>
      <Point><coordinates>146.1,32.3</coordinates></Point>
    </Placemark>
    <Placemark>
      <name>1200 UTC AUG 9</name>
      <styleUrl>#ts</styleUrl>
      <description><![CDATA[
        <table>
          <tr><td>TS MARIA (WP062024)</td></tr>
          <tr><td><hr></td></tr>
          <tr><td>1200 UTC AUG 9, 2024</td></tr>
          <tr><td>Storm Location:</td></tr>
          <tr><td><b>32.9 N, 146.1 E</b></td></tr>
          <tr><td>Min Sea Level Pressure:</td></tr>
          <tr><td>979 mb / 28.91 in Hg</td></tr>
          <tr><td>Maximum Intensity:</td></tr>
          <tr><td>55 kt / 63 mph / 102 kph</td></tr>
        </table>
      ]]></description>
      <Point><coordinates>146.1,32.9</coordinates></Point>
    </Placemark>
    <Placemark>
      <name>1800 UTC AUG 9</name>
      <styleUrl>#ts</styleUrl>
      <description><![CDATA[
        <table>
          <tr><td>TS MARIA (WP062024)</td></tr>
          <tr><td><hr></td></tr>
          <tr><td>1800 UTC AUG 9, 2024</td></tr>
          <tr><td>Storm Location:</td></tr>
          <tr><td><b>34.2 N, 145.8 E</b></td></tr>
          <tr><td>Min Sea Level Pressure:</td></tr>
          <tr><td>980 mb / 28.94 in Hg</td></tr>
          <tr><td>Maximum Intensity:</td></tr>
          <tr><td>50 kt / 58 mph / 93 kph</td></tr>
        </table>
      ]]></description>
      <Point><coordinates>145.8,34.2</coordinates></Point>
    </Placemark>
    <Placemark>
      <name>0000 UTC AUG 10</name>
      <styleUrl>#ts</styleUrl>
      <description><![CDATA[
        <table>
          <tr><td>TS MARIA (WP062024)</td></tr>
          <tr><td><hr></td></tr>
          <tr><td>0000 UTC AUG 10, 2024</td></tr>
          <tr><td>Storm Location:</td></tr>
          <tr><td><b>35.1 N, 145.6 E</b></td></tr>
          <tr><td>Min Sea Level Pressure:</td></tr>
          <tr><td>981 mb / 28.97 in Hg</td></tr>
          <tr><td>Maximum Intensity:</td></tr>
          <tr><td>45 kt / 52 mph / 83 kph</td></tr>
        </table>
      ]]></description>
      <Point><coordinates>145.6,35.1</coordinates></Point>
    </Placemark>
    <Placemark>
      <name>0600 UTC AUG 10</name>
      <styleUrl>#ts</styleUrl>
      <description><![CDATA[
        <table>
          <tr><td>TS MARIA (WP062024)</td></tr>
          <tr><td><hr></td></tr>
          <tr><td>0600 UTC AUG 10, 2024</td></tr>
          <tr><td>Storm Location:</td></tr>
          <tr><td><b>35.7 N, 145.4 E</b></td></tr>
          <tr><td>Min Sea Level Pressure:</td></tr>
          <tr><td>981 mb / 28.97 in Hg</td></tr>
          <tr><td>Maximum Intensity:</td></tr>
          <tr><td>45 kt / 52 mph / 83 kph</td></tr>
        </table>
      ]]></description>
      <Point><coordinates>145.4,35.7</coordinates></Point>
    </Placemark>
    <Placemark>
      <name>1200 UTC AUG 10</name>
      <styleUrl>#ts</styleUrl>
      <description><![CDATA[
        <table>
          <tr><td>TS MARIA (WP062024)</td></tr>
          <tr><td><hr></td></tr>
          <tr><td>1200 UTC AUG 10, 2024</td></tr>
          <tr><td>Storm Location:</td></tr>
          <tr><td><b>36.2 N, 145.2 E</b></td></tr>
          <tr><td>Min Sea Level Pressure:</td></tr>
          <tr><td>981 mb / 28.97 in Hg</td></tr>
          <tr><td>Maximum Intensity:</td></tr>
          <tr><td>45 kt / 52 mph / 83 kph</td></tr>
        </table>
      ]]></description>
      <Point><coordinates>145.2,36.2</coordinates></Point>
    </Placemark>
    <Placemark>
      <name>1800 UTC AUG 10</name>
      <styleUrl>#ts</styleUrl>
      <description><![CDATA[
        <table>
          <tr><td>TS MARIA (WP062024)</td></tr>
          <tr><td><hr></td></tr>
          <tr><td>1800 UTC AUG 10, 2024</td></tr>
          <tr><td>Storm Location:</td></tr>
          <tr><td><b>36.9 N, 145.0 E</b></td></tr>
          <tr><td>Min Sea Level Pressure:</td></tr>
          <tr><td>983 mb / 29.03 in Hg</td></tr>
          <tr><td>Maximum Intensity:</td></tr>
          <tr><td>50 kt / 58 mph / 93 kph</td></tr>
        </table>
      ]]></description>
      <Point><coordinates>145,36.9</coordinates></Point>
    </Placemark>
    <Placemark>
      <name>0000 UTC AUG 11</name>
      <styleUrl>#ts</styleUrl>
      <description><![CDATA[
        <table>
          <tr><td>TS MARIA (WP062024)</td></tr>
          <tr><td><hr></td></tr>
          <tr><td>0000 UTC AUG 11, 2024</td></tr>
          <tr><td>Storm Location:</td></tr>
          <tr><td><b>37.4 N, 144.5 E</b></td></tr>
          <tr><td>Min Sea Level Pressure:</td></tr>
          <tr><td>984 mb / 29.06 in Hg</td></tr>
          <tr><td>Maximum Intensity:</td></tr>
          <tr><td>40 kt / 46 mph / 74 kph</td></tr>
        </table>
      ]]></description>
      <Point><coordinates>144.5,37.4</coordinates></Point>
    </Placemark>
    <Placemark>
      <name>0600 UTC AUG 11</name>
      <styleUrl>#ts</styleUrl>
      <description><![CDATA[
        <table>
          <tr><td>TS MARIA (WP062024)</td></tr>
          <tr><td><hr></td></tr>
          <tr><td>0600 UTC AUG 11, 2024</td></tr>
          <tr><td>Storm Location:</td></tr>
          <tr><td><b>37.6 N, 143.9 E</b></td></tr>
          <tr><td>Min Sea Level Pressure:</td></tr>
          <tr><td>981 mb / 28.97 in Hg</td></tr>
          <tr><td>Maximum Intensity:</td></tr>
          <tr><td>45 kt / 52 mph / 83 kph</td></tr>
        </table>
      ]]></description>
      <Point><coordinates>143.9,37.6</coordinates></Point>
    </Placemark>
    <Placemark>
      <name>1200 UTC AUG 11</name>
      <styleUrl>#ts</styleUrl>
      <description><![CDATA[
        <table>
          <tr><td>TS MARIA (WP062024)</td></tr>
          <tr><td><hr></td></tr>
          <tr><td>1200 UTC AUG 11, 2024</td></tr>
          <tr><td>Storm Location:</td></tr>
          <tr><td><b>37.8 N, 143.4 E</b></td></tr>
          <tr><td>Min Sea Level Pressure:</td></tr>
          <tr><td>978 mb / 28.88 in Hg</td></tr>
          <tr><td>Maximum Intensity:</td></tr>
          <tr><td>50 kt / 58 mph / 93 kph</td></tr>
        </table>
      ]]></description>
      <Point><coordinates>143.4,37.8</coordinates></Point>
    </Placemark>
    <Placemark>
      <name>1800 UTC AUG 11</name>
      <styleUrl>#ts</styleUrl>
      <description><![CDATA[
        <table>
          <tr><td>TS MARIA (WP062024)</td></tr>
          <tr><td><hr></td></tr>
          <tr><td>1800 UTC AUG 11, 2024</td></tr>
          <tr><td>Storm Location:</td></tr>
          <tr><td><b>38.4 N, 142.5 E</b></td></tr>
          <tr><td>Min Sea Level Pressure:</td></tr>
          <tr><td>978 mb / 28.88 in Hg</td></tr>
          <tr><td>Maximum Intensity:</td></tr>
          <tr><td>50 kt / 58 mph / 93 kph</td></tr>
        </table>
      ]]></description>
      <Point><coordinates>142.5,38.4</coordinates></Point>
    </Placemark>
    <Placemark>
      <name>0000 UTC AUG 12</name>
      <styleUrl>#ts</styleUrl>
      <description><![CDATA[
        <table>
          <tr><td>TS MARIA (WP062024)</td></tr>
          <tr><td><hr></td></tr>
          <tr><td>0000 UTC AUG 12, 2024</td></tr>
          <tr><td>Storm Location:</td></tr>
          <tr><td><b>39.0 N, 141.7 E</b></td></tr>
          <tr><td>Min Sea Level Pressure:</td></tr>
          <tr><td>981 mb / 28.97 in Hg</td></tr>
          <tr><td>Maximum Intensity:</td></tr>
          <tr><td>45 kt / 52 mph / 83 kph</td></tr>
        </table>
      ]]></description>
      <Point><coordinates>141.7,39</coordinates></Point>
    </Placemark>
    <Placemark>
      <name>0600 UTC AUG 12</name>
      <styleUrl>#td</styleUrl>
      <description><![CDATA[
        <table>
          <tr><td>TD MARIA (WP062024)</td></tr>
          <tr><td><hr></td></tr>
          <tr><td>0600 UTC AUG 12, 2024</td></tr>
          <tr><td>Storm Location:</td></tr>
          <tr><td><b>39.8 N, 139.9 E</b></td></tr>
          <tr><td>Min Sea Level Pressure:</td></tr>
          <tr><td>985 mb / 29.09 in Hg</td></tr>
          <tr><td>Maximum Intensity:</td></tr>
          <tr><td>30 kt / 35 mph / 56 kph</td></tr>
        </table>
      ]]></description>
      <Point><coordinates>139.9,39.8</coordinates></Point>
    </Placemark>
    <Placemark>
      <name>1200 UTC AUG 12</name>
      <styleUrl>#td</styleUrl>
      <description><![CDATA[
        <table>
          <tr><td>TD MARIA (WP062024)</td></tr>
          <tr><td><hr></td></tr>
          <tr><td>1200 UTC AUG 12, 2024</td></tr>
          <tr><td>Storm Location:</td></tr>
          <tr><td><b>40.1 N, 139.2 E</b></td></tr>
          <tr><td>Min Sea Level Pressure:</td></tr>
          <tr><td>987 mb / 29.15 in Hg</td></tr>
          <tr><td>Maximum Intensity:</td></tr>
          <tr><td>25 kt / 29 mph / 46 kph</td></tr>
        </table>
      ]]></description>
      <Point><coordinates>139.2,40.1</coordinates></Point>
    </Placemark>
    <Placemark>
      <name>1800 UTC AUG 12</name>
      <styleUrl>#db</styleUrl>
      <description><![CDATA[
        <table>
          <tr><td>DB MARIA (WP062024)</td></tr>
          <tr><td><hr></td></tr>
          <tr><td>1800 UTC AUG 12, 2024</td></tr>
          <tr><td>Storm Location:</td></tr>
          <tr><td><b>41.0 N, 138.8 E</b></td></tr>
          <tr><td>Min Sea Level Pressure:</td></tr>
          <tr><td>988 mb / 29.18 in Hg</td></tr>
          <tr><td>Maximum Intensity:</td></tr>
          <tr><td>20 kt / 23 mph / 37 kph</td></tr>
        </table>
      ]]></description>
      <Point><coordinates>138.8,41</coordinates></Point>
    </Placemark>
    <Placemark>
      <name>0000 UTC AUG 13</name>
      <styleUrl>#db</styleUrl>
      <description><![CDATA[
        <table>
          <tr><td>DB MARIA (WP062024)</td></tr>
          <tr><td><hr></td></tr>
          <tr><td>0000 UTC AUG 13, 2024</td></tr>
          <tr><td>Storm Location:</td></tr>
          <tr><td><b>41.7 N, 138.8 E</b></td></tr>
          <tr><td>Min Sea Level Pressure:</td></tr>
          <tr><td>985 mb / 29.09 in Hg</td></tr>
          <tr><td>Maximum Intensity:</td></tr>
          <tr><td>15 kt / 17 mph / 28 kph</td></tr>
        </table>
      ]]></description>
      <Point><coordinates>138.8,41.7</coordinates></Point>
    </Placemark>
  </Document>
</kml>
