<?xml version="1.0" encoding="UTF-8"?>
<kml xmlns="http://www.opengis.net/kml/2.2">
  <Document>
    <name>WP112024</name>
    <open>0</open>

    <!-- =====  Document header ===== -->
    <description><![CDATA[
      <table>
        <tr><td><b>Title:</b> Tropical Cyclone Best Track for WP112024</td></tr>
      </table>
    ]]></description>

    <!-- =====  Styles (ids must be unique)  ===== -->
	<Style id="pt"> 
		<IconStyle> 
			<scale>1.0</scale> 
			<Icon> 
				<href>ex_nhemi.png</href> 
			</Icon> 
             <hotSpot x="15" y="17" xunits="pixels" yunits="pixels"/>
		</IconStyle> 
		<LabelStyle> 
			<scale>1.0</scale> 
		</LabelStyle> 
	</Style>
	<Style id="cat5"> 
		<IconStyle> 
			<scale>1.0</scale> 
			<Icon> 
				<href>cat5_nhemi.png</href> 
			</Icon> 
             <hotSpot x="15" y="17" xunits="pixels" yunits="pixels"/>
		</IconStyle> 
		<LabelStyle> 
			<scale>1.0</scale> 
		</LabelStyle> 
	</Style>
	<Style id="db"> 
		<IconStyle> 
			<scale>1.0</scale> 
			<Icon> 
				<href>ex_nhemi.png</href> 
			</Icon> 
             <hotSpot x="15" y="17" xunits="pixels" yunits="pixels"/>
		</IconStyle> 
		<LabelStyle> 
			<scale>1.0</scale> 
		</LabelStyle> 
	</Style>
	<Style id="cat3"> 
		<IconStyle> 
			<scale>1.0</scale> 
			<Icon> 
				<href>cat3_nhemi.png</href> 
			</Icon> 
             <hotSpot x="15" y="17" xunits="pixels" yunits="pixels"/>
		</IconStyle> 
		<LabelStyle> 
			<scale>1.0</scale> 
		</LabelStyle> 
	</Style>
	<Style id="ss"> 
		<IconStyle> 
			<scale>1.0</scale> 
			<Icon> 
				<href>ts_nhemi.png</href> 
			</Icon> 
             <hotSpot x="15" y="17" xunits="pixels" yunits="pixels"/>
		</IconStyle> 
		<LabelStyle> 
			<scale>1.0</scale> 
		</LabelStyle> 
	</Style>
	<Style id="lo"> 
		<IconStyle> 
			<scale>1.0</scale> 
			<Icon> 
				<href>ex_nhemi.png</href> 
			</Icon> 
             <hotSpot x="15" y="17" xunits="pixels" yunits="pixels"/>
		</IconStyle> 
		<LabelStyle> 
			<scale>1.0</scale> 
		</LabelStyle> 
	</Style>
	<Style id="cat4"> 
		<IconStyle> 
			<scale>1.0</scale> 
			<Icon> 
				<href>cat4_nhemi.png</href> 
			</Icon> 
             <hotSpot x="15" y="17" xunits="pixels" yunits="pixels"/>
		</IconStyle> 
		<LabelStyle> 
			<scale>1.0</scale> 
		</LabelStyle> 
	</Style>
	<Style id="cat2"> 
		<IconStyle> 
			<scale>1.0</scale> 
			<Icon> 
				<href>cat2_nhemi.png</href> 
			</Icon> 
             <hotSpot x="15" y="17" xunits="pixels" yunits="pixels"/>
		</IconStyle> 
		<LabelStyle> 
			<scale>1.0</scale> 
		</LabelStyle> 
	</Style>
	<Style id="ts"> 
		<IconStyle> 
			<scale>1.0</scale> 
			<Icon> 
				<href>ts_nhemi.png</href> 
			</Icon> 
             <hotSpot x="15" y="17" xunits="pixels" yunits="pixels"/>
		</IconStyle> 
		<LabelStyle> 
			<scale>1.0</scale> 
		</LabelStyle> 
	</Style>
	<Style id="cat1"> 
		<IconStyle> 
			<scale>1.0</scale> 
			<Icon> 
				<href>cat1_nhemi.png</href> 
			</Icon> 
             <hotSpot x="15" y="17" xunits="pixels" yunits="pixels"/>
		</IconStyle> 
		<LabelStyle> 
			<scale>1.0</scale> 
		</LabelStyle> 
	</Style>
	<Style id="ex"> 
		<IconStyle> 
			<scale>1.0</scale> 
			<Icon> 
				<href>ex_nhemi.png</href> 
			</Icon> 
             <hotSpot x="15" y="17" xunits="pixels" yunits="pixels"/>
		</IconStyle> 
		<LabelStyle> 
			<scale>1.0</scale> 
		</LabelStyle> 
	</Style>
	<Style id="tc"> 
		<IconStyle> 
			<scale>1.0</scale> 
			<Icon> 
				<href>ex_nhemi.png</href> 
			</Icon> 
             <hotSpot x="15" y="17" xunits="pixels" yunits="pixels"/>
		</IconStyle> 
		<LabelStyle> 
			<scale>1.0</scale> 
		</LabelStyle> 
	</Style>
	<Style id="wv"> 
		<IconStyle> 
			<scale>1.0</scale> 
			<Icon> 
				<href>ex_nhemi.png</href> 
			</Icon> 
             <hotSpot x="15" y="17" xunits="pixels" yunits="pixels"/>
		</IconStyle> 
		<LabelStyle> 
			<scale>1.0</scale> 
		</LabelStyle> 
	</Style>
	<Style id="td"> 
		<IconStyle> 
			<scale>1.0</scale> 
			<Icon> 
				<href>td_nhemi.png</href> 
			</Icon> 
             <hotSpot x="15" y="17" xunits="pixels" yunits="pixels"/>
		</IconStyle> 
		<LabelStyle> 
			<scale>1.0</scale> 
		</LabelStyle> 
	</Style>
	<Style id="sd"> 
		<IconStyle> 
			<scale>1.0</scale> 
			<Icon> 
				<href>ex_nhemi.png</href> 
			</Icon> 
             <hotSpot x="15" y="17" xunits="pixels" yunits="pixels"/>
		</IconStyle> 
		<LabelStyle> 
			<scale>1.0</scale> 
		</LabelStyle> 
	</Style>

    <Placemark>
      <name>1800 UTC AUG 20</name>
      <styleUrl>#db</styleUrl>
      <description><![CDATA[
        <table>
          <tr><td>DB SHANSHAN (WP112024)</td></tr>
          <tr><td><hr></td></tr>
          <tr><td>1800 UTC AUG 20, 2024</td></tr>
          <tr><td>Storm Location:</td></tr>
          <tr><td><b>15.2 N, 145.5 E</b></td></tr>
          <tr><td>Min Sea Level Pressure:</td></tr>
          <tr><td>1007 mb / 29.74 in Hg</td></tr>
          <tr><td>Maximum Intensity:</td></tr>
          <tr><td>20 kt / 23 mph / 37 kph</td></tr>
        </table>
      ]]></description>
      <Point><coordinates>145.5,15.2</coordinates></Point>
    </Placemark>
    <Placemark>
      <name>0000 UTC AUG 21</name>
      <styleUrl>#db</styleUrl>
      <description><![CDATA[
        <table>
          <tr><td>DB SHANSHAN (WP112024)</td></tr>
          <tr><td><hr></td></tr>
          <tr><td>0000 UTC AUG 21, 2024</td></tr>
          <tr><td>Storm Location:</td></tr>
          <tr><td><b>15.5 N, 144.4 E</b></td></tr>
          <tr><td>Min Sea Level Pressure:</td></tr>
          <tr><td>1007 mb / 29.74 in Hg</td></tr>
          <tr><td>Maximum Intensity:</td></tr>
          <tr><td>20 kt / 23 mph / 37 kph</td></tr>
        </table>
      ]]></description>
      <Point><coordinates>144.4,15.5</coordinates></Point>
    </Placemark>
    <Placemark>
      <name>0600 UTC AUG 21</name>
      <styleUrl>#td</styleUrl>
      <description><![CDATA[
        <table>
          <tr><td>TD SHANSHAN (WP112024)</td></tr>
          <tr><td><hr></td></tr>
          <tr><td>0600 UTC AUG 21, 2024</td></tr>
          <tr><td>Storm Location:</td></tr>
          <tr><td><b>16.2 N, 143.5 E</b></td></tr>
          <tr><td>Min Sea Level Pressure:</td></tr>
          <tr><td>1003 mb / 29.62 in Hg</td></tr>
          <tr><td>Maximum Intensity:</td></tr>
          <tr><td>25 kt / 29 mph / 46 kph</td></tr>
        </table>
      ]]></description>
      <Point><coordinates>143.5,16.2</coordinates></Point>
    </Placemark>
    <Placemark>
      <name>1200 UTC AUG 21</name>
      <styleUrl>#ts</styleUrl>
      <description><![CDATA[
        <table>
          <tr><td>TS SHANSHAN (WP112024)</td></tr>
          <tr><td><hr></td></tr>
          <tr><td>1200 UTC AUG 21, 2024</td></tr>
          <tr><td>Storm Location:</td></tr>
          <tr><td><b>16.9 N, 142.6 E</b></td></tr>
          <tr><td>Min Sea Level Pressure:</td></tr>
          <tr><td>998 mb / 29.47 in Hg</td></tr>
          <tr><td>Maximum Intensity:</td></tr>
          <tr><td>35 kt / 40 mph / 65 kph</td></tr>
        </table>
      ]]></description>
      <Point><coordinates>142.6,16.9</coordinates></Point>
    </Placemark>
    <Placemark>
      <name>1800 UTC AUG 21</name>
      <styleUrl>#ts</styleUrl>
      <description><![CDATA[
        <table>
          <tr><td>TS SHANSHAN (WP112024)</td></tr>
          <tr><td><hr></td></tr>
          <tr><td>1800 UTC AUG 21, 2024</td></tr>
          <tr><td>Storm Location:</td></tr>
          <tr><td><b>16.9 N, 142.0 E</b></td></tr>
          <tr><td>Min Sea Level Pressure:</td></tr>
          <tr><td>997 mb / 29.44 in Hg</td></tr>
          <tr><td>Maximum Intensity:</td></tr>
          <tr><td>35 kt / 40 mph / 65 kph</td></tr>
        </table>
      ]]></description>
      <Point><coordinates>142,16.9</coordinates></Point>
    </Placemark>
    <Placemark>
      <name>0000 UTC AUG 22</name>
      <styleUrl>#ts</styleUrl>
      <description><![CDATA[
        <table>
          <tr><td>TS SHANSHAN (WP112024)</td></tr>
          <tr><td><hr></td></tr>
          <tr><td>0000 UTC AUG 22, 2024</td></tr>
          <tr><td>Storm Location:</td></tr>
          <tr><td><b>16.9 N, 141.4 E</b></td></tr>
          <tr><td>Min Sea Level Pressure:</td></tr>
          <tr><td>995 mb / 29.38 in Hg</td></tr>
          <tr><td>Maximum Intensity:</td></tr>
          <tr><td>40 kt / 46 mph / 74 kph</td></tr>
        </table>
      ]]></description>
      <Point><coordinates>141.4,16.9</coordinates></Point>
    </Placemark>
    <Placemark>
      <name>0600 UTC AUG 22</name>
      <styleUrl>#ts</styleUrl>
      <description><![CDATA[
        <table>
          <tr><td>TS SHANSHAN (WP112024)</td></tr>
          <tr><td><hr></td></tr>
          <tr><td>0600 UTC AUG 22, 2024</td></tr>
          <tr><td>Storm Location:</td></tr>
          <tr><td><b>17.0 N, 141.1 E</b></td></tr>
          <tr><td>Min Sea Level Pressure:</td></tr>
          <tr><td>994 mb / 29.35 in Hg</td></tr>
          <tr><td>Maximum Intensity:</td></tr>
          <tr><td>45 kt / 52 mph / 83 kph</td></tr>
        </table>
      ]]></description>
      <Point><coordinates>141.1,17</coordinates></Point>
    </Placemark>
    <Placemark>
      <name>1200 UTC AUG 22</name>
      <styleUrl>#ts</styleUrl>
      <description><![CDATA[
        <table>
          <tr><td>TS SHANSHAN (WP112024)</td></tr>
          <tr><td><hr></td></tr>
          <tr><td>1200 UTC AUG 22, 2024</td></tr>
          <tr><td>Storm Location:</td></tr>
          <tr><td><b>17.2 N, 140.9 E</b></td></tr>
          <tr><td>Min Sea Level Pressure:</td></tr>
          <tr><td>993 mb / 29.32 in Hg</td></tr>
          <tr><td>Maximum Intensity:</td></tr>
          <tr><td>50 kt / 58 mph / 93 kph</td></tr>
        </table>
      ]]></description>
      <Point><coordinates>140.9,17.2</coordinates></Point>
    </Placemark>
    <Placemark>
      <name>1800 UTC AUG 22</name>
      <styleUrl>#ts</styleUrl>
      <description><![CDATA[
        <table>
          <tr><td>TS SHANSHAN (WP112024)</td></tr>
          <tr><td><hr></td></tr>
          <tr><td>1800 UTC AUG 22, 2024</td></tr>
          <tr><td>Storm Location:</td></tr>
          <tr><td><b>17.5 N, 141.0 E</b></td></tr>
          <tr><td>Min Sea Level Pressure:</td></tr>
          <tr><td>991 mb / 29.26 in Hg</td></tr>
          <tr><td>Maximum Intensity:</td></tr>
          <tr><td>55 kt / 63 mph / 102 kph</td></tr>
        </table>
      ]]></description>
      <Point><coordinates>141,17.5</coordinates></Point>
    </Placemark>
    <Placemark>
      <name>0000 UTC AUG 23</name>
      <styleUrl>#ts</styleUrl>
      <description><![CDATA[
        <table>
          <tr><td>TS SHANSHAN (WP112024)</td></tr>
          <tr><td><hr></td></tr>
          <tr><td>0000 UTC AUG 23, 2024</td></tr>
          <tr><td>Storm Location:</td></tr>
          <tr><td><b>17.8 N, 141.2 E</b></td></tr>
          <tr><td>Min Sea Level Pressure:</td></tr>
          <tr><td>990 mb / 29.23 in Hg</td></tr>
          <tr><td>Maximum Intensity:</td></tr>
          <tr><td>55 kt / 63 mph / 102 kph</td></tr>
        </table>
      ]]></description>
      <Point><coordinates>141.2,17.8</coordinates></Point>
    </Placemark>
    <Placemark>
      <name>0600 UTC AUG 23</name>
      <styleUrl>#ts</styleUrl>
      <description><![CDATA[
        <table>
          <tr><td>TS SHANSHAN (WP112024)</td></tr>
          <tr><td><hr></td></tr>
          <tr><td>0600 UTC AUG 23, 2024</td></tr>
          <tr><td>Storm Location:</td></tr>
          <tr><td><b>17.9 N, 141.2 E</b></td></tr>
          <tr><td>Min Sea Level Pressure:</td></tr>
          <tr><td>988 mb / 29.18 in Hg</td></tr>
          <tr><td>Maximum Intensity:</td></tr>
          <tr><td>60 kt / 69 mph / 111 kph</td></tr>
        </table>
      ]]></description>
      <Point><coordinates>141.2,17.9</coordinates></Point>
    </Placemark>
    <Placemark>
      <name>1200 UTC AUG 23</name>
      <styleUrl>#cat1</styleUrl>
      <description><![CDATA[
        <table>
          <tr><td>HU SHANSHAN (WP112024)</td></tr>
          <tr><td><hr></td></tr>
          <tr><td>1200 UTC AUG 23, 2024</td></tr>
          <tr><td>Storm Location:</td></tr>
          <tr><td><b>18.1 N, 141.1 E</b></td></tr>
          <tr><td>Min Sea Level Pressure:</td></tr>
          <tr><td>985 mb / 29.09 in Hg</td></tr>
          <tr><td>Maximum Intensity:</td></tr>
          <tr><td>65 kt / 75 mph / 120 kph</td></tr>
        </table>
      ]]></description>
      <Point><coordinates>141.1,18.1</coordinates></Point>
    </Placemark>
    <Placemark>
      <name>1800 UTC AUG 23</name>
      <styleUrl>#cat1</styleUrl>
      <description><![CDATA[
        <table>
          <tr><td>HU SHANSHAN (WP112024)</td></tr>
          <tr><td><hr></td></tr>
          <tr><td>1800 UTC AUG 23, 2024</td></tr>
          <tr><td>Storm Location:</td></tr>
          <tr><td><b>18.7 N, 141.4 E</b></td></tr>
          <tr><td>Min Sea Level Pressure:</td></tr>
          <tr><td>985 mb / 29.09 in Hg</td></tr>
          <tr><td>Maximum Intensity:</td></tr>
          <tr><td>65 kt / 75 mph / 120 kph</td></tr>
        </table>
      ]]></description>
      <Point><coordinates>141.4,18.7</coordinates></Point>
    </Placemark>
    <Placemark>
      <name>0000 UTC AUG 24</name>
      <styleUrl>#cat1</styleUrl>
      <description><![CDATA[
        <table>
          <tr><td>HU SHANSHAN (WP112024)</td></tr>
          <tr><td><hr></td></tr>
          <tr><td>0000 UTC AUG 24, 2024</td></tr>
          <tr><td>Storm Location:</td></tr>
          <tr><td><b>20.0 N, 141.3 E</b></td></tr>
          <tr><td>Min Sea Level Pressure:</td></tr>
          <tr><td>985 mb / 29.09 in Hg</td></tr>
          <tr><td>Maximum Intensity:</td></tr>
          <tr><td>65 kt / 75 mph / 120 kph</td></tr>
        </table>
      ]]></description>
      <Point><coordinates>141.3,20</coordinates></Point>
    </Placemark>
    <Placemark>
      <name>0600 UTC AUG 24</name>
      <styleUrl>#cat1</styleUrl>
      <description><![CDATA[
        <table>
          <tr><td>HU SHANSHAN (WP112024)</td></tr>
          <tr><td><hr></td></tr>
          <tr><td>0600 UTC AUG 24, 2024</td></tr>
          <tr><td>Storm Location:</td></tr>
          <tr><td><b>21.4 N, 141.0 E</b></td></tr>
          <tr><td>Min Sea Level Pressure:</td></tr>
          <tr><td>983 mb / 29.03 in Hg</td></tr>
          <tr><td>Maximum Intensity:</td></tr>
          <tr><td>65 kt / 75 mph / 120 kph</td></tr>
        </table>
      ]]></description>
      <Point><coordinates>141,21.4</coordinates></Point>
    </Placemark>
    <Placemark>
      <name>1200 UTC AUG 24</name>
      <styleUrl>#cat1</styleUrl>
      <description><![CDATA[
        <table>
          <tr><td>HU SHANSHAN (WP112024)</td></tr>
          <tr><td><hr></td></tr>
          <tr><td>1200 UTC AUG 24, 2024</td></tr>
          <tr><td>Storm Location:</td></tr>
          <tr><td><b>22.7 N, 140.7 E</b></td></tr>
          <tr><td>Min Sea Level Pressure:</td></tr>
          <tr><td>982 mb / 29.00 in Hg</td></tr>
          <tr><td>Maximum Intensity:</td></tr>
          <tr><td>65 kt / 75 mph / 120 kph</td></tr>
        </table>
      ]]></description>
      <Point><coordinates>140.7,22.7</coordinates></Point>
    </Placemark>
    <Placemark>
      <name>1800 UTC AUG 24</name>
      <styleUrl>#cat1</styleUrl>
      <description><![CDATA[
        <table>
          <tr><td>HU SHANSHAN (WP112024)</td></tr>
          <tr><td><hr></td></tr>
          <tr><td>1800 UTC AUG 24, 2024</td></tr>
          <tr><td>Storm Location:</td></tr>
          <tr><td><b>24.0 N, 140.0 E</b></td></tr>
          <tr><td>Min Sea Level Pressure:</td></tr>
          <tr><td>980 mb / 28.94 in Hg</td></tr>
          <tr><td>Maximum Intensity:</td></tr>
          <tr><td>65 kt / 75 mph / 120 kph</td></tr>
        </table>
      ]]></description>
      <Point><coordinates>140,24</coordinates></Point>
    </Placemark>
    <Placemark>
      <name>0000 UTC AUG 25</name>
      <styleUrl>#cat1</styleUrl>
      <description><![CDATA[
        <table>
          <tr><td>HU SHANSHAN (WP112024)</td></tr>
          <tr><td><hr></td></tr>
          <tr><td>0000 UTC AUG 25, 2024</td></tr>
          <tr><td>Storm Location:</td></tr>
          <tr><td><b>24.9 N, 138.9 E</b></td></tr>
          <tr><td>Min Sea Level Pressure:</td></tr>
          <tr><td>979 mb / 28.91 in Hg</td></tr>
          <tr><td>Maximum Intensity:</td></tr>
          <tr><td>65 kt / 75 mph / 120 kph</td></tr>
        </table>
      ]]></description>
      <Point><coordinates>138.9,24.9</coordinates></Point>
    </Placemark>
    <Placemark>
      <name>0600 UTC AUG 25</name>
      <styleUrl>#cat1</styleUrl>
      <description><![CDATA[
        <table>
          <tr><td>HU SHANSHAN (WP112024)</td></tr>
          <tr><td><hr></td></tr>
          <tr><td>0600 UTC AUG 25, 2024</td></tr>
          <tr><td>Storm Location:</td></tr>
          <tr><td><b>25.8 N, 137.9 E</b></td></tr>
          <tr><td>Min Sea Level Pressure:</td></tr>
          <tr><td>975 mb / 28.79 in Hg</td></tr>
          <tr><td>Maximum Intensity:</td></tr>
          <tr><td>70 kt / 81 mph / 130 kph</td></tr>
        </table>
      ]]></description>
      <Point><coordinates>137.9,25.8</coordinates></Point>
    </Placemark>
    <Placemark>
      <name>1200 UTC AUG 25</name>
      <styleUrl>#cat1</styleUrl>
      <description><![CDATA[
        <table>
          <tr><td>HU SHANSHAN (WP112024)</td></tr>
          <tr><td><hr></td></tr>
          <tr><td>1200 UTC AUG 25, 2024</td></tr>
          <tr><td>Storm Location:</td></tr>
          <tr><td><b>26.5 N, 136.6 E</b></td></tr>
          <tr><td>Min Sea Level Pressure:</td></tr>
          <tr><td>974 mb / 28.76 in Hg</td></tr>
          <tr><td>Maximum Intensity:</td></tr>
          <tr><td>75 kt / 86 mph / 139 kph</td></tr>
        </table>
      ]]></description>
      <Point><coordinates>136.6,26.5</coordinates></Point>
    </Placemark>
    <Placemark>
      <name>1800 UTC AUG 25</name>
      <styleUrl>#cat1</styleUrl>
      <description><![CDATA[
        <table>
          <tr><td>HU SHANSHAN (WP112024)</td></tr>
          <tr><td><hr></td></tr>
          <tr><td>1800 UTC AUG 25, 2024</td></tr>
          <tr><td>Storm Location:</td></tr>
          <tr><td><b>26.9 N, 135.0 E</b></td></tr>
          <tr><td>Min Sea Level Pressure:</td></tr>
          <tr><td>971 mb / 28.67 in Hg</td></tr>
          <tr><td>Maximum Intensity:</td></tr>
          <tr><td>75 kt / 86 mph / 139 kph</td></tr>
        </table>
      ]]></description>
      <Point><coordinates>135,26.9</coordinates></Point>
    </Placemark>
    <Placemark>
      <name>0000 UTC AUG 26</name>
      <styleUrl>#cat1</styleUrl>
      <description><![CDATA[
        <table>
          <tr><td>HU SHANSHAN (WP112024)</td></tr>
          <tr><td><hr></td></tr>
          <tr><td>0000 UTC AUG 26, 2024</td></tr>
          <tr><td>Storm Location:</td></tr>
          <tr><td><b>27.3 N, 133.7 E</b></td></tr>
          <tr><td>Min Sea Level Pressure:</td></tr>
          <tr><td>976 mb / 28.82 in Hg</td></tr>
          <tr><td>Maximum Intensity:</td></tr>
          <tr><td>70 kt / 81 mph / 130 kph</td></tr>
        </table>
      ]]></description>
      <Point><coordinates>133.7,27.3</coordinates></Point>
    </Placemark>
    <Placemark>
      <name>0600 UTC AUG 26</name>
      <styleUrl>#cat1</styleUrl>
      <description><![CDATA[
        <table>
          <tr><td>HU SHANSHAN (WP112024)</td></tr>
          <tr><td><hr></td></tr>
          <tr><td>0600 UTC AUG 26, 2024</td></tr>
          <tr><td>Storm Location:</td></tr>
          <tr><td><b>27.5 N, 132.8 E</b></td></tr>
          <tr><td>Min Sea Level Pressure:</td></tr>
          <tr><td>972 mb / 28.70 in Hg</td></tr>
          <tr><td>Maximum Intensity:</td></tr>
          <tr><td>80 kt / 92 mph / 148 kph</td></tr>
        </table>
      ]]></description>
      <Point><coordinates>132.8,27.5</coordinates></Point>
    </Placemark>
    <Placemark>
      <name>1200 UTC AUG 26</name>
      <styleUrl>#cat2</styleUrl>
      <description><![CDATA[
        <table>
          <tr><td>HU SHANSHAN (WP112024)</td></tr>
          <tr><td><hr></td></tr>
          <tr><td>1200 UTC AUG 26, 2024</td></tr>
          <tr><td>Storm Location:</td></tr>
          <tr><td><b>27.7 N, 131.9 E</b></td></tr>
          <tr><td>Min Sea Level Pressure:</td></tr>
          <tr><td>966 mb / 28.53 in Hg</td></tr>
          <tr><td>Maximum Intensity:</td></tr>
          <tr><td>90 kt / 104 mph / 167 kph</td></tr>
        </table>
      ]]></description>
      <Point><coordinates>131.9,27.7</coordinates></Point>
    </Placemark>
    <Placemark>
      <name>1800 UTC AUG 26</name>
      <styleUrl>#cat3</styleUrl>
      <description><![CDATA[
        <table>
          <tr><td>HU SHANSHAN (WP112024)</td></tr>
          <tr><td><hr></td></tr>
          <tr><td>1800 UTC AUG 26, 2024</td></tr>
          <tr><td>Storm Location:</td></tr>
          <tr><td><b>28.0 N, 131.1 E</b></td></tr>
          <tr><td>Min Sea Level Pressure:</td></tr>
          <tr><td>948 mb / 27.99 in Hg</td></tr>
          <tr><td>Maximum Intensity:</td></tr>
          <tr><td>100 kt / 115 mph / 185 kph</td></tr>
        </table>
      ]]></description>
      <Point><coordinates>131.1,28</coordinates></Point>
    </Placemark>
    <Placemark>
      <name>0000 UTC AUG 27</name>
      <styleUrl>#cat3</styleUrl>
      <description><![CDATA[
        <table>
          <tr><td>HU SHANSHAN (WP112024)</td></tr>
          <tr><td><hr></td></tr>
          <tr><td>0000 UTC AUG 27, 2024</td></tr>
          <tr><td>Storm Location:</td></tr>
          <tr><td><b>28.2 N, 130.7 E</b></td></tr>
          <tr><td>Min Sea Level Pressure:</td></tr>
          <tr><td>943 mb / 27.85 in Hg</td></tr>
          <tr><td>Maximum Intensity:</td></tr>
          <tr><td>105 kt / 121 mph / 194 kph</td></tr>
        </table>
      ]]></description>
      <Point><coordinates>130.7,28.2</coordinates></Point>
    </Placemark>
    <Placemark>
      <name>0600 UTC AUG 27</name>
      <styleUrl>#cat3</styleUrl>
      <description><![CDATA[
        <table>
          <tr><td>HU SHANSHAN (WP112024)</td></tr>
          <tr><td><hr></td></tr>
          <tr><td>0600 UTC AUG 27, 2024</td></tr>
          <tr><td>Storm Location:</td></tr>
          <tr><td><b>28.4 N, 130.5 E</b></td></tr>
          <tr><td>Min Sea Level Pressure:</td></tr>
          <tr><td>938 mb / 27.70 in Hg</td></tr>
          <tr><td>Maximum Intensity:</td></tr>
          <tr><td>110 kt / 127 mph / 204 kph</td></tr>
        </table>
      ]]></description>
      <Point><coordinates>130.5,28.4</coordinates></Point>
    </Placemark>
    <Placemark>
      <name>1200 UTC AUG 27</name>
      <styleUrl>#cat4</styleUrl>
      <description><![CDATA[
        <table>
          <tr><td>HU SHANSHAN (WP112024)</td></tr>
          <tr><td><hr></td></tr>
          <tr><td>1200 UTC AUG 27, 2024</td></tr>
          <tr><td>Storm Location:</td></tr>
          <tr><td><b>28.6 N, 130.3 E</b></td></tr>
          <tr><td>Min Sea Level Pressure:</td></tr>
          <tr><td>935 mb / 27.61 in Hg</td></tr>
          <tr><td>Maximum Intensity:</td></tr>
          <tr><td>115 kt / 132 mph / 213 kph</td></tr>
        </table>
      ]]></description>
      <Point><coordinates>130.3,28.6</coordinates></Point>
    </Placemark>
    <Placemark>
      <name>1800 UTC AUG 27</name>
      <styleUrl>#cat3</styleUrl>
      <description><![CDATA[
        <table>
          <tr><td>HU SHANSHAN (WP112024)</td></tr>
          <tr><td><hr></td></tr>
          <tr><td>1800 UTC AUG 27, 2024</td></tr>
          <tr><td>Storm Location:</td></tr>
          <tr><td><b>29.0 N, 130.1 E</b></td></tr>
          <tr><td>Min Sea Level Pressure:</td></tr>
          <tr><td>936 mb / 27.64 in Hg</td></tr>
          <tr><td>Maximum Intensity:</td></tr>
          <tr><td>110 kt / 127 mph / 204 kph</td></tr>
        </table>
      ]]></description>
      <Point><coordinates>130.1,29</coordinates></Point>
    </Placemark>
    <Placemark>
      <name>0000 UTC AUG 28</name>
      <styleUrl>#cat3</styleUrl>
      <description><![CDATA[
        <table>
          <tr><td>HU SHANSHAN (WP112024)</td></tr>
          <tr><td><hr></td></tr>
          <tr><td>0000 UTC AUG 28, 2024</td></tr>
          <tr><td>Storm Location:</td></tr>
          <tr><td><b>29.3 N, 130.0 E</b></td></tr>
          <tr><td>Min Sea Level Pressure:</td></tr>
          <tr><td>936 mb / 27.64 in Hg</td></tr>
          <tr><td>Maximum Intensity:</td></tr>
          <tr><td>110 kt / 127 mph / 204 kph</td></tr>
        </table>
      ]]></description>
      <Point><coordinates>130,29.3</coordinates></Point>
    </Placemark>
    <Placemark>
      <name>0600 UTC AUG 28</name>
      <styleUrl>#cat3</styleUrl>
      <description><![CDATA[
        <table>
          <tr><td>HU SHANSHAN (WP112024)</td></tr>
          <tr><td><hr></td></tr>
          <tr><td>0600 UTC AUG 28, 2024</td></tr>
          <tr><td>Storm Location:</td></tr>
          <tr><td><b>30.0 N, 130.0 E</b></td></tr>
          <tr><td>Min Sea Level Pressure:</td></tr>
          <tr><td>945 mb / 27.91 in Hg</td></tr>
          <tr><td>Maximum Intensity:</td></tr>
          <tr><td>100 kt / 115 mph / 185 kph</td></tr>
        </table>
      ]]></description>
      <Point><coordinates>130,30</coordinates></Point>
    </Placemark>
    <Placemark>
      <name>1200 UTC AUG 28</name>
      <styleUrl>#cat2</styleUrl>
      <description><![CDATA[
        <table>
          <tr><td>HU SHANSHAN (WP112024)</td></tr>
          <tr><td><hr></td></tr>
          <tr><td>1200 UTC AUG 28, 2024</td></tr>
          <tr><td>Storm Location:</td></tr>
          <tr><td><b>30.6 N, 130.0 E</b></td></tr>
          <tr><td>Min Sea Level Pressure:</td></tr>
          <tr><td>949 mb / 28.02 in Hg</td></tr>
          <tr><td>Maximum Intensity:</td></tr>
          <tr><td>95 kt / 109 mph / 176 kph</td></tr>
        </table>
      ]]></description>
      <Point><coordinates>130,30.6</coordinates></Point>
    </Placemark>
    <Placemark>
      <name>1800 UTC AUG 28</name>
      <styleUrl>#cat2</styleUrl>
      <description><![CDATA[
        <table>
          <tr><td>HU SHANSHAN (WP112024)</td></tr>
          <tr><td><hr></td></tr>
          <tr><td>1800 UTC AUG 28, 2024</td></tr>
          <tr><td>Storm Location:</td></tr>
          <tr><td><b>31.3 N, 130.0 E</b></td></tr>
          <tr><td>Min Sea Level Pressure:</td></tr>
          <tr><td>957 mb / 28.26 in Hg</td></tr>
          <tr><td>Maximum Intensity:</td></tr>
          <tr><td>85 kt / 98 mph / 157 kph</td></tr>
        </table>
      ]]></description>
      <Point><coordinates>130,31.3</coordinates></Point>
    </Placemark>
    <Placemark>
      <name>0000 UTC AUG 29</name>
      <styleUrl>#cat1</styleUrl>
      <description><![CDATA[
        <table>
          <tr><td>HU SHANSHAN (WP112024)</td></tr>
          <tr><td><hr></td></tr>
          <tr><td>0000 UTC AUG 29, 2024</td></tr>
          <tr><td>Storm Location:</td></tr>
          <tr><td><b>31.9 N, 130.2 E</b></td></tr>
          <tr><td>Min Sea Level Pressure:</td></tr>
          <tr><td>966 mb / 28.53 in Hg</td></tr>
          <tr><td>Maximum Intensity:</td></tr>
          <tr><td>75 kt / 86 mph / 139 kph</td></tr>
        </table>
      ]]></description>
      <Point><coordinates>130.2,31.9</coordinates></Point>
    </Placemark>
    <Placemark>
      <name>0600 UTC AUG 29</name>
      <styleUrl>#ts</styleUrl>
      <description><![CDATA[
        <table>
          <tr><td>TS SHANSHAN (WP112024)</td></tr>
          <tr><td><hr></td></tr>
          <tr><td>0600 UTC AUG 29, 2024</td></tr>
          <tr><td>Storm Location:</td></tr>
          <tr><td><b>32.7 N, 130.5 E</b></td></tr>
          <tr><td>Min Sea Level Pressure:</td></tr>
          <tr><td>976 mb / 28.82 in Hg</td></tr>
          <tr><td>Maximum Intensity:</td></tr>
          <tr><td>60 kt / 69 mph / 111 kph</td></tr>
        </table>
      ]]></description>
      <Point><coordinates>130.5,32.7</coordinates></Point>
    </Placemark>
    <Placemark>
      <name>1200 UTC AUG 29</name>
      <styleUrl>#ts</styleUrl>
      <description><![CDATA[
        <table>
          <tr><td>TS SHANSHAN (WP112024)</td></tr>
          <tr><td><hr></td></tr>
          <tr><td>1200 UTC AUG 29, 2024</td></tr>
          <tr><td>Storm Location:</td></tr>
          <tr><td><b>33.3 N, 130.8 E</b></td></tr>
          <tr><td>Min Sea Level Pressure:</td></tr>
          <tr><td>988 mb / 29.18 in Hg</td></tr>
          <tr><td>Maximum Intensity:</td></tr>
          <tr><td>45 kt / 52 mph / 83 kph</td></tr>
        </table>
      ]]></description>
      <Point><coordinates>130.8,33.3</coordinates></Point>
    </Placemark>
    <Placemark>
      <name>1800 UTC AUG 29</name>
      <styleUrl>#ts</styleUrl>
      <description><![CDATA[
        <table>
          <tr><td>TS SHANSHAN (WP112024)</td></tr>
          <tr><td><hr></td></tr>
          <tr><td>1800 UTC AUG 29, 2024</td></tr>
          <tr><td>Storm Location:</td></tr>
          <tr><td><b>33.5 N, 131.1 E</b></td></tr>
          <tr><td>Min Sea Level Pressure:</td></tr>
          <tr><td>990 mb / 29.23 in Hg</td></tr>
          <tr><td>Maximum Intensity:</td></tr>
          <tr><td>40 kt / 46 mph / 74 kph</td></tr>
        </table>
      ]]></description>
      <Point><coordinates>131.1,33.5</coordinates></Point>
    </Placemark>
    <Placemark>
      <name>0000 UTC AUG 30</name>
      <styleUrl>#ts</styleUrl>
      <description><![CDATA[
        <table>
          <tr><td>TS SHANSHAN (WP112024)</td></tr>
          <tr><td><hr></td></tr>
          <tr><td>0000 UTC AUG 30, 2024</td></tr>
          <tr><td>Storm Location:</td></tr>
          <tr><td><b>33.7 N, 131.4 E</b></td></tr>
          <tr><td>Min Sea Level Pressure:</td></tr>
          <tr><td>990 mb / 29.23 in Hg</td></tr>
          <tr><td>Maximum Intensity:</td></tr>
          <tr><td>40 kt / 46 mph / 74 kph</td></tr>
        </table>
      ]]></description>
      <Point><coordinates>131.4,33.7</coordinates></Point>
    </Placemark>
    <Placemark>
      <name>0600 UTC AUG 30</name>
      <styleUrl>#ts</styleUrl>
      <description><![CDATA[
        <table>
          <tr><td>TS SHANSHAN (WP112024)</td></tr>
          <tr><td><hr></td></tr>
          <tr><td>0600 UTC AUG 30, 2024</td></tr>
          <tr><td>Storm Location:</td></tr>
          <tr><td><b>33.9 N, 132.2 E</b></td></tr>
          <tr><td>Min Sea Level Pressure:</td></tr>
          <tr><td>991 mb / 29.26 in Hg</td></tr>
          <tr><td>Maximum Intensity:</td></tr>
          <tr><td>35 kt / 40 mph / 65 kph</td></tr>
        </table>
      ]]></description>
      <Point><coordinates>132.2,33.9</coordinates></Point>
    </Placemark>
    <Placemark>
      <name>1200 UTC AUG 30</name>
      <styleUrl>#td</styleUrl>
      <description><![CDATA[
        <table>
          <tr><td>TD SHANSHAN (WP112024)</td></tr>
          <tr><td><hr></td></tr>
          <tr><td>1200 UTC AUG 30, 2024</td></tr>
          <tr><td>Storm Location:</td></tr>
          <tr><td><b>34.1 N, 133.1 E</b></td></tr>
          <tr><td>Min Sea Level Pressure:</td></tr>
          <tr><td>993 mb / 29.32 in Hg</td></tr>
          <tr><td>Maximum Intensity:</td></tr>
          <tr><td>30 kt / 35 mph / 56 kph</td></tr>
        </table>
      ]]></description>
      <Point><coordinates>133.1,34.1</coordinates></Point>
    </Placemark>
    <Placemark>
      <name>1800 UTC AUG 30</name>
      <styleUrl>#td</styleUrl>
      <description><![CDATA[
        <table>
          <tr><td>TD SHANSHAN (WP112024)</td></tr>
          <tr><td><hr></td></tr>
          <tr><td>1800 UTC AUG 30, 2024</td></tr>
          <tr><td>Storm Location:</td></tr>
          <tr><td><b>34.1 N, 134.4 E</b></td></tr>
          <tr><td>Min Sea Level Pressure:</td></tr>
          <tr><td>993 mb / 29.32 in Hg</td></tr>
          <tr><td>Maximum Intensity:</td></tr>
          <tr><td>30 kt / 35 mph / 56 kph</td></tr>
        </table>
      ]]></description>
      <Point><coordinates>134.4,34.1</coordinates></Point>
    </Placemark>
    <Placemark>
      <name>0000 UTC AUG 31</name>
      <styleUrl>#td</styleUrl>
      <description><![CDATA[
        <table>
          <tr><td>TD SHANSHAN (WP112024)</td></tr>
          <tr><td><hr></td></tr>
          <tr><td>0000 UTC AUG 31, 2024</td></tr>
          <tr><td>Storm Location:</td></tr>
          <tr><td><b>33.6 N, 135.5 E</b></td></tr>
          <tr><td>Min Sea Level Pressure:</td></tr>
          <tr><td>993 mb / 29.32 in Hg</td></tr>
          <tr><td>Maximum Intensity:</td></tr>
          <tr><td>30 kt / 35 mph / 56 kph</td></tr>
        </table>
      ]]></description>
      <Point><coordinates>135.5,33.6</coordinates></Point>
    </Placemark>
    <Placemark>
      <name>0600 UTC AUG 31</name>
      <styleUrl>#td</styleUrl>
      <description><![CDATA[
        <table>
          <tr><td>TD SHANSHAN (WP112024)</td></tr>
          <tr><td><hr></td></tr>
          <tr><td>0600 UTC AUG 31, 2024</td></tr>
          <tr><td>Storm Location:</td></tr>
          <tr><td><b>33.4 N, 136.3 E</b></td></tr>
          <tr><td>Min Sea Level Pressure:</td></tr>
          <tr><td>995 mb / 29.38 in Hg</td></tr>
          <tr><td>Maximum Intensity:</td></tr>
          <tr><td>25 kt / 29 mph / 46 kph</td></tr>
        </table>
      ]]></description>
      <Point><coordinates>136.3,33.4</coordinates></Point>
    </Placemark>
    <Placemark>
      <name>1200 UTC AUG 31</name>
      <styleUrl>#td</styleUrl>
      <description><![CDATA[
        <table>
          <tr><td>TD SHANSHAN (WP112024)</td></tr>
          <tr><td><hr></td></tr>
          <tr><td>1200 UTC AUG 31, 2024</td></tr>
          <tr><td>Storm Location:</td></tr>
          <tr><td><b>33.1 N, 137.2 E</b></td></tr>
          <tr><td>Min Sea Level Pressure:</td></tr>
          <tr><td>996 mb / 29.41 in Hg</td></tr>
          <tr><td>Maximum Intensity:</td></tr>
          <tr><td>25 kt / 29 mph / 46 kph</td></tr>
        </table>
      ]]></description>
      <Point><coordinates>137.2,33.1</coordinates></Point>
    </Placemark>
    <Placemark>
      <name>1800 UTC AUG 31</name>
      <styleUrl>#td</styleUrl>
      <description><![CDATA[
        <table>
          <tr><td>TD SHANSHAN (WP112024)</td></tr>
          <tr><td><hr></td></tr>
          <tr><td>1800 UTC AUG 31, 2024</td></tr>
          <tr><td>Storm Location:</td></tr>
          <tr><td><b>33.0 N, 137.1 E</b></td></tr>
          <tr><td>Min Sea Level Pressure:</td></tr>
          <tr><td>997 mb / 29.44 in Hg</td></tr>
          <tr><td>Maximum Intensity:</td></tr>
          <tr><td>25 kt / 29 mph / 46 kph</td></tr>
        </table>
      ]]></description>
      <Point><coordinates>137.1,33</coordinates></Point>
    </Placemark>
    <Placemark>
      <name>0000 UTC SEP 1</name>
      <styleUrl>#td</styleUrl>
      <description><![CDATA[
        <table>
          <tr><td>TD SHANSHAN (WP112024)</td></tr>
          <tr><td><hr></td></tr>
          <tr><td>0000 UTC SEP 1, 2024</td></tr>
          <tr><td>Storm Location:</td></tr>
          <tr><td><b>33.2 N, 136.8 E</b></td></tr>
          <tr><td>Min Sea Level Pressure:</td></tr>
          <tr><td>997 mb / 29.44 in Hg</td></tr>
          <tr><td>Maximum Intensity:</td></tr>
          <tr><td>25 kt / 29 mph / 46 kph</td></tr>
        </table>
      ]]></description>
      <Point><coordinates>136.8,33.2</coordinates></Point>
    </Placemark>
    <Placemark>
      <name>0600 UTC SEP 1</name>
      <styleUrl>#td</styleUrl>
      <description><![CDATA[
        <table>
          <tr><td>TD SHANSHAN (WP112024)</td></tr>
          <tr><td><hr></td></tr>
          <tr><td>0600 UTC SEP 1, 2024</td></tr>
          <tr><td>Storm Location:</td></tr>
          <tr><td><b>33.9 N, 136.9 E</b></td></tr>
          <tr><td>Min Sea Level Pressure:</td></tr>
          <tr><td>999 mb / 29.50 in Hg</td></tr>
          <tr><td>Maximum Intensity:</td></tr>
          <tr><td>25 kt / 29 mph / 46 kph</td></tr>
        </table>
      ]]></description>
      <Point><coordinates>136.9,33.9</coordinates></Point>
    </Placemark>
    <Placemark>
      <name>1200 UTC SEP 1</name>
      <styleUrl>#db</styleUrl>
      <description><![CDATA[
        <table>
          <tr><td>DB SHANSHAN (WP112024)</td></tr>
          <tr><td><hr></td></tr>
          <tr><td>1200 UTC SEP 1, 2024</td></tr>
          <tr><td>Storm Location:</td></tr>
          <tr><td><b>35.0 N, 136.4 E</b></td></tr>
          <tr><td>Min Sea Level Pressure:</td></tr>
          <tr><td>1000 mb / 29.53 in Hg</td></tr>
          <tr><td>Maximum Intensity:</td></tr>
          <tr><td>20 kt / 23 mph / 37 kph</td></tr>
        </table>
      ]]></description>
      <Point><coordinates>136.4,35</coordinates></Point>
    </Placemark>
    <Placemark>
      <name>1800 UTC SEP 1</name>
      <styleUrl>#db</styleUrl>
      <description><![CDATA[
        <table>
          <tr><td>DB SHANSHAN (WP112024)</td></tr>
          <tr><td><hr></td></tr>
          <tr><td>1800 UTC SEP 1, 2024</td></tr>
          <tr><td>Storm Location:</td></tr>
          <tr><td><b>35.8 N, 136.5 E</b></td></tr>
          <tr><td>Min Sea Level Pressure:</td></tr>
          <tr><td>1001 mb / 29.56 in Hg</td></tr>
          <tr><td>Maximum Intensity:</td></tr>
          <tr><td>15 kt / 17 mph / 28 kph</td></tr>
        </table>
      ]]></description>
      <Point><coordinates>136.5,35.8</coordinates></Point>
    </Placemark>
  </Document>
</kml>
