<?xml version="1.0" encoding="UTF-8"?>
<kml xmlns="http://www.opengis.net/kml/2.2">
  <Document>
    <name>WP132024</name>
    <open>0</open>

    <!-- =====  Document header ===== -->
    <description><![CDATA[
      <table>
        <tr><td><b>Title:</b> Tropical Cyclone Best Track for WP132024</td></tr>
      </table>
    ]]></description>

    <!-- =====  Styles (ids must be unique)  ===== -->
	<Style id="pt"> 
		<IconStyle> 
			<scale>1.0</scale> 
			<Icon> 
				<href>ex_nhemi.png</href> 
			</Icon> 
             <hotSpot x="15" y="17" xunits="pixels" yunits="pixels"/>
		</IconStyle> 
		<LabelStyle> 
			<scale>1.0</scale> 
		</LabelStyle> 
	</Style>
	<Style id="cat5"> 
		<IconStyle> 
			<scale>1.0</scale> 
			<Icon> 
				<href>cat5_nhemi.png</href> 
			</Icon> 
             <hotSpot x="15" y="17" xunits="pixels" yunits="pixels"/>
		</IconStyle> 
		<LabelStyle> 
			<scale>1.0</scale> 
		</LabelStyle> 
	</Style>
	<Style id="db"> 
		<IconStyle> 
			<scale>1.0</scale> 
			<Icon> 
				<href>ex_nhemi.png</href> 
			</Icon> 
             <hotSpot x="15" y="17" xunits="pixels" yunits="pixels"/>
		</IconStyle> 
		<LabelStyle> 
			<scale>1.0</scale> 
		</LabelStyle> 
	</Style>
	<Style id="cat3"> 
		<IconStyle> 
			<scale>1.0</scale> 
			<Icon> 
				<href>cat3_nhemi.png</href> 
			</Icon> 
             <hotSpot x="15" y="17" xunits="pixels" yunits="pixels"/>
		</IconStyle> 
		<LabelStyle> 
			<scale>1.0</scale> 
		</LabelStyle> 
	</Style>
	<Style id="ss"> 
		<IconStyle> 
			<scale>1.0</scale> 
			<Icon> 
				<href>ts_nhemi.png</href> 
			</Icon> 
             <hotSpot x="15" y="17" xunits="pixels" yunits="pixels"/>
		</IconStyle> 
		<LabelStyle> 
			<scale>1.0</scale> 
		</LabelStyle> 
	</Style>
	<Style id="lo"> 
		<IconStyle> 
			<scale>1.0</scale> 
			<Icon> 
				<href>ex_nhemi.png</href> 
			</Icon> 
             <hotSpot x="15" y="17" xunits="pixels" yunits="pixels"/>
		</IconStyle> 
		<LabelStyle> 
			<scale>1.0</scale> 
		</LabelStyle> 
	</Style>
	<Style id="cat4"> 
		<IconStyle> 
			<scale>1.0</scale> 
			<Icon> 
				<href>cat4_nhemi.png</href> 
			</Icon> 
             <hotSpot x="15" y="17" xunits="pixels" yunits="pixels"/>
		</IconStyle> 
		<LabelStyle> 
			<scale>1.0</scale> 
		</LabelStyle> 
	</Style>
	<Style id="cat2"> 
		<IconStyle> 
			<scale>1.0</scale> 
			<Icon> 
				<href>cat2_nhemi.png</href> 
			</Icon> 
             <hotSpot x="15" y="17" xunits="pixels" yunits="pixels"/>
		</IconStyle> 
		<LabelStyle> 
			<scale>1.0</scale> 
		</LabelStyle> 
	</Style>
	<Style id="ts"> 
		<IconStyle> 
			<scale>1.0</scale> 
			<Icon> 
				<href>ts_nhemi.png</href> 
			</Icon> 
             <hotSpot x="15" y="17" xunits="pixels" yunits="pixels"/>
		</IconStyle> 
		<LabelStyle> 
			<scale>1.0</scale> 
		</LabelStyle> 
	</Style>
	<Style id="cat1"> 
		<IconStyle> 
			<scale>1.0</scale> 
			<Icon> 
				<href>cat1_nhemi.png</href> 
			</Icon> 
             <hotSpot x="15" y="17" xunits="pixels" yunits="pixels"/>
		</IconStyle> 
		<LabelStyle> 
			<scale>1.0</scale> 
		</LabelStyle> 
	</Style>
	<Style id="ex"> 
		<IconStyle> 
			<scale>1.0</scale> 
			<Icon> 
				<href>ex_nhemi.png</href> 
			</Icon> 
             <hotSpot x="15" y="17" xunits="pixels" yunits="pixels"/>
		</IconStyle> 
		<LabelStyle> 
			<scale>1.0</scale> 
		</LabelStyle> 
	</Style>
	<Style id="tc"> 
		<IconStyle> 
			<scale>1.0</scale> 
			<Icon> 
				<href>ex_nhemi.png</href> 
			</Icon> 
             <hotSpot x="15" y="17" xunits="pixels" yunits="pixels"/>
		</IconStyle> 
		<LabelStyle> 
			<scale>1.0</scale> 
		</LabelStyle> 
	</Style>
	<Style id="wv"> 
		<IconStyle> 
			<scale>1.0</scale> 
			<Icon> 
				<href>ex_nhemi.png</href> 
			</Icon> 
             <hotSpot x="15" y="17" xunits="pixels" yunits="pixels"/>
		</IconStyle> 
		<LabelStyle> 
			<scale>1.0</scale> 
		</LabelStyle> 
	</Style>
	<Style id="td"> 
		<IconStyle> 
			<scale>1.0</scale> 
			<Icon> 
				<href>td_nhemi.png</href> 
			</Icon> 
             <hotSpot x="15" y="17" xunits="pixels" yunits="pixels"/>
		</IconStyle> 
		<LabelStyle> 
			<scale>1.0</scale> 
		</LabelStyle> 
	</Style>
	<Style id="sd"> 
		<IconStyle> 
			<scale>1.0</scale> 
			<Icon> 
				<href>ex_nhemi.png</href> 
			</Icon> 
             <hotSpot x="15" y="17" xunits="pixels" yunits="pixels"/>
		</IconStyle> 
		<LabelStyle> 
			<scale>1.0</scale> 
		</LabelStyle> 
	</Style>

    <Placemark>
      <name>0600 UTC SEP 2</name>
      <styleUrl>#db</styleUrl>
      <description><![CDATA[
        <table>
          <tr><td>DB LEEPI (WP132024)</td></tr>
          <tr><td><hr></td></tr>
          <tr><td>0600 UTC SEP 2, 2024</td></tr>
          <tr><td>Storm Location:</td></tr>
          <tr><td><b>23.5 N, 146.5 E</b></td></tr>
          <tr><td>Min Sea Level Pressure:</td></tr>
          <tr><td>1006 mb / 29.71 in Hg</td></tr>
          <tr><td>Maximum Intensity:</td></tr>
          <tr><td>15 kt / 17 mph / 28 kph</td></tr>
        </table>
      ]]></description>
      <Point><coordinates>146.5,23.5</coordinates></Point>
    </Placemark>
    <Placemark>
      <name>1200 UTC SEP 2</name>
      <styleUrl>#db</styleUrl>
      <description><![CDATA[
        <table>
          <tr><td>DB LEEPI (WP132024)</td></tr>
          <tr><td><hr></td></tr>
          <tr><td>1200 UTC SEP 2, 2024</td></tr>
          <tr><td>Storm Location:</td></tr>
          <tr><td><b>23.9 N, 146.7 E</b></td></tr>
          <tr><td>Min Sea Level Pressure:</td></tr>
          <tr><td>1005 mb / 29.68 in Hg</td></tr>
          <tr><td>Maximum Intensity:</td></tr>
          <tr><td>15 kt / 17 mph / 28 kph</td></tr>
        </table>
      ]]></description>
      <Point><coordinates>146.7,23.9</coordinates></Point>
    </Placemark>
    <Placemark>
      <name>1800 UTC SEP 2</name>
      <styleUrl>#db</styleUrl>
      <description><![CDATA[
        <table>
          <tr><td>DB LEEPI (WP132024)</td></tr>
          <tr><td><hr></td></tr>
          <tr><td>1800 UTC SEP 2, 2024</td></tr>
          <tr><td>Storm Location:</td></tr>
          <tr><td><b>24.4 N, 147.0 E</b></td></tr>
          <tr><td>Min Sea Level Pressure:</td></tr>
          <tr><td>1003 mb / 29.62 in Hg</td></tr>
          <tr><td>Maximum Intensity:</td></tr>
          <tr><td>20 kt / 23 mph / 37 kph</td></tr>
        </table>
      ]]></description>
      <Point><coordinates>147,24.4</coordinates></Point>
    </Placemark>
    <Placemark>
      <name>0000 UTC SEP 3</name>
      <styleUrl>#td</styleUrl>
      <description><![CDATA[
        <table>
          <tr><td>TD LEEPI (WP132024)</td></tr>
          <tr><td><hr></td></tr>
          <tr><td>0000 UTC SEP 3, 2024</td></tr>
          <tr><td>Storm Location:</td></tr>
          <tr><td><b>24.7 N, 147.1 E</b></td></tr>
          <tr><td>Min Sea Level Pressure:</td></tr>
          <tr><td>1002 mb / 29.59 in Hg</td></tr>
          <tr><td>Maximum Intensity:</td></tr>
          <tr><td>25 kt / 29 mph / 46 kph</td></tr>
        </table>
      ]]></description>
      <Point><coordinates>147.1,24.7</coordinates></Point>
    </Placemark>
    <Placemark>
      <name>0600 UTC SEP 3</name>
      <styleUrl>#td</styleUrl>
      <description><![CDATA[
        <table>
          <tr><td>TD LEEPI (WP132024)</td></tr>
          <tr><td><hr></td></tr>
          <tr><td>0600 UTC SEP 3, 2024</td></tr>
          <tr><td>Storm Location:</td></tr>
          <tr><td><b>25.0 N, 147.2 E</b></td></tr>
          <tr><td>Min Sea Level Pressure:</td></tr>
          <tr><td>1001 mb / 29.56 in Hg</td></tr>
          <tr><td>Maximum Intensity:</td></tr>
          <tr><td>25 kt / 29 mph / 46 kph</td></tr>
        </table>
      ]]></description>
      <Point><coordinates>147.2,25</coordinates></Point>
    </Placemark>
    <Placemark>
      <name>1200 UTC SEP 3</name>
      <styleUrl>#td</styleUrl>
      <description><![CDATA[
        <table>
          <tr><td>TD LEEPI (WP132024)</td></tr>
          <tr><td><hr></td></tr>
          <tr><td>1200 UTC SEP 3, 2024</td></tr>
          <tr><td>Storm Location:</td></tr>
          <tr><td><b>25.4 N, 147.3 E</b></td></tr>
          <tr><td>Min Sea Level Pressure:</td></tr>
          <tr><td>1001 mb / 29.56 in Hg</td></tr>
          <tr><td>Maximum Intensity:</td></tr>
          <tr><td>30 kt / 35 mph / 56 kph</td></tr>
        </table>
      ]]></description>
      <Point><coordinates>147.3,25.4</coordinates></Point>
    </Placemark>
    <Placemark>
      <name>1800 UTC SEP 3</name>
      <styleUrl>#td</styleUrl>
      <description><![CDATA[
        <table>
          <tr><td>TD LEEPI (WP132024)</td></tr>
          <tr><td><hr></td></tr>
          <tr><td>1800 UTC SEP 3, 2024</td></tr>
          <tr><td>Storm Location:</td></tr>
          <tr><td><b>26.5 N, 147.4 E</b></td></tr>
          <tr><td>Min Sea Level Pressure:</td></tr>
          <tr><td>1000 mb / 29.53 in Hg</td></tr>
          <tr><td>Maximum Intensity:</td></tr>
          <tr><td>30 kt / 35 mph / 56 kph</td></tr>
        </table>
      ]]></description>
      <Point><coordinates>147.4,26.5</coordinates></Point>
    </Placemark>
    <Placemark>
      <name>0000 UTC SEP 4</name>
      <styleUrl>#td</styleUrl>
      <description><![CDATA[
        <table>
          <tr><td>TD LEEPI (WP132024)</td></tr>
          <tr><td><hr></td></tr>
          <tr><td>0000 UTC SEP 4, 2024</td></tr>
          <tr><td>Storm Location:</td></tr>
          <tr><td><b>27.8 N, 147.0 E</b></td></tr>
          <tr><td>Min Sea Level Pressure:</td></tr>
          <tr><td>998 mb / 29.47 in Hg</td></tr>
          <tr><td>Maximum Intensity:</td></tr>
          <tr><td>30 kt / 35 mph / 56 kph</td></tr>
        </table>
      ]]></description>
      <Point><coordinates>147,27.8</coordinates></Point>
    </Placemark>
    <Placemark>
      <name>0600 UTC SEP 4</name>
      <styleUrl>#td</styleUrl>
      <description><![CDATA[
        <table>
          <tr><td>TD LEEPI (WP132024)</td></tr>
          <tr><td><hr></td></tr>
          <tr><td>0600 UTC SEP 4, 2024</td></tr>
          <tr><td>Storm Location:</td></tr>
          <tr><td><b>28.7 N, 146.9 E</b></td></tr>
          <tr><td>Min Sea Level Pressure:</td></tr>
          <tr><td>995 mb / 29.38 in Hg</td></tr>
          <tr><td>Maximum Intensity:</td></tr>
          <tr><td>30 kt / 35 mph / 56 kph</td></tr>
        </table>
      ]]></description>
      <Point><coordinates>146.9,28.7</coordinates></Point>
    </Placemark>
    <Placemark>
      <name>1200 UTC SEP 4</name>
      <styleUrl>#td</styleUrl>
      <description><![CDATA[
        <table>
          <tr><td>TD LEEPI (WP132024)</td></tr>
          <tr><td><hr></td></tr>
          <tr><td>1200 UTC SEP 4, 2024</td></tr>
          <tr><td>Storm Location:</td></tr>
          <tr><td><b>29.5 N, 146.9 E</b></td></tr>
          <tr><td>Min Sea Level Pressure:</td></tr>
          <tr><td>989 mb / 29.21 in Hg</td></tr>
          <tr><td>Maximum Intensity:</td></tr>
          <tr><td>30 kt / 35 mph / 56 kph</td></tr>
        </table>
      ]]></description>
      <Point><coordinates>146.9,29.5</coordinates></Point>
    </Placemark>
    <Placemark>
      <name>1800 UTC SEP 4</name>
      <styleUrl>#ts</styleUrl>
      <description><![CDATA[
        <table>
          <tr><td>TS LEEPI (WP132024)</td></tr>
          <tr><td><hr></td></tr>
          <tr><td>1800 UTC SEP 4, 2024</td></tr>
          <tr><td>Storm Location:</td></tr>
          <tr><td><b>30.8 N, 146.4 E</b></td></tr>
          <tr><td>Min Sea Level Pressure:</td></tr>
          <tr><td>981 mb / 28.97 in Hg</td></tr>
          <tr><td>Maximum Intensity:</td></tr>
          <tr><td>35 kt / 40 mph / 65 kph</td></tr>
        </table>
      ]]></description>
      <Point><coordinates>146.4,30.8</coordinates></Point>
    </Placemark>
    <Placemark>
      <name>0000 UTC SEP 5</name>
      <styleUrl>#ts</styleUrl>
      <description><![CDATA[
        <table>
          <tr><td>TS LEEPI (WP132024)</td></tr>
          <tr><td><hr></td></tr>
          <tr><td>0000 UTC SEP 5, 2024</td></tr>
          <tr><td>Storm Location:</td></tr>
          <tr><td><b>32.2 N, 145.9 E</b></td></tr>
          <tr><td>Min Sea Level Pressure:</td></tr>
          <tr><td>981 mb / 28.97 in Hg</td></tr>
          <tr><td>Maximum Intensity:</td></tr>
          <tr><td>35 kt / 40 mph / 65 kph</td></tr>
        </table>
      ]]></description>
      <Point><coordinates>145.9,32.2</coordinates></Point>
    </Placemark>
    <Placemark>
      <name>0600 UTC SEP 5</name>
      <styleUrl>#ts</styleUrl>
      <description><![CDATA[
        <table>
          <tr><td>TS LEEPI (WP132024)</td></tr>
          <tr><td><hr></td></tr>
          <tr><td>0600 UTC SEP 5, 2024</td></tr>
          <tr><td>Storm Location:</td></tr>
          <tr><td><b>33.1 N, 145.8 E</b></td></tr>
          <tr><td>Min Sea Level Pressure:</td></tr>
          <tr><td>981 mb / 28.97 in Hg</td></tr>
          <tr><td>Maximum Intensity:</td></tr>
          <tr><td>35 kt / 40 mph / 65 kph</td></tr>
        </table>
      ]]></description>
      <Point><coordinates>145.8,33.1</coordinates></Point>
    </Placemark>
    <Placemark>
      <name>1200 UTC SEP 5</name>
      <styleUrl>#ts</styleUrl>
      <description><![CDATA[
        <table>
          <tr><td>TS LEEPI (WP132024)</td></tr>
          <tr><td><hr></td></tr>
          <tr><td>1200 UTC SEP 5, 2024</td></tr>
          <tr><td>Storm Location:</td></tr>
          <tr><td><b>33.9 N, 146.0 E</b></td></tr>
          <tr><td>Min Sea Level Pressure:</td></tr>
          <tr><td>981 mb / 28.97 in Hg</td></tr>
          <tr><td>Maximum Intensity:</td></tr>
          <tr><td>35 kt / 40 mph / 65 kph</td></tr>
        </table>
      ]]></description>
      <Point><coordinates>146,33.9</coordinates></Point>
    </Placemark>
    <Placemark>
      <name>1800 UTC SEP 5</name>
      <styleUrl>#ts</styleUrl>
      <description><![CDATA[
        <table>
          <tr><td>TS LEEPI (WP132024)</td></tr>
          <tr><td><hr></td></tr>
          <tr><td>1800 UTC SEP 5, 2024</td></tr>
          <tr><td>Storm Location:</td></tr>
          <tr><td><b>35.0 N, 146.9 E</b></td></tr>
          <tr><td>Min Sea Level Pressure:</td></tr>
          <tr><td>977 mb / 28.85 in Hg</td></tr>
          <tr><td>Maximum Intensity:</td></tr>
          <tr><td>40 kt / 46 mph / 74 kph</td></tr>
        </table>
      ]]></description>
      <Point><coordinates>146.9,35</coordinates></Point>
    </Placemark>
    <Placemark>
      <name>0000 UTC SEP 6</name>
      <styleUrl>#ts</styleUrl>
      <description><![CDATA[
        <table>
          <tr><td>TS LEEPI (WP132024)</td></tr>
          <tr><td><hr></td></tr>
          <tr><td>0000 UTC SEP 6, 2024</td></tr>
          <tr><td>Storm Location:</td></tr>
          <tr><td><b>36.0 N, 148.0 E</b></td></tr>
          <tr><td>Min Sea Level Pressure:</td></tr>
          <tr><td>978 mb / 28.88 in Hg</td></tr>
          <tr><td>Maximum Intensity:</td></tr>
          <tr><td>40 kt / 46 mph / 74 kph</td></tr>
        </table>
      ]]></description>
      <Point><coordinates>148,36</coordinates></Point>
    </Placemark>
    <Placemark>
      <name>0600 UTC SEP 6</name>
      <styleUrl>#ts</styleUrl>
      <description><![CDATA[
        <table>
          <tr><td>TS LEEPI (WP132024)</td></tr>
          <tr><td><hr></td></tr>
          <tr><td>0600 UTC SEP 6, 2024</td></tr>
          <tr><td>Storm Location:</td></tr>
          <tr><td><b>37.0 N, 149.8 E</b></td></tr>
          <tr><td>Min Sea Level Pressure:</td></tr>
          <tr><td>982 mb / 29.00 in Hg</td></tr>
          <tr><td>Maximum Intensity:</td></tr>
          <tr><td>35 kt / 40 mph / 65 kph</td></tr>
        </table>
      ]]></description>
      <Point><coordinates>149.8,37</coordinates></Point>
    </Placemark>
    <Placemark>
      <name>1200 UTC SEP 6</name>
      <styleUrl>#ts</styleUrl>
      <description><![CDATA[
        <table>
          <tr><td>TS LEEPI (WP132024)</td></tr>
          <tr><td><hr></td></tr>
          <tr><td>1200 UTC SEP 6, 2024</td></tr>
          <tr><td>Storm Location:</td></tr>
          <tr><td><b>37.9 N, 151.0 E</b></td></tr>
          <tr><td>Min Sea Level Pressure:</td></tr>
          <tr><td>982 mb / 29.00 in Hg</td></tr>
          <tr><td>Maximum Intensity:</td></tr>
          <tr><td>35 kt / 40 mph / 65 kph</td></tr>
        </table>
      ]]></description>
      <Point><coordinates>151,37.9</coordinates></Point>
    </Placemark>
    <Placemark>
      <name>1800 UTC SEP 6</name>
      <styleUrl>#ts</styleUrl>
      <description><![CDATA[
        <table>
          <tr><td>TS LEEPI (WP132024)</td></tr>
          <tr><td><hr></td></tr>
          <tr><td>1800 UTC SEP 6, 2024</td></tr>
          <tr><td>Storm Location:</td></tr>
          <tr><td><b>39.3 N, 152.9 E</b></td></tr>
          <tr><td>Min Sea Level Pressure:</td></tr>
          <tr><td>982 mb / 29.00 in Hg</td></tr>
          <tr><td>Maximum Intensity:</td></tr>
          <tr><td>35 kt / 40 mph / 65 kph</td></tr>
        </table>
      ]]></description>
      <Point><coordinates>152.9,39.3</coordinates></Point>
    </Placemark>
    <Placemark>
      <name>0000 UTC SEP 7</name>
      <styleUrl>#td</styleUrl>
      <description><![CDATA[
        <table>
          <tr><td>TD LEEPI (WP132024)</td></tr>
          <tr><td><hr></td></tr>
          <tr><td>0000 UTC SEP 7, 2024</td></tr>
          <tr><td>Storm Location:</td></tr>
          <tr><td><b>40.8 N, 155.0 E</b></td></tr>
          <tr><td>Min Sea Level Pressure:</td></tr>
          <tr><td>988 mb / 29.18 in Hg</td></tr>
          <tr><td>Maximum Intensity:</td></tr>
          <tr><td>30 kt / 35 mph / 56 kph</td></tr>
        </table>
      ]]></description>
      <Point><coordinates>155,40.8</coordinates></Point>
    </Placemark>
    <Placemark>
      <name>0600 UTC SEP 7</name>
      <styleUrl>#ex</styleUrl>
      <description><![CDATA[
        <table>
          <tr><td>EX LEEPI (WP132024)</td></tr>
          <tr><td><hr></td></tr>
          <tr><td>0600 UTC SEP 7, 2024</td></tr>
          <tr><td>Storm Location:</td></tr>
          <tr><td><b>41.7 N, 157.6 E</b></td></tr>
          <tr><td>Min Sea Level Pressure:</td></tr>
          <tr><td>988 mb / 29.18 in Hg</td></tr>
          <tr><td>Maximum Intensity:</td></tr>
          <tr><td>30 kt / 35 mph / 56 kph</td></tr>
        </table>
      ]]></description>
      <Point><coordinates>157.6,41.7</coordinates></Point>
    </Placemark>
  </Document>
</kml>
