<?xml version="1.0" encoding="UTF-8"?>
<kml xmlns="http://www.opengis.net/kml/2.2">
  <Document>
    <name>WP142024</name>
    <open>0</open>

    <!-- =====  Document header ===== -->
    <description><![CDATA[
      <table>
        <tr><td><b>Title:</b> Tropical Cyclone Best Track for WP142024</td></tr>
      </table>
    ]]></description>

    <!-- =====  Styles (ids must be unique)  ===== -->
	<Style id="pt"> 
		<IconStyle> 
			<scale>1.0</scale> 
			<Icon> 
				<href>ex_nhemi.png</href> 
			</Icon> 
             <hotSpot x="15" y="17" xunits="pixels" yunits="pixels"/>
		</IconStyle> 
		<LabelStyle> 
			<scale>1.0</scale> 
		</LabelStyle> 
	</Style>
	<Style id="cat5"> 
		<IconStyle> 
			<scale>1.0</scale> 
			<Icon> 
				<href>cat5_nhemi.png</href> 
			</Icon> 
             <hotSpot x="15" y="17" xunits="pixels" yunits="pixels"/>
		</IconStyle> 
		<LabelStyle> 
			<scale>1.0</scale> 
		</LabelStyle> 
	</Style>
	<Style id="db"> 
		<IconStyle> 
			<scale>1.0</scale> 
			<Icon> 
				<href>ex_nhemi.png</href> 
			</Icon> 
             <hotSpot x="15" y="17" xunits="pixels" yunits="pixels"/>
		</IconStyle> 
		<LabelStyle> 
			<scale>1.0</scale> 
		</LabelStyle> 
	</Style>
	<Style id="cat3"> 
		<IconStyle> 
			<scale>1.0</scale> 
			<Icon> 
				<href>cat3_nhemi.png</href> 
			</Icon> 
             <hotSpot x="15" y="17" xunits="pixels" yunits="pixels"/>
		</IconStyle> 
		<LabelStyle> 
			<scale>1.0</scale> 
		</LabelStyle> 
	</Style>
	<Style id="ss"> 
		<IconStyle> 
			<scale>1.0</scale> 
			<Icon> 
				<href>ts_nhemi.png</href> 
			</Icon> 
             <hotSpot x="15" y="17" xunits="pixels" yunits="pixels"/>
		</IconStyle> 
		<LabelStyle> 
			<scale>1.0</scale> 
		</LabelStyle> 
	</Style>
	<Style id="lo"> 
		<IconStyle> 
			<scale>1.0</scale> 
			<Icon> 
				<href>ex_nhemi.png</href> 
			</Icon> 
             <hotSpot x="15" y="17" xunits="pixels" yunits="pixels"/>
		</IconStyle> 
		<LabelStyle> 
			<scale>1.0</scale> 
		</LabelStyle> 
	</Style>
	<Style id="cat4"> 
		<IconStyle> 
			<scale>1.0</scale> 
			<Icon> 
				<href>cat4_nhemi.png</href> 
			</Icon> 
             <hotSpot x="15" y="17" xunits="pixels" yunits="pixels"/>
		</IconStyle> 
		<LabelStyle> 
			<scale>1.0</scale> 
		</LabelStyle> 
	</Style>
	<Style id="cat2"> 
		<IconStyle> 
			<scale>1.0</scale> 
			<Icon> 
				<href>cat2_nhemi.png</href> 
			</Icon> 
             <hotSpot x="15" y="17" xunits="pixels" yunits="pixels"/>
		</IconStyle> 
		<LabelStyle> 
			<scale>1.0</scale> 
		</LabelStyle> 
	</Style>
	<Style id="ts"> 
		<IconStyle> 
			<scale>1.0</scale> 
			<Icon> 
				<href>ts_nhemi.png</href> 
			</Icon> 
             <hotSpot x="15" y="17" xunits="pixels" yunits="pixels"/>
		</IconStyle> 
		<LabelStyle> 
			<scale>1.0</scale> 
		</LabelStyle> 
	</Style>
	<Style id="cat1"> 
		<IconStyle> 
			<scale>1.0</scale> 
			<Icon> 
				<href>cat1_nhemi.png</href> 
			</Icon> 
             <hotSpot x="15" y="17" xunits="pixels" yunits="pixels"/>
		</IconStyle> 
		<LabelStyle> 
			<scale>1.0</scale> 
		</LabelStyle> 
	</Style>
	<Style id="ex"> 
		<IconStyle> 
			<scale>1.0</scale> 
			<Icon> 
				<href>ex_nhemi.png</href> 
			</Icon> 
             <hotSpot x="15" y="17" xunits="pixels" yunits="pixels"/>
		</IconStyle> 
		<LabelStyle> 
			<scale>1.0</scale> 
		</LabelStyle> 
	</Style>
	<Style id="tc"> 
		<IconStyle> 
			<scale>1.0</scale> 
			<Icon> 
				<href>ex_nhemi.png</href> 
			</Icon> 
             <hotSpot x="15" y="17" xunits="pixels" yunits="pixels"/>
		</IconStyle> 
		<LabelStyle> 
			<scale>1.0</scale> 
		</LabelStyle> 
	</Style>
	<Style id="wv"> 
		<IconStyle> 
			<scale>1.0</scale> 
			<Icon> 
				<href>ex_nhemi.png</href> 
			</Icon> 
             <hotSpot x="15" y="17" xunits="pixels" yunits="pixels"/>
		</IconStyle> 
		<LabelStyle> 
			<scale>1.0</scale> 
		</LabelStyle> 
	</Style>
	<Style id="td"> 
		<IconStyle> 
			<scale>1.0</scale> 
			<Icon> 
				<href>td_nhemi.png</href> 
			</Icon> 
             <hotSpot x="15" y="17" xunits="pixels" yunits="pixels"/>
		</IconStyle> 
		<LabelStyle> 
			<scale>1.0</scale> 
		</LabelStyle> 
	</Style>
	<Style id="sd"> 
		<IconStyle> 
			<scale>1.0</scale> 
			<Icon> 
				<href>ex_nhemi.png</href> 
			</Icon> 
             <hotSpot x="15" y="17" xunits="pixels" yunits="pixels"/>
		</IconStyle> 
		<LabelStyle> 
			<scale>1.0</scale> 
		</LabelStyle> 
	</Style>

    <Placemark>
      <name>1800 UTC SEP 8</name>
      <styleUrl>#db</styleUrl>
      <description><![CDATA[
        <table>
          <tr><td>DB BEBINCA (WP142024)</td></tr>
          <tr><td><hr></td></tr>
          <tr><td>1800 UTC SEP 8, 2024</td></tr>
          <tr><td>Storm Location:</td></tr>
          <tr><td><b>10.6 N, 148.4 E</b></td></tr>
          <tr><td>Min Sea Level Pressure:</td></tr>
          <tr><td>1007 mb / 29.74 in Hg</td></tr>
          <tr><td>Maximum Intensity:</td></tr>
          <tr><td>15 kt / 17 mph / 28 kph</td></tr>
        </table>
      ]]></description>
      <Point><coordinates>148.4,10.6</coordinates></Point>
    </Placemark>
    <Placemark>
      <name>0000 UTC SEP 9</name>
      <styleUrl>#db</styleUrl>
      <description><![CDATA[
        <table>
          <tr><td>DB BEBINCA (WP142024)</td></tr>
          <tr><td><hr></td></tr>
          <tr><td>0000 UTC SEP 9, 2024</td></tr>
          <tr><td>Storm Location:</td></tr>
          <tr><td><b>10.5 N, 148.1 E</b></td></tr>
          <tr><td>Min Sea Level Pressure:</td></tr>
          <tr><td>1005 mb / 29.68 in Hg</td></tr>
          <tr><td>Maximum Intensity:</td></tr>
          <tr><td>15 kt / 17 mph / 28 kph</td></tr>
        </table>
      ]]></description>
      <Point><coordinates>148.1,10.5</coordinates></Point>
    </Placemark>
    <Placemark>
      <name>0600 UTC SEP 9</name>
      <styleUrl>#db</styleUrl>
      <description><![CDATA[
        <table>
          <tr><td>DB BEBINCA (WP142024)</td></tr>
          <tr><td><hr></td></tr>
          <tr><td>0600 UTC SEP 9, 2024</td></tr>
          <tr><td>Storm Location:</td></tr>
          <tr><td><b>10.4 N, 147.6 E</b></td></tr>
          <tr><td>Min Sea Level Pressure:</td></tr>
          <tr><td>1003 mb / 29.62 in Hg</td></tr>
          <tr><td>Maximum Intensity:</td></tr>
          <tr><td>15 kt / 17 mph / 28 kph</td></tr>
        </table>
      ]]></description>
      <Point><coordinates>147.6,10.4</coordinates></Point>
    </Placemark>
    <Placemark>
      <name>1200 UTC SEP 9</name>
      <styleUrl>#db</styleUrl>
      <description><![CDATA[
        <table>
          <tr><td>DB BEBINCA (WP142024)</td></tr>
          <tr><td><hr></td></tr>
          <tr><td>1200 UTC SEP 9, 2024</td></tr>
          <tr><td>Storm Location:</td></tr>
          <tr><td><b>10.3 N, 147.2 E</b></td></tr>
          <tr><td>Min Sea Level Pressure:</td></tr>
          <tr><td>1002 mb / 29.59 in Hg</td></tr>
          <tr><td>Maximum Intensity:</td></tr>
          <tr><td>20 kt / 23 mph / 37 kph</td></tr>
        </table>
      ]]></description>
      <Point><coordinates>147.2,10.3</coordinates></Point>
    </Placemark>
    <Placemark>
      <name>1800 UTC SEP 9</name>
      <styleUrl>#td</styleUrl>
      <description><![CDATA[
        <table>
          <tr><td>TD BEBINCA (WP142024)</td></tr>
          <tr><td><hr></td></tr>
          <tr><td>1800 UTC SEP 9, 2024</td></tr>
          <tr><td>Storm Location:</td></tr>
          <tr><td><b>10.7 N, 146.8 E</b></td></tr>
          <tr><td>Min Sea Level Pressure:</td></tr>
          <tr><td>1000 mb / 29.53 in Hg</td></tr>
          <tr><td>Maximum Intensity:</td></tr>
          <tr><td>25 kt / 29 mph / 46 kph</td></tr>
        </table>
      ]]></description>
      <Point><coordinates>146.8,10.7</coordinates></Point>
    </Placemark>
    <Placemark>
      <name>0000 UTC SEP 10</name>
      <styleUrl>#td</styleUrl>
      <description><![CDATA[
        <table>
          <tr><td>TD BEBINCA (WP142024)</td></tr>
          <tr><td><hr></td></tr>
          <tr><td>0000 UTC SEP 10, 2024</td></tr>
          <tr><td>Storm Location:</td></tr>
          <tr><td><b>11.1 N, 146.5 E</b></td></tr>
          <tr><td>Min Sea Level Pressure:</td></tr>
          <tr><td>999 mb / 29.50 in Hg</td></tr>
          <tr><td>Maximum Intensity:</td></tr>
          <tr><td>25 kt / 29 mph / 46 kph</td></tr>
        </table>
      ]]></description>
      <Point><coordinates>146.5,11.1</coordinates></Point>
    </Placemark>
    <Placemark>
      <name>0600 UTC SEP 10</name>
      <styleUrl>#td</styleUrl>
      <description><![CDATA[
        <table>
          <tr><td>TD BEBINCA (WP142024)</td></tr>
          <tr><td><hr></td></tr>
          <tr><td>0600 UTC SEP 10, 2024</td></tr>
          <tr><td>Storm Location:</td></tr>
          <tr><td><b>11.8 N, 146.0 E</b></td></tr>
          <tr><td>Min Sea Level Pressure:</td></tr>
          <tr><td>996 mb / 29.41 in Hg</td></tr>
          <tr><td>Maximum Intensity:</td></tr>
          <tr><td>30 kt / 35 mph / 56 kph</td></tr>
        </table>
      ]]></description>
      <Point><coordinates>146,11.8</coordinates></Point>
    </Placemark>
    <Placemark>
      <name>1200 UTC SEP 10</name>
      <styleUrl>#ts</styleUrl>
      <description><![CDATA[
        <table>
          <tr><td>TS BEBINCA (WP142024)</td></tr>
          <tr><td><hr></td></tr>
          <tr><td>1200 UTC SEP 10, 2024</td></tr>
          <tr><td>Storm Location:</td></tr>
          <tr><td><b>12.6 N, 145.5 E</b></td></tr>
          <tr><td>Min Sea Level Pressure:</td></tr>
          <tr><td>993 mb / 29.32 in Hg</td></tr>
          <tr><td>Maximum Intensity:</td></tr>
          <tr><td>35 kt / 40 mph / 65 kph</td></tr>
        </table>
      ]]></description>
      <Point><coordinates>145.5,12.6</coordinates></Point>
    </Placemark>
    <Placemark>
      <name>1800 UTC SEP 10</name>
      <styleUrl>#ts</styleUrl>
      <description><![CDATA[
        <table>
          <tr><td>TS BEBINCA (WP142024)</td></tr>
          <tr><td><hr></td></tr>
          <tr><td>1800 UTC SEP 10, 2024</td></tr>
          <tr><td>Storm Location:</td></tr>
          <tr><td><b>13.1 N, 144.2 E</b></td></tr>
          <tr><td>Min Sea Level Pressure:</td></tr>
          <tr><td>993 mb / 29.32 in Hg</td></tr>
          <tr><td>Maximum Intensity:</td></tr>
          <tr><td>35 kt / 40 mph / 65 kph</td></tr>
        </table>
      ]]></description>
      <Point><coordinates>144.2,13.1</coordinates></Point>
    </Placemark>
    <Placemark>
      <name>0000 UTC SEP 11</name>
      <styleUrl>#ts</styleUrl>
      <description><![CDATA[
        <table>
          <tr><td>TS BEBINCA (WP142024)</td></tr>
          <tr><td><hr></td></tr>
          <tr><td>0000 UTC SEP 11, 2024</td></tr>
          <tr><td>Storm Location:</td></tr>
          <tr><td><b>13.7 N, 142.3 E</b></td></tr>
          <tr><td>Min Sea Level Pressure:</td></tr>
          <tr><td>993 mb / 29.32 in Hg</td></tr>
          <tr><td>Maximum Intensity:</td></tr>
          <tr><td>35 kt / 40 mph / 65 kph</td></tr>
        </table>
      ]]></description>
      <Point><coordinates>142.3,13.7</coordinates></Point>
    </Placemark>
    <Placemark>
      <name>0600 UTC SEP 11</name>
      <styleUrl>#ts</styleUrl>
      <description><![CDATA[
        <table>
          <tr><td>TS BEBINCA (WP142024)</td></tr>
          <tr><td><hr></td></tr>
          <tr><td>0600 UTC SEP 11, 2024</td></tr>
          <tr><td>Storm Location:</td></tr>
          <tr><td><b>14.4 N, 141.5 E</b></td></tr>
          <tr><td>Min Sea Level Pressure:</td></tr>
          <tr><td>993 mb / 29.32 in Hg</td></tr>
          <tr><td>Maximum Intensity:</td></tr>
          <tr><td>35 kt / 40 mph / 65 kph</td></tr>
        </table>
      ]]></description>
      <Point><coordinates>141.5,14.4</coordinates></Point>
    </Placemark>
    <Placemark>
      <name>1200 UTC SEP 11</name>
      <styleUrl>#ts</styleUrl>
      <description><![CDATA[
        <table>
          <tr><td>TS BEBINCA (WP142024)</td></tr>
          <tr><td><hr></td></tr>
          <tr><td>1200 UTC SEP 11, 2024</td></tr>
          <tr><td>Storm Location:</td></tr>
          <tr><td><b>15.1 N, 140.8 E</b></td></tr>
          <tr><td>Min Sea Level Pressure:</td></tr>
          <tr><td>990 mb / 29.23 in Hg</td></tr>
          <tr><td>Maximum Intensity:</td></tr>
          <tr><td>40 kt / 46 mph / 74 kph</td></tr>
        </table>
      ]]></description>
      <Point><coordinates>140.8,15.1</coordinates></Point>
    </Placemark>
    <Placemark>
      <name>1800 UTC SEP 11</name>
      <styleUrl>#ts</styleUrl>
      <description><![CDATA[
        <table>
          <tr><td>TS BEBINCA (WP142024)</td></tr>
          <tr><td><hr></td></tr>
          <tr><td>1800 UTC SEP 11, 2024</td></tr>
          <tr><td>Storm Location:</td></tr>
          <tr><td><b>16.0 N, 140.2 E</b></td></tr>
          <tr><td>Min Sea Level Pressure:</td></tr>
          <tr><td>989 mb / 29.21 in Hg</td></tr>
          <tr><td>Maximum Intensity:</td></tr>
          <tr><td>50 kt / 58 mph / 93 kph</td></tr>
        </table>
      ]]></description>
      <Point><coordinates>140.2,16</coordinates></Point>
    </Placemark>
    <Placemark>
      <name>0000 UTC SEP 12</name>
      <styleUrl>#ts</styleUrl>
      <description><![CDATA[
        <table>
          <tr><td>TS BEBINCA (WP142024)</td></tr>
          <tr><td><hr></td></tr>
          <tr><td>0000 UTC SEP 12, 2024</td></tr>
          <tr><td>Storm Location:</td></tr>
          <tr><td><b>17.2 N, 140.0 E</b></td></tr>
          <tr><td>Min Sea Level Pressure:</td></tr>
          <tr><td>984 mb / 29.06 in Hg</td></tr>
          <tr><td>Maximum Intensity:</td></tr>
          <tr><td>55 kt / 63 mph / 102 kph</td></tr>
        </table>
      ]]></description>
      <Point><coordinates>140,17.2</coordinates></Point>
    </Placemark>
    <Placemark>
      <name>0600 UTC SEP 12</name>
      <styleUrl>#ts</styleUrl>
      <description><![CDATA[
        <table>
          <tr><td>TS BEBINCA (WP142024)</td></tr>
          <tr><td><hr></td></tr>
          <tr><td>0600 UTC SEP 12, 2024</td></tr>
          <tr><td>Storm Location:</td></tr>
          <tr><td><b>19.4 N, 139.3 E</b></td></tr>
          <tr><td>Min Sea Level Pressure:</td></tr>
          <tr><td>982 mb / 29.00 in Hg</td></tr>
          <tr><td>Maximum Intensity:</td></tr>
          <tr><td>60 kt / 69 mph / 111 kph</td></tr>
        </table>
      ]]></description>
      <Point><coordinates>139.3,19.4</coordinates></Point>
    </Placemark>
    <Placemark>
      <name>1200 UTC SEP 12</name>
      <styleUrl>#ts</styleUrl>
      <description><![CDATA[
        <table>
          <tr><td>TS BEBINCA (WP142024)</td></tr>
          <tr><td><hr></td></tr>
          <tr><td>1200 UTC SEP 12, 2024</td></tr>
          <tr><td>Storm Location:</td></tr>
          <tr><td><b>20.2 N, 138.5 E</b></td></tr>
          <tr><td>Min Sea Level Pressure:</td></tr>
          <tr><td>989 mb / 29.21 in Hg</td></tr>
          <tr><td>Maximum Intensity:</td></tr>
          <tr><td>50 kt / 58 mph / 93 kph</td></tr>
        </table>
      ]]></description>
      <Point><coordinates>138.5,20.2</coordinates></Point>
    </Placemark>
    <Placemark>
      <name>1800 UTC SEP 12</name>
      <styleUrl>#ts</styleUrl>
      <description><![CDATA[
        <table>
          <tr><td>TS BEBINCA (WP142024)</td></tr>
          <tr><td><hr></td></tr>
          <tr><td>1800 UTC SEP 12, 2024</td></tr>
          <tr><td>Storm Location:</td></tr>
          <tr><td><b>21.2 N, 137.6 E</b></td></tr>
          <tr><td>Min Sea Level Pressure:</td></tr>
          <tr><td>992 mb / 29.29 in Hg</td></tr>
          <tr><td>Maximum Intensity:</td></tr>
          <tr><td>40 kt / 46 mph / 74 kph</td></tr>
        </table>
      ]]></description>
      <Point><coordinates>137.6,21.2</coordinates></Point>
    </Placemark>
    <Placemark>
      <name>0000 UTC SEP 13</name>
      <styleUrl>#ts</styleUrl>
      <description><![CDATA[
        <table>
          <tr><td>TS BEBINCA (WP142024)</td></tr>
          <tr><td><hr></td></tr>
          <tr><td>0000 UTC SEP 13, 2024</td></tr>
          <tr><td>Storm Location:</td></tr>
          <tr><td><b>22.3 N, 136.6 E</b></td></tr>
          <tr><td>Min Sea Level Pressure:</td></tr>
          <tr><td>992 mb / 29.29 in Hg</td></tr>
          <tr><td>Maximum Intensity:</td></tr>
          <tr><td>40 kt / 46 mph / 74 kph</td></tr>
        </table>
      ]]></description>
      <Point><coordinates>136.6,22.3</coordinates></Point>
    </Placemark>
    <Placemark>
      <name>0600 UTC SEP 13</name>
      <styleUrl>#ts</styleUrl>
      <description><![CDATA[
        <table>
          <tr><td>TS BEBINCA (WP142024)</td></tr>
          <tr><td><hr></td></tr>
          <tr><td>0600 UTC SEP 13, 2024</td></tr>
          <tr><td>Storm Location:</td></tr>
          <tr><td><b>23.3 N, 135.2 E</b></td></tr>
          <tr><td>Min Sea Level Pressure:</td></tr>
          <tr><td>992 mb / 29.29 in Hg</td></tr>
          <tr><td>Maximum Intensity:</td></tr>
          <tr><td>40 kt / 46 mph / 74 kph</td></tr>
        </table>
      ]]></description>
      <Point><coordinates>135.2,23.3</coordinates></Point>
    </Placemark>
    <Placemark>
      <name>1200 UTC SEP 13</name>
      <styleUrl>#ts</styleUrl>
      <description><![CDATA[
        <table>
          <tr><td>TS BEBINCA (WP142024)</td></tr>
          <tr><td><hr></td></tr>
          <tr><td>1200 UTC SEP 13, 2024</td></tr>
          <tr><td>Storm Location:</td></tr>
          <tr><td><b>24.4 N, 133.8 E</b></td></tr>
          <tr><td>Min Sea Level Pressure:</td></tr>
          <tr><td>992 mb / 29.29 in Hg</td></tr>
          <tr><td>Maximum Intensity:</td></tr>
          <tr><td>40 kt / 46 mph / 74 kph</td></tr>
        </table>
      ]]></description>
      <Point><coordinates>133.8,24.4</coordinates></Point>
    </Placemark>
    <Placemark>
      <name>1800 UTC SEP 13</name>
      <styleUrl>#ts</styleUrl>
      <description><![CDATA[
        <table>
          <tr><td>TS BEBINCA (WP142024)</td></tr>
          <tr><td><hr></td></tr>
          <tr><td>1800 UTC SEP 13, 2024</td></tr>
          <tr><td>Storm Location:</td></tr>
          <tr><td><b>25.4 N, 132.7 E</b></td></tr>
          <tr><td>Min Sea Level Pressure:</td></tr>
          <tr><td>989 mb / 29.21 in Hg</td></tr>
          <tr><td>Maximum Intensity:</td></tr>
          <tr><td>40 kt / 46 mph / 74 kph</td></tr>
        </table>
      ]]></description>
      <Point><coordinates>132.7,25.4</coordinates></Point>
    </Placemark>
    <Placemark>
      <name>0000 UTC SEP 14</name>
      <styleUrl>#ts</styleUrl>
      <description><![CDATA[
        <table>
          <tr><td>TS BEBINCA (WP142024)</td></tr>
          <tr><td><hr></td></tr>
          <tr><td>0000 UTC SEP 14, 2024</td></tr>
          <tr><td>Storm Location:</td></tr>
          <tr><td><b>26.5 N, 131.4 E</b></td></tr>
          <tr><td>Min Sea Level Pressure:</td></tr>
          <tr><td>982 mb / 29.00 in Hg</td></tr>
          <tr><td>Maximum Intensity:</td></tr>
          <tr><td>50 kt / 58 mph / 93 kph</td></tr>
        </table>
      ]]></description>
      <Point><coordinates>131.4,26.5</coordinates></Point>
    </Placemark>
    <Placemark>
      <name>0600 UTC SEP 14</name>
      <styleUrl>#ts</styleUrl>
      <description><![CDATA[
        <table>
          <tr><td>TS BEBINCA (WP142024)</td></tr>
          <tr><td><hr></td></tr>
          <tr><td>0600 UTC SEP 14, 2024</td></tr>
          <tr><td>Storm Location:</td></tr>
          <tr><td><b>27.3 N, 130.4 E</b></td></tr>
          <tr><td>Min Sea Level Pressure:</td></tr>
          <tr><td>978 mb / 28.88 in Hg</td></tr>
          <tr><td>Maximum Intensity:</td></tr>
          <tr><td>55 kt / 63 mph / 102 kph</td></tr>
        </table>
      ]]></description>
      <Point><coordinates>130.4,27.3</coordinates></Point>
    </Placemark>
    <Placemark>
      <name>1200 UTC SEP 14</name>
      <styleUrl>#ts</styleUrl>
      <description><![CDATA[
        <table>
          <tr><td>TS BEBINCA (WP142024)</td></tr>
          <tr><td><hr></td></tr>
          <tr><td>1200 UTC SEP 14, 2024</td></tr>
          <tr><td>Storm Location:</td></tr>
          <tr><td><b>28.2 N, 129.2 E</b></td></tr>
          <tr><td>Min Sea Level Pressure:</td></tr>
          <tr><td>976 mb / 28.82 in Hg</td></tr>
          <tr><td>Maximum Intensity:</td></tr>
          <tr><td>60 kt / 69 mph / 111 kph</td></tr>
        </table>
      ]]></description>
      <Point><coordinates>129.2,28.2</coordinates></Point>
    </Placemark>
    <Placemark>
      <name>1800 UTC SEP 14</name>
      <styleUrl>#cat1</styleUrl>
      <description><![CDATA[
        <table>
          <tr><td>HU BEBINCA (WP142024)</td></tr>
          <tr><td><hr></td></tr>
          <tr><td>1800 UTC SEP 14, 2024</td></tr>
          <tr><td>Storm Location:</td></tr>
          <tr><td><b>29.0 N, 128.2 E</b></td></tr>
          <tr><td>Min Sea Level Pressure:</td></tr>
          <tr><td>970 mb / 28.64 in Hg</td></tr>
          <tr><td>Maximum Intensity:</td></tr>
          <tr><td>65 kt / 75 mph / 120 kph</td></tr>
        </table>
      ]]></description>
      <Point><coordinates>128.2,29</coordinates></Point>
    </Placemark>
    <Placemark>
      <name>0000 UTC SEP 15</name>
      <styleUrl>#cat1</styleUrl>
      <description><![CDATA[
        <table>
          <tr><td>HU BEBINCA (WP142024)</td></tr>
          <tr><td><hr></td></tr>
          <tr><td>0000 UTC SEP 15, 2024</td></tr>
          <tr><td>Storm Location:</td></tr>
          <tr><td><b>29.9 N, 127.3 E</b></td></tr>
          <tr><td>Min Sea Level Pressure:</td></tr>
          <tr><td>963 mb / 28.44 in Hg</td></tr>
          <tr><td>Maximum Intensity:</td></tr>
          <tr><td>75 kt / 86 mph / 139 kph</td></tr>
        </table>
      ]]></description>
      <Point><coordinates>127.3,29.9</coordinates></Point>
    </Placemark>
    <Placemark>
      <name>0600 UTC SEP 15</name>
      <styleUrl>#cat1</styleUrl>
      <description><![CDATA[
        <table>
          <tr><td>HU BEBINCA (WP142024)</td></tr>
          <tr><td><hr></td></tr>
          <tr><td>0600 UTC SEP 15, 2024</td></tr>
          <tr><td>Storm Location:</td></tr>
          <tr><td><b>30.2 N, 126.0 E</b></td></tr>
          <tr><td>Min Sea Level Pressure:</td></tr>
          <tr><td>959 mb / 28.32 in Hg</td></tr>
          <tr><td>Maximum Intensity:</td></tr>
          <tr><td>80 kt / 92 mph / 148 kph</td></tr>
        </table>
      ]]></description>
      <Point><coordinates>126,30.2</coordinates></Point>
    </Placemark>
    <Placemark>
      <name>1200 UTC SEP 15</name>
      <styleUrl>#cat1</styleUrl>
      <description><![CDATA[
        <table>
          <tr><td>HU BEBINCA (WP142024)</td></tr>
          <tr><td><hr></td></tr>
          <tr><td>1200 UTC SEP 15, 2024</td></tr>
          <tr><td>Storm Location:</td></tr>
          <tr><td><b>30.3 N, 124.6 E</b></td></tr>
          <tr><td>Min Sea Level Pressure:</td></tr>
          <tr><td>962 mb / 28.41 in Hg</td></tr>
          <tr><td>Maximum Intensity:</td></tr>
          <tr><td>75 kt / 86 mph / 139 kph</td></tr>
        </table>
      ]]></description>
      <Point><coordinates>124.6,30.3</coordinates></Point>
    </Placemark>
    <Placemark>
      <name>1800 UTC SEP 15</name>
      <styleUrl>#cat1</styleUrl>
      <description><![CDATA[
        <table>
          <tr><td>HU BEBINCA (WP142024)</td></tr>
          <tr><td><hr></td></tr>
          <tr><td>1800 UTC SEP 15, 2024</td></tr>
          <tr><td>Storm Location:</td></tr>
          <tr><td><b>30.6 N, 123.1 E</b></td></tr>
          <tr><td>Min Sea Level Pressure:</td></tr>
          <tr><td>966 mb / 28.53 in Hg</td></tr>
          <tr><td>Maximum Intensity:</td></tr>
          <tr><td>70 kt / 81 mph / 130 kph</td></tr>
        </table>
      ]]></description>
      <Point><coordinates>123.1,30.6</coordinates></Point>
    </Placemark>
    <Placemark>
      <name>0000 UTC SEP 16</name>
      <styleUrl>#cat1</styleUrl>
      <description><![CDATA[
        <table>
          <tr><td>HU BEBINCA (WP142024)</td></tr>
          <tr><td><hr></td></tr>
          <tr><td>0000 UTC SEP 16, 2024</td></tr>
          <tr><td>Storm Location:</td></tr>
          <tr><td><b>30.9 N, 121.8 E</b></td></tr>
          <tr><td>Min Sea Level Pressure:</td></tr>
          <tr><td>966 mb / 28.53 in Hg</td></tr>
          <tr><td>Maximum Intensity:</td></tr>
          <tr><td>70 kt / 81 mph / 130 kph</td></tr>
        </table>
      ]]></description>
      <Point><coordinates>121.8,30.9</coordinates></Point>
    </Placemark>
    <Placemark>
      <name>0600 UTC SEP 16</name>
      <styleUrl>#ts</styleUrl>
      <description><![CDATA[
        <table>
          <tr><td>TS BEBINCA (WP142024)</td></tr>
          <tr><td><hr></td></tr>
          <tr><td>0600 UTC SEP 16, 2024</td></tr>
          <tr><td>Storm Location:</td></tr>
          <tr><td><b>31.5 N, 120.3 E</b></td></tr>
          <tr><td>Min Sea Level Pressure:</td></tr>
          <tr><td>975 mb / 28.79 in Hg</td></tr>
          <tr><td>Maximum Intensity:</td></tr>
          <tr><td>60 kt / 69 mph / 111 kph</td></tr>
        </table>
      ]]></description>
      <Point><coordinates>120.3,31.5</coordinates></Point>
    </Placemark>
    <Placemark>
      <name>1200 UTC SEP 16</name>
      <styleUrl>#ts</styleUrl>
      <description><![CDATA[
        <table>
          <tr><td>TS BEBINCA (WP142024)</td></tr>
          <tr><td><hr></td></tr>
          <tr><td>1200 UTC SEP 16, 2024</td></tr>
          <tr><td>Storm Location:</td></tr>
          <tr><td><b>31.7 N, 119.3 E</b></td></tr>
          <tr><td>Min Sea Level Pressure:</td></tr>
          <tr><td>980 mb / 28.94 in Hg</td></tr>
          <tr><td>Maximum Intensity:</td></tr>
          <tr><td>50 kt / 58 mph / 93 kph</td></tr>
        </table>
      ]]></description>
      <Point><coordinates>119.3,31.7</coordinates></Point>
    </Placemark>
    <Placemark>
      <name>1800 UTC SEP 16</name>
      <styleUrl>#ts</styleUrl>
      <description><![CDATA[
        <table>
          <tr><td>TS BEBINCA (WP142024)</td></tr>
          <tr><td><hr></td></tr>
          <tr><td>1800 UTC SEP 16, 2024</td></tr>
          <tr><td>Storm Location:</td></tr>
          <tr><td><b>32.1 N, 118.3 E</b></td></tr>
          <tr><td>Min Sea Level Pressure:</td></tr>
          <tr><td>986 mb / 29.12 in Hg</td></tr>
          <tr><td>Maximum Intensity:</td></tr>
          <tr><td>40 kt / 46 mph / 74 kph</td></tr>
        </table>
      ]]></description>
      <Point><coordinates>118.3,32.1</coordinates></Point>
    </Placemark>
    <Placemark>
      <name>0000 UTC SEP 17</name>
      <styleUrl>#td</styleUrl>
      <description><![CDATA[
        <table>
          <tr><td>TD BEBINCA (WP142024)</td></tr>
          <tr><td><hr></td></tr>
          <tr><td>0000 UTC SEP 17, 2024</td></tr>
          <tr><td>Storm Location:</td></tr>
          <tr><td><b>32.5 N, 117.3 E</b></td></tr>
          <tr><td>Min Sea Level Pressure:</td></tr>
          <tr><td>976 mb / 28.82 in Hg</td></tr>
          <tr><td>Maximum Intensity:</td></tr>
          <tr><td>30 kt / 35 mph / 56 kph</td></tr>
        </table>
      ]]></description>
      <Point><coordinates>117.3,32.5</coordinates></Point>
    </Placemark>
    <Placemark>
      <name>0600 UTC SEP 17</name>
      <styleUrl>#db</styleUrl>
      <description><![CDATA[
        <table>
          <tr><td>DB BEBINCA (WP142024)</td></tr>
          <tr><td><hr></td></tr>
          <tr><td>0600 UTC SEP 17, 2024</td></tr>
          <tr><td>Storm Location:</td></tr>
          <tr><td><b>33.0 N, 116.3 E</b></td></tr>
          <tr><td>Min Sea Level Pressure:</td></tr>
          <tr><td>997 mb / 29.44 in Hg</td></tr>
          <tr><td>Maximum Intensity:</td></tr>
          <tr><td>20 kt / 23 mph / 37 kph</td></tr>
        </table>
      ]]></description>
      <Point><coordinates>116.3,33</coordinates></Point>
    </Placemark>
  </Document>
</kml>
