<?xml version="1.0" encoding="UTF-8"?>
<kml xmlns="http://www.opengis.net/kml/2.2">
  <Document>
    <name>WP152024</name>
    <open>0</open>

    <!-- =====  Document header ===== -->
    <description><![CDATA[
      <table>
        <tr><td><b>Title:</b> Tropical Cyclone Best Track for WP152024</td></tr>
      </table>
    ]]></description>

    <!-- =====  Styles (ids must be unique)  ===== -->
	<Style id="pt"> 
		<IconStyle> 
			<scale>1.0</scale> 
			<Icon> 
				<href>ex_nhemi.png</href> 
			</Icon> 
             <hotSpot x="15" y="17" xunits="pixels" yunits="pixels"/>
		</IconStyle> 
		<LabelStyle> 
			<scale>1.0</scale> 
		</LabelStyle> 
	</Style>
	<Style id="cat5"> 
		<IconStyle> 
			<scale>1.0</scale> 
			<Icon> 
				<href>cat5_nhemi.png</href> 
			</Icon> 
             <hotSpot x="15" y="17" xunits="pixels" yunits="pixels"/>
		</IconStyle> 
		<LabelStyle> 
			<scale>1.0</scale> 
		</LabelStyle> 
	</Style>
	<Style id="db"> 
		<IconStyle> 
			<scale>1.0</scale> 
			<Icon> 
				<href>ex_nhemi.png</href> 
			</Icon> 
             <hotSpot x="15" y="17" xunits="pixels" yunits="pixels"/>
		</IconStyle> 
		<LabelStyle> 
			<scale>1.0</scale> 
		</LabelStyle> 
	</Style>
	<Style id="cat3"> 
		<IconStyle> 
			<scale>1.0</scale> 
			<Icon> 
				<href>cat3_nhemi.png</href> 
			</Icon> 
             <hotSpot x="15" y="17" xunits="pixels" yunits="pixels"/>
		</IconStyle> 
		<LabelStyle> 
			<scale>1.0</scale> 
		</LabelStyle> 
	</Style>
	<Style id="ss"> 
		<IconStyle> 
			<scale>1.0</scale> 
			<Icon> 
				<href>ts_nhemi.png</href> 
			</Icon> 
             <hotSpot x="15" y="17" xunits="pixels" yunits="pixels"/>
		</IconStyle> 
		<LabelStyle> 
			<scale>1.0</scale> 
		</LabelStyle> 
	</Style>
	<Style id="lo"> 
		<IconStyle> 
			<scale>1.0</scale> 
			<Icon> 
				<href>ex_nhemi.png</href> 
			</Icon> 
             <hotSpot x="15" y="17" xunits="pixels" yunits="pixels"/>
		</IconStyle> 
		<LabelStyle> 
			<scale>1.0</scale> 
		</LabelStyle> 
	</Style>
	<Style id="cat4"> 
		<IconStyle> 
			<scale>1.0</scale> 
			<Icon> 
				<href>cat4_nhemi.png</href> 
			</Icon> 
             <hotSpot x="15" y="17" xunits="pixels" yunits="pixels"/>
		</IconStyle> 
		<LabelStyle> 
			<scale>1.0</scale> 
		</LabelStyle> 
	</Style>
	<Style id="cat2"> 
		<IconStyle> 
			<scale>1.0</scale> 
			<Icon> 
				<href>cat2_nhemi.png</href> 
			</Icon> 
             <hotSpot x="15" y="17" xunits="pixels" yunits="pixels"/>
		</IconStyle> 
		<LabelStyle> 
			<scale>1.0</scale> 
		</LabelStyle> 
	</Style>
	<Style id="ts"> 
		<IconStyle> 
			<scale>1.0</scale> 
			<Icon> 
				<href>ts_nhemi.png</href> 
			</Icon> 
             <hotSpot x="15" y="17" xunits="pixels" yunits="pixels"/>
		</IconStyle> 
		<LabelStyle> 
			<scale>1.0</scale> 
		</LabelStyle> 
	</Style>
	<Style id="cat1"> 
		<IconStyle> 
			<scale>1.0</scale> 
			<Icon> 
				<href>cat1_nhemi.png</href> 
			</Icon> 
             <hotSpot x="15" y="17" xunits="pixels" yunits="pixels"/>
		</IconStyle> 
		<LabelStyle> 
			<scale>1.0</scale> 
		</LabelStyle> 
	</Style>
	<Style id="ex"> 
		<IconStyle> 
			<scale>1.0</scale> 
			<Icon> 
				<href>ex_nhemi.png</href> 
			</Icon> 
             <hotSpot x="15" y="17" xunits="pixels" yunits="pixels"/>
		</IconStyle> 
		<LabelStyle> 
			<scale>1.0</scale> 
		</LabelStyle> 
	</Style>
	<Style id="tc"> 
		<IconStyle> 
			<scale>1.0</scale> 
			<Icon> 
				<href>ex_nhemi.png</href> 
			</Icon> 
             <hotSpot x="15" y="17" xunits="pixels" yunits="pixels"/>
		</IconStyle> 
		<LabelStyle> 
			<scale>1.0</scale> 
		</LabelStyle> 
	</Style>
	<Style id="wv"> 
		<IconStyle> 
			<scale>1.0</scale> 
			<Icon> 
				<href>ex_nhemi.png</href> 
			</Icon> 
             <hotSpot x="15" y="17" xunits="pixels" yunits="pixels"/>
		</IconStyle> 
		<LabelStyle> 
			<scale>1.0</scale> 
		</LabelStyle> 
	</Style>
	<Style id="td"> 
		<IconStyle> 
			<scale>1.0</scale> 
			<Icon> 
				<href>td_nhemi.png</href> 
			</Icon> 
             <hotSpot x="15" y="17" xunits="pixels" yunits="pixels"/>
		</IconStyle> 
		<LabelStyle> 
			<scale>1.0</scale> 
		</LabelStyle> 
	</Style>
	<Style id="sd"> 
		<IconStyle> 
			<scale>1.0</scale> 
			<Icon> 
				<href>ex_nhemi.png</href> 
			</Icon> 
             <hotSpot x="15" y="17" xunits="pixels" yunits="pixels"/>
		</IconStyle> 
		<LabelStyle> 
			<scale>1.0</scale> 
		</LabelStyle> 
	</Style>

    <Placemark>
      <name>1200 UTC SEP 15</name>
      <styleUrl>#pt</styleUrl>
      <description><![CDATA[
        <table>
          <tr><td>XX PULASAN (WP152024)</td></tr>
          <tr><td><hr></td></tr>
          <tr><td>1200 UTC SEP 15, 2024</td></tr>
          <tr><td>Storm Location:</td></tr>
          <tr><td><b>13.4 N, 143.9 E</b></td></tr>
          <tr><td>Min Sea Level Pressure:</td></tr>
          <tr><td>1004 mb / 29.65 in Hg</td></tr>
          <tr><td>Maximum Intensity:</td></tr>
          <tr><td>25 kt / 29 mph / 46 kph</td></tr>
        </table>
      ]]></description>
      <Point><coordinates>143.9,13.4</coordinates></Point>
    </Placemark>
    <Placemark>
      <name>1800 UTC SEP 15</name>
      <styleUrl>#pt</styleUrl>
      <description><![CDATA[
        <table>
          <tr><td>XX PULASAN (WP152024)</td></tr>
          <tr><td><hr></td></tr>
          <tr><td>1800 UTC SEP 15, 2024</td></tr>
          <tr><td>Storm Location:</td></tr>
          <tr><td><b>14.1 N, 143.3 E</b></td></tr>
          <tr><td>Min Sea Level Pressure:</td></tr>
          <tr><td>1000 mb / 29.53 in Hg</td></tr>
          <tr><td>Maximum Intensity:</td></tr>
          <tr><td>30 kt / 35 mph / 56 kph</td></tr>
        </table>
      ]]></description>
      <Point><coordinates>143.3,14.1</coordinates></Point>
    </Placemark>
    <Placemark>
      <name>0000 UTC SEP 16</name>
      <styleUrl>#pt</styleUrl>
      <description><![CDATA[
        <table>
          <tr><td>XX PULASAN (WP152024)</td></tr>
          <tr><td><hr></td></tr>
          <tr><td>0000 UTC SEP 16, 2024</td></tr>
          <tr><td>Storm Location:</td></tr>
          <tr><td><b>14.9 N, 142.9 E</b></td></tr>
          <tr><td>Min Sea Level Pressure:</td></tr>
          <tr><td>997 mb / 29.44 in Hg</td></tr>
          <tr><td>Maximum Intensity:</td></tr>
          <tr><td>30 kt / 35 mph / 56 kph</td></tr>
        </table>
      ]]></description>
      <Point><coordinates>142.9,14.9</coordinates></Point>
    </Placemark>
    <Placemark>
      <name>0600 UTC SEP 16</name>
      <styleUrl>#pt</styleUrl>
      <description><![CDATA[
        <table>
          <tr><td>XX PULASAN (WP152024)</td></tr>
          <tr><td><hr></td></tr>
          <tr><td>0600 UTC SEP 16, 2024</td></tr>
          <tr><td>Storm Location:</td></tr>
          <tr><td><b>16.0 N, 142.1 E</b></td></tr>
          <tr><td>Min Sea Level Pressure:</td></tr>
          <tr><td>992 mb / 29.29 in Hg</td></tr>
          <tr><td>Maximum Intensity:</td></tr>
          <tr><td>30 kt / 35 mph / 56 kph</td></tr>
        </table>
      ]]></description>
      <Point><coordinates>142.1,16</coordinates></Point>
    </Placemark>
    <Placemark>
      <name>1200 UTC SEP 16</name>
      <styleUrl>#pt</styleUrl>
      <description><![CDATA[
        <table>
          <tr><td>XX PULASAN (WP152024)</td></tr>
          <tr><td><hr></td></tr>
          <tr><td>1200 UTC SEP 16, 2024</td></tr>
          <tr><td>Storm Location:</td></tr>
          <tr><td><b>16.8 N, 141.2 E</b></td></tr>
          <tr><td>Min Sea Level Pressure:</td></tr>
          <tr><td>992 mb / 29.29 in Hg</td></tr>
          <tr><td>Maximum Intensity:</td></tr>
          <tr><td>35 kt / 40 mph / 65 kph</td></tr>
        </table>
      ]]></description>
      <Point><coordinates>141.2,16.8</coordinates></Point>
    </Placemark>
    <Placemark>
      <name>1800 UTC SEP 16</name>
      <styleUrl>#pt</styleUrl>
      <description><![CDATA[
        <table>
          <tr><td>XX PULASAN (WP152024)</td></tr>
          <tr><td><hr></td></tr>
          <tr><td>1800 UTC SEP 16, 2024</td></tr>
          <tr><td>Storm Location:</td></tr>
          <tr><td><b>17.4 N, 139.7 E</b></td></tr>
          <tr><td>Min Sea Level Pressure:</td></tr>
          <tr><td>991 mb / 29.26 in Hg</td></tr>
          <tr><td>Maximum Intensity:</td></tr>
          <tr><td>40 kt / 46 mph / 74 kph</td></tr>
        </table>
      ]]></description>
      <Point><coordinates>139.7,17.4</coordinates></Point>
    </Placemark>
    <Placemark>
      <name>0000 UTC SEP 17</name>
      <styleUrl>#pt</styleUrl>
      <description><![CDATA[
        <table>
          <tr><td>XX PULASAN (WP152024)</td></tr>
          <tr><td><hr></td></tr>
          <tr><td>0000 UTC SEP 17, 2024</td></tr>
          <tr><td>Storm Location:</td></tr>
          <tr><td><b>18.1 N, 137.8 E</b></td></tr>
          <tr><td>Min Sea Level Pressure:</td></tr>
          <tr><td>989 mb / 29.21 in Hg</td></tr>
          <tr><td>Maximum Intensity:</td></tr>
          <tr><td>45 kt / 52 mph / 83 kph</td></tr>
        </table>
      ]]></description>
      <Point><coordinates>137.8,18.1</coordinates></Point>
    </Placemark>
    <Placemark>
      <name>0600 UTC SEP 17</name>
      <styleUrl>#pt</styleUrl>
      <description><![CDATA[
        <table>
          <tr><td>XX PULASAN (WP152024)</td></tr>
          <tr><td><hr></td></tr>
          <tr><td>0600 UTC SEP 17, 2024</td></tr>
          <tr><td>Storm Location:</td></tr>
          <tr><td><b>19.8 N, 136.1 E</b></td></tr>
          <tr><td>Min Sea Level Pressure:</td></tr>
          <tr><td>982 mb / 29.00 in Hg</td></tr>
          <tr><td>Maximum Intensity:</td></tr>
          <tr><td>50 kt / 58 mph / 93 kph</td></tr>
        </table>
      ]]></description>
      <Point><coordinates>136.1,19.8</coordinates></Point>
    </Placemark>
    <Placemark>
      <name>1200 UTC SEP 17</name>
      <styleUrl>#pt</styleUrl>
      <description><![CDATA[
        <table>
          <tr><td>XX PULASAN (WP152024)</td></tr>
          <tr><td><hr></td></tr>
          <tr><td>1200 UTC SEP 17, 2024</td></tr>
          <tr><td>Storm Location:</td></tr>
          <tr><td><b>21.4 N, 134.5 E</b></td></tr>
          <tr><td>Min Sea Level Pressure:</td></tr>
          <tr><td>980 mb / 28.94 in Hg</td></tr>
          <tr><td>Maximum Intensity:</td></tr>
          <tr><td>55 kt / 63 mph / 102 kph</td></tr>
        </table>
      ]]></description>
      <Point><coordinates>134.5,21.4</coordinates></Point>
    </Placemark>
    <Placemark>
      <name>1800 UTC SEP 17</name>
      <styleUrl>#pt</styleUrl>
      <description><![CDATA[
        <table>
          <tr><td>XX PULASAN (WP152024)</td></tr>
          <tr><td><hr></td></tr>
          <tr><td>1800 UTC SEP 17, 2024</td></tr>
          <tr><td>Storm Location:</td></tr>
          <tr><td><b>22.3 N, 133.3 E</b></td></tr>
          <tr><td>Min Sea Level Pressure:</td></tr>
          <tr><td>980 mb / 28.94 in Hg</td></tr>
          <tr><td>Maximum Intensity:</td></tr>
          <tr><td>50 kt / 58 mph / 93 kph</td></tr>
        </table>
      ]]></description>
      <Point><coordinates>133.3,22.3</coordinates></Point>
    </Placemark>
    <Placemark>
      <name>0000 UTC SEP 18</name>
      <styleUrl>#pt</styleUrl>
      <description><![CDATA[
        <table>
          <tr><td>XX PULASAN (WP152024)</td></tr>
          <tr><td><hr></td></tr>
          <tr><td>0000 UTC SEP 18, 2024</td></tr>
          <tr><td>Storm Location:</td></tr>
          <tr><td><b>23.3 N, 132.1 E</b></td></tr>
          <tr><td>Min Sea Level Pressure:</td></tr>
          <tr><td>982 mb / 29.00 in Hg</td></tr>
          <tr><td>Maximum Intensity:</td></tr>
          <tr><td>40 kt / 46 mph / 74 kph</td></tr>
        </table>
      ]]></description>
      <Point><coordinates>132.1,23.3</coordinates></Point>
    </Placemark>
    <Placemark>
      <name>0600 UTC SEP 18</name>
      <styleUrl>#pt</styleUrl>
      <description><![CDATA[
        <table>
          <tr><td>XX PULASAN (WP152024)</td></tr>
          <tr><td><hr></td></tr>
          <tr><td>0600 UTC SEP 18, 2024</td></tr>
          <tr><td>Storm Location:</td></tr>
          <tr><td><b>24.5 N, 130.3 E</b></td></tr>
          <tr><td>Min Sea Level Pressure:</td></tr>
          <tr><td>979 mb / 28.91 in Hg</td></tr>
          <tr><td>Maximum Intensity:</td></tr>
          <tr><td>40 kt / 46 mph / 74 kph</td></tr>
        </table>
      ]]></description>
      <Point><coordinates>130.3,24.5</coordinates></Point>
    </Placemark>
    <Placemark>
      <name>1200 UTC SEP 18</name>
      <styleUrl>#ts</styleUrl>
      <description><![CDATA[
        <table>
          <tr><td>TS PULASAN (WP152024)</td></tr>
          <tr><td><hr></td></tr>
          <tr><td>1200 UTC SEP 18, 2024</td></tr>
          <tr><td>Storm Location:</td></tr>
          <tr><td><b>25.8 N, 128.6 E</b></td></tr>
          <tr><td>Min Sea Level Pressure:</td></tr>
          <tr><td>980 mb / 28.94 in Hg</td></tr>
          <tr><td>Maximum Intensity:</td></tr>
          <tr><td>45 kt / 52 mph / 83 kph</td></tr>
        </table>
      ]]></description>
      <Point><coordinates>128.6,25.8</coordinates></Point>
    </Placemark>
    <Placemark>
      <name>1800 UTC SEP 18</name>
      <styleUrl>#ts</styleUrl>
      <description><![CDATA[
        <table>
          <tr><td>TS PULASAN (WP152024)</td></tr>
          <tr><td><hr></td></tr>
          <tr><td>1800 UTC SEP 18, 2024</td></tr>
          <tr><td>Storm Location:</td></tr>
          <tr><td><b>27.1 N, 126.8 E</b></td></tr>
          <tr><td>Min Sea Level Pressure:</td></tr>
          <tr><td>990 mb / 29.23 in Hg</td></tr>
          <tr><td>Maximum Intensity:</td></tr>
          <tr><td>40 kt / 46 mph / 74 kph</td></tr>
        </table>
      ]]></description>
      <Point><coordinates>126.8,27.1</coordinates></Point>
    </Placemark>
    <Placemark>
      <name>0000 UTC SEP 19</name>
      <styleUrl>#ts</styleUrl>
      <description><![CDATA[
        <table>
          <tr><td>TS PULASAN (WP152024)</td></tr>
          <tr><td><hr></td></tr>
          <tr><td>0000 UTC SEP 19, 2024</td></tr>
          <tr><td>Storm Location:</td></tr>
          <tr><td><b>28.3 N, 125.2 E</b></td></tr>
          <tr><td>Min Sea Level Pressure:</td></tr>
          <tr><td>989 mb / 29.21 in Hg</td></tr>
          <tr><td>Maximum Intensity:</td></tr>
          <tr><td>40 kt / 46 mph / 74 kph</td></tr>
        </table>
      ]]></description>
      <Point><coordinates>125.2,28.3</coordinates></Point>
    </Placemark>
    <Placemark>
      <name>0600 UTC SEP 19</name>
      <styleUrl>#ts</styleUrl>
      <description><![CDATA[
        <table>
          <tr><td>TS PULASAN (WP152024)</td></tr>
          <tr><td><hr></td></tr>
          <tr><td>0600 UTC SEP 19, 2024</td></tr>
          <tr><td>Storm Location:</td></tr>
          <tr><td><b>29.4 N, 123.7 E</b></td></tr>
          <tr><td>Min Sea Level Pressure:</td></tr>
          <tr><td>994 mb / 29.35 in Hg</td></tr>
          <tr><td>Maximum Intensity:</td></tr>
          <tr><td>35 kt / 40 mph / 65 kph</td></tr>
        </table>
      ]]></description>
      <Point><coordinates>123.7,29.4</coordinates></Point>
    </Placemark>
    <Placemark>
      <name>1200 UTC SEP 19</name>
      <styleUrl>#td</styleUrl>
      <description><![CDATA[
        <table>
          <tr><td>TD PULASAN (WP152024)</td></tr>
          <tr><td><hr></td></tr>
          <tr><td>1200 UTC SEP 19, 2024</td></tr>
          <tr><td>Storm Location:</td></tr>
          <tr><td><b>30.5 N, 122.3 E</b></td></tr>
          <tr><td>Min Sea Level Pressure:</td></tr>
          <tr><td>995 mb / 29.38 in Hg</td></tr>
          <tr><td>Maximum Intensity:</td></tr>
          <tr><td>30 kt / 35 mph / 56 kph</td></tr>
        </table>
      ]]></description>
      <Point><coordinates>122.3,30.5</coordinates></Point>
    </Placemark>
    <Placemark>
      <name>1800 UTC SEP 19</name>
      <styleUrl>#td</styleUrl>
      <description><![CDATA[
        <table>
          <tr><td>TD PULASAN (WP152024)</td></tr>
          <tr><td><hr></td></tr>
          <tr><td>1800 UTC SEP 19, 2024</td></tr>
          <tr><td>Storm Location:</td></tr>
          <tr><td><b>30.9 N, 121.5 E</b></td></tr>
          <tr><td>Min Sea Level Pressure:</td></tr>
          <tr><td>997 mb / 29.44 in Hg</td></tr>
          <tr><td>Maximum Intensity:</td></tr>
          <tr><td>30 kt / 35 mph / 56 kph</td></tr>
        </table>
      ]]></description>
      <Point><coordinates>121.5,30.9</coordinates></Point>
    </Placemark>
    <Placemark>
      <name>0000 UTC SEP 20</name>
      <styleUrl>#td</styleUrl>
      <description><![CDATA[
        <table>
          <tr><td>TD PULASAN (WP152024)</td></tr>
          <tr><td><hr></td></tr>
          <tr><td>0000 UTC SEP 20, 2024</td></tr>
          <tr><td>Storm Location:</td></tr>
          <tr><td><b>32.0 N, 120.2 E</b></td></tr>
          <tr><td>Min Sea Level Pressure:</td></tr>
          <tr><td>998 mb / 29.47 in Hg</td></tr>
          <tr><td>Maximum Intensity:</td></tr>
          <tr><td>25 kt / 29 mph / 46 kph</td></tr>
        </table>
      ]]></description>
      <Point><coordinates>120.2,32</coordinates></Point>
    </Placemark>
    <Placemark>
      <name>0600 UTC SEP 20</name>
      <styleUrl>#td</styleUrl>
      <description><![CDATA[
        <table>
          <tr><td>TD PULASAN (WP152024)</td></tr>
          <tr><td><hr></td></tr>
          <tr><td>0600 UTC SEP 20, 2024</td></tr>
          <tr><td>Storm Location:</td></tr>
          <tr><td><b>32.6 N, 120.5 E</b></td></tr>
          <tr><td>Min Sea Level Pressure:</td></tr>
          <tr><td>996 mb / 29.41 in Hg</td></tr>
          <tr><td>Maximum Intensity:</td></tr>
          <tr><td>30 kt / 35 mph / 56 kph</td></tr>
        </table>
      ]]></description>
      <Point><coordinates>120.5,32.6</coordinates></Point>
    </Placemark>
    <Placemark>
      <name>1200 UTC SEP 20</name>
      <styleUrl>#td</styleUrl>
      <description><![CDATA[
        <table>
          <tr><td>TD PULASAN (WP152024)</td></tr>
          <tr><td><hr></td></tr>
          <tr><td>1200 UTC SEP 20, 2024</td></tr>
          <tr><td>Storm Location:</td></tr>
          <tr><td><b>33.0 N, 120.8 E</b></td></tr>
          <tr><td>Min Sea Level Pressure:</td></tr>
          <tr><td>981 mb / 28.97 in Hg</td></tr>
          <tr><td>Maximum Intensity:</td></tr>
          <tr><td>30 kt / 35 mph / 56 kph</td></tr>
        </table>
      ]]></description>
      <Point><coordinates>120.8,33</coordinates></Point>
    </Placemark>
    <Placemark>
      <name>1800 UTC SEP 20</name>
      <styleUrl>#td</styleUrl>
      <description><![CDATA[
        <table>
          <tr><td>TD PULASAN (WP152024)</td></tr>
          <tr><td><hr></td></tr>
          <tr><td>1800 UTC SEP 20, 2024</td></tr>
          <tr><td>Storm Location:</td></tr>
          <tr><td><b>33.2 N, 121.4 E</b></td></tr>
          <tr><td>Min Sea Level Pressure:</td></tr>
          <tr><td>979 mb / 28.91 in Hg</td></tr>
          <tr><td>Maximum Intensity:</td></tr>
          <tr><td>30 kt / 35 mph / 56 kph</td></tr>
        </table>
      ]]></description>
      <Point><coordinates>121.4,33.2</coordinates></Point>
    </Placemark>
    <Placemark>
      <name>0000 UTC SEP 21</name>
      <styleUrl>#td</styleUrl>
      <description><![CDATA[
        <table>
          <tr><td>TD PULASAN (WP152024)</td></tr>
          <tr><td><hr></td></tr>
          <tr><td>0000 UTC SEP 21, 2024</td></tr>
          <tr><td>Storm Location:</td></tr>
          <tr><td><b>33.4 N, 122.7 E</b></td></tr>
          <tr><td>Min Sea Level Pressure:</td></tr>
          <tr><td>979 mb / 28.91 in Hg</td></tr>
          <tr><td>Maximum Intensity:</td></tr>
          <tr><td>30 kt / 35 mph / 56 kph</td></tr>
        </table>
      ]]></description>
      <Point><coordinates>122.7,33.4</coordinates></Point>
    </Placemark>
    <Placemark>
      <name>0600 UTC SEP 21</name>
      <styleUrl>#td</styleUrl>
      <description><![CDATA[
        <table>
          <tr><td>TD PULASAN (WP152024)</td></tr>
          <tr><td><hr></td></tr>
          <tr><td>0600 UTC SEP 21, 2024</td></tr>
          <tr><td>Storm Location:</td></tr>
          <tr><td><b>33.9 N, 124.5 E</b></td></tr>
          <tr><td>Min Sea Level Pressure:</td></tr>
          <tr><td>982 mb / 29.00 in Hg</td></tr>
          <tr><td>Maximum Intensity:</td></tr>
          <tr><td>30 kt / 35 mph / 56 kph</td></tr>
        </table>
      ]]></description>
      <Point><coordinates>124.5,33.9</coordinates></Point>
    </Placemark>
    <Placemark>
      <name>1200 UTC SEP 21</name>
      <styleUrl>#ex</styleUrl>
      <description><![CDATA[
        <table>
          <tr><td>EX PULASAN (WP152024)</td></tr>
          <tr><td><hr></td></tr>
          <tr><td>1200 UTC SEP 21, 2024</td></tr>
          <tr><td>Storm Location:</td></tr>
          <tr><td><b>34.6 N, 128.3 E</b></td></tr>
          <tr><td>Min Sea Level Pressure:</td></tr>
          <tr><td>996 mb / 29.41 in Hg</td></tr>
          <tr><td>Maximum Intensity:</td></tr>
          <tr><td>35 kt / 40 mph / 65 kph</td></tr>
        </table>
      ]]></description>
      <Point><coordinates>128.3,34.6</coordinates></Point>
    </Placemark>
  </Document>
</kml>
