<?xml version="1.0" encoding="UTF-8"?>
<kml xmlns="http://www.opengis.net/kml/2.2">
  <Document>
    <name>WP192024</name>
    <open>0</open>

    <!-- =====  Document header ===== -->
    <description><![CDATA[
      <table>
        <tr><td><b>Title:</b> Tropical Cyclone Best Track for WP192024</td></tr>
      </table>
    ]]></description>

    <!-- =====  Styles (ids must be unique)  ===== -->
	<Style id="pt"> 
		<IconStyle> 
			<scale>1.0</scale> 
			<Icon> 
				<href>ex_nhemi.png</href> 
			</Icon> 
             <hotSpot x="15" y="17" xunits="pixels" yunits="pixels"/>
		</IconStyle> 
		<LabelStyle> 
			<scale>1.0</scale> 
		</LabelStyle> 
	</Style>
	<Style id="cat5"> 
		<IconStyle> 
			<scale>1.0</scale> 
			<Icon> 
				<href>cat5_nhemi.png</href> 
			</Icon> 
             <hotSpot x="15" y="17" xunits="pixels" yunits="pixels"/>
		</IconStyle> 
		<LabelStyle> 
			<scale>1.0</scale> 
		</LabelStyle> 
	</Style>
	<Style id="db"> 
		<IconStyle> 
			<scale>1.0</scale> 
			<Icon> 
				<href>ex_nhemi.png</href> 
			</Icon> 
             <hotSpot x="15" y="17" xunits="pixels" yunits="pixels"/>
		</IconStyle> 
		<LabelStyle> 
			<scale>1.0</scale> 
		</LabelStyle> 
	</Style>
	<Style id="cat3"> 
		<IconStyle> 
			<scale>1.0</scale> 
			<Icon> 
				<href>cat3_nhemi.png</href> 
			</Icon> 
             <hotSpot x="15" y="17" xunits="pixels" yunits="pixels"/>
		</IconStyle> 
		<LabelStyle> 
			<scale>1.0</scale> 
		</LabelStyle> 
	</Style>
	<Style id="ss"> 
		<IconStyle> 
			<scale>1.0</scale> 
			<Icon> 
				<href>ts_nhemi.png</href> 
			</Icon> 
             <hotSpot x="15" y="17" xunits="pixels" yunits="pixels"/>
		</IconStyle> 
		<LabelStyle> 
			<scale>1.0</scale> 
		</LabelStyle> 
	</Style>
	<Style id="lo"> 
		<IconStyle> 
			<scale>1.0</scale> 
			<Icon> 
				<href>ex_nhemi.png</href> 
			</Icon> 
             <hotSpot x="15" y="17" xunits="pixels" yunits="pixels"/>
		</IconStyle> 
		<LabelStyle> 
			<scale>1.0</scale> 
		</LabelStyle> 
	</Style>
	<Style id="cat4"> 
		<IconStyle> 
			<scale>1.0</scale> 
			<Icon> 
				<href>cat4_nhemi.png</href> 
			</Icon> 
             <hotSpot x="15" y="17" xunits="pixels" yunits="pixels"/>
		</IconStyle> 
		<LabelStyle> 
			<scale>1.0</scale> 
		</LabelStyle> 
	</Style>
	<Style id="cat2"> 
		<IconStyle> 
			<scale>1.0</scale> 
			<Icon> 
				<href>cat2_nhemi.png</href> 
			</Icon> 
             <hotSpot x="15" y="17" xunits="pixels" yunits="pixels"/>
		</IconStyle> 
		<LabelStyle> 
			<scale>1.0</scale> 
		</LabelStyle> 
	</Style>
	<Style id="ts"> 
		<IconStyle> 
			<scale>1.0</scale> 
			<Icon> 
				<href>ts_nhemi.png</href> 
			</Icon> 
             <hotSpot x="15" y="17" xunits="pixels" yunits="pixels"/>
		</IconStyle> 
		<LabelStyle> 
			<scale>1.0</scale> 
		</LabelStyle> 
	</Style>
	<Style id="cat1"> 
		<IconStyle> 
			<scale>1.0</scale> 
			<Icon> 
				<href>cat1_nhemi.png</href> 
			</Icon> 
             <hotSpot x="15" y="17" xunits="pixels" yunits="pixels"/>
		</IconStyle> 
		<LabelStyle> 
			<scale>1.0</scale> 
		</LabelStyle> 
	</Style>
	<Style id="ex"> 
		<IconStyle> 
			<scale>1.0</scale> 
			<Icon> 
				<href>ex_nhemi.png</href> 
			</Icon> 
             <hotSpot x="15" y="17" xunits="pixels" yunits="pixels"/>
		</IconStyle> 
		<LabelStyle> 
			<scale>1.0</scale> 
		</LabelStyle> 
	</Style>
	<Style id="tc"> 
		<IconStyle> 
			<scale>1.0</scale> 
			<Icon> 
				<href>ex_nhemi.png</href> 
			</Icon> 
             <hotSpot x="15" y="17" xunits="pixels" yunits="pixels"/>
		</IconStyle> 
		<LabelStyle> 
			<scale>1.0</scale> 
		</LabelStyle> 
	</Style>
	<Style id="wv"> 
		<IconStyle> 
			<scale>1.0</scale> 
			<Icon> 
				<href>ex_nhemi.png</href> 
			</Icon> 
             <hotSpot x="15" y="17" xunits="pixels" yunits="pixels"/>
		</IconStyle> 
		<LabelStyle> 
			<scale>1.0</scale> 
		</LabelStyle> 
	</Style>
	<Style id="td"> 
		<IconStyle> 
			<scale>1.0</scale> 
			<Icon> 
				<href>td_nhemi.png</href> 
			</Icon> 
             <hotSpot x="15" y="17" xunits="pixels" yunits="pixels"/>
		</IconStyle> 
		<LabelStyle> 
			<scale>1.0</scale> 
		</LabelStyle> 
	</Style>
	<Style id="sd"> 
		<IconStyle> 
			<scale>1.0</scale> 
			<Icon> 
				<href>ex_nhemi.png</href> 
			</Icon> 
             <hotSpot x="15" y="17" xunits="pixels" yunits="pixels"/>
		</IconStyle> 
		<LabelStyle> 
			<scale>1.0</scale> 
		</LabelStyle> 
	</Style>

    <Placemark>
      <name>1800 UTC SEP 24</name>
      <styleUrl>#db</styleUrl>
      <description><![CDATA[
        <table>
          <tr><td>DB JEBI (WP192024)</td></tr>
          <tr><td><hr></td></tr>
          <tr><td>1800 UTC SEP 24, 2024</td></tr>
          <tr><td>Storm Location:</td></tr>
          <tr><td><b>14.3 N, 149.8 E</b></td></tr>
          <tr><td>Min Sea Level Pressure:</td></tr>
          <tr><td>1004 mb / 29.65 in Hg</td></tr>
          <tr><td>Maximum Intensity:</td></tr>
          <tr><td>15 kt / 17 mph / 28 kph</td></tr>
        </table>
      ]]></description>
      <Point><coordinates>149.8,14.3</coordinates></Point>
    </Placemark>
    <Placemark>
      <name>0000 UTC SEP 25</name>
      <styleUrl>#db</styleUrl>
      <description><![CDATA[
        <table>
          <tr><td>DB JEBI (WP192024)</td></tr>
          <tr><td><hr></td></tr>
          <tr><td>0000 UTC SEP 25, 2024</td></tr>
          <tr><td>Storm Location:</td></tr>
          <tr><td><b>14.7 N, 149.5 E</b></td></tr>
          <tr><td>Min Sea Level Pressure:</td></tr>
          <tr><td>1002 mb / 29.59 in Hg</td></tr>
          <tr><td>Maximum Intensity:</td></tr>
          <tr><td>20 kt / 23 mph / 37 kph</td></tr>
        </table>
      ]]></description>
      <Point><coordinates>149.5,14.7</coordinates></Point>
    </Placemark>
    <Placemark>
      <name>0600 UTC SEP 25</name>
      <styleUrl>#td</styleUrl>
      <description><![CDATA[
        <table>
          <tr><td>TD JEBI (WP192024)</td></tr>
          <tr><td><hr></td></tr>
          <tr><td>0600 UTC SEP 25, 2024</td></tr>
          <tr><td>Storm Location:</td></tr>
          <tr><td><b>15.7 N, 149.1 E</b></td></tr>
          <tr><td>Min Sea Level Pressure:</td></tr>
          <tr><td>999 mb / 29.50 in Hg</td></tr>
          <tr><td>Maximum Intensity:</td></tr>
          <tr><td>25 kt / 29 mph / 46 kph</td></tr>
        </table>
      ]]></description>
      <Point><coordinates>149.1,15.7</coordinates></Point>
    </Placemark>
    <Placemark>
      <name>1200 UTC SEP 25</name>
      <styleUrl>#pt</styleUrl>
      <description><![CDATA[
        <table>
          <tr><td>XX JEBI (WP192024)</td></tr>
          <tr><td><hr></td></tr>
          <tr><td>1200 UTC SEP 25, 2024</td></tr>
          <tr><td>Storm Location:</td></tr>
          <tr><td><b>16.2 N, 148.3 E</b></td></tr>
          <tr><td>Min Sea Level Pressure:</td></tr>
          <tr><td>997 mb / 29.44 in Hg</td></tr>
          <tr><td>Maximum Intensity:</td></tr>
          <tr><td>30 kt / 35 mph / 56 kph</td></tr>
        </table>
      ]]></description>
      <Point><coordinates>148.3,16.2</coordinates></Point>
    </Placemark>
    <Placemark>
      <name>1800 UTC SEP 25</name>
      <styleUrl>#pt</styleUrl>
      <description><![CDATA[
        <table>
          <tr><td>XX JEBI (WP192024)</td></tr>
          <tr><td><hr></td></tr>
          <tr><td>1800 UTC SEP 25, 2024</td></tr>
          <tr><td>Storm Location:</td></tr>
          <tr><td><b>16.4 N, 147.4 E</b></td></tr>
          <tr><td>Min Sea Level Pressure:</td></tr>
          <tr><td>997 mb / 29.44 in Hg</td></tr>
          <tr><td>Maximum Intensity:</td></tr>
          <tr><td>30 kt / 35 mph / 56 kph</td></tr>
        </table>
      ]]></description>
      <Point><coordinates>147.4,16.4</coordinates></Point>
    </Placemark>
    <Placemark>
      <name>0000 UTC SEP 26</name>
      <styleUrl>#pt</styleUrl>
      <description><![CDATA[
        <table>
          <tr><td>XX JEBI (WP192024)</td></tr>
          <tr><td><hr></td></tr>
          <tr><td>0000 UTC SEP 26, 2024</td></tr>
          <tr><td>Storm Location:</td></tr>
          <tr><td><b>16.3 N, 146.6 E</b></td></tr>
          <tr><td>Min Sea Level Pressure:</td></tr>
          <tr><td>997 mb / 29.44 in Hg</td></tr>
          <tr><td>Maximum Intensity:</td></tr>
          <tr><td>30 kt / 35 mph / 56 kph</td></tr>
        </table>
      ]]></description>
      <Point><coordinates>146.6,16.3</coordinates></Point>
    </Placemark>
    <Placemark>
      <name>0600 UTC SEP 26</name>
      <styleUrl>#pt</styleUrl>
      <description><![CDATA[
        <table>
          <tr><td>XX JEBI (WP192024)</td></tr>
          <tr><td><hr></td></tr>
          <tr><td>0600 UTC SEP 26, 2024</td></tr>
          <tr><td>Storm Location:</td></tr>
          <tr><td><b>16.6 N, 146.5 E</b></td></tr>
          <tr><td>Min Sea Level Pressure:</td></tr>
          <tr><td>997 mb / 29.44 in Hg</td></tr>
          <tr><td>Maximum Intensity:</td></tr>
          <tr><td>30 kt / 35 mph / 56 kph</td></tr>
        </table>
      ]]></description>
      <Point><coordinates>146.5,16.6</coordinates></Point>
    </Placemark>
    <Placemark>
      <name>1200 UTC SEP 26</name>
      <styleUrl>#pt</styleUrl>
      <description><![CDATA[
        <table>
          <tr><td>XX JEBI (WP192024)</td></tr>
          <tr><td><hr></td></tr>
          <tr><td>1200 UTC SEP 26, 2024</td></tr>
          <tr><td>Storm Location:</td></tr>
          <tr><td><b>16.9 N, 146.5 E</b></td></tr>
          <tr><td>Min Sea Level Pressure:</td></tr>
          <tr><td>995 mb / 29.38 in Hg</td></tr>
          <tr><td>Maximum Intensity:</td></tr>
          <tr><td>35 kt / 40 mph / 65 kph</td></tr>
        </table>
      ]]></description>
      <Point><coordinates>146.5,16.9</coordinates></Point>
    </Placemark>
    <Placemark>
      <name>1800 UTC SEP 26</name>
      <styleUrl>#ts</styleUrl>
      <description><![CDATA[
        <table>
          <tr><td>TS JEBI (WP192024)</td></tr>
          <tr><td><hr></td></tr>
          <tr><td>1800 UTC SEP 26, 2024</td></tr>
          <tr><td>Storm Location:</td></tr>
          <tr><td><b>17.6 N, 146.2 E</b></td></tr>
          <tr><td>Min Sea Level Pressure:</td></tr>
          <tr><td>993 mb / 29.32 in Hg</td></tr>
          <tr><td>Maximum Intensity:</td></tr>
          <tr><td>35 kt / 40 mph / 65 kph</td></tr>
        </table>
      ]]></description>
      <Point><coordinates>146.2,17.6</coordinates></Point>
    </Placemark>
    <Placemark>
      <name>0000 UTC SEP 27</name>
      <styleUrl>#ts</styleUrl>
      <description><![CDATA[
        <table>
          <tr><td>TS JEBI (WP192024)</td></tr>
          <tr><td><hr></td></tr>
          <tr><td>0000 UTC SEP 27, 2024</td></tr>
          <tr><td>Storm Location:</td></tr>
          <tr><td><b>18.0 N, 145.6 E</b></td></tr>
          <tr><td>Min Sea Level Pressure:</td></tr>
          <tr><td>993 mb / 29.32 in Hg</td></tr>
          <tr><td>Maximum Intensity:</td></tr>
          <tr><td>35 kt / 40 mph / 65 kph</td></tr>
        </table>
      ]]></description>
      <Point><coordinates>145.6,18</coordinates></Point>
    </Placemark>
    <Placemark>
      <name>0600 UTC SEP 27</name>
      <styleUrl>#ts</styleUrl>
      <description><![CDATA[
        <table>
          <tr><td>TS JEBI (WP192024)</td></tr>
          <tr><td><hr></td></tr>
          <tr><td>0600 UTC SEP 27, 2024</td></tr>
          <tr><td>Storm Location:</td></tr>
          <tr><td><b>18.3 N, 145.2 E</b></td></tr>
          <tr><td>Min Sea Level Pressure:</td></tr>
          <tr><td>990 mb / 29.23 in Hg</td></tr>
          <tr><td>Maximum Intensity:</td></tr>
          <tr><td>40 kt / 46 mph / 74 kph</td></tr>
        </table>
      ]]></description>
      <Point><coordinates>145.2,18.3</coordinates></Point>
    </Placemark>
    <Placemark>
      <name>1200 UTC SEP 27</name>
      <styleUrl>#ts</styleUrl>
      <description><![CDATA[
        <table>
          <tr><td>TS JEBI (WP192024)</td></tr>
          <tr><td><hr></td></tr>
          <tr><td>1200 UTC SEP 27, 2024</td></tr>
          <tr><td>Storm Location:</td></tr>
          <tr><td><b>18.5 N, 144.9 E</b></td></tr>
          <tr><td>Min Sea Level Pressure:</td></tr>
          <tr><td>990 mb / 29.23 in Hg</td></tr>
          <tr><td>Maximum Intensity:</td></tr>
          <tr><td>40 kt / 46 mph / 74 kph</td></tr>
        </table>
      ]]></description>
      <Point><coordinates>144.9,18.5</coordinates></Point>
    </Placemark>
    <Placemark>
      <name>1800 UTC SEP 27</name>
      <styleUrl>#ts</styleUrl>
      <description><![CDATA[
        <table>
          <tr><td>TS JEBI (WP192024)</td></tr>
          <tr><td><hr></td></tr>
          <tr><td>1800 UTC SEP 27, 2024</td></tr>
          <tr><td>Storm Location:</td></tr>
          <tr><td><b>19.2 N, 144.2 E</b></td></tr>
          <tr><td>Min Sea Level Pressure:</td></tr>
          <tr><td>993 mb / 29.32 in Hg</td></tr>
          <tr><td>Maximum Intensity:</td></tr>
          <tr><td>35 kt / 40 mph / 65 kph</td></tr>
        </table>
      ]]></description>
      <Point><coordinates>144.2,19.2</coordinates></Point>
    </Placemark>
    <Placemark>
      <name>0000 UTC SEP 28</name>
      <styleUrl>#td</styleUrl>
      <description><![CDATA[
        <table>
          <tr><td>TD JEBI (WP192024)</td></tr>
          <tr><td><hr></td></tr>
          <tr><td>0000 UTC SEP 28, 2024</td></tr>
          <tr><td>Storm Location:</td></tr>
          <tr><td><b>20.0 N, 143.3 E</b></td></tr>
          <tr><td>Min Sea Level Pressure:</td></tr>
          <tr><td>995 mb / 29.38 in Hg</td></tr>
          <tr><td>Maximum Intensity:</td></tr>
          <tr><td>30 kt / 35 mph / 56 kph</td></tr>
        </table>
      ]]></description>
      <Point><coordinates>143.3,20</coordinates></Point>
    </Placemark>
    <Placemark>
      <name>0600 UTC SEP 28</name>
      <styleUrl>#td</styleUrl>
      <description><![CDATA[
        <table>
          <tr><td>TD JEBI (WP192024)</td></tr>
          <tr><td><hr></td></tr>
          <tr><td>0600 UTC SEP 28, 2024</td></tr>
          <tr><td>Storm Location:</td></tr>
          <tr><td><b>20.6 N, 143.1 E</b></td></tr>
          <tr><td>Min Sea Level Pressure:</td></tr>
          <tr><td>996 mb / 29.41 in Hg</td></tr>
          <tr><td>Maximum Intensity:</td></tr>
          <tr><td>30 kt / 35 mph / 56 kph</td></tr>
        </table>
      ]]></description>
      <Point><coordinates>143.1,20.6</coordinates></Point>
    </Placemark>
    <Placemark>
      <name>1200 UTC SEP 28</name>
      <styleUrl>#td</styleUrl>
      <description><![CDATA[
        <table>
          <tr><td>TD JEBI (WP192024)</td></tr>
          <tr><td><hr></td></tr>
          <tr><td>1200 UTC SEP 28, 2024</td></tr>
          <tr><td>Storm Location:</td></tr>
          <tr><td><b>21.3 N, 143.0 E</b></td></tr>
          <tr><td>Min Sea Level Pressure:</td></tr>
          <tr><td>995 mb / 29.38 in Hg</td></tr>
          <tr><td>Maximum Intensity:</td></tr>
          <tr><td>30 kt / 35 mph / 56 kph</td></tr>
        </table>
      ]]></description>
      <Point><coordinates>143,21.3</coordinates></Point>
    </Placemark>
    <Placemark>
      <name>1800 UTC SEP 28</name>
      <styleUrl>#ts</styleUrl>
      <description><![CDATA[
        <table>
          <tr><td>TS JEBI (WP192024)</td></tr>
          <tr><td><hr></td></tr>
          <tr><td>1800 UTC SEP 28, 2024</td></tr>
          <tr><td>Storm Location:</td></tr>
          <tr><td><b>21.9 N, 142.2 E</b></td></tr>
          <tr><td>Min Sea Level Pressure:</td></tr>
          <tr><td>990 mb / 29.23 in Hg</td></tr>
          <tr><td>Maximum Intensity:</td></tr>
          <tr><td>35 kt / 40 mph / 65 kph</td></tr>
        </table>
      ]]></description>
      <Point><coordinates>142.2,21.9</coordinates></Point>
    </Placemark>
    <Placemark>
      <name>0000 UTC SEP 29</name>
      <styleUrl>#td</styleUrl>
      <description><![CDATA[
        <table>
          <tr><td>TD JEBI (WP192024)</td></tr>
          <tr><td><hr></td></tr>
          <tr><td>0000 UTC SEP 29, 2024</td></tr>
          <tr><td>Storm Location:</td></tr>
          <tr><td><b>22.6 N, 141.5 E</b></td></tr>
          <tr><td>Min Sea Level Pressure:</td></tr>
          <tr><td>993 mb / 29.32 in Hg</td></tr>
          <tr><td>Maximum Intensity:</td></tr>
          <tr><td>30 kt / 35 mph / 56 kph</td></tr>
        </table>
      ]]></description>
      <Point><coordinates>141.5,22.6</coordinates></Point>
    </Placemark>
    <Placemark>
      <name>0600 UTC SEP 29</name>
      <styleUrl>#td</styleUrl>
      <description><![CDATA[
        <table>
          <tr><td>TD JEBI (WP192024)</td></tr>
          <tr><td><hr></td></tr>
          <tr><td>0600 UTC SEP 29, 2024</td></tr>
          <tr><td>Storm Location:</td></tr>
          <tr><td><b>23.9 N, 141.1 E</b></td></tr>
          <tr><td>Min Sea Level Pressure:</td></tr>
          <tr><td>993 mb / 29.32 in Hg</td></tr>
          <tr><td>Maximum Intensity:</td></tr>
          <tr><td>30 kt / 35 mph / 56 kph</td></tr>
        </table>
      ]]></description>
      <Point><coordinates>141.1,23.9</coordinates></Point>
    </Placemark>
    <Placemark>
      <name>1200 UTC SEP 29</name>
      <styleUrl>#ts</styleUrl>
      <description><![CDATA[
        <table>
          <tr><td>TS JEBI (WP192024)</td></tr>
          <tr><td><hr></td></tr>
          <tr><td>1200 UTC SEP 29, 2024</td></tr>
          <tr><td>Storm Location:</td></tr>
          <tr><td><b>24.6 N, 140.7 E</b></td></tr>
          <tr><td>Min Sea Level Pressure:</td></tr>
          <tr><td>990 mb / 29.23 in Hg</td></tr>
          <tr><td>Maximum Intensity:</td></tr>
          <tr><td>35 kt / 40 mph / 65 kph</td></tr>
        </table>
      ]]></description>
      <Point><coordinates>140.7,24.6</coordinates></Point>
    </Placemark>
    <Placemark>
      <name>1800 UTC SEP 29</name>
      <styleUrl>#ts</styleUrl>
      <description><![CDATA[
        <table>
          <tr><td>TS JEBI (WP192024)</td></tr>
          <tr><td><hr></td></tr>
          <tr><td>1800 UTC SEP 29, 2024</td></tr>
          <tr><td>Storm Location:</td></tr>
          <tr><td><b>25.1 N, 140.4 E</b></td></tr>
          <tr><td>Min Sea Level Pressure:</td></tr>
          <tr><td>997 mb / 29.44 in Hg</td></tr>
          <tr><td>Maximum Intensity:</td></tr>
          <tr><td>40 kt / 46 mph / 74 kph</td></tr>
        </table>
      ]]></description>
      <Point><coordinates>140.4,25.1</coordinates></Point>
    </Placemark>
    <Placemark>
      <name>0000 UTC SEP 30</name>
      <styleUrl>#td</styleUrl>
      <description><![CDATA[
        <table>
          <tr><td>TD JEBI (WP192024)</td></tr>
          <tr><td><hr></td></tr>
          <tr><td>0000 UTC SEP 30, 2024</td></tr>
          <tr><td>Storm Location:</td></tr>
          <tr><td><b>25.9 N, 140.2 E</b></td></tr>
          <tr><td>Min Sea Level Pressure:</td></tr>
          <tr><td>993 mb / 29.32 in Hg</td></tr>
          <tr><td>Maximum Intensity:</td></tr>
          <tr><td>30 kt / 35 mph / 56 kph</td></tr>
        </table>
      ]]></description>
      <Point><coordinates>140.2,25.9</coordinates></Point>
    </Placemark>
    <Placemark>
      <name>0600 UTC SEP 30</name>
      <styleUrl>#ts</styleUrl>
      <description><![CDATA[
        <table>
          <tr><td>TS JEBI (WP192024)</td></tr>
          <tr><td><hr></td></tr>
          <tr><td>0600 UTC SEP 30, 2024</td></tr>
          <tr><td>Storm Location:</td></tr>
          <tr><td><b>27.7 N, 140.5 E</b></td></tr>
          <tr><td>Min Sea Level Pressure:</td></tr>
          <tr><td>991 mb / 29.26 in Hg</td></tr>
          <tr><td>Maximum Intensity:</td></tr>
          <tr><td>40 kt / 46 mph / 74 kph</td></tr>
        </table>
      ]]></description>
      <Point><coordinates>140.5,27.7</coordinates></Point>
    </Placemark>
    <Placemark>
      <name>1200 UTC SEP 30</name>
      <styleUrl>#ts</styleUrl>
      <description><![CDATA[
        <table>
          <tr><td>TS JEBI (WP192024)</td></tr>
          <tr><td><hr></td></tr>
          <tr><td>1200 UTC SEP 30, 2024</td></tr>
          <tr><td>Storm Location:</td></tr>
          <tr><td><b>29.3 N, 140.9 E</b></td></tr>
          <tr><td>Min Sea Level Pressure:</td></tr>
          <tr><td>989 mb / 29.21 in Hg</td></tr>
          <tr><td>Maximum Intensity:</td></tr>
          <tr><td>45 kt / 52 mph / 83 kph</td></tr>
        </table>
      ]]></description>
      <Point><coordinates>140.9,29.3</coordinates></Point>
    </Placemark>
    <Placemark>
      <name>1800 UTC SEP 30</name>
      <styleUrl>#ts</styleUrl>
      <description><![CDATA[
        <table>
          <tr><td>TS JEBI (WP192024)</td></tr>
          <tr><td><hr></td></tr>
          <tr><td>1800 UTC SEP 30, 2024</td></tr>
          <tr><td>Storm Location:</td></tr>
          <tr><td><b>31.0 N, 141.3 E</b></td></tr>
          <tr><td>Min Sea Level Pressure:</td></tr>
          <tr><td>987 mb / 29.15 in Hg</td></tr>
          <tr><td>Maximum Intensity:</td></tr>
          <tr><td>55 kt / 63 mph / 102 kph</td></tr>
        </table>
      ]]></description>
      <Point><coordinates>141.3,31</coordinates></Point>
    </Placemark>
    <Placemark>
      <name>0000 UTC OCT 1</name>
      <styleUrl>#cat1</styleUrl>
      <description><![CDATA[
        <table>
          <tr><td>HU JEBI (WP192024)</td></tr>
          <tr><td><hr></td></tr>
          <tr><td>0000 UTC OCT 1, 2024</td></tr>
          <tr><td>Storm Location:</td></tr>
          <tr><td><b>32.8 N, 141.6 E</b></td></tr>
          <tr><td>Min Sea Level Pressure:</td></tr>
          <tr><td>979 mb / 28.91 in Hg</td></tr>
          <tr><td>Maximum Intensity:</td></tr>
          <tr><td>65 kt / 75 mph / 120 kph</td></tr>
        </table>
      ]]></description>
      <Point><coordinates>141.6,32.8</coordinates></Point>
    </Placemark>
    <Placemark>
      <name>0600 UTC OCT 1</name>
      <styleUrl>#cat1</styleUrl>
      <description><![CDATA[
        <table>
          <tr><td>HU JEBI (WP192024)</td></tr>
          <tr><td><hr></td></tr>
          <tr><td>0600 UTC OCT 1, 2024</td></tr>
          <tr><td>Storm Location:</td></tr>
          <tr><td><b>34.9 N, 142.2 E</b></td></tr>
          <tr><td>Min Sea Level Pressure:</td></tr>
          <tr><td>977 mb / 28.85 in Hg</td></tr>
          <tr><td>Maximum Intensity:</td></tr>
          <tr><td>65 kt / 75 mph / 120 kph</td></tr>
        </table>
      ]]></description>
      <Point><coordinates>142.2,34.9</coordinates></Point>
    </Placemark>
    <Placemark>
      <name>1200 UTC OCT 1</name>
      <styleUrl>#cat1</styleUrl>
      <description><![CDATA[
        <table>
          <tr><td>HU JEBI (WP192024)</td></tr>
          <tr><td><hr></td></tr>
          <tr><td>1200 UTC OCT 1, 2024</td></tr>
          <tr><td>Storm Location:</td></tr>
          <tr><td><b>37.0 N, 143.0 E</b></td></tr>
          <tr><td>Min Sea Level Pressure:</td></tr>
          <tr><td>975 mb / 28.79 in Hg</td></tr>
          <tr><td>Maximum Intensity:</td></tr>
          <tr><td>70 kt / 81 mph / 130 kph</td></tr>
        </table>
      ]]></description>
      <Point><coordinates>143,37</coordinates></Point>
    </Placemark>
    <Placemark>
      <name>1800 UTC OCT 1</name>
      <styleUrl>#cat1</styleUrl>
      <description><![CDATA[
        <table>
          <tr><td>HU JEBI (WP192024)</td></tr>
          <tr><td><hr></td></tr>
          <tr><td>1800 UTC OCT 1, 2024</td></tr>
          <tr><td>Storm Location:</td></tr>
          <tr><td><b>39.5 N, 145.6 E</b></td></tr>
          <tr><td>Min Sea Level Pressure:</td></tr>
          <tr><td>975 mb / 28.79 in Hg</td></tr>
          <tr><td>Maximum Intensity:</td></tr>
          <tr><td>70 kt / 81 mph / 130 kph</td></tr>
        </table>
      ]]></description>
      <Point><coordinates>145.6,39.5</coordinates></Point>
    </Placemark>
    <Placemark>
      <name>0000 UTC OCT 2</name>
      <styleUrl>#cat1</styleUrl>
      <description><![CDATA[
        <table>
          <tr><td>HU JEBI (WP192024)</td></tr>
          <tr><td><hr></td></tr>
          <tr><td>0000 UTC OCT 2, 2024</td></tr>
          <tr><td>Storm Location:</td></tr>
          <tr><td><b>42.1 N, 148.3 E</b></td></tr>
          <tr><td>Min Sea Level Pressure:</td></tr>
          <tr><td>969 mb / 28.61 in Hg</td></tr>
          <tr><td>Maximum Intensity:</td></tr>
          <tr><td>70 kt / 81 mph / 130 kph</td></tr>
        </table>
      ]]></description>
      <Point><coordinates>148.3,42.1</coordinates></Point>
    </Placemark>
    <Placemark>
      <name>0600 UTC OCT 2</name>
      <styleUrl>#ex</styleUrl>
      <description><![CDATA[
        <table>
          <tr><td>EX JEBI (WP192024)</td></tr>
          <tr><td><hr></td></tr>
          <tr><td>0600 UTC OCT 2, 2024</td></tr>
          <tr><td>Storm Location:</td></tr>
          <tr><td><b>45.1 N, 152.3 E</b></td></tr>
          <tr><td>Min Sea Level Pressure:</td></tr>
          <tr><td>980 mb / 28.94 in Hg</td></tr>
          <tr><td>Maximum Intensity:</td></tr>
          <tr><td>50 kt / 58 mph / 93 kph</td></tr>
        </table>
      ]]></description>
      <Point><coordinates>152.3,45.1</coordinates></Point>
    </Placemark>
    <Placemark>
      <name>1200 UTC OCT 2</name>
      <styleUrl>#ex</styleUrl>
      <description><![CDATA[
        <table>
          <tr><td>EX JEBI (WP192024)</td></tr>
          <tr><td><hr></td></tr>
          <tr><td>1200 UTC OCT 2, 2024</td></tr>
          <tr><td>Storm Location:</td></tr>
          <tr><td><b>48.5 N, 158.2 E</b></td></tr>
          <tr><td>Min Sea Level Pressure:</td></tr>
          <tr><td>982 mb / 29.00 in Hg</td></tr>
          <tr><td>Maximum Intensity:</td></tr>
          <tr><td>45 kt / 52 mph / 83 kph</td></tr>
        </table>
      ]]></description>
      <Point><coordinates>158.2,48.5</coordinates></Point>
    </Placemark>
  </Document>
</kml>
