<?xml version="1.0" encoding="UTF-8"?>
<kml xmlns="http://www.opengis.net/kml/2.2">
  <Document>
    <name>WP202024</name>
    <open>0</open>

    <!-- =====  Document header ===== -->
    <description><![CDATA[
      <table>
        <tr><td><b>Title:</b> Tropical Cyclone Best Track for WP202024</td></tr>
      </table>
    ]]></description>

    <!-- =====  Styles (ids must be unique)  ===== -->
	<Style id="pt"> 
		<IconStyle> 
			<scale>1.0</scale> 
			<Icon> 
				<href>ex_nhemi.png</href> 
			</Icon> 
             <hotSpot x="15" y="17" xunits="pixels" yunits="pixels"/>
		</IconStyle> 
		<LabelStyle> 
			<scale>1.0</scale> 
		</LabelStyle> 
	</Style>
	<Style id="cat5"> 
		<IconStyle> 
			<scale>1.0</scale> 
			<Icon> 
				<href>cat5_nhemi.png</href> 
			</Icon> 
             <hotSpot x="15" y="17" xunits="pixels" yunits="pixels"/>
		</IconStyle> 
		<LabelStyle> 
			<scale>1.0</scale> 
		</LabelStyle> 
	</Style>
	<Style id="db"> 
		<IconStyle> 
			<scale>1.0</scale> 
			<Icon> 
				<href>ex_nhemi.png</href> 
			</Icon> 
             <hotSpot x="15" y="17" xunits="pixels" yunits="pixels"/>
		</IconStyle> 
		<LabelStyle> 
			<scale>1.0</scale> 
		</LabelStyle> 
	</Style>
	<Style id="cat3"> 
		<IconStyle> 
			<scale>1.0</scale> 
			<Icon> 
				<href>cat3_nhemi.png</href> 
			</Icon> 
             <hotSpot x="15" y="17" xunits="pixels" yunits="pixels"/>
		</IconStyle> 
		<LabelStyle> 
			<scale>1.0</scale> 
		</LabelStyle> 
	</Style>
	<Style id="ss"> 
		<IconStyle> 
			<scale>1.0</scale> 
			<Icon> 
				<href>ts_nhemi.png</href> 
			</Icon> 
             <hotSpot x="15" y="17" xunits="pixels" yunits="pixels"/>
		</IconStyle> 
		<LabelStyle> 
			<scale>1.0</scale> 
		</LabelStyle> 
	</Style>
	<Style id="lo"> 
		<IconStyle> 
			<scale>1.0</scale> 
			<Icon> 
				<href>ex_nhemi.png</href> 
			</Icon> 
             <hotSpot x="15" y="17" xunits="pixels" yunits="pixels"/>
		</IconStyle> 
		<LabelStyle> 
			<scale>1.0</scale> 
		</LabelStyle> 
	</Style>
	<Style id="cat4"> 
		<IconStyle> 
			<scale>1.0</scale> 
			<Icon> 
				<href>cat4_nhemi.png</href> 
			</Icon> 
             <hotSpot x="15" y="17" xunits="pixels" yunits="pixels"/>
		</IconStyle> 
		<LabelStyle> 
			<scale>1.0</scale> 
		</LabelStyle> 
	</Style>
	<Style id="cat2"> 
		<IconStyle> 
			<scale>1.0</scale> 
			<Icon> 
				<href>cat2_nhemi.png</href> 
			</Icon> 
             <hotSpot x="15" y="17" xunits="pixels" yunits="pixels"/>
		</IconStyle> 
		<LabelStyle> 
			<scale>1.0</scale> 
		</LabelStyle> 
	</Style>
	<Style id="ts"> 
		<IconStyle> 
			<scale>1.0</scale> 
			<Icon> 
				<href>ts_nhemi.png</href> 
			</Icon> 
             <hotSpot x="15" y="17" xunits="pixels" yunits="pixels"/>
		</IconStyle> 
		<LabelStyle> 
			<scale>1.0</scale> 
		</LabelStyle> 
	</Style>
	<Style id="cat1"> 
		<IconStyle> 
			<scale>1.0</scale> 
			<Icon> 
				<href>cat1_nhemi.png</href> 
			</Icon> 
             <hotSpot x="15" y="17" xunits="pixels" yunits="pixels"/>
		</IconStyle> 
		<LabelStyle> 
			<scale>1.0</scale> 
		</LabelStyle> 
	</Style>
	<Style id="ex"> 
		<IconStyle> 
			<scale>1.0</scale> 
			<Icon> 
				<href>ex_nhemi.png</href> 
			</Icon> 
             <hotSpot x="15" y="17" xunits="pixels" yunits="pixels"/>
		</IconStyle> 
		<LabelStyle> 
			<scale>1.0</scale> 
		</LabelStyle> 
	</Style>
	<Style id="tc"> 
		<IconStyle> 
			<scale>1.0</scale> 
			<Icon> 
				<href>ex_nhemi.png</href> 
			</Icon> 
             <hotSpot x="15" y="17" xunits="pixels" yunits="pixels"/>
		</IconStyle> 
		<LabelStyle> 
			<scale>1.0</scale> 
		</LabelStyle> 
	</Style>
	<Style id="wv"> 
		<IconStyle> 
			<scale>1.0</scale> 
			<Icon> 
				<href>ex_nhemi.png</href> 
			</Icon> 
             <hotSpot x="15" y="17" xunits="pixels" yunits="pixels"/>
		</IconStyle> 
		<LabelStyle> 
			<scale>1.0</scale> 
		</LabelStyle> 
	</Style>
	<Style id="td"> 
		<IconStyle> 
			<scale>1.0</scale> 
			<Icon> 
				<href>td_nhemi.png</href> 
			</Icon> 
             <hotSpot x="15" y="17" xunits="pixels" yunits="pixels"/>
		</IconStyle> 
		<LabelStyle> 
			<scale>1.0</scale> 
		</LabelStyle> 
	</Style>
	<Style id="sd"> 
		<IconStyle> 
			<scale>1.0</scale> 
			<Icon> 
				<href>ex_nhemi.png</href> 
			</Icon> 
             <hotSpot x="15" y="17" xunits="pixels" yunits="pixels"/>
		</IconStyle> 
		<LabelStyle> 
			<scale>1.0</scale> 
		</LabelStyle> 
	</Style>

    <Placemark>
      <name>0000 UTC SEP 26</name>
      <styleUrl>#db</styleUrl>
      <description><![CDATA[
        <table>
          <tr><td>DB KRATHON (WP202024)</td></tr>
          <tr><td><hr></td></tr>
          <tr><td>0000 UTC SEP 26, 2024</td></tr>
          <tr><td>Storm Location:</td></tr>
          <tr><td><b>24.1 N, 128.2 E</b></td></tr>
          <tr><td>Min Sea Level Pressure:</td></tr>
          <tr><td>1010 mb / 29.83 in Hg</td></tr>
          <tr><td>Maximum Intensity:</td></tr>
          <tr><td>15 kt / 17 mph / 28 kph</td></tr>
        </table>
      ]]></description>
      <Point><coordinates>128.2,24.1</coordinates></Point>
    </Placemark>
    <Placemark>
      <name>0600 UTC SEP 26</name>
      <styleUrl>#db</styleUrl>
      <description><![CDATA[
        <table>
          <tr><td>DB KRATHON (WP202024)</td></tr>
          <tr><td><hr></td></tr>
          <tr><td>0600 UTC SEP 26, 2024</td></tr>
          <tr><td>Storm Location:</td></tr>
          <tr><td><b>22.9 N, 127.9 E</b></td></tr>
          <tr><td>Min Sea Level Pressure:</td></tr>
          <tr><td>1010 mb / 29.83 in Hg</td></tr>
          <tr><td>Maximum Intensity:</td></tr>
          <tr><td>15 kt / 17 mph / 28 kph</td></tr>
        </table>
      ]]></description>
      <Point><coordinates>127.9,22.9</coordinates></Point>
    </Placemark>
    <Placemark>
      <name>1200 UTC SEP 26</name>
      <styleUrl>#db</styleUrl>
      <description><![CDATA[
        <table>
          <tr><td>DB KRATHON (WP202024)</td></tr>
          <tr><td><hr></td></tr>
          <tr><td>1200 UTC SEP 26, 2024</td></tr>
          <tr><td>Storm Location:</td></tr>
          <tr><td><b>21.8 N, 127.5 E</b></td></tr>
          <tr><td>Min Sea Level Pressure:</td></tr>
          <tr><td>1009 mb / 29.80 in Hg</td></tr>
          <tr><td>Maximum Intensity:</td></tr>
          <tr><td>20 kt / 23 mph / 37 kph</td></tr>
        </table>
      ]]></description>
      <Point><coordinates>127.5,21.8</coordinates></Point>
    </Placemark>
    <Placemark>
      <name>1800 UTC SEP 26</name>
      <styleUrl>#db</styleUrl>
      <description><![CDATA[
        <table>
          <tr><td>DB KRATHON (WP202024)</td></tr>
          <tr><td><hr></td></tr>
          <tr><td>1800 UTC SEP 26, 2024</td></tr>
          <tr><td>Storm Location:</td></tr>
          <tr><td><b>21.3 N, 127.3 E</b></td></tr>
          <tr><td>Min Sea Level Pressure:</td></tr>
          <tr><td>1008 mb / 29.77 in Hg</td></tr>
          <tr><td>Maximum Intensity:</td></tr>
          <tr><td>20 kt / 23 mph / 37 kph</td></tr>
        </table>
      ]]></description>
      <Point><coordinates>127.3,21.3</coordinates></Point>
    </Placemark>
    <Placemark>
      <name>0000 UTC SEP 27</name>
      <styleUrl>#db</styleUrl>
      <description><![CDATA[
        <table>
          <tr><td>DB KRATHON (WP202024)</td></tr>
          <tr><td><hr></td></tr>
          <tr><td>0000 UTC SEP 27, 2024</td></tr>
          <tr><td>Storm Location:</td></tr>
          <tr><td><b>20.8 N, 127.0 E</b></td></tr>
          <tr><td>Min Sea Level Pressure:</td></tr>
          <tr><td>998 mb / 29.47 in Hg</td></tr>
          <tr><td>Maximum Intensity:</td></tr>
          <tr><td>20 kt / 23 mph / 37 kph</td></tr>
        </table>
      ]]></description>
      <Point><coordinates>127,20.8</coordinates></Point>
    </Placemark>
    <Placemark>
      <name>0600 UTC SEP 27</name>
      <styleUrl>#td</styleUrl>
      <description><![CDATA[
        <table>
          <tr><td>TD KRATHON (WP202024)</td></tr>
          <tr><td><hr></td></tr>
          <tr><td>0600 UTC SEP 27, 2024</td></tr>
          <tr><td>Storm Location:</td></tr>
          <tr><td><b>20.3 N, 126.5 E</b></td></tr>
          <tr><td>Min Sea Level Pressure:</td></tr>
          <tr><td>994 mb / 29.35 in Hg</td></tr>
          <tr><td>Maximum Intensity:</td></tr>
          <tr><td>25 kt / 29 mph / 46 kph</td></tr>
        </table>
      ]]></description>
      <Point><coordinates>126.5,20.3</coordinates></Point>
    </Placemark>
    <Placemark>
      <name>1200 UTC SEP 27</name>
      <styleUrl>#td</styleUrl>
      <description><![CDATA[
        <table>
          <tr><td>TD KRATHON (WP202024)</td></tr>
          <tr><td><hr></td></tr>
          <tr><td>1200 UTC SEP 27, 2024</td></tr>
          <tr><td>Storm Location:</td></tr>
          <tr><td><b>19.7 N, 125.9 E</b></td></tr>
          <tr><td>Min Sea Level Pressure:</td></tr>
          <tr><td>997 mb / 29.44 in Hg</td></tr>
          <tr><td>Maximum Intensity:</td></tr>
          <tr><td>25 kt / 29 mph / 46 kph</td></tr>
        </table>
      ]]></description>
      <Point><coordinates>125.9,19.7</coordinates></Point>
    </Placemark>
    <Placemark>
      <name>1800 UTC SEP 27</name>
      <styleUrl>#td</styleUrl>
      <description><![CDATA[
        <table>
          <tr><td>TD KRATHON (WP202024)</td></tr>
          <tr><td><hr></td></tr>
          <tr><td>1800 UTC SEP 27, 2024</td></tr>
          <tr><td>Storm Location:</td></tr>
          <tr><td><b>19.4 N, 125.6 E</b></td></tr>
          <tr><td>Min Sea Level Pressure:</td></tr>
          <tr><td>995 mb / 29.38 in Hg</td></tr>
          <tr><td>Maximum Intensity:</td></tr>
          <tr><td>30 kt / 35 mph / 56 kph</td></tr>
        </table>
      ]]></description>
      <Point><coordinates>125.6,19.4</coordinates></Point>
    </Placemark>
    <Placemark>
      <name>0000 UTC SEP 28</name>
      <styleUrl>#ts</styleUrl>
      <description><![CDATA[
        <table>
          <tr><td>TS KRATHON (WP202024)</td></tr>
          <tr><td><hr></td></tr>
          <tr><td>0000 UTC SEP 28, 2024</td></tr>
          <tr><td>Storm Location:</td></tr>
          <tr><td><b>19.0 N, 125.3 E</b></td></tr>
          <tr><td>Min Sea Level Pressure:</td></tr>
          <tr><td>992 mb / 29.29 in Hg</td></tr>
          <tr><td>Maximum Intensity:</td></tr>
          <tr><td>35 kt / 40 mph / 65 kph</td></tr>
        </table>
      ]]></description>
      <Point><coordinates>125.3,19</coordinates></Point>
    </Placemark>
    <Placemark>
      <name>0600 UTC SEP 28</name>
      <styleUrl>#ts</styleUrl>
      <description><![CDATA[
        <table>
          <tr><td>TS KRATHON (WP202024)</td></tr>
          <tr><td><hr></td></tr>
          <tr><td>0600 UTC SEP 28, 2024</td></tr>
          <tr><td>Storm Location:</td></tr>
          <tr><td><b>18.9 N, 125.2 E</b></td></tr>
          <tr><td>Min Sea Level Pressure:</td></tr>
          <tr><td>990 mb / 29.23 in Hg</td></tr>
          <tr><td>Maximum Intensity:</td></tr>
          <tr><td>50 kt / 58 mph / 93 kph</td></tr>
        </table>
      ]]></description>
      <Point><coordinates>125.2,18.9</coordinates></Point>
    </Placemark>
    <Placemark>
      <name>1200 UTC SEP 28</name>
      <styleUrl>#ts</styleUrl>
      <description><![CDATA[
        <table>
          <tr><td>TS KRATHON (WP202024)</td></tr>
          <tr><td><hr></td></tr>
          <tr><td>1200 UTC SEP 28, 2024</td></tr>
          <tr><td>Storm Location:</td></tr>
          <tr><td><b>18.7 N, 125.1 E</b></td></tr>
          <tr><td>Min Sea Level Pressure:</td></tr>
          <tr><td>990 mb / 29.23 in Hg</td></tr>
          <tr><td>Maximum Intensity:</td></tr>
          <tr><td>55 kt / 63 mph / 102 kph</td></tr>
        </table>
      ]]></description>
      <Point><coordinates>125.1,18.7</coordinates></Point>
    </Placemark>
    <Placemark>
      <name>1800 UTC SEP 28</name>
      <styleUrl>#ts</styleUrl>
      <description><![CDATA[
        <table>
          <tr><td>TS KRATHON (WP202024)</td></tr>
          <tr><td><hr></td></tr>
          <tr><td>1800 UTC SEP 28, 2024</td></tr>
          <tr><td>Storm Location:</td></tr>
          <tr><td><b>18.6 N, 124.9 E</b></td></tr>
          <tr><td>Min Sea Level Pressure:</td></tr>
          <tr><td>987 mb / 29.15 in Hg</td></tr>
          <tr><td>Maximum Intensity:</td></tr>
          <tr><td>60 kt / 69 mph / 111 kph</td></tr>
        </table>
      ]]></description>
      <Point><coordinates>124.9,18.6</coordinates></Point>
    </Placemark>
    <Placemark>
      <name>0000 UTC SEP 29</name>
      <styleUrl>#cat1</styleUrl>
      <description><![CDATA[
        <table>
          <tr><td>HU KRATHON (WP202024)</td></tr>
          <tr><td><hr></td></tr>
          <tr><td>0000 UTC SEP 29, 2024</td></tr>
          <tr><td>Storm Location:</td></tr>
          <tr><td><b>18.7 N, 124.4 E</b></td></tr>
          <tr><td>Min Sea Level Pressure:</td></tr>
          <tr><td>979 mb / 28.91 in Hg</td></tr>
          <tr><td>Maximum Intensity:</td></tr>
          <tr><td>70 kt / 81 mph / 130 kph</td></tr>
        </table>
      ]]></description>
      <Point><coordinates>124.4,18.7</coordinates></Point>
    </Placemark>
    <Placemark>
      <name>0600 UTC SEP 29</name>
      <styleUrl>#cat2</styleUrl>
      <description><![CDATA[
        <table>
          <tr><td>HU KRATHON (WP202024)</td></tr>
          <tr><td><hr></td></tr>
          <tr><td>0600 UTC SEP 29, 2024</td></tr>
          <tr><td>Storm Location:</td></tr>
          <tr><td><b>19.4 N, 123.7 E</b></td></tr>
          <tr><td>Min Sea Level Pressure:</td></tr>
          <tr><td>970 mb / 28.64 in Hg</td></tr>
          <tr><td>Maximum Intensity:</td></tr>
          <tr><td>85 kt / 98 mph / 157 kph</td></tr>
        </table>
      ]]></description>
      <Point><coordinates>123.7,19.4</coordinates></Point>
    </Placemark>
    <Placemark>
      <name>1200 UTC SEP 29</name>
      <styleUrl>#cat3</styleUrl>
      <description><![CDATA[
        <table>
          <tr><td>HU KRATHON (WP202024)</td></tr>
          <tr><td><hr></td></tr>
          <tr><td>1200 UTC SEP 29, 2024</td></tr>
          <tr><td>Storm Location:</td></tr>
          <tr><td><b>19.7 N, 123.2 E</b></td></tr>
          <tr><td>Min Sea Level Pressure:</td></tr>
          <tr><td>957 mb / 28.26 in Hg</td></tr>
          <tr><td>Maximum Intensity:</td></tr>
          <tr><td>100 kt / 115 mph / 185 kph</td></tr>
        </table>
      ]]></description>
      <Point><coordinates>123.2,19.7</coordinates></Point>
    </Placemark>
    <Placemark>
      <name>1800 UTC SEP 29</name>
      <styleUrl>#cat4</styleUrl>
      <description><![CDATA[
        <table>
          <tr><td>HU KRATHON (WP202024)</td></tr>
          <tr><td><hr></td></tr>
          <tr><td>1800 UTC SEP 29, 2024</td></tr>
          <tr><td>Storm Location:</td></tr>
          <tr><td><b>19.9 N, 122.5 E</b></td></tr>
          <tr><td>Min Sea Level Pressure:</td></tr>
          <tr><td>940 mb / 27.76 in Hg</td></tr>
          <tr><td>Maximum Intensity:</td></tr>
          <tr><td>115 kt / 132 mph / 213 kph</td></tr>
        </table>
      ]]></description>
      <Point><coordinates>122.5,19.9</coordinates></Point>
    </Placemark>
    <Placemark>
      <name>0000 UTC SEP 30</name>
      <styleUrl>#cat4</styleUrl>
      <description><![CDATA[
        <table>
          <tr><td>HU KRATHON (WP202024)</td></tr>
          <tr><td><hr></td></tr>
          <tr><td>0000 UTC SEP 30, 2024</td></tr>
          <tr><td>Storm Location:</td></tr>
          <tr><td><b>20.2 N, 122.1 E</b></td></tr>
          <tr><td>Min Sea Level Pressure:</td></tr>
          <tr><td>935 mb / 27.61 in Hg</td></tr>
          <tr><td>Maximum Intensity:</td></tr>
          <tr><td>120 kt / 138 mph / 222 kph</td></tr>
        </table>
      ]]></description>
      <Point><coordinates>122.1,20.2</coordinates></Point>
    </Placemark>
    <Placemark>
      <name>0600 UTC SEP 30</name>
      <styleUrl>#cat4</styleUrl>
      <description><![CDATA[
        <table>
          <tr><td>HU KRATHON (WP202024)</td></tr>
          <tr><td><hr></td></tr>
          <tr><td>0600 UTC SEP 30, 2024</td></tr>
          <tr><td>Storm Location:</td></tr>
          <tr><td><b>20.5 N, 121.3 E</b></td></tr>
          <tr><td>Min Sea Level Pressure:</td></tr>
          <tr><td>933 mb / 27.55 in Hg</td></tr>
          <tr><td>Maximum Intensity:</td></tr>
          <tr><td>125 kt / 144 mph / 232 kph</td></tr>
        </table>
      ]]></description>
      <Point><coordinates>121.3,20.5</coordinates></Point>
    </Placemark>
    <Placemark>
      <name>1200 UTC SEP 30</name>
      <styleUrl>#cat4</styleUrl>
      <description><![CDATA[
        <table>
          <tr><td>HU KRATHON (WP202024)</td></tr>
          <tr><td><hr></td></tr>
          <tr><td>1200 UTC SEP 30, 2024</td></tr>
          <tr><td>Storm Location:</td></tr>
          <tr><td><b>20.5 N, 120.3 E</b></td></tr>
          <tr><td>Min Sea Level Pressure:</td></tr>
          <tr><td>932 mb / 27.52 in Hg</td></tr>
          <tr><td>Maximum Intensity:</td></tr>
          <tr><td>125 kt / 144 mph / 232 kph</td></tr>
        </table>
      ]]></description>
      <Point><coordinates>120.3,20.5</coordinates></Point>
    </Placemark>
    <Placemark>
      <name>1800 UTC SEP 30</name>
      <styleUrl>#cat4</styleUrl>
      <description><![CDATA[
        <table>
          <tr><td>HU KRATHON (WP202024)</td></tr>
          <tr><td><hr></td></tr>
          <tr><td>1800 UTC SEP 30, 2024</td></tr>
          <tr><td>Storm Location:</td></tr>
          <tr><td><b>20.6 N, 119.9 E</b></td></tr>
          <tr><td>Min Sea Level Pressure:</td></tr>
          <tr><td>922 mb / 27.23 in Hg</td></tr>
          <tr><td>Maximum Intensity:</td></tr>
          <tr><td>135 kt / 155 mph / 250 kph</td></tr>
        </table>
      ]]></description>
      <Point><coordinates>119.9,20.6</coordinates></Point>
    </Placemark>
    <Placemark>
      <name>0000 UTC OCT 1</name>
      <styleUrl>#cat4</styleUrl>
      <description><![CDATA[
        <table>
          <tr><td>HU KRATHON (WP202024)</td></tr>
          <tr><td><hr></td></tr>
          <tr><td>0000 UTC OCT 1, 2024</td></tr>
          <tr><td>Storm Location:</td></tr>
          <tr><td><b>20.7 N, 119.6 E</b></td></tr>
          <tr><td>Min Sea Level Pressure:</td></tr>
          <tr><td>926 mb / 27.34 in Hg</td></tr>
          <tr><td>Maximum Intensity:</td></tr>
          <tr><td>130 kt / 150 mph / 241 kph</td></tr>
        </table>
      ]]></description>
      <Point><coordinates>119.6,20.7</coordinates></Point>
    </Placemark>
    <Placemark>
      <name>0600 UTC OCT 1</name>
      <styleUrl>#cat4</styleUrl>
      <description><![CDATA[
        <table>
          <tr><td>HU KRATHON (WP202024)</td></tr>
          <tr><td><hr></td></tr>
          <tr><td>0600 UTC OCT 1, 2024</td></tr>
          <tr><td>Storm Location:</td></tr>
          <tr><td><b>21.0 N, 119.4 E</b></td></tr>
          <tr><td>Min Sea Level Pressure:</td></tr>
          <tr><td>931 mb / 27.49 in Hg</td></tr>
          <tr><td>Maximum Intensity:</td></tr>
          <tr><td>125 kt / 144 mph / 232 kph</td></tr>
        </table>
      ]]></description>
      <Point><coordinates>119.4,21</coordinates></Point>
    </Placemark>
    <Placemark>
      <name>1200 UTC OCT 1</name>
      <styleUrl>#cat4</styleUrl>
      <description><![CDATA[
        <table>
          <tr><td>HU KRATHON (WP202024)</td></tr>
          <tr><td><hr></td></tr>
          <tr><td>1200 UTC OCT 1, 2024</td></tr>
          <tr><td>Storm Location:</td></tr>
          <tr><td><b>21.3 N, 119.3 E</b></td></tr>
          <tr><td>Min Sea Level Pressure:</td></tr>
          <tr><td>934 mb / 27.58 in Hg</td></tr>
          <tr><td>Maximum Intensity:</td></tr>
          <tr><td>120 kt / 138 mph / 222 kph</td></tr>
        </table>
      ]]></description>
      <Point><coordinates>119.3,21.3</coordinates></Point>
    </Placemark>
    <Placemark>
      <name>1800 UTC OCT 1</name>
      <styleUrl>#cat3</styleUrl>
      <description><![CDATA[
        <table>
          <tr><td>HU KRATHON (WP202024)</td></tr>
          <tr><td><hr></td></tr>
          <tr><td>1800 UTC OCT 1, 2024</td></tr>
          <tr><td>Storm Location:</td></tr>
          <tr><td><b>21.4 N, 119.2 E</b></td></tr>
          <tr><td>Min Sea Level Pressure:</td></tr>
          <tr><td>950 mb / 28.05 in Hg</td></tr>
          <tr><td>Maximum Intensity:</td></tr>
          <tr><td>105 kt / 121 mph / 194 kph</td></tr>
        </table>
      ]]></description>
      <Point><coordinates>119.2,21.4</coordinates></Point>
    </Placemark>
    <Placemark>
      <name>0000 UTC OCT 2</name>
      <styleUrl>#cat3</styleUrl>
      <description><![CDATA[
        <table>
          <tr><td>HU KRATHON (WP202024)</td></tr>
          <tr><td><hr></td></tr>
          <tr><td>0000 UTC OCT 2, 2024</td></tr>
          <tr><td>Storm Location:</td></tr>
          <tr><td><b>21.6 N, 119.3 E</b></td></tr>
          <tr><td>Min Sea Level Pressure:</td></tr>
          <tr><td>956 mb / 28.23 in Hg</td></tr>
          <tr><td>Maximum Intensity:</td></tr>
          <tr><td>100 kt / 115 mph / 185 kph</td></tr>
        </table>
      ]]></description>
      <Point><coordinates>119.3,21.6</coordinates></Point>
    </Placemark>
    <Placemark>
      <name>0600 UTC OCT 2</name>
      <styleUrl>#cat2</styleUrl>
      <description><![CDATA[
        <table>
          <tr><td>HU KRATHON (WP202024)</td></tr>
          <tr><td><hr></td></tr>
          <tr><td>0600 UTC OCT 2, 2024</td></tr>
          <tr><td>Storm Location:</td></tr>
          <tr><td><b>21.9 N, 119.4 E</b></td></tr>
          <tr><td>Min Sea Level Pressure:</td></tr>
          <tr><td>961 mb / 28.38 in Hg</td></tr>
          <tr><td>Maximum Intensity:</td></tr>
          <tr><td>95 kt / 109 mph / 176 kph</td></tr>
        </table>
      ]]></description>
      <Point><coordinates>119.4,21.9</coordinates></Point>
    </Placemark>
    <Placemark>
      <name>1200 UTC OCT 2</name>
      <styleUrl>#cat2</styleUrl>
      <description><![CDATA[
        <table>
          <tr><td>HU KRATHON (WP202024)</td></tr>
          <tr><td><hr></td></tr>
          <tr><td>1200 UTC OCT 2, 2024</td></tr>
          <tr><td>Storm Location:</td></tr>
          <tr><td><b>22.0 N, 119.5 E</b></td></tr>
          <tr><td>Min Sea Level Pressure:</td></tr>
          <tr><td>963 mb / 28.44 in Hg</td></tr>
          <tr><td>Maximum Intensity:</td></tr>
          <tr><td>90 kt / 104 mph / 167 kph</td></tr>
        </table>
      ]]></description>
      <Point><coordinates>119.5,22</coordinates></Point>
    </Placemark>
    <Placemark>
      <name>1800 UTC OCT 2</name>
      <styleUrl>#cat2</styleUrl>
      <description><![CDATA[
        <table>
          <tr><td>HU KRATHON (WP202024)</td></tr>
          <tr><td><hr></td></tr>
          <tr><td>1800 UTC OCT 2, 2024</td></tr>
          <tr><td>Storm Location:</td></tr>
          <tr><td><b>22.3 N, 119.7 E</b></td></tr>
          <tr><td>Min Sea Level Pressure:</td></tr>
          <tr><td>966 mb / 28.53 in Hg</td></tr>
          <tr><td>Maximum Intensity:</td></tr>
          <tr><td>85 kt / 98 mph / 157 kph</td></tr>
        </table>
      ]]></description>
      <Point><coordinates>119.7,22.3</coordinates></Point>
    </Placemark>
    <Placemark>
      <name>0000 UTC OCT 3</name>
      <styleUrl>#cat1</styleUrl>
      <description><![CDATA[
        <table>
          <tr><td>HU KRATHON (WP202024)</td></tr>
          <tr><td><hr></td></tr>
          <tr><td>0000 UTC OCT 3, 2024</td></tr>
          <tr><td>Storm Location:</td></tr>
          <tr><td><b>22.4 N, 120.0 E</b></td></tr>
          <tr><td>Min Sea Level Pressure:</td></tr>
          <tr><td>972 mb / 28.70 in Hg</td></tr>
          <tr><td>Maximum Intensity:</td></tr>
          <tr><td>75 kt / 86 mph / 139 kph</td></tr>
        </table>
      ]]></description>
      <Point><coordinates>120,22.4</coordinates></Point>
    </Placemark>
    <Placemark>
      <name>0600 UTC OCT 3</name>
      <styleUrl>#cat1</styleUrl>
      <description><![CDATA[
        <table>
          <tr><td>HU KRATHON (WP202024)</td></tr>
          <tr><td><hr></td></tr>
          <tr><td>0600 UTC OCT 3, 2024</td></tr>
          <tr><td>Storm Location:</td></tr>
          <tr><td><b>22.6 N, 120.4 E</b></td></tr>
          <tr><td>Min Sea Level Pressure:</td></tr>
          <tr><td>978 mb / 28.88 in Hg</td></tr>
          <tr><td>Maximum Intensity:</td></tr>
          <tr><td>70 kt / 81 mph / 130 kph</td></tr>
        </table>
      ]]></description>
      <Point><coordinates>120.4,22.6</coordinates></Point>
    </Placemark>
    <Placemark>
      <name>1200 UTC OCT 3</name>
      <styleUrl>#ts</styleUrl>
      <description><![CDATA[
        <table>
          <tr><td>TS KRATHON (WP202024)</td></tr>
          <tr><td><hr></td></tr>
          <tr><td>1200 UTC OCT 3, 2024</td></tr>
          <tr><td>Storm Location:</td></tr>
          <tr><td><b>22.6 N, 120.7 E</b></td></tr>
          <tr><td>Min Sea Level Pressure:</td></tr>
          <tr><td>993 mb / 29.32 in Hg</td></tr>
          <tr><td>Maximum Intensity:</td></tr>
          <tr><td>45 kt / 52 mph / 83 kph</td></tr>
        </table>
      ]]></description>
      <Point><coordinates>120.7,22.6</coordinates></Point>
    </Placemark>
    <Placemark>
      <name>1800 UTC OCT 3</name>
      <styleUrl>#db</styleUrl>
      <description><![CDATA[
        <table>
          <tr><td>DB KRATHON (WP202024)</td></tr>
          <tr><td><hr></td></tr>
          <tr><td>1800 UTC OCT 3, 2024</td></tr>
          <tr><td>Storm Location:</td></tr>
          <tr><td><b>22.6 N, 121.0 E</b></td></tr>
          <tr><td>Min Sea Level Pressure:</td></tr>
          <tr><td>1002 mb / 29.59 in Hg</td></tr>
          <tr><td>Maximum Intensity:</td></tr>
          <tr><td>20 kt / 23 mph / 37 kph</td></tr>
        </table>
      ]]></description>
      <Point><coordinates>121,22.6</coordinates></Point>
    </Placemark>
  </Document>
</kml>
