<?xml version="1.0" encoding="UTF-8"?>
<kml xmlns="http://www.opengis.net/kml/2.2">
  <Document>
    <name>WP212024</name>
    <open>0</open>

    <!-- =====  Document header ===== -->
    <description><![CDATA[
      <table>
        <tr><td><b>Title:</b> Tropical Cyclone Best Track for WP212024</td></tr>
      </table>
    ]]></description>

    <!-- =====  Styles (ids must be unique)  ===== -->
	<Style id="pt"> 
		<IconStyle> 
			<scale>1.0</scale> 
			<Icon> 
				<href>ex_nhemi.png</href> 
			</Icon> 
             <hotSpot x="15" y="17" xunits="pixels" yunits="pixels"/>
		</IconStyle> 
		<LabelStyle> 
			<scale>1.0</scale> 
		</LabelStyle> 
	</Style>
	<Style id="cat5"> 
		<IconStyle> 
			<scale>1.0</scale> 
			<Icon> 
				<href>cat5_nhemi.png</href> 
			</Icon> 
             <hotSpot x="15" y="17" xunits="pixels" yunits="pixels"/>
		</IconStyle> 
		<LabelStyle> 
			<scale>1.0</scale> 
		</LabelStyle> 
	</Style>
	<Style id="db"> 
		<IconStyle> 
			<scale>1.0</scale> 
			<Icon> 
				<href>ex_nhemi.png</href> 
			</Icon> 
             <hotSpot x="15" y="17" xunits="pixels" yunits="pixels"/>
		</IconStyle> 
		<LabelStyle> 
			<scale>1.0</scale> 
		</LabelStyle> 
	</Style>
	<Style id="cat3"> 
		<IconStyle> 
			<scale>1.0</scale> 
			<Icon> 
				<href>cat3_nhemi.png</href> 
			</Icon> 
             <hotSpot x="15" y="17" xunits="pixels" yunits="pixels"/>
		</IconStyle> 
		<LabelStyle> 
			<scale>1.0</scale> 
		</LabelStyle> 
	</Style>
	<Style id="ss"> 
		<IconStyle> 
			<scale>1.0</scale> 
			<Icon> 
				<href>ts_nhemi.png</href> 
			</Icon> 
             <hotSpot x="15" y="17" xunits="pixels" yunits="pixels"/>
		</IconStyle> 
		<LabelStyle> 
			<scale>1.0</scale> 
		</LabelStyle> 
	</Style>
	<Style id="lo"> 
		<IconStyle> 
			<scale>1.0</scale> 
			<Icon> 
				<href>ex_nhemi.png</href> 
			</Icon> 
             <hotSpot x="15" y="17" xunits="pixels" yunits="pixels"/>
		</IconStyle> 
		<LabelStyle> 
			<scale>1.0</scale> 
		</LabelStyle> 
	</Style>
	<Style id="cat4"> 
		<IconStyle> 
			<scale>1.0</scale> 
			<Icon> 
				<href>cat4_nhemi.png</href> 
			</Icon> 
             <hotSpot x="15" y="17" xunits="pixels" yunits="pixels"/>
		</IconStyle> 
		<LabelStyle> 
			<scale>1.0</scale> 
		</LabelStyle> 
	</Style>
	<Style id="cat2"> 
		<IconStyle> 
			<scale>1.0</scale> 
			<Icon> 
				<href>cat2_nhemi.png</href> 
			</Icon> 
             <hotSpot x="15" y="17" xunits="pixels" yunits="pixels"/>
		</IconStyle> 
		<LabelStyle> 
			<scale>1.0</scale> 
		</LabelStyle> 
	</Style>
	<Style id="ts"> 
		<IconStyle> 
			<scale>1.0</scale> 
			<Icon> 
				<href>ts_nhemi.png</href> 
			</Icon> 
             <hotSpot x="15" y="17" xunits="pixels" yunits="pixels"/>
		</IconStyle> 
		<LabelStyle> 
			<scale>1.0</scale> 
		</LabelStyle> 
	</Style>
	<Style id="cat1"> 
		<IconStyle> 
			<scale>1.0</scale> 
			<Icon> 
				<href>cat1_nhemi.png</href> 
			</Icon> 
             <hotSpot x="15" y="17" xunits="pixels" yunits="pixels"/>
		</IconStyle> 
		<LabelStyle> 
			<scale>1.0</scale> 
		</LabelStyle> 
	</Style>
	<Style id="ex"> 
		<IconStyle> 
			<scale>1.0</scale> 
			<Icon> 
				<href>ex_nhemi.png</href> 
			</Icon> 
             <hotSpot x="15" y="17" xunits="pixels" yunits="pixels"/>
		</IconStyle> 
		<LabelStyle> 
			<scale>1.0</scale> 
		</LabelStyle> 
	</Style>
	<Style id="tc"> 
		<IconStyle> 
			<scale>1.0</scale> 
			<Icon> 
				<href>ex_nhemi.png</href> 
			</Icon> 
             <hotSpot x="15" y="17" xunits="pixels" yunits="pixels"/>
		</IconStyle> 
		<LabelStyle> 
			<scale>1.0</scale> 
		</LabelStyle> 
	</Style>
	<Style id="wv"> 
		<IconStyle> 
			<scale>1.0</scale> 
			<Icon> 
				<href>ex_nhemi.png</href> 
			</Icon> 
             <hotSpot x="15" y="17" xunits="pixels" yunits="pixels"/>
		</IconStyle> 
		<LabelStyle> 
			<scale>1.0</scale> 
		</LabelStyle> 
	</Style>
	<Style id="td"> 
		<IconStyle> 
			<scale>1.0</scale> 
			<Icon> 
				<href>td_nhemi.png</href> 
			</Icon> 
             <hotSpot x="15" y="17" xunits="pixels" yunits="pixels"/>
		</IconStyle> 
		<LabelStyle> 
			<scale>1.0</scale> 
		</LabelStyle> 
	</Style>
	<Style id="sd"> 
		<IconStyle> 
			<scale>1.0</scale> 
			<Icon> 
				<href>ex_nhemi.png</href> 
			</Icon> 
             <hotSpot x="15" y="17" xunits="pixels" yunits="pixels"/>
		</IconStyle> 
		<LabelStyle> 
			<scale>1.0</scale> 
		</LabelStyle> 
	</Style>

    <Placemark>
      <name>0600 UTC OCT 4</name>
      <styleUrl>#db</styleUrl>
      <description><![CDATA[
        <table>
          <tr><td>DB BARIJAT (WP212024)</td></tr>
          <tr><td><hr></td></tr>
          <tr><td>0600 UTC OCT 4, 2024</td></tr>
          <tr><td>Storm Location:</td></tr>
          <tr><td><b>10.7 N, 149.5 E</b></td></tr>
          <tr><td>Min Sea Level Pressure:</td></tr>
          <tr><td>1008 mb / 29.77 in Hg</td></tr>
          <tr><td>Maximum Intensity:</td></tr>
          <tr><td>15 kt / 17 mph / 28 kph</td></tr>
        </table>
      ]]></description>
      <Point><coordinates>149.5,10.7</coordinates></Point>
    </Placemark>
    <Placemark>
      <name>1200 UTC OCT 4</name>
      <styleUrl>#db</styleUrl>
      <description><![CDATA[
        <table>
          <tr><td>DB BARIJAT (WP212024)</td></tr>
          <tr><td><hr></td></tr>
          <tr><td>1200 UTC OCT 4, 2024</td></tr>
          <tr><td>Storm Location:</td></tr>
          <tr><td><b>11.2 N, 148.8 E</b></td></tr>
          <tr><td>Min Sea Level Pressure:</td></tr>
          <tr><td>1007 mb / 29.74 in Hg</td></tr>
          <tr><td>Maximum Intensity:</td></tr>
          <tr><td>20 kt / 23 mph / 37 kph</td></tr>
        </table>
      ]]></description>
      <Point><coordinates>148.8,11.2</coordinates></Point>
    </Placemark>
    <Placemark>
      <name>1800 UTC OCT 4</name>
      <styleUrl>#db</styleUrl>
      <description><![CDATA[
        <table>
          <tr><td>DB BARIJAT (WP212024)</td></tr>
          <tr><td><hr></td></tr>
          <tr><td>1800 UTC OCT 4, 2024</td></tr>
          <tr><td>Storm Location:</td></tr>
          <tr><td><b>11.9 N, 148.0 E</b></td></tr>
          <tr><td>Min Sea Level Pressure:</td></tr>
          <tr><td>1007 mb / 29.74 in Hg</td></tr>
          <tr><td>Maximum Intensity:</td></tr>
          <tr><td>20 kt / 23 mph / 37 kph</td></tr>
        </table>
      ]]></description>
      <Point><coordinates>148,11.9</coordinates></Point>
    </Placemark>
    <Placemark>
      <name>0000 UTC OCT 5</name>
      <styleUrl>#td</styleUrl>
      <description><![CDATA[
        <table>
          <tr><td>TD BARIJAT (WP212024)</td></tr>
          <tr><td><hr></td></tr>
          <tr><td>0000 UTC OCT 5, 2024</td></tr>
          <tr><td>Storm Location:</td></tr>
          <tr><td><b>12.8 N, 147.3 E</b></td></tr>
          <tr><td>Min Sea Level Pressure:</td></tr>
          <tr><td>1006 mb / 29.71 in Hg</td></tr>
          <tr><td>Maximum Intensity:</td></tr>
          <tr><td>25 kt / 29 mph / 46 kph</td></tr>
        </table>
      ]]></description>
      <Point><coordinates>147.3,12.8</coordinates></Point>
    </Placemark>
    <Placemark>
      <name>0600 UTC OCT 5</name>
      <styleUrl>#td</styleUrl>
      <description><![CDATA[
        <table>
          <tr><td>TD BARIJAT (WP212024)</td></tr>
          <tr><td><hr></td></tr>
          <tr><td>0600 UTC OCT 5, 2024</td></tr>
          <tr><td>Storm Location:</td></tr>
          <tr><td><b>13.4 N, 147.1 E</b></td></tr>
          <tr><td>Min Sea Level Pressure:</td></tr>
          <tr><td>1005 mb / 29.68 in Hg</td></tr>
          <tr><td>Maximum Intensity:</td></tr>
          <tr><td>25 kt / 29 mph / 46 kph</td></tr>
        </table>
      ]]></description>
      <Point><coordinates>147.1,13.4</coordinates></Point>
    </Placemark>
    <Placemark>
      <name>1200 UTC OCT 5</name>
      <styleUrl>#td</styleUrl>
      <description><![CDATA[
        <table>
          <tr><td>TD BARIJAT (WP212024)</td></tr>
          <tr><td><hr></td></tr>
          <tr><td>1200 UTC OCT 5, 2024</td></tr>
          <tr><td>Storm Location:</td></tr>
          <tr><td><b>14.0 N, 147.0 E</b></td></tr>
          <tr><td>Min Sea Level Pressure:</td></tr>
          <tr><td>1004 mb / 29.65 in Hg</td></tr>
          <tr><td>Maximum Intensity:</td></tr>
          <tr><td>25 kt / 29 mph / 46 kph</td></tr>
        </table>
      ]]></description>
      <Point><coordinates>147,14</coordinates></Point>
    </Placemark>
    <Placemark>
      <name>1800 UTC OCT 5</name>
      <styleUrl>#td</styleUrl>
      <description><![CDATA[
        <table>
          <tr><td>TD BARIJAT (WP212024)</td></tr>
          <tr><td><hr></td></tr>
          <tr><td>1800 UTC OCT 5, 2024</td></tr>
          <tr><td>Storm Location:</td></tr>
          <tr><td><b>15.4 N, 146.2 E</b></td></tr>
          <tr><td>Min Sea Level Pressure:</td></tr>
          <tr><td>1008 mb / 29.77 in Hg</td></tr>
          <tr><td>Maximum Intensity:</td></tr>
          <tr><td>25 kt / 29 mph / 46 kph</td></tr>
        </table>
      ]]></description>
      <Point><coordinates>146.2,15.4</coordinates></Point>
    </Placemark>
    <Placemark>
      <name>0000 UTC OCT 6</name>
      <styleUrl>#td</styleUrl>
      <description><![CDATA[
        <table>
          <tr><td>TD BARIJAT (WP212024)</td></tr>
          <tr><td><hr></td></tr>
          <tr><td>0000 UTC OCT 6, 2024</td></tr>
          <tr><td>Storm Location:</td></tr>
          <tr><td><b>16.8 N, 145.6 E</b></td></tr>
          <tr><td>Min Sea Level Pressure:</td></tr>
          <tr><td>1004 mb / 29.65 in Hg</td></tr>
          <tr><td>Maximum Intensity:</td></tr>
          <tr><td>25 kt / 29 mph / 46 kph</td></tr>
        </table>
      ]]></description>
      <Point><coordinates>145.6,16.8</coordinates></Point>
    </Placemark>
    <Placemark>
      <name>0600 UTC OCT 6</name>
      <styleUrl>#td</styleUrl>
      <description><![CDATA[
        <table>
          <tr><td>TD BARIJAT (WP212024)</td></tr>
          <tr><td><hr></td></tr>
          <tr><td>0600 UTC OCT 6, 2024</td></tr>
          <tr><td>Storm Location:</td></tr>
          <tr><td><b>17.8 N, 145.5 E</b></td></tr>
          <tr><td>Min Sea Level Pressure:</td></tr>
          <tr><td>1001 mb / 29.56 in Hg</td></tr>
          <tr><td>Maximum Intensity:</td></tr>
          <tr><td>25 kt / 29 mph / 46 kph</td></tr>
        </table>
      ]]></description>
      <Point><coordinates>145.5,17.8</coordinates></Point>
    </Placemark>
    <Placemark>
      <name>1200 UTC OCT 6</name>
      <styleUrl>#td</styleUrl>
      <description><![CDATA[
        <table>
          <tr><td>TD BARIJAT (WP212024)</td></tr>
          <tr><td><hr></td></tr>
          <tr><td>1200 UTC OCT 6, 2024</td></tr>
          <tr><td>Storm Location:</td></tr>
          <tr><td><b>18.7 N, 145.6 E</b></td></tr>
          <tr><td>Min Sea Level Pressure:</td></tr>
          <tr><td>998 mb / 29.47 in Hg</td></tr>
          <tr><td>Maximum Intensity:</td></tr>
          <tr><td>30 kt / 35 mph / 56 kph</td></tr>
        </table>
      ]]></description>
      <Point><coordinates>145.6,18.7</coordinates></Point>
    </Placemark>
    <Placemark>
      <name>1800 UTC OCT 6</name>
      <styleUrl>#ts</styleUrl>
      <description><![CDATA[
        <table>
          <tr><td>TS BARIJAT (WP212024)</td></tr>
          <tr><td><hr></td></tr>
          <tr><td>1800 UTC OCT 6, 2024</td></tr>
          <tr><td>Storm Location:</td></tr>
          <tr><td><b>20.2 N, 145.8 E</b></td></tr>
          <tr><td>Min Sea Level Pressure:</td></tr>
          <tr><td>994 mb / 29.35 in Hg</td></tr>
          <tr><td>Maximum Intensity:</td></tr>
          <tr><td>35 kt / 40 mph / 65 kph</td></tr>
        </table>
      ]]></description>
      <Point><coordinates>145.8,20.2</coordinates></Point>
    </Placemark>
    <Placemark>
      <name>0000 UTC OCT 7</name>
      <styleUrl>#ts</styleUrl>
      <description><![CDATA[
        <table>
          <tr><td>TS BARIJAT (WP212024)</td></tr>
          <tr><td><hr></td></tr>
          <tr><td>0000 UTC OCT 7, 2024</td></tr>
          <tr><td>Storm Location:</td></tr>
          <tr><td><b>20.9 N, 146.0 E</b></td></tr>
          <tr><td>Min Sea Level Pressure:</td></tr>
          <tr><td>990 mb / 29.23 in Hg</td></tr>
          <tr><td>Maximum Intensity:</td></tr>
          <tr><td>40 kt / 46 mph / 74 kph</td></tr>
        </table>
      ]]></description>
      <Point><coordinates>146,20.9</coordinates></Point>
    </Placemark>
    <Placemark>
      <name>0600 UTC OCT 7</name>
      <styleUrl>#ts</styleUrl>
      <description><![CDATA[
        <table>
          <tr><td>TS BARIJAT (WP212024)</td></tr>
          <tr><td><hr></td></tr>
          <tr><td>0600 UTC OCT 7, 2024</td></tr>
          <tr><td>Storm Location:</td></tr>
          <tr><td><b>22.0 N, 146.7 E</b></td></tr>
          <tr><td>Min Sea Level Pressure:</td></tr>
          <tr><td>988 mb / 29.18 in Hg</td></tr>
          <tr><td>Maximum Intensity:</td></tr>
          <tr><td>45 kt / 52 mph / 83 kph</td></tr>
        </table>
      ]]></description>
      <Point><coordinates>146.7,22</coordinates></Point>
    </Placemark>
    <Placemark>
      <name>1200 UTC OCT 7</name>
      <styleUrl>#ts</styleUrl>
      <description><![CDATA[
        <table>
          <tr><td>TS BARIJAT (WP212024)</td></tr>
          <tr><td><hr></td></tr>
          <tr><td>1200 UTC OCT 7, 2024</td></tr>
          <tr><td>Storm Location:</td></tr>
          <tr><td><b>23.2 N, 147.3 E</b></td></tr>
          <tr><td>Min Sea Level Pressure:</td></tr>
          <tr><td>990 mb / 29.23 in Hg</td></tr>
          <tr><td>Maximum Intensity:</td></tr>
          <tr><td>40 kt / 46 mph / 74 kph</td></tr>
        </table>
      ]]></description>
      <Point><coordinates>147.3,23.2</coordinates></Point>
    </Placemark>
    <Placemark>
      <name>1800 UTC OCT 7</name>
      <styleUrl>#ts</styleUrl>
      <description><![CDATA[
        <table>
          <tr><td>TS BARIJAT (WP212024)</td></tr>
          <tr><td><hr></td></tr>
          <tr><td>1800 UTC OCT 7, 2024</td></tr>
          <tr><td>Storm Location:</td></tr>
          <tr><td><b>23.9 N, 147.3 E</b></td></tr>
          <tr><td>Min Sea Level Pressure:</td></tr>
          <tr><td>990 mb / 29.23 in Hg</td></tr>
          <tr><td>Maximum Intensity:</td></tr>
          <tr><td>40 kt / 46 mph / 74 kph</td></tr>
        </table>
      ]]></description>
      <Point><coordinates>147.3,23.9</coordinates></Point>
    </Placemark>
    <Placemark>
      <name>0000 UTC OCT 8</name>
      <styleUrl>#td</styleUrl>
      <description><![CDATA[
        <table>
          <tr><td>TD BARIJAT (WP212024)</td></tr>
          <tr><td><hr></td></tr>
          <tr><td>0000 UTC OCT 8, 2024</td></tr>
          <tr><td>Storm Location:</td></tr>
          <tr><td><b>24.0 N, 147.0 E</b></td></tr>
          <tr><td>Min Sea Level Pressure:</td></tr>
          <tr><td>993 mb / 29.32 in Hg</td></tr>
          <tr><td>Maximum Intensity:</td></tr>
          <tr><td>30 kt / 35 mph / 56 kph</td></tr>
        </table>
      ]]></description>
      <Point><coordinates>147,24</coordinates></Point>
    </Placemark>
    <Placemark>
      <name>0600 UTC OCT 8</name>
      <styleUrl>#td</styleUrl>
      <description><![CDATA[
        <table>
          <tr><td>TD BARIJAT (WP212024)</td></tr>
          <tr><td><hr></td></tr>
          <tr><td>0600 UTC OCT 8, 2024</td></tr>
          <tr><td>Storm Location:</td></tr>
          <tr><td><b>23.9 N, 147.0 E</b></td></tr>
          <tr><td>Min Sea Level Pressure:</td></tr>
          <tr><td>995 mb / 29.38 in Hg</td></tr>
          <tr><td>Maximum Intensity:</td></tr>
          <tr><td>25 kt / 29 mph / 46 kph</td></tr>
        </table>
      ]]></description>
      <Point><coordinates>147,23.9</coordinates></Point>
    </Placemark>
    <Placemark>
      <name>1200 UTC OCT 8</name>
      <styleUrl>#td</styleUrl>
      <description><![CDATA[
        <table>
          <tr><td>TD BARIJAT (WP212024)</td></tr>
          <tr><td><hr></td></tr>
          <tr><td>1200 UTC OCT 8, 2024</td></tr>
          <tr><td>Storm Location:</td></tr>
          <tr><td><b>24.0 N, 147.4 E</b></td></tr>
          <tr><td>Min Sea Level Pressure:</td></tr>
          <tr><td>995 mb / 29.38 in Hg</td></tr>
          <tr><td>Maximum Intensity:</td></tr>
          <tr><td>25 kt / 29 mph / 46 kph</td></tr>
        </table>
      ]]></description>
      <Point><coordinates>147.4,24</coordinates></Point>
    </Placemark>
    <Placemark>
      <name>1800 UTC OCT 8</name>
      <styleUrl>#td</styleUrl>
      <description><![CDATA[
        <table>
          <tr><td>TD BARIJAT (WP212024)</td></tr>
          <tr><td><hr></td></tr>
          <tr><td>1800 UTC OCT 8, 2024</td></tr>
          <tr><td>Storm Location:</td></tr>
          <tr><td><b>24.6 N, 148.3 E</b></td></tr>
          <tr><td>Min Sea Level Pressure:</td></tr>
          <tr><td>995 mb / 29.38 in Hg</td></tr>
          <tr><td>Maximum Intensity:</td></tr>
          <tr><td>25 kt / 29 mph / 46 kph</td></tr>
        </table>
      ]]></description>
      <Point><coordinates>148.3,24.6</coordinates></Point>
    </Placemark>
    <Placemark>
      <name>0000 UTC OCT 9</name>
      <styleUrl>#td</styleUrl>
      <description><![CDATA[
        <table>
          <tr><td>TD BARIJAT (WP212024)</td></tr>
          <tr><td><hr></td></tr>
          <tr><td>0000 UTC OCT 9, 2024</td></tr>
          <tr><td>Storm Location:</td></tr>
          <tr><td><b>25.9 N, 149.0 E</b></td></tr>
          <tr><td>Min Sea Level Pressure:</td></tr>
          <tr><td>995 mb / 29.38 in Hg</td></tr>
          <tr><td>Maximum Intensity:</td></tr>
          <tr><td>25 kt / 29 mph / 46 kph</td></tr>
        </table>
      ]]></description>
      <Point><coordinates>149,25.9</coordinates></Point>
    </Placemark>
    <Placemark>
      <name>0600 UTC OCT 9</name>
      <styleUrl>#td</styleUrl>
      <description><![CDATA[
        <table>
          <tr><td>TD BARIJAT (WP212024)</td></tr>
          <tr><td><hr></td></tr>
          <tr><td>0600 UTC OCT 9, 2024</td></tr>
          <tr><td>Storm Location:</td></tr>
          <tr><td><b>27.8 N, 149.5 E</b></td></tr>
          <tr><td>Min Sea Level Pressure:</td></tr>
          <tr><td>993 mb / 29.32 in Hg</td></tr>
          <tr><td>Maximum Intensity:</td></tr>
          <tr><td>30 kt / 35 mph / 56 kph</td></tr>
        </table>
      ]]></description>
      <Point><coordinates>149.5,27.8</coordinates></Point>
    </Placemark>
    <Placemark>
      <name>1200 UTC OCT 9</name>
      <styleUrl>#td</styleUrl>
      <description><![CDATA[
        <table>
          <tr><td>TD BARIJAT (WP212024)</td></tr>
          <tr><td><hr></td></tr>
          <tr><td>1200 UTC OCT 9, 2024</td></tr>
          <tr><td>Storm Location:</td></tr>
          <tr><td><b>29.8 N, 149.1 E</b></td></tr>
          <tr><td>Min Sea Level Pressure:</td></tr>
          <tr><td>993 mb / 29.32 in Hg</td></tr>
          <tr><td>Maximum Intensity:</td></tr>
          <tr><td>30 kt / 35 mph / 56 kph</td></tr>
        </table>
      ]]></description>
      <Point><coordinates>149.1,29.8</coordinates></Point>
    </Placemark>
    <Placemark>
      <name>1800 UTC OCT 9</name>
      <styleUrl>#ts</styleUrl>
      <description><![CDATA[
        <table>
          <tr><td>TS BARIJAT (WP212024)</td></tr>
          <tr><td><hr></td></tr>
          <tr><td>1800 UTC OCT 9, 2024</td></tr>
          <tr><td>Storm Location:</td></tr>
          <tr><td><b>31.6 N, 149.3 E</b></td></tr>
          <tr><td>Min Sea Level Pressure:</td></tr>
          <tr><td>991 mb / 29.26 in Hg</td></tr>
          <tr><td>Maximum Intensity:</td></tr>
          <tr><td>35 kt / 40 mph / 65 kph</td></tr>
        </table>
      ]]></description>
      <Point><coordinates>149.3,31.6</coordinates></Point>
    </Placemark>
    <Placemark>
      <name>0000 UTC OCT 10</name>
      <styleUrl>#ts</styleUrl>
      <description><![CDATA[
        <table>
          <tr><td>TS BARIJAT (WP212024)</td></tr>
          <tr><td><hr></td></tr>
          <tr><td>0000 UTC OCT 10, 2024</td></tr>
          <tr><td>Storm Location:</td></tr>
          <tr><td><b>32.6 N, 150.5 E</b></td></tr>
          <tr><td>Min Sea Level Pressure:</td></tr>
          <tr><td>991 mb / 29.26 in Hg</td></tr>
          <tr><td>Maximum Intensity:</td></tr>
          <tr><td>35 kt / 40 mph / 65 kph</td></tr>
        </table>
      ]]></description>
      <Point><coordinates>150.5,32.6</coordinates></Point>
    </Placemark>
    <Placemark>
      <name>0600 UTC OCT 10</name>
      <styleUrl>#ex</styleUrl>
      <description><![CDATA[
        <table>
          <tr><td>EX BARIJAT (WP212024)</td></tr>
          <tr><td><hr></td></tr>
          <tr><td>0600 UTC OCT 10, 2024</td></tr>
          <tr><td>Storm Location:</td></tr>
          <tr><td><b>34.8 N, 150.9 E</b></td></tr>
          <tr><td>Min Sea Level Pressure:</td></tr>
          <tr><td>990 mb / 29.23 in Hg</td></tr>
          <tr><td>Maximum Intensity:</td></tr>
          <tr><td>40 kt / 46 mph / 74 kph</td></tr>
        </table>
      ]]></description>
      <Point><coordinates>150.9,34.8</coordinates></Point>
    </Placemark>
    <Placemark>
      <name>1200 UTC OCT 10</name>
      <styleUrl>#ex</styleUrl>
      <description><![CDATA[
        <table>
          <tr><td>EX BARIJAT (WP212024)</td></tr>
          <tr><td><hr></td></tr>
          <tr><td>1200 UTC OCT 10, 2024</td></tr>
          <tr><td>Storm Location:</td></tr>
          <tr><td><b>36.6 N, 152.7 E</b></td></tr>
          <tr><td>Min Sea Level Pressure:</td></tr>
          <tr><td>989 mb / 29.21 in Hg</td></tr>
          <tr><td>Maximum Intensity:</td></tr>
          <tr><td>40 kt / 46 mph / 74 kph</td></tr>
        </table>
      ]]></description>
      <Point><coordinates>152.7,36.6</coordinates></Point>
    </Placemark>
  </Document>
</kml>
