<?xml version="1.0" encoding="UTF-8"?>
<kml xmlns="http://www.opengis.net/kml/2.2">
  <Document>
    <name>WP222024</name>
    <open>0</open>

    <!-- =====  Document header ===== -->
    <description><![CDATA[
      <table>
        <tr><td><b>Title:</b> Tropical Cyclone Best Track for WP222024</td></tr>
      </table>
    ]]></description>

    <!-- =====  Styles (ids must be unique)  ===== -->
	<Style id="pt"> 
		<IconStyle> 
			<scale>1.0</scale> 
			<Icon> 
				<href>ex_nhemi.png</href> 
			</Icon> 
             <hotSpot x="15" y="17" xunits="pixels" yunits="pixels"/>
		</IconStyle> 
		<LabelStyle> 
			<scale>1.0</scale> 
		</LabelStyle> 
	</Style>
	<Style id="cat5"> 
		<IconStyle> 
			<scale>1.0</scale> 
			<Icon> 
				<href>cat5_nhemi.png</href> 
			</Icon> 
             <hotSpot x="15" y="17" xunits="pixels" yunits="pixels"/>
		</IconStyle> 
		<LabelStyle> 
			<scale>1.0</scale> 
		</LabelStyle> 
	</Style>
	<Style id="db"> 
		<IconStyle> 
			<scale>1.0</scale> 
			<Icon> 
				<href>ex_nhemi.png</href> 
			</Icon> 
             <hotSpot x="15" y="17" xunits="pixels" yunits="pixels"/>
		</IconStyle> 
		<LabelStyle> 
			<scale>1.0</scale> 
		</LabelStyle> 
	</Style>
	<Style id="cat3"> 
		<IconStyle> 
			<scale>1.0</scale> 
			<Icon> 
				<href>cat3_nhemi.png</href> 
			</Icon> 
             <hotSpot x="15" y="17" xunits="pixels" yunits="pixels"/>
		</IconStyle> 
		<LabelStyle> 
			<scale>1.0</scale> 
		</LabelStyle> 
	</Style>
	<Style id="ss"> 
		<IconStyle> 
			<scale>1.0</scale> 
			<Icon> 
				<href>ts_nhemi.png</href> 
			</Icon> 
             <hotSpot x="15" y="17" xunits="pixels" yunits="pixels"/>
		</IconStyle> 
		<LabelStyle> 
			<scale>1.0</scale> 
		</LabelStyle> 
	</Style>
	<Style id="lo"> 
		<IconStyle> 
			<scale>1.0</scale> 
			<Icon> 
				<href>ex_nhemi.png</href> 
			</Icon> 
             <hotSpot x="15" y="17" xunits="pixels" yunits="pixels"/>
		</IconStyle> 
		<LabelStyle> 
			<scale>1.0</scale> 
		</LabelStyle> 
	</Style>
	<Style id="cat4"> 
		<IconStyle> 
			<scale>1.0</scale> 
			<Icon> 
				<href>cat4_nhemi.png</href> 
			</Icon> 
             <hotSpot x="15" y="17" xunits="pixels" yunits="pixels"/>
		</IconStyle> 
		<LabelStyle> 
			<scale>1.0</scale> 
		</LabelStyle> 
	</Style>
	<Style id="cat2"> 
		<IconStyle> 
			<scale>1.0</scale> 
			<Icon> 
				<href>cat2_nhemi.png</href> 
			</Icon> 
             <hotSpot x="15" y="17" xunits="pixels" yunits="pixels"/>
		</IconStyle> 
		<LabelStyle> 
			<scale>1.0</scale> 
		</LabelStyle> 
	</Style>
	<Style id="ts"> 
		<IconStyle> 
			<scale>1.0</scale> 
			<Icon> 
				<href>ts_nhemi.png</href> 
			</Icon> 
             <hotSpot x="15" y="17" xunits="pixels" yunits="pixels"/>
		</IconStyle> 
		<LabelStyle> 
			<scale>1.0</scale> 
		</LabelStyle> 
	</Style>
	<Style id="cat1"> 
		<IconStyle> 
			<scale>1.0</scale> 
			<Icon> 
				<href>cat1_nhemi.png</href> 
			</Icon> 
             <hotSpot x="15" y="17" xunits="pixels" yunits="pixels"/>
		</IconStyle> 
		<LabelStyle> 
			<scale>1.0</scale> 
		</LabelStyle> 
	</Style>
	<Style id="ex"> 
		<IconStyle> 
			<scale>1.0</scale> 
			<Icon> 
				<href>ex_nhemi.png</href> 
			</Icon> 
             <hotSpot x="15" y="17" xunits="pixels" yunits="pixels"/>
		</IconStyle> 
		<LabelStyle> 
			<scale>1.0</scale> 
		</LabelStyle> 
	</Style>
	<Style id="tc"> 
		<IconStyle> 
			<scale>1.0</scale> 
			<Icon> 
				<href>ex_nhemi.png</href> 
			</Icon> 
             <hotSpot x="15" y="17" xunits="pixels" yunits="pixels"/>
		</IconStyle> 
		<LabelStyle> 
			<scale>1.0</scale> 
		</LabelStyle> 
	</Style>
	<Style id="wv"> 
		<IconStyle> 
			<scale>1.0</scale> 
			<Icon> 
				<href>ex_nhemi.png</href> 
			</Icon> 
             <hotSpot x="15" y="17" xunits="pixels" yunits="pixels"/>
		</IconStyle> 
		<LabelStyle> 
			<scale>1.0</scale> 
		</LabelStyle> 
	</Style>
	<Style id="td"> 
		<IconStyle> 
			<scale>1.0</scale> 
			<Icon> 
				<href>td_nhemi.png</href> 
			</Icon> 
             <hotSpot x="15" y="17" xunits="pixels" yunits="pixels"/>
		</IconStyle> 
		<LabelStyle> 
			<scale>1.0</scale> 
		</LabelStyle> 
	</Style>
	<Style id="sd"> 
		<IconStyle> 
			<scale>1.0</scale> 
			<Icon> 
				<href>ex_nhemi.png</href> 
			</Icon> 
             <hotSpot x="15" y="17" xunits="pixels" yunits="pixels"/>
		</IconStyle> 
		<LabelStyle> 
			<scale>1.0</scale> 
		</LabelStyle> 
	</Style>

    <Placemark>
      <name>1800 UTC OCT 20</name>
      <styleUrl>#db</styleUrl>
      <description><![CDATA[
        <table>
          <tr><td>DB TRAMI (WP222024)</td></tr>
          <tr><td><hr></td></tr>
          <tr><td>1800 UTC OCT 20, 2024</td></tr>
          <tr><td>Storm Location:</td></tr>
          <tr><td><b>13.0 N, 130.4 E</b></td></tr>
          <tr><td>Min Sea Level Pressure:</td></tr>
          <tr><td>1005 mb / 29.68 in Hg</td></tr>
          <tr><td>Maximum Intensity:</td></tr>
          <tr><td>20 kt / 23 mph / 37 kph</td></tr>
        </table>
      ]]></description>
      <Point><coordinates>130.4,13</coordinates></Point>
    </Placemark>
    <Placemark>
      <name>0000 UTC OCT 21</name>
      <styleUrl>#td</styleUrl>
      <description><![CDATA[
        <table>
          <tr><td>TD TRAMI (WP222024)</td></tr>
          <tr><td><hr></td></tr>
          <tr><td>0000 UTC OCT 21, 2024</td></tr>
          <tr><td>Storm Location:</td></tr>
          <tr><td><b>13.1 N, 129.8 E</b></td></tr>
          <tr><td>Min Sea Level Pressure:</td></tr>
          <tr><td>1003 mb / 29.62 in Hg</td></tr>
          <tr><td>Maximum Intensity:</td></tr>
          <tr><td>25 kt / 29 mph / 46 kph</td></tr>
        </table>
      ]]></description>
      <Point><coordinates>129.8,13.1</coordinates></Point>
    </Placemark>
    <Placemark>
      <name>0600 UTC OCT 21</name>
      <styleUrl>#td</styleUrl>
      <description><![CDATA[
        <table>
          <tr><td>TD TRAMI (WP222024)</td></tr>
          <tr><td><hr></td></tr>
          <tr><td>0600 UTC OCT 21, 2024</td></tr>
          <tr><td>Storm Location:</td></tr>
          <tr><td><b>13.2 N, 129.5 E</b></td></tr>
          <tr><td>Min Sea Level Pressure:</td></tr>
          <tr><td>1003 mb / 29.62 in Hg</td></tr>
          <tr><td>Maximum Intensity:</td></tr>
          <tr><td>25 kt / 29 mph / 46 kph</td></tr>
        </table>
      ]]></description>
      <Point><coordinates>129.5,13.2</coordinates></Point>
    </Placemark>
    <Placemark>
      <name>1200 UTC OCT 21</name>
      <styleUrl>#td</styleUrl>
      <description><![CDATA[
        <table>
          <tr><td>TD TRAMI (WP222024)</td></tr>
          <tr><td><hr></td></tr>
          <tr><td>1200 UTC OCT 21, 2024</td></tr>
          <tr><td>Storm Location:</td></tr>
          <tr><td><b>13.2 N, 129.1 E</b></td></tr>
          <tr><td>Min Sea Level Pressure:</td></tr>
          <tr><td>1002 mb / 29.59 in Hg</td></tr>
          <tr><td>Maximum Intensity:</td></tr>
          <tr><td>25 kt / 29 mph / 46 kph</td></tr>
        </table>
      ]]></description>
      <Point><coordinates>129.1,13.2</coordinates></Point>
    </Placemark>
    <Placemark>
      <name>1800 UTC OCT 21</name>
      <styleUrl>#td</styleUrl>
      <description><![CDATA[
        <table>
          <tr><td>TD TRAMI (WP222024)</td></tr>
          <tr><td><hr></td></tr>
          <tr><td>1800 UTC OCT 21, 2024</td></tr>
          <tr><td>Storm Location:</td></tr>
          <tr><td><b>13.4 N, 128.3 E</b></td></tr>
          <tr><td>Min Sea Level Pressure:</td></tr>
          <tr><td>1000 mb / 29.53 in Hg</td></tr>
          <tr><td>Maximum Intensity:</td></tr>
          <tr><td>30 kt / 35 mph / 56 kph</td></tr>
        </table>
      ]]></description>
      <Point><coordinates>128.3,13.4</coordinates></Point>
    </Placemark>
    <Placemark>
      <name>0000 UTC OCT 22</name>
      <styleUrl>#ts</styleUrl>
      <description><![CDATA[
        <table>
          <tr><td>TS TRAMI (WP222024)</td></tr>
          <tr><td><hr></td></tr>
          <tr><td>0000 UTC OCT 22, 2024</td></tr>
          <tr><td>Storm Location:</td></tr>
          <tr><td><b>13.6 N, 127.4 E</b></td></tr>
          <tr><td>Min Sea Level Pressure:</td></tr>
          <tr><td>997 mb / 29.44 in Hg</td></tr>
          <tr><td>Maximum Intensity:</td></tr>
          <tr><td>35 kt / 40 mph / 65 kph</td></tr>
        </table>
      ]]></description>
      <Point><coordinates>127.4,13.6</coordinates></Point>
    </Placemark>
    <Placemark>
      <name>0600 UTC OCT 22</name>
      <styleUrl>#ts</styleUrl>
      <description><![CDATA[
        <table>
          <tr><td>TS TRAMI (WP222024)</td></tr>
          <tr><td><hr></td></tr>
          <tr><td>0600 UTC OCT 22, 2024</td></tr>
          <tr><td>Storm Location:</td></tr>
          <tr><td><b>14.1 N, 126.6 E</b></td></tr>
          <tr><td>Min Sea Level Pressure:</td></tr>
          <tr><td>991 mb / 29.26 in Hg</td></tr>
          <tr><td>Maximum Intensity:</td></tr>
          <tr><td>40 kt / 46 mph / 74 kph</td></tr>
        </table>
      ]]></description>
      <Point><coordinates>126.6,14.1</coordinates></Point>
    </Placemark>
    <Placemark>
      <name>1200 UTC OCT 22</name>
      <styleUrl>#ts</styleUrl>
      <description><![CDATA[
        <table>
          <tr><td>TS TRAMI (WP222024)</td></tr>
          <tr><td><hr></td></tr>
          <tr><td>1200 UTC OCT 22, 2024</td></tr>
          <tr><td>Storm Location:</td></tr>
          <tr><td><b>14.6 N, 125.9 E</b></td></tr>
          <tr><td>Min Sea Level Pressure:</td></tr>
          <tr><td>987 mb / 29.15 in Hg</td></tr>
          <tr><td>Maximum Intensity:</td></tr>
          <tr><td>50 kt / 58 mph / 93 kph</td></tr>
        </table>
      ]]></description>
      <Point><coordinates>125.9,14.6</coordinates></Point>
    </Placemark>
    <Placemark>
      <name>1800 UTC OCT 22</name>
      <styleUrl>#ts</styleUrl>
      <description><![CDATA[
        <table>
          <tr><td>TS TRAMI (WP222024)</td></tr>
          <tr><td><hr></td></tr>
          <tr><td>1800 UTC OCT 22, 2024</td></tr>
          <tr><td>Storm Location:</td></tr>
          <tr><td><b>15.1 N, 125.0 E</b></td></tr>
          <tr><td>Min Sea Level Pressure:</td></tr>
          <tr><td>986 mb / 29.12 in Hg</td></tr>
          <tr><td>Maximum Intensity:</td></tr>
          <tr><td>50 kt / 58 mph / 93 kph</td></tr>
        </table>
      ]]></description>
      <Point><coordinates>125,15.1</coordinates></Point>
    </Placemark>
    <Placemark>
      <name>0000 UTC OCT 23</name>
      <styleUrl>#ts</styleUrl>
      <description><![CDATA[
        <table>
          <tr><td>TS TRAMI (WP222024)</td></tr>
          <tr><td><hr></td></tr>
          <tr><td>0000 UTC OCT 23, 2024</td></tr>
          <tr><td>Storm Location:</td></tr>
          <tr><td><b>15.6 N, 124.1 E</b></td></tr>
          <tr><td>Min Sea Level Pressure:</td></tr>
          <tr><td>986 mb / 29.12 in Hg</td></tr>
          <tr><td>Maximum Intensity:</td></tr>
          <tr><td>50 kt / 58 mph / 93 kph</td></tr>
        </table>
      ]]></description>
      <Point><coordinates>124.1,15.6</coordinates></Point>
    </Placemark>
    <Placemark>
      <name>0600 UTC OCT 23</name>
      <styleUrl>#ts</styleUrl>
      <description><![CDATA[
        <table>
          <tr><td>TS TRAMI (WP222024)</td></tr>
          <tr><td><hr></td></tr>
          <tr><td>0600 UTC OCT 23, 2024</td></tr>
          <tr><td>Storm Location:</td></tr>
          <tr><td><b>16.3 N, 123.5 E</b></td></tr>
          <tr><td>Min Sea Level Pressure:</td></tr>
          <tr><td>991 mb / 29.26 in Hg</td></tr>
          <tr><td>Maximum Intensity:</td></tr>
          <tr><td>45 kt / 52 mph / 83 kph</td></tr>
        </table>
      ]]></description>
      <Point><coordinates>123.5,16.3</coordinates></Point>
    </Placemark>
    <Placemark>
      <name>1200 UTC OCT 23</name>
      <styleUrl>#ts</styleUrl>
      <description><![CDATA[
        <table>
          <tr><td>TS TRAMI (WP222024)</td></tr>
          <tr><td><hr></td></tr>
          <tr><td>1200 UTC OCT 23, 2024</td></tr>
          <tr><td>Storm Location:</td></tr>
          <tr><td><b>16.9 N, 122.9 E</b></td></tr>
          <tr><td>Min Sea Level Pressure:</td></tr>
          <tr><td>993 mb / 29.32 in Hg</td></tr>
          <tr><td>Maximum Intensity:</td></tr>
          <tr><td>40 kt / 46 mph / 74 kph</td></tr>
        </table>
      ]]></description>
      <Point><coordinates>122.9,16.9</coordinates></Point>
    </Placemark>
    <Placemark>
      <name>1800 UTC OCT 23</name>
      <styleUrl>#ts</styleUrl>
      <description><![CDATA[
        <table>
          <tr><td>TS TRAMI (WP222024)</td></tr>
          <tr><td><hr></td></tr>
          <tr><td>1800 UTC OCT 23, 2024</td></tr>
          <tr><td>Storm Location:</td></tr>
          <tr><td><b>17.1 N, 122.1 E</b></td></tr>
          <tr><td>Min Sea Level Pressure:</td></tr>
          <tr><td>989 mb / 29.21 in Hg</td></tr>
          <tr><td>Maximum Intensity:</td></tr>
          <tr><td>45 kt / 52 mph / 83 kph</td></tr>
        </table>
      ]]></description>
      <Point><coordinates>122.1,17.1</coordinates></Point>
    </Placemark>
    <Placemark>
      <name>0000 UTC OCT 24</name>
      <styleUrl>#ts</styleUrl>
      <description><![CDATA[
        <table>
          <tr><td>TS TRAMI (WP222024)</td></tr>
          <tr><td><hr></td></tr>
          <tr><td>0000 UTC OCT 24, 2024</td></tr>
          <tr><td>Storm Location:</td></tr>
          <tr><td><b>17.0 N, 121.1 E</b></td></tr>
          <tr><td>Min Sea Level Pressure:</td></tr>
          <tr><td>990 mb / 29.23 in Hg</td></tr>
          <tr><td>Maximum Intensity:</td></tr>
          <tr><td>40 kt / 46 mph / 74 kph</td></tr>
        </table>
      ]]></description>
      <Point><coordinates>121.1,17</coordinates></Point>
    </Placemark>
    <Placemark>
      <name>0600 UTC OCT 24</name>
      <styleUrl>#ts</styleUrl>
      <description><![CDATA[
        <table>
          <tr><td>TS TRAMI (WP222024)</td></tr>
          <tr><td><hr></td></tr>
          <tr><td>0600 UTC OCT 24, 2024</td></tr>
          <tr><td>Storm Location:</td></tr>
          <tr><td><b>16.8 N, 120.1 E</b></td></tr>
          <tr><td>Min Sea Level Pressure:</td></tr>
          <tr><td>990 mb / 29.23 in Hg</td></tr>
          <tr><td>Maximum Intensity:</td></tr>
          <tr><td>40 kt / 46 mph / 74 kph</td></tr>
        </table>
      ]]></description>
      <Point><coordinates>120.1,16.8</coordinates></Point>
    </Placemark>
    <Placemark>
      <name>1200 UTC OCT 24</name>
      <styleUrl>#ts</styleUrl>
      <description><![CDATA[
        <table>
          <tr><td>TS TRAMI (WP222024)</td></tr>
          <tr><td><hr></td></tr>
          <tr><td>1200 UTC OCT 24, 2024</td></tr>
          <tr><td>Storm Location:</td></tr>
          <tr><td><b>16.9 N, 119.6 E</b></td></tr>
          <tr><td>Min Sea Level Pressure:</td></tr>
          <tr><td>990 mb / 29.23 in Hg</td></tr>
          <tr><td>Maximum Intensity:</td></tr>
          <tr><td>40 kt / 46 mph / 74 kph</td></tr>
        </table>
      ]]></description>
      <Point><coordinates>119.6,16.9</coordinates></Point>
    </Placemark>
    <Placemark>
      <name>1800 UTC OCT 24</name>
      <styleUrl>#ts</styleUrl>
      <description><![CDATA[
        <table>
          <tr><td>TS TRAMI (WP222024)</td></tr>
          <tr><td><hr></td></tr>
          <tr><td>1800 UTC OCT 24, 2024</td></tr>
          <tr><td>Storm Location:</td></tr>
          <tr><td><b>17.0 N, 119.2 E</b></td></tr>
          <tr><td>Min Sea Level Pressure:</td></tr>
          <tr><td>989 mb / 29.21 in Hg</td></tr>
          <tr><td>Maximum Intensity:</td></tr>
          <tr><td>45 kt / 52 mph / 83 kph</td></tr>
        </table>
      ]]></description>
      <Point><coordinates>119.2,17</coordinates></Point>
    </Placemark>
    <Placemark>
      <name>0000 UTC OCT 25</name>
      <styleUrl>#ts</styleUrl>
      <description><![CDATA[
        <table>
          <tr><td>TS TRAMI (WP222024)</td></tr>
          <tr><td><hr></td></tr>
          <tr><td>0000 UTC OCT 25, 2024</td></tr>
          <tr><td>Storm Location:</td></tr>
          <tr><td><b>17.1 N, 118.8 E</b></td></tr>
          <tr><td>Min Sea Level Pressure:</td></tr>
          <tr><td>988 mb / 29.18 in Hg</td></tr>
          <tr><td>Maximum Intensity:</td></tr>
          <tr><td>50 kt / 58 mph / 93 kph</td></tr>
        </table>
      ]]></description>
      <Point><coordinates>118.8,17.1</coordinates></Point>
    </Placemark>
    <Placemark>
      <name>0600 UTC OCT 25</name>
      <styleUrl>#ts</styleUrl>
      <description><![CDATA[
        <table>
          <tr><td>TS TRAMI (WP222024)</td></tr>
          <tr><td><hr></td></tr>
          <tr><td>0600 UTC OCT 25, 2024</td></tr>
          <tr><td>Storm Location:</td></tr>
          <tr><td><b>17.5 N, 117.4 E</b></td></tr>
          <tr><td>Min Sea Level Pressure:</td></tr>
          <tr><td>987 mb / 29.15 in Hg</td></tr>
          <tr><td>Maximum Intensity:</td></tr>
          <tr><td>55 kt / 63 mph / 102 kph</td></tr>
        </table>
      ]]></description>
      <Point><coordinates>117.4,17.5</coordinates></Point>
    </Placemark>
    <Placemark>
      <name>1200 UTC OCT 25</name>
      <styleUrl>#ts</styleUrl>
      <description><![CDATA[
        <table>
          <tr><td>TS TRAMI (WP222024)</td></tr>
          <tr><td><hr></td></tr>
          <tr><td>1200 UTC OCT 25, 2024</td></tr>
          <tr><td>Storm Location:</td></tr>
          <tr><td><b>17.2 N, 116.5 E</b></td></tr>
          <tr><td>Min Sea Level Pressure:</td></tr>
          <tr><td>987 mb / 29.15 in Hg</td></tr>
          <tr><td>Maximum Intensity:</td></tr>
          <tr><td>55 kt / 63 mph / 102 kph</td></tr>
        </table>
      ]]></description>
      <Point><coordinates>116.5,17.2</coordinates></Point>
    </Placemark>
    <Placemark>
      <name>1800 UTC OCT 25</name>
      <styleUrl>#ts</styleUrl>
      <description><![CDATA[
        <table>
          <tr><td>TS TRAMI (WP222024)</td></tr>
          <tr><td><hr></td></tr>
          <tr><td>1800 UTC OCT 25, 2024</td></tr>
          <tr><td>Storm Location:</td></tr>
          <tr><td><b>17.1 N, 115.0 E</b></td></tr>
          <tr><td>Min Sea Level Pressure:</td></tr>
          <tr><td>985 mb / 29.09 in Hg</td></tr>
          <tr><td>Maximum Intensity:</td></tr>
          <tr><td>60 kt / 69 mph / 111 kph</td></tr>
        </table>
      ]]></description>
      <Point><coordinates>115,17.1</coordinates></Point>
    </Placemark>
    <Placemark>
      <name>0000 UTC OCT 26</name>
      <styleUrl>#cat1</styleUrl>
      <description><![CDATA[
        <table>
          <tr><td>HU TRAMI (WP222024)</td></tr>
          <tr><td><hr></td></tr>
          <tr><td>0000 UTC OCT 26, 2024</td></tr>
          <tr><td>Storm Location:</td></tr>
          <tr><td><b>17.0 N, 113.6 E</b></td></tr>
          <tr><td>Min Sea Level Pressure:</td></tr>
          <tr><td>984 mb / 29.06 in Hg</td></tr>
          <tr><td>Maximum Intensity:</td></tr>
          <tr><td>65 kt / 75 mph / 120 kph</td></tr>
        </table>
      ]]></description>
      <Point><coordinates>113.6,17</coordinates></Point>
    </Placemark>
    <Placemark>
      <name>0600 UTC OCT 26</name>
      <styleUrl>#ts</styleUrl>
      <description><![CDATA[
        <table>
          <tr><td>TS TRAMI (WP222024)</td></tr>
          <tr><td><hr></td></tr>
          <tr><td>0600 UTC OCT 26, 2024</td></tr>
          <tr><td>Storm Location:</td></tr>
          <tr><td><b>17.1 N, 112.1 E</b></td></tr>
          <tr><td>Min Sea Level Pressure:</td></tr>
          <tr><td>985 mb / 29.09 in Hg</td></tr>
          <tr><td>Maximum Intensity:</td></tr>
          <tr><td>60 kt / 69 mph / 111 kph</td></tr>
        </table>
      ]]></description>
      <Point><coordinates>112.1,17.1</coordinates></Point>
    </Placemark>
    <Placemark>
      <name>1200 UTC OCT 26</name>
      <styleUrl>#ts</styleUrl>
      <description><![CDATA[
        <table>
          <tr><td>TS TRAMI (WP222024)</td></tr>
          <tr><td><hr></td></tr>
          <tr><td>1200 UTC OCT 26, 2024</td></tr>
          <tr><td>Storm Location:</td></tr>
          <tr><td><b>17.0 N, 110.8 E</b></td></tr>
          <tr><td>Min Sea Level Pressure:</td></tr>
          <tr><td>988 mb / 29.18 in Hg</td></tr>
          <tr><td>Maximum Intensity:</td></tr>
          <tr><td>55 kt / 63 mph / 102 kph</td></tr>
        </table>
      ]]></description>
      <Point><coordinates>110.8,17</coordinates></Point>
    </Placemark>
    <Placemark>
      <name>1800 UTC OCT 26</name>
      <styleUrl>#ts</styleUrl>
      <description><![CDATA[
        <table>
          <tr><td>TS TRAMI (WP222024)</td></tr>
          <tr><td><hr></td></tr>
          <tr><td>1800 UTC OCT 26, 2024</td></tr>
          <tr><td>Storm Location:</td></tr>
          <tr><td><b>16.9 N, 109.6 E</b></td></tr>
          <tr><td>Min Sea Level Pressure:</td></tr>
          <tr><td>989 mb / 29.21 in Hg</td></tr>
          <tr><td>Maximum Intensity:</td></tr>
          <tr><td>50 kt / 58 mph / 93 kph</td></tr>
        </table>
      ]]></description>
      <Point><coordinates>109.6,16.9</coordinates></Point>
    </Placemark>
    <Placemark>
      <name>0000 UTC OCT 27</name>
      <styleUrl>#ts</styleUrl>
      <description><![CDATA[
        <table>
          <tr><td>TS TRAMI (WP222024)</td></tr>
          <tr><td><hr></td></tr>
          <tr><td>0000 UTC OCT 27, 2024</td></tr>
          <tr><td>Storm Location:</td></tr>
          <tr><td><b>16.5 N, 108.5 E</b></td></tr>
          <tr><td>Min Sea Level Pressure:</td></tr>
          <tr><td>987 mb / 29.15 in Hg</td></tr>
          <tr><td>Maximum Intensity:</td></tr>
          <tr><td>55 kt / 63 mph / 102 kph</td></tr>
        </table>
      ]]></description>
      <Point><coordinates>108.5,16.5</coordinates></Point>
    </Placemark>
    <Placemark>
      <name>0600 UTC OCT 27</name>
      <styleUrl>#ts</styleUrl>
      <description><![CDATA[
        <table>
          <tr><td>TS TRAMI (WP222024)</td></tr>
          <tr><td><hr></td></tr>
          <tr><td>0600 UTC OCT 27, 2024</td></tr>
          <tr><td>Storm Location:</td></tr>
          <tr><td><b>16.0 N, 108.0 E</b></td></tr>
          <tr><td>Min Sea Level Pressure:</td></tr>
          <tr><td>994 mb / 29.35 in Hg</td></tr>
          <tr><td>Maximum Intensity:</td></tr>
          <tr><td>45 kt / 52 mph / 83 kph</td></tr>
        </table>
      ]]></description>
      <Point><coordinates>108,16</coordinates></Point>
    </Placemark>
    <Placemark>
      <name>1200 UTC OCT 27</name>
      <styleUrl>#ts</styleUrl>
      <description><![CDATA[
        <table>
          <tr><td>TS TRAMI (WP222024)</td></tr>
          <tr><td><hr></td></tr>
          <tr><td>1200 UTC OCT 27, 2024</td></tr>
          <tr><td>Storm Location:</td></tr>
          <tr><td><b>15.4 N, 107.3 E</b></td></tr>
          <tr><td>Min Sea Level Pressure:</td></tr>
          <tr><td>995 mb / 29.38 in Hg</td></tr>
          <tr><td>Maximum Intensity:</td></tr>
          <tr><td>35 kt / 40 mph / 65 kph</td></tr>
        </table>
      ]]></description>
      <Point><coordinates>107.3,15.4</coordinates></Point>
    </Placemark>
    <Placemark>
      <name>1800 UTC OCT 27</name>
      <styleUrl>#td</styleUrl>
      <description><![CDATA[
        <table>
          <tr><td>TD TRAMI (WP222024)</td></tr>
          <tr><td><hr></td></tr>
          <tr><td>1800 UTC OCT 27, 2024</td></tr>
          <tr><td>Storm Location:</td></tr>
          <tr><td><b>15.4 N, 107.7 E</b></td></tr>
          <tr><td>Min Sea Level Pressure:</td></tr>
          <tr><td>997 mb / 29.44 in Hg</td></tr>
          <tr><td>Maximum Intensity:</td></tr>
          <tr><td>30 kt / 35 mph / 56 kph</td></tr>
        </table>
      ]]></description>
      <Point><coordinates>107.7,15.4</coordinates></Point>
    </Placemark>
    <Placemark>
      <name>0000 UTC OCT 28</name>
      <styleUrl>#td</styleUrl>
      <description><![CDATA[
        <table>
          <tr><td>TD TRAMI (WP222024)</td></tr>
          <tr><td><hr></td></tr>
          <tr><td>0000 UTC OCT 28, 2024</td></tr>
          <tr><td>Storm Location:</td></tr>
          <tr><td><b>15.6 N, 107.9 E</b></td></tr>
          <tr><td>Min Sea Level Pressure:</td></tr>
          <tr><td>1000 mb / 29.53 in Hg</td></tr>
          <tr><td>Maximum Intensity:</td></tr>
          <tr><td>25 kt / 29 mph / 46 kph</td></tr>
        </table>
      ]]></description>
      <Point><coordinates>107.9,15.6</coordinates></Point>
    </Placemark>
    <Placemark>
      <name>0600 UTC OCT 28</name>
      <styleUrl>#db</styleUrl>
      <description><![CDATA[
        <table>
          <tr><td>DB TRAMI (WP222024)</td></tr>
          <tr><td><hr></td></tr>
          <tr><td>0600 UTC OCT 28, 2024</td></tr>
          <tr><td>Storm Location:</td></tr>
          <tr><td><b>15.8 N, 108.0 E</b></td></tr>
          <tr><td>Min Sea Level Pressure:</td></tr>
          <tr><td>1003 mb / 29.62 in Hg</td></tr>
          <tr><td>Maximum Intensity:</td></tr>
          <tr><td>20 kt / 23 mph / 37 kph</td></tr>
        </table>
      ]]></description>
      <Point><coordinates>108,15.8</coordinates></Point>
    </Placemark>
  </Document>
</kml>
