<?xml version="1.0" encoding="UTF-8"?>
<kml xmlns="http://www.opengis.net/kml/2.2">
  <Document>
    <name>WP232024</name>
    <open>0</open>

    <!-- =====  Document header ===== -->
    <description><![CDATA[
      <table>
        <tr><td><b>Title:</b> Tropical Cyclone Best Track for WP232024</td></tr>
      </table>
    ]]></description>

    <!-- =====  Styles (ids must be unique)  ===== -->
	<Style id="pt"> 
		<IconStyle> 
			<scale>1.0</scale> 
			<Icon> 
				<href>ex_nhemi.png</href> 
			</Icon> 
             <hotSpot x="15" y="17" xunits="pixels" yunits="pixels"/>
		</IconStyle> 
		<LabelStyle> 
			<scale>1.0</scale> 
		</LabelStyle> 
	</Style>
	<Style id="cat5"> 
		<IconStyle> 
			<scale>1.0</scale> 
			<Icon> 
				<href>cat5_nhemi.png</href> 
			</Icon> 
             <hotSpot x="15" y="17" xunits="pixels" yunits="pixels"/>
		</IconStyle> 
		<LabelStyle> 
			<scale>1.0</scale> 
		</LabelStyle> 
	</Style>
	<Style id="db"> 
		<IconStyle> 
			<scale>1.0</scale> 
			<Icon> 
				<href>ex_nhemi.png</href> 
			</Icon> 
             <hotSpot x="15" y="17" xunits="pixels" yunits="pixels"/>
		</IconStyle> 
		<LabelStyle> 
			<scale>1.0</scale> 
		</LabelStyle> 
	</Style>
	<Style id="cat3"> 
		<IconStyle> 
			<scale>1.0</scale> 
			<Icon> 
				<href>cat3_nhemi.png</href> 
			</Icon> 
             <hotSpot x="15" y="17" xunits="pixels" yunits="pixels"/>
		</IconStyle> 
		<LabelStyle> 
			<scale>1.0</scale> 
		</LabelStyle> 
	</Style>
	<Style id="ss"> 
		<IconStyle> 
			<scale>1.0</scale> 
			<Icon> 
				<href>ts_nhemi.png</href> 
			</Icon> 
             <hotSpot x="15" y="17" xunits="pixels" yunits="pixels"/>
		</IconStyle> 
		<LabelStyle> 
			<scale>1.0</scale> 
		</LabelStyle> 
	</Style>
	<Style id="lo"> 
		<IconStyle> 
			<scale>1.0</scale> 
			<Icon> 
				<href>ex_nhemi.png</href> 
			</Icon> 
             <hotSpot x="15" y="17" xunits="pixels" yunits="pixels"/>
		</IconStyle> 
		<LabelStyle> 
			<scale>1.0</scale> 
		</LabelStyle> 
	</Style>
	<Style id="cat4"> 
		<IconStyle> 
			<scale>1.0</scale> 
			<Icon> 
				<href>cat4_nhemi.png</href> 
			</Icon> 
             <hotSpot x="15" y="17" xunits="pixels" yunits="pixels"/>
		</IconStyle> 
		<LabelStyle> 
			<scale>1.0</scale> 
		</LabelStyle> 
	</Style>
	<Style id="cat2"> 
		<IconStyle> 
			<scale>1.0</scale> 
			<Icon> 
				<href>cat2_nhemi.png</href> 
			</Icon> 
             <hotSpot x="15" y="17" xunits="pixels" yunits="pixels"/>
		</IconStyle> 
		<LabelStyle> 
			<scale>1.0</scale> 
		</LabelStyle> 
	</Style>
	<Style id="ts"> 
		<IconStyle> 
			<scale>1.0</scale> 
			<Icon> 
				<href>ts_nhemi.png</href> 
			</Icon> 
             <hotSpot x="15" y="17" xunits="pixels" yunits="pixels"/>
		</IconStyle> 
		<LabelStyle> 
			<scale>1.0</scale> 
		</LabelStyle> 
	</Style>
	<Style id="cat1"> 
		<IconStyle> 
			<scale>1.0</scale> 
			<Icon> 
				<href>cat1_nhemi.png</href> 
			</Icon> 
             <hotSpot x="15" y="17" xunits="pixels" yunits="pixels"/>
		</IconStyle> 
		<LabelStyle> 
			<scale>1.0</scale> 
		</LabelStyle> 
	</Style>
	<Style id="ex"> 
		<IconStyle> 
			<scale>1.0</scale> 
			<Icon> 
				<href>ex_nhemi.png</href> 
			</Icon> 
             <hotSpot x="15" y="17" xunits="pixels" yunits="pixels"/>
		</IconStyle> 
		<LabelStyle> 
			<scale>1.0</scale> 
		</LabelStyle> 
	</Style>
	<Style id="tc"> 
		<IconStyle> 
			<scale>1.0</scale> 
			<Icon> 
				<href>ex_nhemi.png</href> 
			</Icon> 
             <hotSpot x="15" y="17" xunits="pixels" yunits="pixels"/>
		</IconStyle> 
		<LabelStyle> 
			<scale>1.0</scale> 
		</LabelStyle> 
	</Style>
	<Style id="wv"> 
		<IconStyle> 
			<scale>1.0</scale> 
			<Icon> 
				<href>ex_nhemi.png</href> 
			</Icon> 
             <hotSpot x="15" y="17" xunits="pixels" yunits="pixels"/>
		</IconStyle> 
		<LabelStyle> 
			<scale>1.0</scale> 
		</LabelStyle> 
	</Style>
	<Style id="td"> 
		<IconStyle> 
			<scale>1.0</scale> 
			<Icon> 
				<href>td_nhemi.png</href> 
			</Icon> 
             <hotSpot x="15" y="17" xunits="pixels" yunits="pixels"/>
		</IconStyle> 
		<LabelStyle> 
			<scale>1.0</scale> 
		</LabelStyle> 
	</Style>
	<Style id="sd"> 
		<IconStyle> 
			<scale>1.0</scale> 
			<Icon> 
				<href>ex_nhemi.png</href> 
			</Icon> 
             <hotSpot x="15" y="17" xunits="pixels" yunits="pixels"/>
		</IconStyle> 
		<LabelStyle> 
			<scale>1.0</scale> 
		</LabelStyle> 
	</Style>

    <Placemark>
      <name>0600 UTC OCT 24</name>
      <styleUrl>#db</styleUrl>
      <description><![CDATA[
        <table>
          <tr><td>DB KONG-REY (WP232024)</td></tr>
          <tr><td><hr></td></tr>
          <tr><td>0600 UTC OCT 24, 2024</td></tr>
          <tr><td>Storm Location:</td></tr>
          <tr><td><b>13.1 N, 148.3 E</b></td></tr>
          <tr><td>Min Sea Level Pressure:</td></tr>
          <tr><td>1008 mb / 29.77 in Hg</td></tr>
          <tr><td>Maximum Intensity:</td></tr>
          <tr><td>20 kt / 23 mph / 37 kph</td></tr>
        </table>
      ]]></description>
      <Point><coordinates>148.3,13.1</coordinates></Point>
    </Placemark>
    <Placemark>
      <name>1200 UTC OCT 24</name>
      <styleUrl>#db</styleUrl>
      <description><![CDATA[
        <table>
          <tr><td>DB KONG-REY (WP232024)</td></tr>
          <tr><td><hr></td></tr>
          <tr><td>1200 UTC OCT 24, 2024</td></tr>
          <tr><td>Storm Location:</td></tr>
          <tr><td><b>13.3 N, 147.1 E</b></td></tr>
          <tr><td>Min Sea Level Pressure:</td></tr>
          <tr><td>1007 mb / 29.74 in Hg</td></tr>
          <tr><td>Maximum Intensity:</td></tr>
          <tr><td>20 kt / 23 mph / 37 kph</td></tr>
        </table>
      ]]></description>
      <Point><coordinates>147.1,13.3</coordinates></Point>
    </Placemark>
    <Placemark>
      <name>1800 UTC OCT 24</name>
      <styleUrl>#db</styleUrl>
      <description><![CDATA[
        <table>
          <tr><td>DB KONG-REY (WP232024)</td></tr>
          <tr><td><hr></td></tr>
          <tr><td>1800 UTC OCT 24, 2024</td></tr>
          <tr><td>Storm Location:</td></tr>
          <tr><td><b>13.6 N, 146.1 E</b></td></tr>
          <tr><td>Min Sea Level Pressure:</td></tr>
          <tr><td>1005 mb / 29.68 in Hg</td></tr>
          <tr><td>Maximum Intensity:</td></tr>
          <tr><td>20 kt / 23 mph / 37 kph</td></tr>
        </table>
      ]]></description>
      <Point><coordinates>146.1,13.6</coordinates></Point>
    </Placemark>
    <Placemark>
      <name>0000 UTC OCT 25</name>
      <styleUrl>#td</styleUrl>
      <description><![CDATA[
        <table>
          <tr><td>TD KONG-REY (WP232024)</td></tr>
          <tr><td><hr></td></tr>
          <tr><td>0000 UTC OCT 25, 2024</td></tr>
          <tr><td>Storm Location:</td></tr>
          <tr><td><b>13.7 N, 145.4 E</b></td></tr>
          <tr><td>Min Sea Level Pressure:</td></tr>
          <tr><td>1001 mb / 29.56 in Hg</td></tr>
          <tr><td>Maximum Intensity:</td></tr>
          <tr><td>25 kt / 29 mph / 46 kph</td></tr>
        </table>
      ]]></description>
      <Point><coordinates>145.4,13.7</coordinates></Point>
    </Placemark>
    <Placemark>
      <name>0600 UTC OCT 25</name>
      <styleUrl>#td</styleUrl>
      <description><![CDATA[
        <table>
          <tr><td>TD KONG-REY (WP232024)</td></tr>
          <tr><td><hr></td></tr>
          <tr><td>0600 UTC OCT 25, 2024</td></tr>
          <tr><td>Storm Location:</td></tr>
          <tr><td><b>14.5 N, 143.2 E</b></td></tr>
          <tr><td>Min Sea Level Pressure:</td></tr>
          <tr><td>999 mb / 29.50 in Hg</td></tr>
          <tr><td>Maximum Intensity:</td></tr>
          <tr><td>30 kt / 35 mph / 56 kph</td></tr>
        </table>
      ]]></description>
      <Point><coordinates>143.2,14.5</coordinates></Point>
    </Placemark>
    <Placemark>
      <name>1200 UTC OCT 25</name>
      <styleUrl>#ts</styleUrl>
      <description><![CDATA[
        <table>
          <tr><td>TS KONG-REY (WP232024)</td></tr>
          <tr><td><hr></td></tr>
          <tr><td>1200 UTC OCT 25, 2024</td></tr>
          <tr><td>Storm Location:</td></tr>
          <tr><td><b>15.4 N, 141.0 E</b></td></tr>
          <tr><td>Min Sea Level Pressure:</td></tr>
          <tr><td>997 mb / 29.44 in Hg</td></tr>
          <tr><td>Maximum Intensity:</td></tr>
          <tr><td>35 kt / 40 mph / 65 kph</td></tr>
        </table>
      ]]></description>
      <Point><coordinates>141,15.4</coordinates></Point>
    </Placemark>
    <Placemark>
      <name>1800 UTC OCT 25</name>
      <styleUrl>#ts</styleUrl>
      <description><![CDATA[
        <table>
          <tr><td>TS KONG-REY (WP232024)</td></tr>
          <tr><td><hr></td></tr>
          <tr><td>1800 UTC OCT 25, 2024</td></tr>
          <tr><td>Storm Location:</td></tr>
          <tr><td><b>16.1 N, 139.3 E</b></td></tr>
          <tr><td>Min Sea Level Pressure:</td></tr>
          <tr><td>997 mb / 29.44 in Hg</td></tr>
          <tr><td>Maximum Intensity:</td></tr>
          <tr><td>35 kt / 40 mph / 65 kph</td></tr>
        </table>
      ]]></description>
      <Point><coordinates>139.3,16.1</coordinates></Point>
    </Placemark>
    <Placemark>
      <name>0000 UTC OCT 26</name>
      <styleUrl>#ts</styleUrl>
      <description><![CDATA[
        <table>
          <tr><td>TS KONG-REY (WP232024)</td></tr>
          <tr><td><hr></td></tr>
          <tr><td>0000 UTC OCT 26, 2024</td></tr>
          <tr><td>Storm Location:</td></tr>
          <tr><td><b>16.4 N, 137.6 E</b></td></tr>
          <tr><td>Min Sea Level Pressure:</td></tr>
          <tr><td>998 mb / 29.47 in Hg</td></tr>
          <tr><td>Maximum Intensity:</td></tr>
          <tr><td>35 kt / 40 mph / 65 kph</td></tr>
        </table>
      ]]></description>
      <Point><coordinates>137.6,16.4</coordinates></Point>
    </Placemark>
    <Placemark>
      <name>0600 UTC OCT 26</name>
      <styleUrl>#ts</styleUrl>
      <description><![CDATA[
        <table>
          <tr><td>TS KONG-REY (WP232024)</td></tr>
          <tr><td><hr></td></tr>
          <tr><td>0600 UTC OCT 26, 2024</td></tr>
          <tr><td>Storm Location:</td></tr>
          <tr><td><b>16.6 N, 136.6 E</b></td></tr>
          <tr><td>Min Sea Level Pressure:</td></tr>
          <tr><td>989 mb / 29.21 in Hg</td></tr>
          <tr><td>Maximum Intensity:</td></tr>
          <tr><td>35 kt / 40 mph / 65 kph</td></tr>
        </table>
      ]]></description>
      <Point><coordinates>136.6,16.6</coordinates></Point>
    </Placemark>
    <Placemark>
      <name>1200 UTC OCT 26</name>
      <styleUrl>#td</styleUrl>
      <description><![CDATA[
        <table>
          <tr><td>TD KONG-REY (WP232024)</td></tr>
          <tr><td><hr></td></tr>
          <tr><td>1200 UTC OCT 26, 2024</td></tr>
          <tr><td>Storm Location:</td></tr>
          <tr><td><b>16.7 N, 135.6 E</b></td></tr>
          <tr><td>Min Sea Level Pressure:</td></tr>
          <tr><td>991 mb / 29.26 in Hg</td></tr>
          <tr><td>Maximum Intensity:</td></tr>
          <tr><td>30 kt / 35 mph / 56 kph</td></tr>
        </table>
      ]]></description>
      <Point><coordinates>135.6,16.7</coordinates></Point>
    </Placemark>
    <Placemark>
      <name>1800 UTC OCT 26</name>
      <styleUrl>#ts</styleUrl>
      <description><![CDATA[
        <table>
          <tr><td>TS KONG-REY (WP232024)</td></tr>
          <tr><td><hr></td></tr>
          <tr><td>1800 UTC OCT 26, 2024</td></tr>
          <tr><td>Storm Location:</td></tr>
          <tr><td><b>16.7 N, 134.3 E</b></td></tr>
          <tr><td>Min Sea Level Pressure:</td></tr>
          <tr><td>991 mb / 29.26 in Hg</td></tr>
          <tr><td>Maximum Intensity:</td></tr>
          <tr><td>35 kt / 40 mph / 65 kph</td></tr>
        </table>
      ]]></description>
      <Point><coordinates>134.3,16.7</coordinates></Point>
    </Placemark>
    <Placemark>
      <name>0000 UTC OCT 27</name>
      <styleUrl>#ts</styleUrl>
      <description><![CDATA[
        <table>
          <tr><td>TS KONG-REY (WP232024)</td></tr>
          <tr><td><hr></td></tr>
          <tr><td>0000 UTC OCT 27, 2024</td></tr>
          <tr><td>Storm Location:</td></tr>
          <tr><td><b>16.7 N, 133.1 E</b></td></tr>
          <tr><td>Min Sea Level Pressure:</td></tr>
          <tr><td>996 mb / 29.41 in Hg</td></tr>
          <tr><td>Maximum Intensity:</td></tr>
          <tr><td>35 kt / 40 mph / 65 kph</td></tr>
        </table>
      ]]></description>
      <Point><coordinates>133.1,16.7</coordinates></Point>
    </Placemark>
    <Placemark>
      <name>0600 UTC OCT 27</name>
      <styleUrl>#ts</styleUrl>
      <description><![CDATA[
        <table>
          <tr><td>TS KONG-REY (WP232024)</td></tr>
          <tr><td><hr></td></tr>
          <tr><td>0600 UTC OCT 27, 2024</td></tr>
          <tr><td>Storm Location:</td></tr>
          <tr><td><b>16.6 N, 132.2 E</b></td></tr>
          <tr><td>Min Sea Level Pressure:</td></tr>
          <tr><td>997 mb / 29.44 in Hg</td></tr>
          <tr><td>Maximum Intensity:</td></tr>
          <tr><td>35 kt / 40 mph / 65 kph</td></tr>
        </table>
      ]]></description>
      <Point><coordinates>132.2,16.6</coordinates></Point>
    </Placemark>
    <Placemark>
      <name>1200 UTC OCT 27</name>
      <styleUrl>#ts</styleUrl>
      <description><![CDATA[
        <table>
          <tr><td>TS KONG-REY (WP232024)</td></tr>
          <tr><td><hr></td></tr>
          <tr><td>1200 UTC OCT 27, 2024</td></tr>
          <tr><td>Storm Location:</td></tr>
          <tr><td><b>16.5 N, 131.4 E</b></td></tr>
          <tr><td>Min Sea Level Pressure:</td></tr>
          <tr><td>994 mb / 29.35 in Hg</td></tr>
          <tr><td>Maximum Intensity:</td></tr>
          <tr><td>40 kt / 46 mph / 74 kph</td></tr>
        </table>
      ]]></description>
      <Point><coordinates>131.4,16.5</coordinates></Point>
    </Placemark>
    <Placemark>
      <name>1800 UTC OCT 27</name>
      <styleUrl>#ts</styleUrl>
      <description><![CDATA[
        <table>
          <tr><td>TS KONG-REY (WP232024)</td></tr>
          <tr><td><hr></td></tr>
          <tr><td>1800 UTC OCT 27, 2024</td></tr>
          <tr><td>Storm Location:</td></tr>
          <tr><td><b>16.5 N, 130.4 E</b></td></tr>
          <tr><td>Min Sea Level Pressure:</td></tr>
          <tr><td>991 mb / 29.26 in Hg</td></tr>
          <tr><td>Maximum Intensity:</td></tr>
          <tr><td>45 kt / 52 mph / 83 kph</td></tr>
        </table>
      ]]></description>
      <Point><coordinates>130.4,16.5</coordinates></Point>
    </Placemark>
    <Placemark>
      <name>0000 UTC OCT 28</name>
      <styleUrl>#ts</styleUrl>
      <description><![CDATA[
        <table>
          <tr><td>TS KONG-REY (WP232024)</td></tr>
          <tr><td><hr></td></tr>
          <tr><td>0000 UTC OCT 28, 2024</td></tr>
          <tr><td>Storm Location:</td></tr>
          <tr><td><b>16.5 N, 129.6 E</b></td></tr>
          <tr><td>Min Sea Level Pressure:</td></tr>
          <tr><td>986 mb / 29.12 in Hg</td></tr>
          <tr><td>Maximum Intensity:</td></tr>
          <tr><td>55 kt / 63 mph / 102 kph</td></tr>
        </table>
      ]]></description>
      <Point><coordinates>129.6,16.5</coordinates></Point>
    </Placemark>
    <Placemark>
      <name>0600 UTC OCT 28</name>
      <styleUrl>#ts</styleUrl>
      <description><![CDATA[
        <table>
          <tr><td>TS KONG-REY (WP232024)</td></tr>
          <tr><td><hr></td></tr>
          <tr><td>0600 UTC OCT 28, 2024</td></tr>
          <tr><td>Storm Location:</td></tr>
          <tr><td><b>16.3 N, 129.0 E</b></td></tr>
          <tr><td>Min Sea Level Pressure:</td></tr>
          <tr><td>980 mb / 28.94 in Hg</td></tr>
          <tr><td>Maximum Intensity:</td></tr>
          <tr><td>60 kt / 69 mph / 111 kph</td></tr>
        </table>
      ]]></description>
      <Point><coordinates>129,16.3</coordinates></Point>
    </Placemark>
    <Placemark>
      <name>1200 UTC OCT 28</name>
      <styleUrl>#cat1</styleUrl>
      <description><![CDATA[
        <table>
          <tr><td>HU KONG-REY (WP232024)</td></tr>
          <tr><td><hr></td></tr>
          <tr><td>1200 UTC OCT 28, 2024</td></tr>
          <tr><td>Storm Location:</td></tr>
          <tr><td><b>16.6 N, 128.5 E</b></td></tr>
          <tr><td>Min Sea Level Pressure:</td></tr>
          <tr><td>977 mb / 28.85 in Hg</td></tr>
          <tr><td>Maximum Intensity:</td></tr>
          <tr><td>65 kt / 75 mph / 120 kph</td></tr>
        </table>
      ]]></description>
      <Point><coordinates>128.5,16.6</coordinates></Point>
    </Placemark>
    <Placemark>
      <name>1800 UTC OCT 28</name>
      <styleUrl>#cat1</styleUrl>
      <description><![CDATA[
        <table>
          <tr><td>HU KONG-REY (WP232024)</td></tr>
          <tr><td><hr></td></tr>
          <tr><td>1800 UTC OCT 28, 2024</td></tr>
          <tr><td>Storm Location:</td></tr>
          <tr><td><b>17.0 N, 127.9 E</b></td></tr>
          <tr><td>Min Sea Level Pressure:</td></tr>
          <tr><td>976 mb / 28.82 in Hg</td></tr>
          <tr><td>Maximum Intensity:</td></tr>
          <tr><td>70 kt / 81 mph / 130 kph</td></tr>
        </table>
      ]]></description>
      <Point><coordinates>127.9,17</coordinates></Point>
    </Placemark>
    <Placemark>
      <name>0000 UTC OCT 29</name>
      <styleUrl>#cat1</styleUrl>
      <description><![CDATA[
        <table>
          <tr><td>HU KONG-REY (WP232024)</td></tr>
          <tr><td><hr></td></tr>
          <tr><td>0000 UTC OCT 29, 2024</td></tr>
          <tr><td>Storm Location:</td></tr>
          <tr><td><b>17.4 N, 127.2 E</b></td></tr>
          <tr><td>Min Sea Level Pressure:</td></tr>
          <tr><td>971 mb / 28.67 in Hg</td></tr>
          <tr><td>Maximum Intensity:</td></tr>
          <tr><td>80 kt / 92 mph / 148 kph</td></tr>
        </table>
      ]]></description>
      <Point><coordinates>127.2,17.4</coordinates></Point>
    </Placemark>
    <Placemark>
      <name>0600 UTC OCT 29</name>
      <styleUrl>#cat3</styleUrl>
      <description><![CDATA[
        <table>
          <tr><td>HU KONG-REY (WP232024)</td></tr>
          <tr><td><hr></td></tr>
          <tr><td>0600 UTC OCT 29, 2024</td></tr>
          <tr><td>Storm Location:</td></tr>
          <tr><td><b>17.9 N, 126.6 E</b></td></tr>
          <tr><td>Min Sea Level Pressure:</td></tr>
          <tr><td>953 mb / 28.14 in Hg</td></tr>
          <tr><td>Maximum Intensity:</td></tr>
          <tr><td>100 kt / 115 mph / 185 kph</td></tr>
        </table>
      ]]></description>
      <Point><coordinates>126.6,17.9</coordinates></Point>
    </Placemark>
    <Placemark>
      <name>1200 UTC OCT 29</name>
      <styleUrl>#cat4</styleUrl>
      <description><![CDATA[
        <table>
          <tr><td>HU KONG-REY (WP232024)</td></tr>
          <tr><td><hr></td></tr>
          <tr><td>1200 UTC OCT 29, 2024</td></tr>
          <tr><td>Storm Location:</td></tr>
          <tr><td><b>18.5 N, 126.0 E</b></td></tr>
          <tr><td>Min Sea Level Pressure:</td></tr>
          <tr><td>933 mb / 27.55 in Hg</td></tr>
          <tr><td>Maximum Intensity:</td></tr>
          <tr><td>120 kt / 138 mph / 222 kph</td></tr>
        </table>
      ]]></description>
      <Point><coordinates>126,18.5</coordinates></Point>
    </Placemark>
    <Placemark>
      <name>1800 UTC OCT 29</name>
      <styleUrl>#cat4</styleUrl>
      <description><![CDATA[
        <table>
          <tr><td>HU KONG-REY (WP232024)</td></tr>
          <tr><td><hr></td></tr>
          <tr><td>1800 UTC OCT 29, 2024</td></tr>
          <tr><td>Storm Location:</td></tr>
          <tr><td><b>18.9 N, 125.4 E</b></td></tr>
          <tr><td>Min Sea Level Pressure:</td></tr>
          <tr><td>915 mb / 27.02 in Hg</td></tr>
          <tr><td>Maximum Intensity:</td></tr>
          <tr><td>130 kt / 150 mph / 241 kph</td></tr>
        </table>
      ]]></description>
      <Point><coordinates>125.4,18.9</coordinates></Point>
    </Placemark>
    <Placemark>
      <name>0000 UTC OCT 30</name>
      <styleUrl>#cat5</styleUrl>
      <description><![CDATA[
        <table>
          <tr><td>HU KONG-REY (WP232024)</td></tr>
          <tr><td><hr></td></tr>
          <tr><td>0000 UTC OCT 30, 2024</td></tr>
          <tr><td>Storm Location:</td></tr>
          <tr><td><b>19.2 N, 124.9 E</b></td></tr>
          <tr><td>Min Sea Level Pressure:</td></tr>
          <tr><td>917 mb / 27.08 in Hg</td></tr>
          <tr><td>Maximum Intensity:</td></tr>
          <tr><td>140 kt / 161 mph / 259 kph</td></tr>
        </table>
      ]]></description>
      <Point><coordinates>124.9,19.2</coordinates></Point>
    </Placemark>
    <Placemark>
      <name>0600 UTC OCT 30</name>
      <styleUrl>#cat4</styleUrl>
      <description><![CDATA[
        <table>
          <tr><td>HU KONG-REY (WP232024)</td></tr>
          <tr><td><hr></td></tr>
          <tr><td>0600 UTC OCT 30, 2024</td></tr>
          <tr><td>Storm Location:</td></tr>
          <tr><td><b>19.8 N, 124.2 E</b></td></tr>
          <tr><td>Min Sea Level Pressure:</td></tr>
          <tr><td>929 mb / 27.43 in Hg</td></tr>
          <tr><td>Maximum Intensity:</td></tr>
          <tr><td>125 kt / 144 mph / 232 kph</td></tr>
        </table>
      ]]></description>
      <Point><coordinates>124.2,19.8</coordinates></Point>
    </Placemark>
    <Placemark>
      <name>1200 UTC OCT 30</name>
      <styleUrl>#cat4</styleUrl>
      <description><![CDATA[
        <table>
          <tr><td>HU KONG-REY (WP232024)</td></tr>
          <tr><td><hr></td></tr>
          <tr><td>1200 UTC OCT 30, 2024</td></tr>
          <tr><td>Storm Location:</td></tr>
          <tr><td><b>20.4 N, 123.6 E</b></td></tr>
          <tr><td>Min Sea Level Pressure:</td></tr>
          <tr><td>934 mb / 27.58 in Hg</td></tr>
          <tr><td>Maximum Intensity:</td></tr>
          <tr><td>120 kt / 138 mph / 222 kph</td></tr>
        </table>
      ]]></description>
      <Point><coordinates>123.6,20.4</coordinates></Point>
    </Placemark>
    <Placemark>
      <name>1800 UTC OCT 30</name>
      <styleUrl>#cat4</styleUrl>
      <description><![CDATA[
        <table>
          <tr><td>HU KONG-REY (WP232024)</td></tr>
          <tr><td><hr></td></tr>
          <tr><td>1800 UTC OCT 30, 2024</td></tr>
          <tr><td>Storm Location:</td></tr>
          <tr><td><b>21.1 N, 122.8 E</b></td></tr>
          <tr><td>Min Sea Level Pressure:</td></tr>
          <tr><td>939 mb / 27.73 in Hg</td></tr>
          <tr><td>Maximum Intensity:</td></tr>
          <tr><td>115 kt / 132 mph / 213 kph</td></tr>
        </table>
      ]]></description>
      <Point><coordinates>122.8,21.1</coordinates></Point>
    </Placemark>
    <Placemark>
      <name>0000 UTC OCT 31</name>
      <styleUrl>#cat3</styleUrl>
      <description><![CDATA[
        <table>
          <tr><td>HU KONG-REY (WP232024)</td></tr>
          <tr><td><hr></td></tr>
          <tr><td>0000 UTC OCT 31, 2024</td></tr>
          <tr><td>Storm Location:</td></tr>
          <tr><td><b>22.0 N, 122.1 E</b></td></tr>
          <tr><td>Min Sea Level Pressure:</td></tr>
          <tr><td>943 mb / 27.85 in Hg</td></tr>
          <tr><td>Maximum Intensity:</td></tr>
          <tr><td>110 kt / 127 mph / 204 kph</td></tr>
        </table>
      ]]></description>
      <Point><coordinates>122.1,22</coordinates></Point>
    </Placemark>
    <Placemark>
      <name>0600 UTC OCT 31</name>
      <styleUrl>#cat3</styleUrl>
      <description><![CDATA[
        <table>
          <tr><td>HU KONG-REY (WP232024)</td></tr>
          <tr><td><hr></td></tr>
          <tr><td>0600 UTC OCT 31, 2024</td></tr>
          <tr><td>Storm Location:</td></tr>
          <tr><td><b>23.1 N, 121.3 E</b></td></tr>
          <tr><td>Min Sea Level Pressure:</td></tr>
          <tr><td>947 mb / 27.97 in Hg</td></tr>
          <tr><td>Maximum Intensity:</td></tr>
          <tr><td>100 kt / 115 mph / 185 kph</td></tr>
        </table>
      ]]></description>
      <Point><coordinates>121.3,23.1</coordinates></Point>
    </Placemark>
    <Placemark>
      <name>1200 UTC OCT 31</name>
      <styleUrl>#cat1</styleUrl>
      <description><![CDATA[
        <table>
          <tr><td>HU KONG-REY (WP232024)</td></tr>
          <tr><td><hr></td></tr>
          <tr><td>1200 UTC OCT 31, 2024</td></tr>
          <tr><td>Storm Location:</td></tr>
          <tr><td><b>24.0 N, 120.2 E</b></td></tr>
          <tr><td>Min Sea Level Pressure:</td></tr>
          <tr><td>966 mb / 28.53 in Hg</td></tr>
          <tr><td>Maximum Intensity:</td></tr>
          <tr><td>80 kt / 92 mph / 148 kph</td></tr>
        </table>
      ]]></description>
      <Point><coordinates>120.2,24</coordinates></Point>
    </Placemark>
    <Placemark>
      <name>1800 UTC OCT 31</name>
      <styleUrl>#ts</styleUrl>
      <description><![CDATA[
        <table>
          <tr><td>TS KONG-REY (WP232024)</td></tr>
          <tr><td><hr></td></tr>
          <tr><td>1800 UTC OCT 31, 2024</td></tr>
          <tr><td>Storm Location:</td></tr>
          <tr><td><b>25.3 N, 120.0 E</b></td></tr>
          <tr><td>Min Sea Level Pressure:</td></tr>
          <tr><td>976 mb / 28.82 in Hg</td></tr>
          <tr><td>Maximum Intensity:</td></tr>
          <tr><td>55 kt / 63 mph / 102 kph</td></tr>
        </table>
      ]]></description>
      <Point><coordinates>120,25.3</coordinates></Point>
    </Placemark>
    <Placemark>
      <name>0000 UTC NOV 1</name>
      <styleUrl>#ts</styleUrl>
      <description><![CDATA[
        <table>
          <tr><td>TS KONG-REY (WP232024)</td></tr>
          <tr><td><hr></td></tr>
          <tr><td>0000 UTC NOV 1, 2024</td></tr>
          <tr><td>Storm Location:</td></tr>
          <tr><td><b>26.6 N, 120.6 E</b></td></tr>
          <tr><td>Min Sea Level Pressure:</td></tr>
          <tr><td>980 mb / 28.94 in Hg</td></tr>
          <tr><td>Maximum Intensity:</td></tr>
          <tr><td>60 kt / 69 mph / 111 kph</td></tr>
        </table>
      ]]></description>
      <Point><coordinates>120.6,26.6</coordinates></Point>
    </Placemark>
    <Placemark>
      <name>0600 UTC NOV 1</name>
      <styleUrl>#ts</styleUrl>
      <description><![CDATA[
        <table>
          <tr><td>TS KONG-REY (WP232024)</td></tr>
          <tr><td><hr></td></tr>
          <tr><td>0600 UTC NOV 1, 2024</td></tr>
          <tr><td>Storm Location:</td></tr>
          <tr><td><b>28.3 N, 121.4 E</b></td></tr>
          <tr><td>Min Sea Level Pressure:</td></tr>
          <tr><td>990 mb / 29.23 in Hg</td></tr>
          <tr><td>Maximum Intensity:</td></tr>
          <tr><td>50 kt / 58 mph / 93 kph</td></tr>
        </table>
      ]]></description>
      <Point><coordinates>121.4,28.3</coordinates></Point>
    </Placemark>
    <Placemark>
      <name>1200 UTC NOV 1</name>
      <styleUrl>#ts</styleUrl>
      <description><![CDATA[
        <table>
          <tr><td>TS KONG-REY (WP232024)</td></tr>
          <tr><td><hr></td></tr>
          <tr><td>1200 UTC NOV 1, 2024</td></tr>
          <tr><td>Storm Location:</td></tr>
          <tr><td><b>30.5 N, 123.0 E</b></td></tr>
          <tr><td>Min Sea Level Pressure:</td></tr>
          <tr><td>993 mb / 29.32 in Hg</td></tr>
          <tr><td>Maximum Intensity:</td></tr>
          <tr><td>40 kt / 46 mph / 74 kph</td></tr>
        </table>
      ]]></description>
      <Point><coordinates>123,30.5</coordinates></Point>
    </Placemark>
    <Placemark>
      <name>1800 UTC NOV 1</name>
      <styleUrl>#ex</styleUrl>
      <description><![CDATA[
        <table>
          <tr><td>EX KONG-REY (WP232024)</td></tr>
          <tr><td><hr></td></tr>
          <tr><td>1800 UTC NOV 1, 2024</td></tr>
          <tr><td>Storm Location:</td></tr>
          <tr><td><b>32.6 N, 128.4 E</b></td></tr>
          <tr><td>Min Sea Level Pressure:</td></tr>
          <tr><td>993 mb / 29.32 in Hg</td></tr>
          <tr><td>Maximum Intensity:</td></tr>
          <tr><td>45 kt / 52 mph / 83 kph</td></tr>
        </table>
      ]]></description>
      <Point><coordinates>128.4,32.6</coordinates></Point>
    </Placemark>
  </Document>
</kml>
