<?xml version="1.0" encoding="UTF-8"?>
<kml xmlns="http://www.opengis.net/kml/2.2">
  <Document>
    <name>WP252024</name>
    <open>0</open>

    <!-- =====  Document header ===== -->
    <description><![CDATA[
      <table>
        <tr><td><b>Title:</b> Tropical Cyclone Best Track for WP252024</td></tr>
      </table>
    ]]></description>

    <!-- =====  Styles (ids must be unique)  ===== -->
	<Style id="pt"> 
		<IconStyle> 
			<scale>1.0</scale> 
			<Icon> 
				<href>ex_nhemi.png</href> 
			</Icon> 
             <hotSpot x="15" y="17" xunits="pixels" yunits="pixels"/>
		</IconStyle> 
		<LabelStyle> 
			<scale>1.0</scale> 
		</LabelStyle> 
	</Style>
	<Style id="cat5"> 
		<IconStyle> 
			<scale>1.0</scale> 
			<Icon> 
				<href>cat5_nhemi.png</href> 
			</Icon> 
             <hotSpot x="15" y="17" xunits="pixels" yunits="pixels"/>
		</IconStyle> 
		<LabelStyle> 
			<scale>1.0</scale> 
		</LabelStyle> 
	</Style>
	<Style id="db"> 
		<IconStyle> 
			<scale>1.0</scale> 
			<Icon> 
				<href>ex_nhemi.png</href> 
			</Icon> 
             <hotSpot x="15" y="17" xunits="pixels" yunits="pixels"/>
		</IconStyle> 
		<LabelStyle> 
			<scale>1.0</scale> 
		</LabelStyle> 
	</Style>
	<Style id="cat3"> 
		<IconStyle> 
			<scale>1.0</scale> 
			<Icon> 
				<href>cat3_nhemi.png</href> 
			</Icon> 
             <hotSpot x="15" y="17" xunits="pixels" yunits="pixels"/>
		</IconStyle> 
		<LabelStyle> 
			<scale>1.0</scale> 
		</LabelStyle> 
	</Style>
	<Style id="ss"> 
		<IconStyle> 
			<scale>1.0</scale> 
			<Icon> 
				<href>ts_nhemi.png</href> 
			</Icon> 
             <hotSpot x="15" y="17" xunits="pixels" yunits="pixels"/>
		</IconStyle> 
		<LabelStyle> 
			<scale>1.0</scale> 
		</LabelStyle> 
	</Style>
	<Style id="lo"> 
		<IconStyle> 
			<scale>1.0</scale> 
			<Icon> 
				<href>ex_nhemi.png</href> 
			</Icon> 
             <hotSpot x="15" y="17" xunits="pixels" yunits="pixels"/>
		</IconStyle> 
		<LabelStyle> 
			<scale>1.0</scale> 
		</LabelStyle> 
	</Style>
	<Style id="cat4"> 
		<IconStyle> 
			<scale>1.0</scale> 
			<Icon> 
				<href>cat4_nhemi.png</href> 
			</Icon> 
             <hotSpot x="15" y="17" xunits="pixels" yunits="pixels"/>
		</IconStyle> 
		<LabelStyle> 
			<scale>1.0</scale> 
		</LabelStyle> 
	</Style>
	<Style id="cat2"> 
		<IconStyle> 
			<scale>1.0</scale> 
			<Icon> 
				<href>cat2_nhemi.png</href> 
			</Icon> 
             <hotSpot x="15" y="17" xunits="pixels" yunits="pixels"/>
		</IconStyle> 
		<LabelStyle> 
			<scale>1.0</scale> 
		</LabelStyle> 
	</Style>
	<Style id="ts"> 
		<IconStyle> 
			<scale>1.0</scale> 
			<Icon> 
				<href>ts_nhemi.png</href> 
			</Icon> 
             <hotSpot x="15" y="17" xunits="pixels" yunits="pixels"/>
		</IconStyle> 
		<LabelStyle> 
			<scale>1.0</scale> 
		</LabelStyle> 
	</Style>
	<Style id="cat1"> 
		<IconStyle> 
			<scale>1.0</scale> 
			<Icon> 
				<href>cat1_nhemi.png</href> 
			</Icon> 
             <hotSpot x="15" y="17" xunits="pixels" yunits="pixels"/>
		</IconStyle> 
		<LabelStyle> 
			<scale>1.0</scale> 
		</LabelStyle> 
	</Style>
	<Style id="ex"> 
		<IconStyle> 
			<scale>1.0</scale> 
			<Icon> 
				<href>ex_nhemi.png</href> 
			</Icon> 
             <hotSpot x="15" y="17" xunits="pixels" yunits="pixels"/>
		</IconStyle> 
		<LabelStyle> 
			<scale>1.0</scale> 
		</LabelStyle> 
	</Style>
	<Style id="tc"> 
		<IconStyle> 
			<scale>1.0</scale> 
			<Icon> 
				<href>ex_nhemi.png</href> 
			</Icon> 
             <hotSpot x="15" y="17" xunits="pixels" yunits="pixels"/>
		</IconStyle> 
		<LabelStyle> 
			<scale>1.0</scale> 
		</LabelStyle> 
	</Style>
	<Style id="wv"> 
		<IconStyle> 
			<scale>1.0</scale> 
			<Icon> 
				<href>ex_nhemi.png</href> 
			</Icon> 
             <hotSpot x="15" y="17" xunits="pixels" yunits="pixels"/>
		</IconStyle> 
		<LabelStyle> 
			<scale>1.0</scale> 
		</LabelStyle> 
	</Style>
	<Style id="td"> 
		<IconStyle> 
			<scale>1.0</scale> 
			<Icon> 
				<href>td_nhemi.png</href> 
			</Icon> 
             <hotSpot x="15" y="17" xunits="pixels" yunits="pixels"/>
		</IconStyle> 
		<LabelStyle> 
			<scale>1.0</scale> 
		</LabelStyle> 
	</Style>
	<Style id="sd"> 
		<IconStyle> 
			<scale>1.0</scale> 
			<Icon> 
				<href>ex_nhemi.png</href> 
			</Icon> 
             <hotSpot x="15" y="17" xunits="pixels" yunits="pixels"/>
		</IconStyle> 
		<LabelStyle> 
			<scale>1.0</scale> 
		</LabelStyle> 
	</Style>

    <Placemark>
      <name>0000 UTC NOV 8</name>
      <styleUrl>#db</styleUrl>
      <description><![CDATA[
        <table>
          <tr><td>DB MAN-YI (WP252024)</td></tr>
          <tr><td><hr></td></tr>
          <tr><td>0000 UTC NOV 8, 2024</td></tr>
          <tr><td>Storm Location:</td></tr>
          <tr><td><b>10.2 N, 166.3 E</b></td></tr>
          <tr><td>Min Sea Level Pressure:</td></tr>
          <tr><td>1009 mb / 29.80 in Hg</td></tr>
          <tr><td>Maximum Intensity:</td></tr>
          <tr><td>20 kt / 23 mph / 37 kph</td></tr>
        </table>
      ]]></description>
      <Point><coordinates>166.3,10.2</coordinates></Point>
    </Placemark>
    <Placemark>
      <name>0600 UTC NOV 8</name>
      <styleUrl>#db</styleUrl>
      <description><![CDATA[
        <table>
          <tr><td>DB MAN-YI (WP252024)</td></tr>
          <tr><td><hr></td></tr>
          <tr><td>0600 UTC NOV 8, 2024</td></tr>
          <tr><td>Storm Location:</td></tr>
          <tr><td><b>11.3 N, 164.8 E</b></td></tr>
          <tr><td>Min Sea Level Pressure:</td></tr>
          <tr><td>1007 mb / 29.74 in Hg</td></tr>
          <tr><td>Maximum Intensity:</td></tr>
          <tr><td>20 kt / 23 mph / 37 kph</td></tr>
        </table>
      ]]></description>
      <Point><coordinates>164.8,11.3</coordinates></Point>
    </Placemark>
    <Placemark>
      <name>1200 UTC NOV 8</name>
      <styleUrl>#td</styleUrl>
      <description><![CDATA[
        <table>
          <tr><td>TD MAN-YI (WP252024)</td></tr>
          <tr><td><hr></td></tr>
          <tr><td>1200 UTC NOV 8, 2024</td></tr>
          <tr><td>Storm Location:</td></tr>
          <tr><td><b>12.5 N, 163.3 E</b></td></tr>
          <tr><td>Min Sea Level Pressure:</td></tr>
          <tr><td>1004 mb / 29.65 in Hg</td></tr>
          <tr><td>Maximum Intensity:</td></tr>
          <tr><td>25 kt / 29 mph / 46 kph</td></tr>
        </table>
      ]]></description>
      <Point><coordinates>163.3,12.5</coordinates></Point>
    </Placemark>
    <Placemark>
      <name>1800 UTC NOV 8</name>
      <styleUrl>#td</styleUrl>
      <description><![CDATA[
        <table>
          <tr><td>TD MAN-YI (WP252024)</td></tr>
          <tr><td><hr></td></tr>
          <tr><td>1800 UTC NOV 8, 2024</td></tr>
          <tr><td>Storm Location:</td></tr>
          <tr><td><b>13.1 N, 161.5 E</b></td></tr>
          <tr><td>Min Sea Level Pressure:</td></tr>
          <tr><td>1003 mb / 29.62 in Hg</td></tr>
          <tr><td>Maximum Intensity:</td></tr>
          <tr><td>30 kt / 35 mph / 56 kph</td></tr>
        </table>
      ]]></description>
      <Point><coordinates>161.5,13.1</coordinates></Point>
    </Placemark>
    <Placemark>
      <name>0000 UTC NOV 9</name>
      <styleUrl>#ts</styleUrl>
      <description><![CDATA[
        <table>
          <tr><td>TS MAN-YI (WP252024)</td></tr>
          <tr><td><hr></td></tr>
          <tr><td>0000 UTC NOV 9, 2024</td></tr>
          <tr><td>Storm Location:</td></tr>
          <tr><td><b>13.8 N, 159.7 E</b></td></tr>
          <tr><td>Min Sea Level Pressure:</td></tr>
          <tr><td>1002 mb / 29.59 in Hg</td></tr>
          <tr><td>Maximum Intensity:</td></tr>
          <tr><td>35 kt / 40 mph / 65 kph</td></tr>
        </table>
      ]]></description>
      <Point><coordinates>159.7,13.8</coordinates></Point>
    </Placemark>
    <Placemark>
      <name>0600 UTC NOV 9</name>
      <styleUrl>#ts</styleUrl>
      <description><![CDATA[
        <table>
          <tr><td>TS MAN-YI (WP252024)</td></tr>
          <tr><td><hr></td></tr>
          <tr><td>0600 UTC NOV 9, 2024</td></tr>
          <tr><td>Storm Location:</td></tr>
          <tr><td><b>14.7 N, 158.5 E</b></td></tr>
          <tr><td>Min Sea Level Pressure:</td></tr>
          <tr><td>1001 mb / 29.56 in Hg</td></tr>
          <tr><td>Maximum Intensity:</td></tr>
          <tr><td>40 kt / 46 mph / 74 kph</td></tr>
        </table>
      ]]></description>
      <Point><coordinates>158.5,14.7</coordinates></Point>
    </Placemark>
    <Placemark>
      <name>1200 UTC NOV 9</name>
      <styleUrl>#ts</styleUrl>
      <description><![CDATA[
        <table>
          <tr><td>TS MAN-YI (WP252024)</td></tr>
          <tr><td><hr></td></tr>
          <tr><td>1200 UTC NOV 9, 2024</td></tr>
          <tr><td>Storm Location:</td></tr>
          <tr><td><b>15.4 N, 157.5 E</b></td></tr>
          <tr><td>Min Sea Level Pressure:</td></tr>
          <tr><td>1000 mb / 29.53 in Hg</td></tr>
          <tr><td>Maximum Intensity:</td></tr>
          <tr><td>45 kt / 52 mph / 83 kph</td></tr>
        </table>
      ]]></description>
      <Point><coordinates>157.5,15.4</coordinates></Point>
    </Placemark>
    <Placemark>
      <name>1800 UTC NOV 9</name>
      <styleUrl>#ts</styleUrl>
      <description><![CDATA[
        <table>
          <tr><td>TS MAN-YI (WP252024)</td></tr>
          <tr><td><hr></td></tr>
          <tr><td>1800 UTC NOV 9, 2024</td></tr>
          <tr><td>Storm Location:</td></tr>
          <tr><td><b>15.7 N, 156.8 E</b></td></tr>
          <tr><td>Min Sea Level Pressure:</td></tr>
          <tr><td>999 mb / 29.50 in Hg</td></tr>
          <tr><td>Maximum Intensity:</td></tr>
          <tr><td>45 kt / 52 mph / 83 kph</td></tr>
        </table>
      ]]></description>
      <Point><coordinates>156.8,15.7</coordinates></Point>
    </Placemark>
    <Placemark>
      <name>0000 UTC NOV 10</name>
      <styleUrl>#ts</styleUrl>
      <description><![CDATA[
        <table>
          <tr><td>TS MAN-YI (WP252024)</td></tr>
          <tr><td><hr></td></tr>
          <tr><td>0000 UTC NOV 10, 2024</td></tr>
          <tr><td>Storm Location:</td></tr>
          <tr><td><b>15.8 N, 156.1 E</b></td></tr>
          <tr><td>Min Sea Level Pressure:</td></tr>
          <tr><td>997 mb / 29.44 in Hg</td></tr>
          <tr><td>Maximum Intensity:</td></tr>
          <tr><td>50 kt / 58 mph / 93 kph</td></tr>
        </table>
      ]]></description>
      <Point><coordinates>156.1,15.8</coordinates></Point>
    </Placemark>
    <Placemark>
      <name>0600 UTC NOV 10</name>
      <styleUrl>#ts</styleUrl>
      <description><![CDATA[
        <table>
          <tr><td>TS MAN-YI (WP252024)</td></tr>
          <tr><td><hr></td></tr>
          <tr><td>0600 UTC NOV 10, 2024</td></tr>
          <tr><td>Storm Location:</td></tr>
          <tr><td><b>15.8 N, 155.4 E</b></td></tr>
          <tr><td>Min Sea Level Pressure:</td></tr>
          <tr><td>997 mb / 29.44 in Hg</td></tr>
          <tr><td>Maximum Intensity:</td></tr>
          <tr><td>50 kt / 58 mph / 93 kph</td></tr>
        </table>
      ]]></description>
      <Point><coordinates>155.4,15.8</coordinates></Point>
    </Placemark>
    <Placemark>
      <name>1200 UTC NOV 10</name>
      <styleUrl>#ts</styleUrl>
      <description><![CDATA[
        <table>
          <tr><td>TS MAN-YI (WP252024)</td></tr>
          <tr><td><hr></td></tr>
          <tr><td>1200 UTC NOV 10, 2024</td></tr>
          <tr><td>Storm Location:</td></tr>
          <tr><td><b>15.9 N, 154.3 E</b></td></tr>
          <tr><td>Min Sea Level Pressure:</td></tr>
          <tr><td>997 mb / 29.44 in Hg</td></tr>
          <tr><td>Maximum Intensity:</td></tr>
          <tr><td>50 kt / 58 mph / 93 kph</td></tr>
        </table>
      ]]></description>
      <Point><coordinates>154.3,15.9</coordinates></Point>
    </Placemark>
    <Placemark>
      <name>1800 UTC NOV 10</name>
      <styleUrl>#ts</styleUrl>
      <description><![CDATA[
        <table>
          <tr><td>TS MAN-YI (WP252024)</td></tr>
          <tr><td><hr></td></tr>
          <tr><td>1800 UTC NOV 10, 2024</td></tr>
          <tr><td>Storm Location:</td></tr>
          <tr><td><b>15.5 N, 153.4 E</b></td></tr>
          <tr><td>Min Sea Level Pressure:</td></tr>
          <tr><td>999 mb / 29.50 in Hg</td></tr>
          <tr><td>Maximum Intensity:</td></tr>
          <tr><td>45 kt / 52 mph / 83 kph</td></tr>
        </table>
      ]]></description>
      <Point><coordinates>153.4,15.5</coordinates></Point>
    </Placemark>
    <Placemark>
      <name>0000 UTC NOV 11</name>
      <styleUrl>#ts</styleUrl>
      <description><![CDATA[
        <table>
          <tr><td>TS MAN-YI (WP252024)</td></tr>
          <tr><td><hr></td></tr>
          <tr><td>0000 UTC NOV 11, 2024</td></tr>
          <tr><td>Storm Location:</td></tr>
          <tr><td><b>15.1 N, 152.7 E</b></td></tr>
          <tr><td>Min Sea Level Pressure:</td></tr>
          <tr><td>1001 mb / 29.56 in Hg</td></tr>
          <tr><td>Maximum Intensity:</td></tr>
          <tr><td>40 kt / 46 mph / 74 kph</td></tr>
        </table>
      ]]></description>
      <Point><coordinates>152.7,15.1</coordinates></Point>
    </Placemark>
    <Placemark>
      <name>0600 UTC NOV 11</name>
      <styleUrl>#ts</styleUrl>
      <description><![CDATA[
        <table>
          <tr><td>TS MAN-YI (WP252024)</td></tr>
          <tr><td><hr></td></tr>
          <tr><td>0600 UTC NOV 11, 2024</td></tr>
          <tr><td>Storm Location:</td></tr>
          <tr><td><b>14.8 N, 152.2 E</b></td></tr>
          <tr><td>Min Sea Level Pressure:</td></tr>
          <tr><td>1000 mb / 29.53 in Hg</td></tr>
          <tr><td>Maximum Intensity:</td></tr>
          <tr><td>40 kt / 46 mph / 74 kph</td></tr>
        </table>
      ]]></description>
      <Point><coordinates>152.2,14.8</coordinates></Point>
    </Placemark>
    <Placemark>
      <name>1200 UTC NOV 11</name>
      <styleUrl>#ts</styleUrl>
      <description><![CDATA[
        <table>
          <tr><td>TS MAN-YI (WP252024)</td></tr>
          <tr><td><hr></td></tr>
          <tr><td>1200 UTC NOV 11, 2024</td></tr>
          <tr><td>Storm Location:</td></tr>
          <tr><td><b>14.4 N, 151.7 E</b></td></tr>
          <tr><td>Min Sea Level Pressure:</td></tr>
          <tr><td>1002 mb / 29.59 in Hg</td></tr>
          <tr><td>Maximum Intensity:</td></tr>
          <tr><td>40 kt / 46 mph / 74 kph</td></tr>
        </table>
      ]]></description>
      <Point><coordinates>151.7,14.4</coordinates></Point>
    </Placemark>
    <Placemark>
      <name>1800 UTC NOV 11</name>
      <styleUrl>#ts</styleUrl>
      <description><![CDATA[
        <table>
          <tr><td>TS MAN-YI (WP252024)</td></tr>
          <tr><td><hr></td></tr>
          <tr><td>1800 UTC NOV 11, 2024</td></tr>
          <tr><td>Storm Location:</td></tr>
          <tr><td><b>14.3 N, 149.9 E</b></td></tr>
          <tr><td>Min Sea Level Pressure:</td></tr>
          <tr><td>1002 mb / 29.59 in Hg</td></tr>
          <tr><td>Maximum Intensity:</td></tr>
          <tr><td>40 kt / 46 mph / 74 kph</td></tr>
        </table>
      ]]></description>
      <Point><coordinates>149.9,14.3</coordinates></Point>
    </Placemark>
    <Placemark>
      <name>0000 UTC NOV 12</name>
      <styleUrl>#ts</styleUrl>
      <description><![CDATA[
        <table>
          <tr><td>TS MAN-YI (WP252024)</td></tr>
          <tr><td><hr></td></tr>
          <tr><td>0000 UTC NOV 12, 2024</td></tr>
          <tr><td>Storm Location:</td></tr>
          <tr><td><b>14.2 N, 148.8 E</b></td></tr>
          <tr><td>Min Sea Level Pressure:</td></tr>
          <tr><td>1003 mb / 29.62 in Hg</td></tr>
          <tr><td>Maximum Intensity:</td></tr>
          <tr><td>40 kt / 46 mph / 74 kph</td></tr>
        </table>
      ]]></description>
      <Point><coordinates>148.8,14.2</coordinates></Point>
    </Placemark>
    <Placemark>
      <name>0600 UTC NOV 12</name>
      <styleUrl>#ts</styleUrl>
      <description><![CDATA[
        <table>
          <tr><td>TS MAN-YI (WP252024)</td></tr>
          <tr><td><hr></td></tr>
          <tr><td>0600 UTC NOV 12, 2024</td></tr>
          <tr><td>Storm Location:</td></tr>
          <tr><td><b>14.1 N, 147.5 E</b></td></tr>
          <tr><td>Min Sea Level Pressure:</td></tr>
          <tr><td>1003 mb / 29.62 in Hg</td></tr>
          <tr><td>Maximum Intensity:</td></tr>
          <tr><td>40 kt / 46 mph / 74 kph</td></tr>
        </table>
      ]]></description>
      <Point><coordinates>147.5,14.1</coordinates></Point>
    </Placemark>
    <Placemark>
      <name>1200 UTC NOV 12</name>
      <styleUrl>#ts</styleUrl>
      <description><![CDATA[
        <table>
          <tr><td>TS MAN-YI (WP252024)</td></tr>
          <tr><td><hr></td></tr>
          <tr><td>1200 UTC NOV 12, 2024</td></tr>
          <tr><td>Storm Location:</td></tr>
          <tr><td><b>13.9 N, 146.4 E</b></td></tr>
          <tr><td>Min Sea Level Pressure:</td></tr>
          <tr><td>1003 mb / 29.62 in Hg</td></tr>
          <tr><td>Maximum Intensity:</td></tr>
          <tr><td>40 kt / 46 mph / 74 kph</td></tr>
        </table>
      ]]></description>
      <Point><coordinates>146.4,13.9</coordinates></Point>
    </Placemark>
    <Placemark>
      <name>1800 UTC NOV 12</name>
      <styleUrl>#ts</styleUrl>
      <description><![CDATA[
        <table>
          <tr><td>TS MAN-YI (WP252024)</td></tr>
          <tr><td><hr></td></tr>
          <tr><td>1800 UTC NOV 12, 2024</td></tr>
          <tr><td>Storm Location:</td></tr>
          <tr><td><b>13.2 N, 145.1 E</b></td></tr>
          <tr><td>Min Sea Level Pressure:</td></tr>
          <tr><td>1003 mb / 29.62 in Hg</td></tr>
          <tr><td>Maximum Intensity:</td></tr>
          <tr><td>35 kt / 40 mph / 65 kph</td></tr>
        </table>
      ]]></description>
      <Point><coordinates>145.1,13.2</coordinates></Point>
    </Placemark>
    <Placemark>
      <name>0000 UTC NOV 13</name>
      <styleUrl>#td</styleUrl>
      <description><![CDATA[
        <table>
          <tr><td>TD MAN-YI (WP252024)</td></tr>
          <tr><td><hr></td></tr>
          <tr><td>0000 UTC NOV 13, 2024</td></tr>
          <tr><td>Storm Location:</td></tr>
          <tr><td><b>12.5 N, 143.8 E</b></td></tr>
          <tr><td>Min Sea Level Pressure:</td></tr>
          <tr><td>1004 mb / 29.65 in Hg</td></tr>
          <tr><td>Maximum Intensity:</td></tr>
          <tr><td>30 kt / 35 mph / 56 kph</td></tr>
        </table>
      ]]></description>
      <Point><coordinates>143.8,12.5</coordinates></Point>
    </Placemark>
    <Placemark>
      <name>0600 UTC NOV 13</name>
      <styleUrl>#ts</styleUrl>
      <description><![CDATA[
        <table>
          <tr><td>TS MAN-YI (WP252024)</td></tr>
          <tr><td><hr></td></tr>
          <tr><td>0600 UTC NOV 13, 2024</td></tr>
          <tr><td>Storm Location:</td></tr>
          <tr><td><b>12.2 N, 142.7 E</b></td></tr>
          <tr><td>Min Sea Level Pressure:</td></tr>
          <tr><td>1003 mb / 29.62 in Hg</td></tr>
          <tr><td>Maximum Intensity:</td></tr>
          <tr><td>35 kt / 40 mph / 65 kph</td></tr>
        </table>
      ]]></description>
      <Point><coordinates>142.7,12.2</coordinates></Point>
    </Placemark>
    <Placemark>
      <name>1200 UTC NOV 13</name>
      <styleUrl>#ts</styleUrl>
      <description><![CDATA[
        <table>
          <tr><td>TS MAN-YI (WP252024)</td></tr>
          <tr><td><hr></td></tr>
          <tr><td>1200 UTC NOV 13, 2024</td></tr>
          <tr><td>Storm Location:</td></tr>
          <tr><td><b>11.9 N, 141.2 E</b></td></tr>
          <tr><td>Min Sea Level Pressure:</td></tr>
          <tr><td>1003 mb / 29.62 in Hg</td></tr>
          <tr><td>Maximum Intensity:</td></tr>
          <tr><td>35 kt / 40 mph / 65 kph</td></tr>
        </table>
      ]]></description>
      <Point><coordinates>141.2,11.9</coordinates></Point>
    </Placemark>
    <Placemark>
      <name>1800 UTC NOV 13</name>
      <styleUrl>#ts</styleUrl>
      <description><![CDATA[
        <table>
          <tr><td>TS MAN-YI (WP252024)</td></tr>
          <tr><td><hr></td></tr>
          <tr><td>1800 UTC NOV 13, 2024</td></tr>
          <tr><td>Storm Location:</td></tr>
          <tr><td><b>11.2 N, 139.5 E</b></td></tr>
          <tr><td>Min Sea Level Pressure:</td></tr>
          <tr><td>1001 mb / 29.56 in Hg</td></tr>
          <tr><td>Maximum Intensity:</td></tr>
          <tr><td>40 kt / 46 mph / 74 kph</td></tr>
        </table>
      ]]></description>
      <Point><coordinates>139.5,11.2</coordinates></Point>
    </Placemark>
    <Placemark>
      <name>0000 UTC NOV 14</name>
      <styleUrl>#ts</styleUrl>
      <description><![CDATA[
        <table>
          <tr><td>TS MAN-YI (WP252024)</td></tr>
          <tr><td><hr></td></tr>
          <tr><td>0000 UTC NOV 14, 2024</td></tr>
          <tr><td>Storm Location:</td></tr>
          <tr><td><b>10.7 N, 138.1 E</b></td></tr>
          <tr><td>Min Sea Level Pressure:</td></tr>
          <tr><td>1002 mb / 29.59 in Hg</td></tr>
          <tr><td>Maximum Intensity:</td></tr>
          <tr><td>40 kt / 46 mph / 74 kph</td></tr>
        </table>
      ]]></description>
      <Point><coordinates>138.1,10.7</coordinates></Point>
    </Placemark>
    <Placemark>
      <name>0600 UTC NOV 14</name>
      <styleUrl>#ts</styleUrl>
      <description><![CDATA[
        <table>
          <tr><td>TS MAN-YI (WP252024)</td></tr>
          <tr><td><hr></td></tr>
          <tr><td>0600 UTC NOV 14, 2024</td></tr>
          <tr><td>Storm Location:</td></tr>
          <tr><td><b>10.5 N, 136.7 E</b></td></tr>
          <tr><td>Min Sea Level Pressure:</td></tr>
          <tr><td>998 mb / 29.47 in Hg</td></tr>
          <tr><td>Maximum Intensity:</td></tr>
          <tr><td>45 kt / 52 mph / 83 kph</td></tr>
        </table>
      ]]></description>
      <Point><coordinates>136.7,10.5</coordinates></Point>
    </Placemark>
    <Placemark>
      <name>1200 UTC NOV 14</name>
      <styleUrl>#ts</styleUrl>
      <description><![CDATA[
        <table>
          <tr><td>TS MAN-YI (WP252024)</td></tr>
          <tr><td><hr></td></tr>
          <tr><td>1200 UTC NOV 14, 2024</td></tr>
          <tr><td>Storm Location:</td></tr>
          <tr><td><b>10.3 N, 135.0 E</b></td></tr>
          <tr><td>Min Sea Level Pressure:</td></tr>
          <tr><td>995 mb / 29.38 in Hg</td></tr>
          <tr><td>Maximum Intensity:</td></tr>
          <tr><td>50 kt / 58 mph / 93 kph</td></tr>
        </table>
      ]]></description>
      <Point><coordinates>135,10.3</coordinates></Point>
    </Placemark>
    <Placemark>
      <name>1800 UTC NOV 14</name>
      <styleUrl>#ts</styleUrl>
      <description><![CDATA[
        <table>
          <tr><td>TS MAN-YI (WP252024)</td></tr>
          <tr><td><hr></td></tr>
          <tr><td>1800 UTC NOV 14, 2024</td></tr>
          <tr><td>Storm Location:</td></tr>
          <tr><td><b>10.4 N, 133.5 E</b></td></tr>
          <tr><td>Min Sea Level Pressure:</td></tr>
          <tr><td>989 mb / 29.21 in Hg</td></tr>
          <tr><td>Maximum Intensity:</td></tr>
          <tr><td>60 kt / 69 mph / 111 kph</td></tr>
        </table>
      ]]></description>
      <Point><coordinates>133.5,10.4</coordinates></Point>
    </Placemark>
    <Placemark>
      <name>0000 UTC NOV 15</name>
      <styleUrl>#cat1</styleUrl>
      <description><![CDATA[
        <table>
          <tr><td>HU MAN-YI (WP252024)</td></tr>
          <tr><td><hr></td></tr>
          <tr><td>0000 UTC NOV 15, 2024</td></tr>
          <tr><td>Storm Location:</td></tr>
          <tr><td><b>10.5 N, 131.9 E</b></td></tr>
          <tr><td>Min Sea Level Pressure:</td></tr>
          <tr><td>983 mb / 29.03 in Hg</td></tr>
          <tr><td>Maximum Intensity:</td></tr>
          <tr><td>75 kt / 86 mph / 139 kph</td></tr>
        </table>
      ]]></description>
      <Point><coordinates>131.9,10.5</coordinates></Point>
    </Placemark>
    <Placemark>
      <name>0600 UTC NOV 15</name>
      <styleUrl>#cat2</styleUrl>
      <description><![CDATA[
        <table>
          <tr><td>HU MAN-YI (WP252024)</td></tr>
          <tr><td><hr></td></tr>
          <tr><td>0600 UTC NOV 15, 2024</td></tr>
          <tr><td>Storm Location:</td></tr>
          <tr><td><b>10.9 N, 130.4 E</b></td></tr>
          <tr><td>Min Sea Level Pressure:</td></tr>
          <tr><td>971 mb / 28.67 in Hg</td></tr>
          <tr><td>Maximum Intensity:</td></tr>
          <tr><td>90 kt / 104 mph / 167 kph</td></tr>
        </table>
      ]]></description>
      <Point><coordinates>130.4,10.9</coordinates></Point>
    </Placemark>
    <Placemark>
      <name>1200 UTC NOV 15</name>
      <styleUrl>#cat3</styleUrl>
      <description><![CDATA[
        <table>
          <tr><td>HU MAN-YI (WP252024)</td></tr>
          <tr><td><hr></td></tr>
          <tr><td>1200 UTC NOV 15, 2024</td></tr>
          <tr><td>Storm Location:</td></tr>
          <tr><td><b>11.4 N, 129.0 E</b></td></tr>
          <tr><td>Min Sea Level Pressure:</td></tr>
          <tr><td>963 mb / 28.44 in Hg</td></tr>
          <tr><td>Maximum Intensity:</td></tr>
          <tr><td>100 kt / 115 mph / 185 kph</td></tr>
        </table>
      ]]></description>
      <Point><coordinates>129,11.4</coordinates></Point>
    </Placemark>
    <Placemark>
      <name>1800 UTC NOV 15</name>
      <styleUrl>#cat4</styleUrl>
      <description><![CDATA[
        <table>
          <tr><td>HU MAN-YI (WP252024)</td></tr>
          <tr><td><hr></td></tr>
          <tr><td>1800 UTC NOV 15, 2024</td></tr>
          <tr><td>Storm Location:</td></tr>
          <tr><td><b>12.0 N, 127.8 E</b></td></tr>
          <tr><td>Min Sea Level Pressure:</td></tr>
          <tr><td>940 mb / 27.76 in Hg</td></tr>
          <tr><td>Maximum Intensity:</td></tr>
          <tr><td>125 kt / 144 mph / 232 kph</td></tr>
        </table>
      ]]></description>
      <Point><coordinates>127.8,12</coordinates></Point>
    </Placemark>
    <Placemark>
      <name>0000 UTC NOV 16</name>
      <styleUrl>#cat5</styleUrl>
      <description><![CDATA[
        <table>
          <tr><td>HU MAN-YI (WP252024)</td></tr>
          <tr><td><hr></td></tr>
          <tr><td>0000 UTC NOV 16, 2024</td></tr>
          <tr><td>Storm Location:</td></tr>
          <tr><td><b>12.6 N, 126.6 E</b></td></tr>
          <tr><td>Min Sea Level Pressure:</td></tr>
          <tr><td>924 mb / 27.29 in Hg</td></tr>
          <tr><td>Maximum Intensity:</td></tr>
          <tr><td>140 kt / 161 mph / 259 kph</td></tr>
        </table>
      ]]></description>
      <Point><coordinates>126.6,12.6</coordinates></Point>
    </Placemark>
    <Placemark>
      <name>0600 UTC NOV 16</name>
      <styleUrl>#cat4</styleUrl>
      <description><![CDATA[
        <table>
          <tr><td>HU MAN-YI (WP252024)</td></tr>
          <tr><td><hr></td></tr>
          <tr><td>0600 UTC NOV 16, 2024</td></tr>
          <tr><td>Storm Location:</td></tr>
          <tr><td><b>13.2 N, 125.6 E</b></td></tr>
          <tr><td>Min Sea Level Pressure:</td></tr>
          <tr><td>927 mb / 27.37 in Hg</td></tr>
          <tr><td>Maximum Intensity:</td></tr>
          <tr><td>135 kt / 155 mph / 250 kph</td></tr>
        </table>
      ]]></description>
      <Point><coordinates>125.6,13.2</coordinates></Point>
    </Placemark>
    <Placemark>
      <name>1200 UTC NOV 16</name>
      <styleUrl>#cat4</styleUrl>
      <description><![CDATA[
        <table>
          <tr><td>HU MAN-YI (WP252024)</td></tr>
          <tr><td><hr></td></tr>
          <tr><td>1200 UTC NOV 16, 2024</td></tr>
          <tr><td>Storm Location:</td></tr>
          <tr><td><b>13.9 N, 124.6 E</b></td></tr>
          <tr><td>Min Sea Level Pressure:</td></tr>
          <tr><td>935 mb / 27.61 in Hg</td></tr>
          <tr><td>Maximum Intensity:</td></tr>
          <tr><td>130 kt / 150 mph / 241 kph</td></tr>
        </table>
      ]]></description>
      <Point><coordinates>124.6,13.9</coordinates></Point>
    </Placemark>
    <Placemark>
      <name>1800 UTC NOV 16</name>
      <styleUrl>#cat4</styleUrl>
      <description><![CDATA[
        <table>
          <tr><td>HU MAN-YI (WP252024)</td></tr>
          <tr><td><hr></td></tr>
          <tr><td>1800 UTC NOV 16, 2024</td></tr>
          <tr><td>Storm Location:</td></tr>
          <tr><td><b>14.3 N, 123.8 E</b></td></tr>
          <tr><td>Min Sea Level Pressure:</td></tr>
          <tr><td>941 mb / 27.79 in Hg</td></tr>
          <tr><td>Maximum Intensity:</td></tr>
          <tr><td>120 kt / 138 mph / 222 kph</td></tr>
        </table>
      ]]></description>
      <Point><coordinates>123.8,14.3</coordinates></Point>
    </Placemark>
    <Placemark>
      <name>0000 UTC NOV 17</name>
      <styleUrl>#cat4</styleUrl>
      <description><![CDATA[
        <table>
          <tr><td>HU MAN-YI (WP252024)</td></tr>
          <tr><td><hr></td></tr>
          <tr><td>0000 UTC NOV 17, 2024</td></tr>
          <tr><td>Storm Location:</td></tr>
          <tr><td><b>15.0 N, 122.9 E</b></td></tr>
          <tr><td>Min Sea Level Pressure:</td></tr>
          <tr><td>938 mb / 27.70 in Hg</td></tr>
          <tr><td>Maximum Intensity:</td></tr>
          <tr><td>125 kt / 144 mph / 232 kph</td></tr>
        </table>
      ]]></description>
      <Point><coordinates>122.9,15</coordinates></Point>
    </Placemark>
    <Placemark>
      <name>0600 UTC NOV 17</name>
      <styleUrl>#cat4</styleUrl>
      <description><![CDATA[
        <table>
          <tr><td>HU MAN-YI (WP252024)</td></tr>
          <tr><td><hr></td></tr>
          <tr><td>0600 UTC NOV 17, 2024</td></tr>
          <tr><td>Storm Location:</td></tr>
          <tr><td><b>15.8 N, 121.9 E</b></td></tr>
          <tr><td>Min Sea Level Pressure:</td></tr>
          <tr><td>933 mb / 27.55 in Hg</td></tr>
          <tr><td>Maximum Intensity:</td></tr>
          <tr><td>130 kt / 150 mph / 241 kph</td></tr>
        </table>
      ]]></description>
      <Point><coordinates>121.9,15.8</coordinates></Point>
    </Placemark>
    <Placemark>
      <name>1200 UTC NOV 17</name>
      <styleUrl>#cat2</styleUrl>
      <description><![CDATA[
        <table>
          <tr><td>HU MAN-YI (WP252024)</td></tr>
          <tr><td><hr></td></tr>
          <tr><td>1200 UTC NOV 17, 2024</td></tr>
          <tr><td>Storm Location:</td></tr>
          <tr><td><b>16.4 N, 120.8 E</b></td></tr>
          <tr><td>Min Sea Level Pressure:</td></tr>
          <tr><td>970 mb / 28.64 in Hg</td></tr>
          <tr><td>Maximum Intensity:</td></tr>
          <tr><td>90 kt / 104 mph / 167 kph</td></tr>
        </table>
      ]]></description>
      <Point><coordinates>120.8,16.4</coordinates></Point>
    </Placemark>
    <Placemark>
      <name>1800 UTC NOV 17</name>
      <styleUrl>#cat1</styleUrl>
      <description><![CDATA[
        <table>
          <tr><td>HU MAN-YI (WP252024)</td></tr>
          <tr><td><hr></td></tr>
          <tr><td>1800 UTC NOV 17, 2024</td></tr>
          <tr><td>Storm Location:</td></tr>
          <tr><td><b>17.7 N, 119.3 E</b></td></tr>
          <tr><td>Min Sea Level Pressure:</td></tr>
          <tr><td>981 mb / 28.97 in Hg</td></tr>
          <tr><td>Maximum Intensity:</td></tr>
          <tr><td>75 kt / 86 mph / 139 kph</td></tr>
        </table>
      ]]></description>
      <Point><coordinates>119.3,17.7</coordinates></Point>
    </Placemark>
    <Placemark>
      <name>0000 UTC NOV 18</name>
      <styleUrl>#ts</styleUrl>
      <description><![CDATA[
        <table>
          <tr><td>TS MAN-YI (WP252024)</td></tr>
          <tr><td><hr></td></tr>
          <tr><td>0000 UTC NOV 18, 2024</td></tr>
          <tr><td>Storm Location:</td></tr>
          <tr><td><b>18.2 N, 118.3 E</b></td></tr>
          <tr><td>Min Sea Level Pressure:</td></tr>
          <tr><td>994 mb / 29.35 in Hg</td></tr>
          <tr><td>Maximum Intensity:</td></tr>
          <tr><td>55 kt / 63 mph / 102 kph</td></tr>
        </table>
      ]]></description>
      <Point><coordinates>118.3,18.2</coordinates></Point>
    </Placemark>
    <Placemark>
      <name>0600 UTC NOV 18</name>
      <styleUrl>#ts</styleUrl>
      <description><![CDATA[
        <table>
          <tr><td>TS MAN-YI (WP252024)</td></tr>
          <tr><td><hr></td></tr>
          <tr><td>0600 UTC NOV 18, 2024</td></tr>
          <tr><td>Storm Location:</td></tr>
          <tr><td><b>18.6 N, 117.0 E</b></td></tr>
          <tr><td>Min Sea Level Pressure:</td></tr>
          <tr><td>992 mb / 29.29 in Hg</td></tr>
          <tr><td>Maximum Intensity:</td></tr>
          <tr><td>55 kt / 63 mph / 102 kph</td></tr>
        </table>
      ]]></description>
      <Point><coordinates>117,18.6</coordinates></Point>
    </Placemark>
    <Placemark>
      <name>1200 UTC NOV 18</name>
      <styleUrl>#ts</styleUrl>
      <description><![CDATA[
        <table>
          <tr><td>TS MAN-YI (WP252024)</td></tr>
          <tr><td><hr></td></tr>
          <tr><td>1200 UTC NOV 18, 2024</td></tr>
          <tr><td>Storm Location:</td></tr>
          <tr><td><b>18.6 N, 116.3 E</b></td></tr>
          <tr><td>Min Sea Level Pressure:</td></tr>
          <tr><td>992 mb / 29.29 in Hg</td></tr>
          <tr><td>Maximum Intensity:</td></tr>
          <tr><td>55 kt / 63 mph / 102 kph</td></tr>
        </table>
      ]]></description>
      <Point><coordinates>116.3,18.6</coordinates></Point>
    </Placemark>
    <Placemark>
      <name>1800 UTC NOV 18</name>
      <styleUrl>#ts</styleUrl>
      <description><![CDATA[
        <table>
          <tr><td>TS MAN-YI (WP252024)</td></tr>
          <tr><td><hr></td></tr>
          <tr><td>1800 UTC NOV 18, 2024</td></tr>
          <tr><td>Storm Location:</td></tr>
          <tr><td><b>18.8 N, 115.3 E</b></td></tr>
          <tr><td>Min Sea Level Pressure:</td></tr>
          <tr><td>999 mb / 29.50 in Hg</td></tr>
          <tr><td>Maximum Intensity:</td></tr>
          <tr><td>45 kt / 52 mph / 83 kph</td></tr>
        </table>
      ]]></description>
      <Point><coordinates>115.3,18.8</coordinates></Point>
    </Placemark>
    <Placemark>
      <name>0000 UTC NOV 19</name>
      <styleUrl>#ts</styleUrl>
      <description><![CDATA[
        <table>
          <tr><td>TS MAN-YI (WP252024)</td></tr>
          <tr><td><hr></td></tr>
          <tr><td>0000 UTC NOV 19, 2024</td></tr>
          <tr><td>Storm Location:</td></tr>
          <tr><td><b>19.0 N, 113.7 E</b></td></tr>
          <tr><td>Min Sea Level Pressure:</td></tr>
          <tr><td>1000 mb / 29.53 in Hg</td></tr>
          <tr><td>Maximum Intensity:</td></tr>
          <tr><td>45 kt / 52 mph / 83 kph</td></tr>
        </table>
      ]]></description>
      <Point><coordinates>113.7,19</coordinates></Point>
    </Placemark>
    <Placemark>
      <name>0600 UTC NOV 19</name>
      <styleUrl>#ts</styleUrl>
      <description><![CDATA[
        <table>
          <tr><td>TS MAN-YI (WP252024)</td></tr>
          <tr><td><hr></td></tr>
          <tr><td>0600 UTC NOV 19, 2024</td></tr>
          <tr><td>Storm Location:</td></tr>
          <tr><td><b>18.8 N, 112.9 E</b></td></tr>
          <tr><td>Min Sea Level Pressure:</td></tr>
          <tr><td>1002 mb / 29.59 in Hg</td></tr>
          <tr><td>Maximum Intensity:</td></tr>
          <tr><td>35 kt / 40 mph / 65 kph</td></tr>
        </table>
      ]]></description>
      <Point><coordinates>112.9,18.8</coordinates></Point>
    </Placemark>
    <Placemark>
      <name>1200 UTC NOV 19</name>
      <styleUrl>#td</styleUrl>
      <description><![CDATA[
        <table>
          <tr><td>TD MAN-YI (WP252024)</td></tr>
          <tr><td><hr></td></tr>
          <tr><td>1200 UTC NOV 19, 2024</td></tr>
          <tr><td>Storm Location:</td></tr>
          <tr><td><b>18.1 N, 111.8 E</b></td></tr>
          <tr><td>Min Sea Level Pressure:</td></tr>
          <tr><td>995 mb / 29.38 in Hg</td></tr>
          <tr><td>Maximum Intensity:</td></tr>
          <tr><td>30 kt / 35 mph / 56 kph</td></tr>
        </table>
      ]]></description>
      <Point><coordinates>111.8,18.1</coordinates></Point>
    </Placemark>
    <Placemark>
      <name>1800 UTC NOV 19</name>
      <styleUrl>#td</styleUrl>
      <description><![CDATA[
        <table>
          <tr><td>TD MAN-YI (WP252024)</td></tr>
          <tr><td><hr></td></tr>
          <tr><td>1800 UTC NOV 19, 2024</td></tr>
          <tr><td>Storm Location:</td></tr>
          <tr><td><b>17.4 N, 111.2 E</b></td></tr>
          <tr><td>Min Sea Level Pressure:</td></tr>
          <tr><td>997 mb / 29.44 in Hg</td></tr>
          <tr><td>Maximum Intensity:</td></tr>
          <tr><td>25 kt / 29 mph / 46 kph</td></tr>
        </table>
      ]]></description>
      <Point><coordinates>111.2,17.4</coordinates></Point>
    </Placemark>
  </Document>
</kml>
