<?xml version="1.0" encoding="UTF-8"?>
<kml xmlns="http://www.opengis.net/kml/2.2">
  <Document>
    <name>WP262024</name>
    <open>0</open>

    <!-- =====  Document header ===== -->
    <description><![CDATA[
      <table>
        <tr><td><b>Title:</b> Tropical Cyclone Best Track for WP262024</td></tr>
      </table>
    ]]></description>

    <!-- =====  Styles (ids must be unique)  ===== -->
	<Style id="pt"> 
		<IconStyle> 
			<scale>1.0</scale> 
			<Icon> 
				<href>ex_nhemi.png</href> 
			</Icon> 
             <hotSpot x="15" y="17" xunits="pixels" yunits="pixels"/>
		</IconStyle> 
		<LabelStyle> 
			<scale>1.0</scale> 
		</LabelStyle> 
	</Style>
	<Style id="cat5"> 
		<IconStyle> 
			<scale>1.0</scale> 
			<Icon> 
				<href>cat5_nhemi.png</href> 
			</Icon> 
             <hotSpot x="15" y="17" xunits="pixels" yunits="pixels"/>
		</IconStyle> 
		<LabelStyle> 
			<scale>1.0</scale> 
		</LabelStyle> 
	</Style>
	<Style id="db"> 
		<IconStyle> 
			<scale>1.0</scale> 
			<Icon> 
				<href>ex_nhemi.png</href> 
			</Icon> 
             <hotSpot x="15" y="17" xunits="pixels" yunits="pixels"/>
		</IconStyle> 
		<LabelStyle> 
			<scale>1.0</scale> 
		</LabelStyle> 
	</Style>
	<Style id="cat3"> 
		<IconStyle> 
			<scale>1.0</scale> 
			<Icon> 
				<href>cat3_nhemi.png</href> 
			</Icon> 
             <hotSpot x="15" y="17" xunits="pixels" yunits="pixels"/>
		</IconStyle> 
		<LabelStyle> 
			<scale>1.0</scale> 
		</LabelStyle> 
	</Style>
	<Style id="ss"> 
		<IconStyle> 
			<scale>1.0</scale> 
			<Icon> 
				<href>ts_nhemi.png</href> 
			</Icon> 
             <hotSpot x="15" y="17" xunits="pixels" yunits="pixels"/>
		</IconStyle> 
		<LabelStyle> 
			<scale>1.0</scale> 
		</LabelStyle> 
	</Style>
	<Style id="lo"> 
		<IconStyle> 
			<scale>1.0</scale> 
			<Icon> 
				<href>ex_nhemi.png</href> 
			</Icon> 
             <hotSpot x="15" y="17" xunits="pixels" yunits="pixels"/>
		</IconStyle> 
		<LabelStyle> 
			<scale>1.0</scale> 
		</LabelStyle> 
	</Style>
	<Style id="cat4"> 
		<IconStyle> 
			<scale>1.0</scale> 
			<Icon> 
				<href>cat4_nhemi.png</href> 
			</Icon> 
             <hotSpot x="15" y="17" xunits="pixels" yunits="pixels"/>
		</IconStyle> 
		<LabelStyle> 
			<scale>1.0</scale> 
		</LabelStyle> 
	</Style>
	<Style id="cat2"> 
		<IconStyle> 
			<scale>1.0</scale> 
			<Icon> 
				<href>cat2_nhemi.png</href> 
			</Icon> 
             <hotSpot x="15" y="17" xunits="pixels" yunits="pixels"/>
		</IconStyle> 
		<LabelStyle> 
			<scale>1.0</scale> 
		</LabelStyle> 
	</Style>
	<Style id="ts"> 
		<IconStyle> 
			<scale>1.0</scale> 
			<Icon> 
				<href>ts_nhemi.png</href> 
			</Icon> 
             <hotSpot x="15" y="17" xunits="pixels" yunits="pixels"/>
		</IconStyle> 
		<LabelStyle> 
			<scale>1.0</scale> 
		</LabelStyle> 
	</Style>
	<Style id="cat1"> 
		<IconStyle> 
			<scale>1.0</scale> 
			<Icon> 
				<href>cat1_nhemi.png</href> 
			</Icon> 
             <hotSpot x="15" y="17" xunits="pixels" yunits="pixels"/>
		</IconStyle> 
		<LabelStyle> 
			<scale>1.0</scale> 
		</LabelStyle> 
	</Style>
	<Style id="ex"> 
		<IconStyle> 
			<scale>1.0</scale> 
			<Icon> 
				<href>ex_nhemi.png</href> 
			</Icon> 
             <hotSpot x="15" y="17" xunits="pixels" yunits="pixels"/>
		</IconStyle> 
		<LabelStyle> 
			<scale>1.0</scale> 
		</LabelStyle> 
	</Style>
	<Style id="tc"> 
		<IconStyle> 
			<scale>1.0</scale> 
			<Icon> 
				<href>ex_nhemi.png</href> 
			</Icon> 
             <hotSpot x="15" y="17" xunits="pixels" yunits="pixels"/>
		</IconStyle> 
		<LabelStyle> 
			<scale>1.0</scale> 
		</LabelStyle> 
	</Style>
	<Style id="wv"> 
		<IconStyle> 
			<scale>1.0</scale> 
			<Icon> 
				<href>ex_nhemi.png</href> 
			</Icon> 
             <hotSpot x="15" y="17" xunits="pixels" yunits="pixels"/>
		</IconStyle> 
		<LabelStyle> 
			<scale>1.0</scale> 
		</LabelStyle> 
	</Style>
	<Style id="td"> 
		<IconStyle> 
			<scale>1.0</scale> 
			<Icon> 
				<href>td_nhemi.png</href> 
			</Icon> 
             <hotSpot x="15" y="17" xunits="pixels" yunits="pixels"/>
		</IconStyle> 
		<LabelStyle> 
			<scale>1.0</scale> 
		</LabelStyle> 
	</Style>
	<Style id="sd"> 
		<IconStyle> 
			<scale>1.0</scale> 
			<Icon> 
				<href>ex_nhemi.png</href> 
			</Icon> 
             <hotSpot x="15" y="17" xunits="pixels" yunits="pixels"/>
		</IconStyle> 
		<LabelStyle> 
			<scale>1.0</scale> 
		</LabelStyle> 
	</Style>

    <Placemark>
      <name>0600 UTC NOV 7</name>
      <styleUrl>#db</styleUrl>
      <description><![CDATA[
        <table>
          <tr><td>DB TORAJI (WP262024)</td></tr>
          <tr><td><hr></td></tr>
          <tr><td>0600 UTC NOV 7, 2024</td></tr>
          <tr><td>Storm Location:</td></tr>
          <tr><td><b>13.9 N, 144.6 E</b></td></tr>
          <tr><td>Min Sea Level Pressure:</td></tr>
          <tr><td>1010 mb / 29.83 in Hg</td></tr>
          <tr><td>Maximum Intensity:</td></tr>
          <tr><td>15 kt / 17 mph / 28 kph</td></tr>
        </table>
      ]]></description>
      <Point><coordinates>144.6,13.9</coordinates></Point>
    </Placemark>
    <Placemark>
      <name>1200 UTC NOV 7</name>
      <styleUrl>#db</styleUrl>
      <description><![CDATA[
        <table>
          <tr><td>DB TORAJI (WP262024)</td></tr>
          <tr><td><hr></td></tr>
          <tr><td>1200 UTC NOV 7, 2024</td></tr>
          <tr><td>Storm Location:</td></tr>
          <tr><td><b>14.3 N, 143.0 E</b></td></tr>
          <tr><td>Min Sea Level Pressure:</td></tr>
          <tr><td>1010 mb / 29.83 in Hg</td></tr>
          <tr><td>Maximum Intensity:</td></tr>
          <tr><td>15 kt / 17 mph / 28 kph</td></tr>
        </table>
      ]]></description>
      <Point><coordinates>143,14.3</coordinates></Point>
    </Placemark>
    <Placemark>
      <name>1800 UTC NOV 7</name>
      <styleUrl>#db</styleUrl>
      <description><![CDATA[
        <table>
          <tr><td>DB TORAJI (WP262024)</td></tr>
          <tr><td><hr></td></tr>
          <tr><td>1800 UTC NOV 7, 2024</td></tr>
          <tr><td>Storm Location:</td></tr>
          <tr><td><b>14.8 N, 141.3 E</b></td></tr>
          <tr><td>Min Sea Level Pressure:</td></tr>
          <tr><td>1005 mb / 29.68 in Hg</td></tr>
          <tr><td>Maximum Intensity:</td></tr>
          <tr><td>20 kt / 23 mph / 37 kph</td></tr>
        </table>
      ]]></description>
      <Point><coordinates>141.3,14.8</coordinates></Point>
    </Placemark>
    <Placemark>
      <name>0000 UTC NOV 8</name>
      <styleUrl>#db</styleUrl>
      <description><![CDATA[
        <table>
          <tr><td>DB TORAJI (WP262024)</td></tr>
          <tr><td><hr></td></tr>
          <tr><td>0000 UTC NOV 8, 2024</td></tr>
          <tr><td>Storm Location:</td></tr>
          <tr><td><b>14.8 N, 139.0 E</b></td></tr>
          <tr><td>Min Sea Level Pressure:</td></tr>
          <tr><td>1003 mb / 29.62 in Hg</td></tr>
          <tr><td>Maximum Intensity:</td></tr>
          <tr><td>20 kt / 23 mph / 37 kph</td></tr>
        </table>
      ]]></description>
      <Point><coordinates>139,14.8</coordinates></Point>
    </Placemark>
    <Placemark>
      <name>0600 UTC NOV 8</name>
      <styleUrl>#db</styleUrl>
      <description><![CDATA[
        <table>
          <tr><td>DB TORAJI (WP262024)</td></tr>
          <tr><td><hr></td></tr>
          <tr><td>0600 UTC NOV 8, 2024</td></tr>
          <tr><td>Storm Location:</td></tr>
          <tr><td><b>14.5 N, 137.6 E</b></td></tr>
          <tr><td>Min Sea Level Pressure:</td></tr>
          <tr><td>1001 mb / 29.56 in Hg</td></tr>
          <tr><td>Maximum Intensity:</td></tr>
          <tr><td>20 kt / 23 mph / 37 kph</td></tr>
        </table>
      ]]></description>
      <Point><coordinates>137.6,14.5</coordinates></Point>
    </Placemark>
    <Placemark>
      <name>1200 UTC NOV 8</name>
      <styleUrl>#db</styleUrl>
      <description><![CDATA[
        <table>
          <tr><td>DB TORAJI (WP262024)</td></tr>
          <tr><td><hr></td></tr>
          <tr><td>1200 UTC NOV 8, 2024</td></tr>
          <tr><td>Storm Location:</td></tr>
          <tr><td><b>14.5 N, 136.3 E</b></td></tr>
          <tr><td>Min Sea Level Pressure:</td></tr>
          <tr><td>1001 mb / 29.56 in Hg</td></tr>
          <tr><td>Maximum Intensity:</td></tr>
          <tr><td>20 kt / 23 mph / 37 kph</td></tr>
        </table>
      ]]></description>
      <Point><coordinates>136.3,14.5</coordinates></Point>
    </Placemark>
    <Placemark>
      <name>1800 UTC NOV 8</name>
      <styleUrl>#td</styleUrl>
      <description><![CDATA[
        <table>
          <tr><td>TD TORAJI (WP262024)</td></tr>
          <tr><td><hr></td></tr>
          <tr><td>1800 UTC NOV 8, 2024</td></tr>
          <tr><td>Storm Location:</td></tr>
          <tr><td><b>14.6 N, 134.6 E</b></td></tr>
          <tr><td>Min Sea Level Pressure:</td></tr>
          <tr><td>998 mb / 29.47 in Hg</td></tr>
          <tr><td>Maximum Intensity:</td></tr>
          <tr><td>25 kt / 29 mph / 46 kph</td></tr>
        </table>
      ]]></description>
      <Point><coordinates>134.6,14.6</coordinates></Point>
    </Placemark>
    <Placemark>
      <name>0000 UTC NOV 9</name>
      <styleUrl>#td</styleUrl>
      <description><![CDATA[
        <table>
          <tr><td>TD TORAJI (WP262024)</td></tr>
          <tr><td><hr></td></tr>
          <tr><td>0000 UTC NOV 9, 2024</td></tr>
          <tr><td>Storm Location:</td></tr>
          <tr><td><b>14.4 N, 133.1 E</b></td></tr>
          <tr><td>Min Sea Level Pressure:</td></tr>
          <tr><td>995 mb / 29.38 in Hg</td></tr>
          <tr><td>Maximum Intensity:</td></tr>
          <tr><td>25 kt / 29 mph / 46 kph</td></tr>
        </table>
      ]]></description>
      <Point><coordinates>133.1,14.4</coordinates></Point>
    </Placemark>
    <Placemark>
      <name>0600 UTC NOV 9</name>
      <styleUrl>#ts</styleUrl>
      <description><![CDATA[
        <table>
          <tr><td>TS TORAJI (WP262024)</td></tr>
          <tr><td><hr></td></tr>
          <tr><td>0600 UTC NOV 9, 2024</td></tr>
          <tr><td>Storm Location:</td></tr>
          <tr><td><b>14.4 N, 131.6 E</b></td></tr>
          <tr><td>Min Sea Level Pressure:</td></tr>
          <tr><td>992 mb / 29.29 in Hg</td></tr>
          <tr><td>Maximum Intensity:</td></tr>
          <tr><td>40 kt / 46 mph / 74 kph</td></tr>
        </table>
      ]]></description>
      <Point><coordinates>131.6,14.4</coordinates></Point>
    </Placemark>
    <Placemark>
      <name>1200 UTC NOV 9</name>
      <styleUrl>#ts</styleUrl>
      <description><![CDATA[
        <table>
          <tr><td>TS TORAJI (WP262024)</td></tr>
          <tr><td><hr></td></tr>
          <tr><td>1200 UTC NOV 9, 2024</td></tr>
          <tr><td>Storm Location:</td></tr>
          <tr><td><b>14.8 N, 130.1 E</b></td></tr>
          <tr><td>Min Sea Level Pressure:</td></tr>
          <tr><td>990 mb / 29.23 in Hg</td></tr>
          <tr><td>Maximum Intensity:</td></tr>
          <tr><td>55 kt / 63 mph / 102 kph</td></tr>
        </table>
      ]]></description>
      <Point><coordinates>130.1,14.8</coordinates></Point>
    </Placemark>
    <Placemark>
      <name>1800 UTC NOV 9</name>
      <styleUrl>#ts</styleUrl>
      <description><![CDATA[
        <table>
          <tr><td>TS TORAJI (WP262024)</td></tr>
          <tr><td><hr></td></tr>
          <tr><td>1800 UTC NOV 9, 2024</td></tr>
          <tr><td>Storm Location:</td></tr>
          <tr><td><b>15.1 N, 128.5 E</b></td></tr>
          <tr><td>Min Sea Level Pressure:</td></tr>
          <tr><td>989 mb / 29.21 in Hg</td></tr>
          <tr><td>Maximum Intensity:</td></tr>
          <tr><td>60 kt / 69 mph / 111 kph</td></tr>
        </table>
      ]]></description>
      <Point><coordinates>128.5,15.1</coordinates></Point>
    </Placemark>
    <Placemark>
      <name>0000 UTC NOV 10</name>
      <styleUrl>#cat1</styleUrl>
      <description><![CDATA[
        <table>
          <tr><td>HU TORAJI (WP262024)</td></tr>
          <tr><td><hr></td></tr>
          <tr><td>0000 UTC NOV 10, 2024</td></tr>
          <tr><td>Storm Location:</td></tr>
          <tr><td><b>15.2 N, 126.8 E</b></td></tr>
          <tr><td>Min Sea Level Pressure:</td></tr>
          <tr><td>986 mb / 29.12 in Hg</td></tr>
          <tr><td>Maximum Intensity:</td></tr>
          <tr><td>65 kt / 75 mph / 120 kph</td></tr>
        </table>
      ]]></description>
      <Point><coordinates>126.8,15.2</coordinates></Point>
    </Placemark>
    <Placemark>
      <name>0600 UTC NOV 10</name>
      <styleUrl>#cat1</styleUrl>
      <description><![CDATA[
        <table>
          <tr><td>HU TORAJI (WP262024)</td></tr>
          <tr><td><hr></td></tr>
          <tr><td>0600 UTC NOV 10, 2024</td></tr>
          <tr><td>Storm Location:</td></tr>
          <tr><td><b>15.2 N, 125.7 E</b></td></tr>
          <tr><td>Min Sea Level Pressure:</td></tr>
          <tr><td>979 mb / 28.91 in Hg</td></tr>
          <tr><td>Maximum Intensity:</td></tr>
          <tr><td>75 kt / 86 mph / 139 kph</td></tr>
        </table>
      ]]></description>
      <Point><coordinates>125.7,15.2</coordinates></Point>
    </Placemark>
    <Placemark>
      <name>1200 UTC NOV 10</name>
      <styleUrl>#cat1</styleUrl>
      <description><![CDATA[
        <table>
          <tr><td>HU TORAJI (WP262024)</td></tr>
          <tr><td><hr></td></tr>
          <tr><td>1200 UTC NOV 10, 2024</td></tr>
          <tr><td>Storm Location:</td></tr>
          <tr><td><b>15.5 N, 124.5 E</b></td></tr>
          <tr><td>Min Sea Level Pressure:</td></tr>
          <tr><td>976 mb / 28.82 in Hg</td></tr>
          <tr><td>Maximum Intensity:</td></tr>
          <tr><td>80 kt / 92 mph / 148 kph</td></tr>
        </table>
      ]]></description>
      <Point><coordinates>124.5,15.5</coordinates></Point>
    </Placemark>
    <Placemark>
      <name>1800 UTC NOV 10</name>
      <styleUrl>#cat1</styleUrl>
      <description><![CDATA[
        <table>
          <tr><td>HU TORAJI (WP262024)</td></tr>
          <tr><td><hr></td></tr>
          <tr><td>1800 UTC NOV 10, 2024</td></tr>
          <tr><td>Storm Location:</td></tr>
          <tr><td><b>15.9 N, 123.2 E</b></td></tr>
          <tr><td>Min Sea Level Pressure:</td></tr>
          <tr><td>980 mb / 28.94 in Hg</td></tr>
          <tr><td>Maximum Intensity:</td></tr>
          <tr><td>75 kt / 86 mph / 139 kph</td></tr>
        </table>
      ]]></description>
      <Point><coordinates>123.2,15.9</coordinates></Point>
    </Placemark>
    <Placemark>
      <name>0000 UTC NOV 11</name>
      <styleUrl>#cat1</styleUrl>
      <description><![CDATA[
        <table>
          <tr><td>HU TORAJI (WP262024)</td></tr>
          <tr><td><hr></td></tr>
          <tr><td>0000 UTC NOV 11, 2024</td></tr>
          <tr><td>Storm Location:</td></tr>
          <tr><td><b>16.4 N, 122.3 E</b></td></tr>
          <tr><td>Min Sea Level Pressure:</td></tr>
          <tr><td>980 mb / 28.94 in Hg</td></tr>
          <tr><td>Maximum Intensity:</td></tr>
          <tr><td>75 kt / 86 mph / 139 kph</td></tr>
        </table>
      ]]></description>
      <Point><coordinates>122.3,16.4</coordinates></Point>
    </Placemark>
    <Placemark>
      <name>0600 UTC NOV 11</name>
      <styleUrl>#cat1</styleUrl>
      <description><![CDATA[
        <table>
          <tr><td>HU TORAJI (WP262024)</td></tr>
          <tr><td><hr></td></tr>
          <tr><td>0600 UTC NOV 11, 2024</td></tr>
          <tr><td>Storm Location:</td></tr>
          <tr><td><b>17.0 N, 121.0 E</b></td></tr>
          <tr><td>Min Sea Level Pressure:</td></tr>
          <tr><td>984 mb / 29.06 in Hg</td></tr>
          <tr><td>Maximum Intensity:</td></tr>
          <tr><td>65 kt / 75 mph / 120 kph</td></tr>
        </table>
      ]]></description>
      <Point><coordinates>121,17</coordinates></Point>
    </Placemark>
    <Placemark>
      <name>1200 UTC NOV 11</name>
      <styleUrl>#ts</styleUrl>
      <description><![CDATA[
        <table>
          <tr><td>TS TORAJI (WP262024)</td></tr>
          <tr><td><hr></td></tr>
          <tr><td>1200 UTC NOV 11, 2024</td></tr>
          <tr><td>Storm Location:</td></tr>
          <tr><td><b>17.9 N, 120.0 E</b></td></tr>
          <tr><td>Min Sea Level Pressure:</td></tr>
          <tr><td>992 mb / 29.29 in Hg</td></tr>
          <tr><td>Maximum Intensity:</td></tr>
          <tr><td>40 kt / 46 mph / 74 kph</td></tr>
        </table>
      ]]></description>
      <Point><coordinates>120,17.9</coordinates></Point>
    </Placemark>
    <Placemark>
      <name>1800 UTC NOV 11</name>
      <styleUrl>#ts</styleUrl>
      <description><![CDATA[
        <table>
          <tr><td>TS TORAJI (WP262024)</td></tr>
          <tr><td><hr></td></tr>
          <tr><td>1800 UTC NOV 11, 2024</td></tr>
          <tr><td>Storm Location:</td></tr>
          <tr><td><b>18.3 N, 119.0 E</b></td></tr>
          <tr><td>Min Sea Level Pressure:</td></tr>
          <tr><td>990 mb / 29.23 in Hg</td></tr>
          <tr><td>Maximum Intensity:</td></tr>
          <tr><td>45 kt / 52 mph / 83 kph</td></tr>
        </table>
      ]]></description>
      <Point><coordinates>119,18.3</coordinates></Point>
    </Placemark>
    <Placemark>
      <name>0000 UTC NOV 12</name>
      <styleUrl>#ts</styleUrl>
      <description><![CDATA[
        <table>
          <tr><td>TS TORAJI (WP262024)</td></tr>
          <tr><td><hr></td></tr>
          <tr><td>0000 UTC NOV 12, 2024</td></tr>
          <tr><td>Storm Location:</td></tr>
          <tr><td><b>18.7 N, 118.6 E</b></td></tr>
          <tr><td>Min Sea Level Pressure:</td></tr>
          <tr><td>993 mb / 29.32 in Hg</td></tr>
          <tr><td>Maximum Intensity:</td></tr>
          <tr><td>40 kt / 46 mph / 74 kph</td></tr>
        </table>
      ]]></description>
      <Point><coordinates>118.6,18.7</coordinates></Point>
    </Placemark>
    <Placemark>
      <name>0600 UTC NOV 12</name>
      <styleUrl>#ts</styleUrl>
      <description><![CDATA[
        <table>
          <tr><td>TS TORAJI (WP262024)</td></tr>
          <tr><td><hr></td></tr>
          <tr><td>0600 UTC NOV 12, 2024</td></tr>
          <tr><td>Storm Location:</td></tr>
          <tr><td><b>19.2 N, 118.0 E</b></td></tr>
          <tr><td>Min Sea Level Pressure:</td></tr>
          <tr><td>996 mb / 29.41 in Hg</td></tr>
          <tr><td>Maximum Intensity:</td></tr>
          <tr><td>35 kt / 40 mph / 65 kph</td></tr>
        </table>
      ]]></description>
      <Point><coordinates>118,19.2</coordinates></Point>
    </Placemark>
    <Placemark>
      <name>1200 UTC NOV 12</name>
      <styleUrl>#ts</styleUrl>
      <description><![CDATA[
        <table>
          <tr><td>TS TORAJI (WP262024)</td></tr>
          <tr><td><hr></td></tr>
          <tr><td>1200 UTC NOV 12, 2024</td></tr>
          <tr><td>Storm Location:</td></tr>
          <tr><td><b>19.8 N, 117.4 E</b></td></tr>
          <tr><td>Min Sea Level Pressure:</td></tr>
          <tr><td>991 mb / 29.26 in Hg</td></tr>
          <tr><td>Maximum Intensity:</td></tr>
          <tr><td>45 kt / 52 mph / 83 kph</td></tr>
        </table>
      ]]></description>
      <Point><coordinates>117.4,19.8</coordinates></Point>
    </Placemark>
    <Placemark>
      <name>1800 UTC NOV 12</name>
      <styleUrl>#ts</styleUrl>
      <description><![CDATA[
        <table>
          <tr><td>TS TORAJI (WP262024)</td></tr>
          <tr><td><hr></td></tr>
          <tr><td>1800 UTC NOV 12, 2024</td></tr>
          <tr><td>Storm Location:</td></tr>
          <tr><td><b>19.9 N, 116.8 E</b></td></tr>
          <tr><td>Min Sea Level Pressure:</td></tr>
          <tr><td>993 mb / 29.32 in Hg</td></tr>
          <tr><td>Maximum Intensity:</td></tr>
          <tr><td>40 kt / 46 mph / 74 kph</td></tr>
        </table>
      ]]></description>
      <Point><coordinates>116.8,19.9</coordinates></Point>
    </Placemark>
    <Placemark>
      <name>0000 UTC NOV 13</name>
      <styleUrl>#ts</styleUrl>
      <description><![CDATA[
        <table>
          <tr><td>TS TORAJI (WP262024)</td></tr>
          <tr><td><hr></td></tr>
          <tr><td>0000 UTC NOV 13, 2024</td></tr>
          <tr><td>Storm Location:</td></tr>
          <tr><td><b>20.2 N, 116.2 E</b></td></tr>
          <tr><td>Min Sea Level Pressure:</td></tr>
          <tr><td>993 mb / 29.32 in Hg</td></tr>
          <tr><td>Maximum Intensity:</td></tr>
          <tr><td>40 kt / 46 mph / 74 kph</td></tr>
        </table>
      ]]></description>
      <Point><coordinates>116.2,20.2</coordinates></Point>
    </Placemark>
    <Placemark>
      <name>0600 UTC NOV 13</name>
      <styleUrl>#ts</styleUrl>
      <description><![CDATA[
        <table>
          <tr><td>TS TORAJI (WP262024)</td></tr>
          <tr><td><hr></td></tr>
          <tr><td>0600 UTC NOV 13, 2024</td></tr>
          <tr><td>Storm Location:</td></tr>
          <tr><td><b>20.6 N, 115.4 E</b></td></tr>
          <tr><td>Min Sea Level Pressure:</td></tr>
          <tr><td>993 mb / 29.32 in Hg</td></tr>
          <tr><td>Maximum Intensity:</td></tr>
          <tr><td>40 kt / 46 mph / 74 kph</td></tr>
        </table>
      ]]></description>
      <Point><coordinates>115.4,20.6</coordinates></Point>
    </Placemark>
    <Placemark>
      <name>1200 UTC NOV 13</name>
      <styleUrl>#ts</styleUrl>
      <description><![CDATA[
        <table>
          <tr><td>TS TORAJI (WP262024)</td></tr>
          <tr><td><hr></td></tr>
          <tr><td>1200 UTC NOV 13, 2024</td></tr>
          <tr><td>Storm Location:</td></tr>
          <tr><td><b>20.8 N, 115.0 E</b></td></tr>
          <tr><td>Min Sea Level Pressure:</td></tr>
          <tr><td>992 mb / 29.29 in Hg</td></tr>
          <tr><td>Maximum Intensity:</td></tr>
          <tr><td>40 kt / 46 mph / 74 kph</td></tr>
        </table>
      ]]></description>
      <Point><coordinates>115,20.8</coordinates></Point>
    </Placemark>
    <Placemark>
      <name>1800 UTC NOV 13</name>
      <styleUrl>#ts</styleUrl>
      <description><![CDATA[
        <table>
          <tr><td>TS TORAJI (WP262024)</td></tr>
          <tr><td><hr></td></tr>
          <tr><td>1800 UTC NOV 13, 2024</td></tr>
          <tr><td>Storm Location:</td></tr>
          <tr><td><b>21.0 N, 114.6 E</b></td></tr>
          <tr><td>Min Sea Level Pressure:</td></tr>
          <tr><td>992 mb / 29.29 in Hg</td></tr>
          <tr><td>Maximum Intensity:</td></tr>
          <tr><td>40 kt / 46 mph / 74 kph</td></tr>
        </table>
      ]]></description>
      <Point><coordinates>114.6,21</coordinates></Point>
    </Placemark>
    <Placemark>
      <name>0000 UTC NOV 14</name>
      <styleUrl>#td</styleUrl>
      <description><![CDATA[
        <table>
          <tr><td>TD TORAJI (WP262024)</td></tr>
          <tr><td><hr></td></tr>
          <tr><td>0000 UTC NOV 14, 2024</td></tr>
          <tr><td>Storm Location:</td></tr>
          <tr><td><b>21.1 N, 114.2 E</b></td></tr>
          <tr><td>Min Sea Level Pressure:</td></tr>
          <tr><td>995 mb / 29.38 in Hg</td></tr>
          <tr><td>Maximum Intensity:</td></tr>
          <tr><td>30 kt / 35 mph / 56 kph</td></tr>
        </table>
      ]]></description>
      <Point><coordinates>114.2,21.1</coordinates></Point>
    </Placemark>
    <Placemark>
      <name>0600 UTC NOV 14</name>
      <styleUrl>#td</styleUrl>
      <description><![CDATA[
        <table>
          <tr><td>TD TORAJI (WP262024)</td></tr>
          <tr><td><hr></td></tr>
          <tr><td>0600 UTC NOV 14, 2024</td></tr>
          <tr><td>Storm Location:</td></tr>
          <tr><td><b>21.2 N, 113.8 E</b></td></tr>
          <tr><td>Min Sea Level Pressure:</td></tr>
          <tr><td>995 mb / 29.38 in Hg</td></tr>
          <tr><td>Maximum Intensity:</td></tr>
          <tr><td>30 kt / 35 mph / 56 kph</td></tr>
        </table>
      ]]></description>
      <Point><coordinates>113.8,21.2</coordinates></Point>
    </Placemark>
    <Placemark>
      <name>1200 UTC NOV 14</name>
      <styleUrl>#td</styleUrl>
      <description><![CDATA[
        <table>
          <tr><td>TD TORAJI (WP262024)</td></tr>
          <tr><td><hr></td></tr>
          <tr><td>1200 UTC NOV 14, 2024</td></tr>
          <tr><td>Storm Location:</td></tr>
          <tr><td><b>21.2 N, 113.5 E</b></td></tr>
          <tr><td>Min Sea Level Pressure:</td></tr>
          <tr><td>995 mb / 29.38 in Hg</td></tr>
          <tr><td>Maximum Intensity:</td></tr>
          <tr><td>30 kt / 35 mph / 56 kph</td></tr>
        </table>
      ]]></description>
      <Point><coordinates>113.5,21.2</coordinates></Point>
    </Placemark>
    <Placemark>
      <name>1800 UTC NOV 14</name>
      <styleUrl>#td</styleUrl>
      <description><![CDATA[
        <table>
          <tr><td>TD TORAJI (WP262024)</td></tr>
          <tr><td><hr></td></tr>
          <tr><td>1800 UTC NOV 14, 2024</td></tr>
          <tr><td>Storm Location:</td></tr>
          <tr><td><b>21.1 N, 113.3 E</b></td></tr>
          <tr><td>Min Sea Level Pressure:</td></tr>
          <tr><td>998 mb / 29.47 in Hg</td></tr>
          <tr><td>Maximum Intensity:</td></tr>
          <tr><td>25 kt / 29 mph / 46 kph</td></tr>
        </table>
      ]]></description>
      <Point><coordinates>113.3,21.1</coordinates></Point>
    </Placemark>
    <Placemark>
      <name>0000 UTC NOV 15</name>
      <styleUrl>#td</styleUrl>
      <description><![CDATA[
        <table>
          <tr><td>TD TORAJI (WP262024)</td></tr>
          <tr><td><hr></td></tr>
          <tr><td>0000 UTC NOV 15, 2024</td></tr>
          <tr><td>Storm Location:</td></tr>
          <tr><td><b>21.0 N, 113.0 E</b></td></tr>
          <tr><td>Min Sea Level Pressure:</td></tr>
          <tr><td>998 mb / 29.47 in Hg</td></tr>
          <tr><td>Maximum Intensity:</td></tr>
          <tr><td>25 kt / 29 mph / 46 kph</td></tr>
        </table>
      ]]></description>
      <Point><coordinates>113,21</coordinates></Point>
    </Placemark>
    <Placemark>
      <name>0600 UTC NOV 15</name>
      <styleUrl>#td</styleUrl>
      <description><![CDATA[
        <table>
          <tr><td>TD TORAJI (WP262024)</td></tr>
          <tr><td><hr></td></tr>
          <tr><td>0600 UTC NOV 15, 2024</td></tr>
          <tr><td>Storm Location:</td></tr>
          <tr><td><b>20.5 N, 113.3 E</b></td></tr>
          <tr><td>Min Sea Level Pressure:</td></tr>
          <tr><td>998 mb / 29.47 in Hg</td></tr>
          <tr><td>Maximum Intensity:</td></tr>
          <tr><td>25 kt / 29 mph / 46 kph</td></tr>
        </table>
      ]]></description>
      <Point><coordinates>113.3,20.5</coordinates></Point>
    </Placemark>
    <Placemark>
      <name>1200 UTC NOV 15</name>
      <styleUrl>#db</styleUrl>
      <description><![CDATA[
        <table>
          <tr><td>DB TORAJI (WP262024)</td></tr>
          <tr><td><hr></td></tr>
          <tr><td>1200 UTC NOV 15, 2024</td></tr>
          <tr><td>Storm Location:</td></tr>
          <tr><td><b>20.2 N, 113.7 E</b></td></tr>
          <tr><td>Min Sea Level Pressure:</td></tr>
          <tr><td>999 mb / 29.50 in Hg</td></tr>
          <tr><td>Maximum Intensity:</td></tr>
          <tr><td>20 kt / 23 mph / 37 kph</td></tr>
        </table>
      ]]></description>
      <Point><coordinates>113.7,20.2</coordinates></Point>
    </Placemark>
  </Document>
</kml>
