<?xml version="1.0" encoding="UTF-8"?>
<kml xmlns="http://www.opengis.net/kml/2.2">
  <Document>
    <name>WP272024</name>
    <open>0</open>

    <!-- =====  Document header ===== -->
    <description><![CDATA[
      <table>
        <tr><td><b>Title:</b> Tropical Cyclone Best Track for WP272024</td></tr>
      </table>
    ]]></description>

    <!-- =====  Styles (ids must be unique)  ===== -->
	<Style id="pt"> 
		<IconStyle> 
			<scale>1.0</scale> 
			<Icon> 
				<href>ex_nhemi.png</href> 
			</Icon> 
             <hotSpot x="15" y="17" xunits="pixels" yunits="pixels"/>
		</IconStyle> 
		<LabelStyle> 
			<scale>1.0</scale> 
		</LabelStyle> 
	</Style>
	<Style id="cat5"> 
		<IconStyle> 
			<scale>1.0</scale> 
			<Icon> 
				<href>cat5_nhemi.png</href> 
			</Icon> 
             <hotSpot x="15" y="17" xunits="pixels" yunits="pixels"/>
		</IconStyle> 
		<LabelStyle> 
			<scale>1.0</scale> 
		</LabelStyle> 
	</Style>
	<Style id="db"> 
		<IconStyle> 
			<scale>1.0</scale> 
			<Icon> 
				<href>ex_nhemi.png</href> 
			</Icon> 
             <hotSpot x="15" y="17" xunits="pixels" yunits="pixels"/>
		</IconStyle> 
		<LabelStyle> 
			<scale>1.0</scale> 
		</LabelStyle> 
	</Style>
	<Style id="cat3"> 
		<IconStyle> 
			<scale>1.0</scale> 
			<Icon> 
				<href>cat3_nhemi.png</href> 
			</Icon> 
             <hotSpot x="15" y="17" xunits="pixels" yunits="pixels"/>
		</IconStyle> 
		<LabelStyle> 
			<scale>1.0</scale> 
		</LabelStyle> 
	</Style>
	<Style id="ss"> 
		<IconStyle> 
			<scale>1.0</scale> 
			<Icon> 
				<href>ts_nhemi.png</href> 
			</Icon> 
             <hotSpot x="15" y="17" xunits="pixels" yunits="pixels"/>
		</IconStyle> 
		<LabelStyle> 
			<scale>1.0</scale> 
		</LabelStyle> 
	</Style>
	<Style id="lo"> 
		<IconStyle> 
			<scale>1.0</scale> 
			<Icon> 
				<href>ex_nhemi.png</href> 
			</Icon> 
             <hotSpot x="15" y="17" xunits="pixels" yunits="pixels"/>
		</IconStyle> 
		<LabelStyle> 
			<scale>1.0</scale> 
		</LabelStyle> 
	</Style>
	<Style id="cat4"> 
		<IconStyle> 
			<scale>1.0</scale> 
			<Icon> 
				<href>cat4_nhemi.png</href> 
			</Icon> 
             <hotSpot x="15" y="17" xunits="pixels" yunits="pixels"/>
		</IconStyle> 
		<LabelStyle> 
			<scale>1.0</scale> 
		</LabelStyle> 
	</Style>
	<Style id="cat2"> 
		<IconStyle> 
			<scale>1.0</scale> 
			<Icon> 
				<href>cat2_nhemi.png</href> 
			</Icon> 
             <hotSpot x="15" y="17" xunits="pixels" yunits="pixels"/>
		</IconStyle> 
		<LabelStyle> 
			<scale>1.0</scale> 
		</LabelStyle> 
	</Style>
	<Style id="ts"> 
		<IconStyle> 
			<scale>1.0</scale> 
			<Icon> 
				<href>ts_nhemi.png</href> 
			</Icon> 
             <hotSpot x="15" y="17" xunits="pixels" yunits="pixels"/>
		</IconStyle> 
		<LabelStyle> 
			<scale>1.0</scale> 
		</LabelStyle> 
	</Style>
	<Style id="cat1"> 
		<IconStyle> 
			<scale>1.0</scale> 
			<Icon> 
				<href>cat1_nhemi.png</href> 
			</Icon> 
             <hotSpot x="15" y="17" xunits="pixels" yunits="pixels"/>
		</IconStyle> 
		<LabelStyle> 
			<scale>1.0</scale> 
		</LabelStyle> 
	</Style>
	<Style id="ex"> 
		<IconStyle> 
			<scale>1.0</scale> 
			<Icon> 
				<href>ex_nhemi.png</href> 
			</Icon> 
             <hotSpot x="15" y="17" xunits="pixels" yunits="pixels"/>
		</IconStyle> 
		<LabelStyle> 
			<scale>1.0</scale> 
		</LabelStyle> 
	</Style>
	<Style id="tc"> 
		<IconStyle> 
			<scale>1.0</scale> 
			<Icon> 
				<href>ex_nhemi.png</href> 
			</Icon> 
             <hotSpot x="15" y="17" xunits="pixels" yunits="pixels"/>
		</IconStyle> 
		<LabelStyle> 
			<scale>1.0</scale> 
		</LabelStyle> 
	</Style>
	<Style id="wv"> 
		<IconStyle> 
			<scale>1.0</scale> 
			<Icon> 
				<href>ex_nhemi.png</href> 
			</Icon> 
             <hotSpot x="15" y="17" xunits="pixels" yunits="pixels"/>
		</IconStyle> 
		<LabelStyle> 
			<scale>1.0</scale> 
		</LabelStyle> 
	</Style>
	<Style id="td"> 
		<IconStyle> 
			<scale>1.0</scale> 
			<Icon> 
				<href>td_nhemi.png</href> 
			</Icon> 
             <hotSpot x="15" y="17" xunits="pixels" yunits="pixels"/>
		</IconStyle> 
		<LabelStyle> 
			<scale>1.0</scale> 
		</LabelStyle> 
	</Style>
	<Style id="sd"> 
		<IconStyle> 
			<scale>1.0</scale> 
			<Icon> 
				<href>ex_nhemi.png</href> 
			</Icon> 
             <hotSpot x="15" y="17" xunits="pixels" yunits="pixels"/>
		</IconStyle> 
		<LabelStyle> 
			<scale>1.0</scale> 
		</LabelStyle> 
	</Style>

    <Placemark>
      <name>1800 UTC NOV 9</name>
      <styleUrl>#db</styleUrl>
      <description><![CDATA[
        <table>
          <tr><td>DB USAGI (WP272024)</td></tr>
          <tr><td><hr></td></tr>
          <tr><td>1800 UTC NOV 9, 2024</td></tr>
          <tr><td>Storm Location:</td></tr>
          <tr><td><b>7.9 N, 147.8 E</b></td></tr>
          <tr><td>Min Sea Level Pressure:</td></tr>
          <tr><td>1010 mb / 29.83 in Hg</td></tr>
          <tr><td>Maximum Intensity:</td></tr>
          <tr><td>15 kt / 17 mph / 28 kph</td></tr>
        </table>
      ]]></description>
      <Point><coordinates>147.8,7.9</coordinates></Point>
    </Placemark>
    <Placemark>
      <name>0000 UTC NOV 10</name>
      <styleUrl>#db</styleUrl>
      <description><![CDATA[
        <table>
          <tr><td>DB USAGI (WP272024)</td></tr>
          <tr><td><hr></td></tr>
          <tr><td>0000 UTC NOV 10, 2024</td></tr>
          <tr><td>Storm Location:</td></tr>
          <tr><td><b>8.8 N, 145.9 E</b></td></tr>
          <tr><td>Min Sea Level Pressure:</td></tr>
          <tr><td>1008 mb / 29.77 in Hg</td></tr>
          <tr><td>Maximum Intensity:</td></tr>
          <tr><td>20 kt / 23 mph / 37 kph</td></tr>
        </table>
      ]]></description>
      <Point><coordinates>145.9,8.8</coordinates></Point>
    </Placemark>
    <Placemark>
      <name>0600 UTC NOV 10</name>
      <styleUrl>#db</styleUrl>
      <description><![CDATA[
        <table>
          <tr><td>DB USAGI (WP272024)</td></tr>
          <tr><td><hr></td></tr>
          <tr><td>0600 UTC NOV 10, 2024</td></tr>
          <tr><td>Storm Location:</td></tr>
          <tr><td><b>9.6 N, 144.3 E</b></td></tr>
          <tr><td>Min Sea Level Pressure:</td></tr>
          <tr><td>1008 mb / 29.77 in Hg</td></tr>
          <tr><td>Maximum Intensity:</td></tr>
          <tr><td>20 kt / 23 mph / 37 kph</td></tr>
        </table>
      ]]></description>
      <Point><coordinates>144.3,9.6</coordinates></Point>
    </Placemark>
    <Placemark>
      <name>1200 UTC NOV 10</name>
      <styleUrl>#db</styleUrl>
      <description><![CDATA[
        <table>
          <tr><td>DB USAGI (WP272024)</td></tr>
          <tr><td><hr></td></tr>
          <tr><td>1200 UTC NOV 10, 2024</td></tr>
          <tr><td>Storm Location:</td></tr>
          <tr><td><b>10.6 N, 142.5 E</b></td></tr>
          <tr><td>Min Sea Level Pressure:</td></tr>
          <tr><td>1007 mb / 29.74 in Hg</td></tr>
          <tr><td>Maximum Intensity:</td></tr>
          <tr><td>20 kt / 23 mph / 37 kph</td></tr>
        </table>
      ]]></description>
      <Point><coordinates>142.5,10.6</coordinates></Point>
    </Placemark>
    <Placemark>
      <name>1800 UTC NOV 10</name>
      <styleUrl>#td</styleUrl>
      <description><![CDATA[
        <table>
          <tr><td>TD USAGI (WP272024)</td></tr>
          <tr><td><hr></td></tr>
          <tr><td>1800 UTC NOV 10, 2024</td></tr>
          <tr><td>Storm Location:</td></tr>
          <tr><td><b>11.3 N, 141.0 E</b></td></tr>
          <tr><td>Min Sea Level Pressure:</td></tr>
          <tr><td>1005 mb / 29.68 in Hg</td></tr>
          <tr><td>Maximum Intensity:</td></tr>
          <tr><td>25 kt / 29 mph / 46 kph</td></tr>
        </table>
      ]]></description>
      <Point><coordinates>141,11.3</coordinates></Point>
    </Placemark>
    <Placemark>
      <name>0000 UTC NOV 11</name>
      <styleUrl>#td</styleUrl>
      <description><![CDATA[
        <table>
          <tr><td>TD USAGI (WP272024)</td></tr>
          <tr><td><hr></td></tr>
          <tr><td>0000 UTC NOV 11, 2024</td></tr>
          <tr><td>Storm Location:</td></tr>
          <tr><td><b>11.9 N, 139.5 E</b></td></tr>
          <tr><td>Min Sea Level Pressure:</td></tr>
          <tr><td>1004 mb / 29.65 in Hg</td></tr>
          <tr><td>Maximum Intensity:</td></tr>
          <tr><td>25 kt / 29 mph / 46 kph</td></tr>
        </table>
      ]]></description>
      <Point><coordinates>139.5,11.9</coordinates></Point>
    </Placemark>
    <Placemark>
      <name>0600 UTC NOV 11</name>
      <styleUrl>#td</styleUrl>
      <description><![CDATA[
        <table>
          <tr><td>TD USAGI (WP272024)</td></tr>
          <tr><td><hr></td></tr>
          <tr><td>0600 UTC NOV 11, 2024</td></tr>
          <tr><td>Storm Location:</td></tr>
          <tr><td><b>12.4 N, 138.2 E</b></td></tr>
          <tr><td>Min Sea Level Pressure:</td></tr>
          <tr><td>1002 mb / 29.59 in Hg</td></tr>
          <tr><td>Maximum Intensity:</td></tr>
          <tr><td>30 kt / 35 mph / 56 kph</td></tr>
        </table>
      ]]></description>
      <Point><coordinates>138.2,12.4</coordinates></Point>
    </Placemark>
    <Placemark>
      <name>1200 UTC NOV 11</name>
      <styleUrl>#ts</styleUrl>
      <description><![CDATA[
        <table>
          <tr><td>TS USAGI (WP272024)</td></tr>
          <tr><td><hr></td></tr>
          <tr><td>1200 UTC NOV 11, 2024</td></tr>
          <tr><td>Storm Location:</td></tr>
          <tr><td><b>12.5 N, 136.5 E</b></td></tr>
          <tr><td>Min Sea Level Pressure:</td></tr>
          <tr><td>1000 mb / 29.53 in Hg</td></tr>
          <tr><td>Maximum Intensity:</td></tr>
          <tr><td>35 kt / 40 mph / 65 kph</td></tr>
        </table>
      ]]></description>
      <Point><coordinates>136.5,12.5</coordinates></Point>
    </Placemark>
    <Placemark>
      <name>1800 UTC NOV 11</name>
      <styleUrl>#ts</styleUrl>
      <description><![CDATA[
        <table>
          <tr><td>TS USAGI (WP272024)</td></tr>
          <tr><td><hr></td></tr>
          <tr><td>1800 UTC NOV 11, 2024</td></tr>
          <tr><td>Storm Location:</td></tr>
          <tr><td><b>12.9 N, 134.8 E</b></td></tr>
          <tr><td>Min Sea Level Pressure:</td></tr>
          <tr><td>999 mb / 29.50 in Hg</td></tr>
          <tr><td>Maximum Intensity:</td></tr>
          <tr><td>45 kt / 52 mph / 83 kph</td></tr>
        </table>
      ]]></description>
      <Point><coordinates>134.8,12.9</coordinates></Point>
    </Placemark>
    <Placemark>
      <name>0000 UTC NOV 12</name>
      <styleUrl>#ts</styleUrl>
      <description><![CDATA[
        <table>
          <tr><td>TS USAGI (WP272024)</td></tr>
          <tr><td><hr></td></tr>
          <tr><td>0000 UTC NOV 12, 2024</td></tr>
          <tr><td>Storm Location:</td></tr>
          <tr><td><b>13.4 N, 133.3 E</b></td></tr>
          <tr><td>Min Sea Level Pressure:</td></tr>
          <tr><td>999 mb / 29.50 in Hg</td></tr>
          <tr><td>Maximum Intensity:</td></tr>
          <tr><td>50 kt / 58 mph / 93 kph</td></tr>
        </table>
      ]]></description>
      <Point><coordinates>133.3,13.4</coordinates></Point>
    </Placemark>
    <Placemark>
      <name>0600 UTC NOV 12</name>
      <styleUrl>#ts</styleUrl>
      <description><![CDATA[
        <table>
          <tr><td>TS USAGI (WP272024)</td></tr>
          <tr><td><hr></td></tr>
          <tr><td>0600 UTC NOV 12, 2024</td></tr>
          <tr><td>Storm Location:</td></tr>
          <tr><td><b>13.8 N, 131.8 E</b></td></tr>
          <tr><td>Min Sea Level Pressure:</td></tr>
          <tr><td>996 mb / 29.41 in Hg</td></tr>
          <tr><td>Maximum Intensity:</td></tr>
          <tr><td>55 kt / 63 mph / 102 kph</td></tr>
        </table>
      ]]></description>
      <Point><coordinates>131.8,13.8</coordinates></Point>
    </Placemark>
    <Placemark>
      <name>1200 UTC NOV 12</name>
      <styleUrl>#ts</styleUrl>
      <description><![CDATA[
        <table>
          <tr><td>TS USAGI (WP272024)</td></tr>
          <tr><td><hr></td></tr>
          <tr><td>1200 UTC NOV 12, 2024</td></tr>
          <tr><td>Storm Location:</td></tr>
          <tr><td><b>14.3 N, 130.4 E</b></td></tr>
          <tr><td>Min Sea Level Pressure:</td></tr>
          <tr><td>991 mb / 29.26 in Hg</td></tr>
          <tr><td>Maximum Intensity:</td></tr>
          <tr><td>60 kt / 69 mph / 111 kph</td></tr>
        </table>
      ]]></description>
      <Point><coordinates>130.4,14.3</coordinates></Point>
    </Placemark>
    <Placemark>
      <name>1800 UTC NOV 12</name>
      <styleUrl>#cat1</styleUrl>
      <description><![CDATA[
        <table>
          <tr><td>HU USAGI (WP272024)</td></tr>
          <tr><td><hr></td></tr>
          <tr><td>1800 UTC NOV 12, 2024</td></tr>
          <tr><td>Storm Location:</td></tr>
          <tr><td><b>14.7 N, 129.0 E</b></td></tr>
          <tr><td>Min Sea Level Pressure:</td></tr>
          <tr><td>986 mb / 29.12 in Hg</td></tr>
          <tr><td>Maximum Intensity:</td></tr>
          <tr><td>65 kt / 75 mph / 120 kph</td></tr>
        </table>
      ]]></description>
      <Point><coordinates>129,14.7</coordinates></Point>
    </Placemark>
    <Placemark>
      <name>0000 UTC NOV 13</name>
      <styleUrl>#cat1</styleUrl>
      <description><![CDATA[
        <table>
          <tr><td>HU USAGI (WP272024)</td></tr>
          <tr><td><hr></td></tr>
          <tr><td>0000 UTC NOV 13, 2024</td></tr>
          <tr><td>Storm Location:</td></tr>
          <tr><td><b>15.1 N, 127.8 E</b></td></tr>
          <tr><td>Min Sea Level Pressure:</td></tr>
          <tr><td>985 mb / 29.09 in Hg</td></tr>
          <tr><td>Maximum Intensity:</td></tr>
          <tr><td>70 kt / 81 mph / 130 kph</td></tr>
        </table>
      ]]></description>
      <Point><coordinates>127.8,15.1</coordinates></Point>
    </Placemark>
    <Placemark>
      <name>0600 UTC NOV 13</name>
      <styleUrl>#cat2</styleUrl>
      <description><![CDATA[
        <table>
          <tr><td>HU USAGI (WP272024)</td></tr>
          <tr><td><hr></td></tr>
          <tr><td>0600 UTC NOV 13, 2024</td></tr>
          <tr><td>Storm Location:</td></tr>
          <tr><td><b>15.6 N, 126.5 E</b></td></tr>
          <tr><td>Min Sea Level Pressure:</td></tr>
          <tr><td>976 mb / 28.82 in Hg</td></tr>
          <tr><td>Maximum Intensity:</td></tr>
          <tr><td>85 kt / 98 mph / 157 kph</td></tr>
        </table>
      ]]></description>
      <Point><coordinates>126.5,15.6</coordinates></Point>
    </Placemark>
    <Placemark>
      <name>1200 UTC NOV 13</name>
      <styleUrl>#cat4</styleUrl>
      <description><![CDATA[
        <table>
          <tr><td>HU USAGI (WP272024)</td></tr>
          <tr><td><hr></td></tr>
          <tr><td>1200 UTC NOV 13, 2024</td></tr>
          <tr><td>Storm Location:</td></tr>
          <tr><td><b>16.2 N, 125.2 E</b></td></tr>
          <tr><td>Min Sea Level Pressure:</td></tr>
          <tr><td>949 mb / 28.02 in Hg</td></tr>
          <tr><td>Maximum Intensity:</td></tr>
          <tr><td>115 kt / 132 mph / 213 kph</td></tr>
        </table>
      ]]></description>
      <Point><coordinates>125.2,16.2</coordinates></Point>
    </Placemark>
    <Placemark>
      <name>1800 UTC NOV 13</name>
      <styleUrl>#cat4</styleUrl>
      <description><![CDATA[
        <table>
          <tr><td>HU USAGI (WP272024)</td></tr>
          <tr><td><hr></td></tr>
          <tr><td>1800 UTC NOV 13, 2024</td></tr>
          <tr><td>Storm Location:</td></tr>
          <tr><td><b>16.7 N, 123.9 E</b></td></tr>
          <tr><td>Min Sea Level Pressure:</td></tr>
          <tr><td>934 mb / 27.58 in Hg</td></tr>
          <tr><td>Maximum Intensity:</td></tr>
          <tr><td>130 kt / 150 mph / 241 kph</td></tr>
        </table>
      ]]></description>
      <Point><coordinates>123.9,16.7</coordinates></Point>
    </Placemark>
    <Placemark>
      <name>0000 UTC NOV 14</name>
      <styleUrl>#cat4</styleUrl>
      <description><![CDATA[
        <table>
          <tr><td>HU USAGI (WP272024)</td></tr>
          <tr><td><hr></td></tr>
          <tr><td>0000 UTC NOV 14, 2024</td></tr>
          <tr><td>Storm Location:</td></tr>
          <tr><td><b>17.2 N, 123.1 E</b></td></tr>
          <tr><td>Min Sea Level Pressure:</td></tr>
          <tr><td>939 mb / 27.73 in Hg</td></tr>
          <tr><td>Maximum Intensity:</td></tr>
          <tr><td>125 kt / 144 mph / 232 kph</td></tr>
        </table>
      ]]></description>
      <Point><coordinates>123.1,17.2</coordinates></Point>
    </Placemark>
    <Placemark>
      <name>0600 UTC NOV 14</name>
      <styleUrl>#cat3</styleUrl>
      <description><![CDATA[
        <table>
          <tr><td>HU USAGI (WP272024)</td></tr>
          <tr><td><hr></td></tr>
          <tr><td>0600 UTC NOV 14, 2024</td></tr>
          <tr><td>Storm Location:</td></tr>
          <tr><td><b>17.9 N, 122.1 E</b></td></tr>
          <tr><td>Min Sea Level Pressure:</td></tr>
          <tr><td>962 mb / 28.41 in Hg</td></tr>
          <tr><td>Maximum Intensity:</td></tr>
          <tr><td>100 kt / 115 mph / 185 kph</td></tr>
        </table>
      ]]></description>
      <Point><coordinates>122.1,17.9</coordinates></Point>
    </Placemark>
    <Placemark>
      <name>1200 UTC NOV 14</name>
      <styleUrl>#cat1</styleUrl>
      <description><![CDATA[
        <table>
          <tr><td>HU USAGI (WP272024)</td></tr>
          <tr><td><hr></td></tr>
          <tr><td>1200 UTC NOV 14, 2024</td></tr>
          <tr><td>Storm Location:</td></tr>
          <tr><td><b>18.8 N, 121.4 E</b></td></tr>
          <tr><td>Min Sea Level Pressure:</td></tr>
          <tr><td>980 mb / 28.94 in Hg</td></tr>
          <tr><td>Maximum Intensity:</td></tr>
          <tr><td>75 kt / 86 mph / 139 kph</td></tr>
        </table>
      ]]></description>
      <Point><coordinates>121.4,18.8</coordinates></Point>
    </Placemark>
    <Placemark>
      <name>1800 UTC NOV 14</name>
      <styleUrl>#cat1</styleUrl>
      <description><![CDATA[
        <table>
          <tr><td>HU USAGI (WP272024)</td></tr>
          <tr><td><hr></td></tr>
          <tr><td>1800 UTC NOV 14, 2024</td></tr>
          <tr><td>Storm Location:</td></tr>
          <tr><td><b>19.7 N, 120.6 E</b></td></tr>
          <tr><td>Min Sea Level Pressure:</td></tr>
          <tr><td>983 mb / 29.03 in Hg</td></tr>
          <tr><td>Maximum Intensity:</td></tr>
          <tr><td>70 kt / 81 mph / 130 kph</td></tr>
        </table>
      ]]></description>
      <Point><coordinates>120.6,19.7</coordinates></Point>
    </Placemark>
    <Placemark>
      <name>0000 UTC NOV 15</name>
      <styleUrl>#cat1</styleUrl>
      <description><![CDATA[
        <table>
          <tr><td>HU USAGI (WP272024)</td></tr>
          <tr><td><hr></td></tr>
          <tr><td>0000 UTC NOV 15, 2024</td></tr>
          <tr><td>Storm Location:</td></tr>
          <tr><td><b>20.4 N, 119.9 E</b></td></tr>
          <tr><td>Min Sea Level Pressure:</td></tr>
          <tr><td>983 mb / 29.03 in Hg</td></tr>
          <tr><td>Maximum Intensity:</td></tr>
          <tr><td>70 kt / 81 mph / 130 kph</td></tr>
        </table>
      ]]></description>
      <Point><coordinates>119.9,20.4</coordinates></Point>
    </Placemark>
    <Placemark>
      <name>0600 UTC NOV 15</name>
      <styleUrl>#ts</styleUrl>
      <description><![CDATA[
        <table>
          <tr><td>TS USAGI (WP272024)</td></tr>
          <tr><td><hr></td></tr>
          <tr><td>0600 UTC NOV 15, 2024</td></tr>
          <tr><td>Storm Location:</td></tr>
          <tr><td><b>21.1 N, 119.4 E</b></td></tr>
          <tr><td>Min Sea Level Pressure:</td></tr>
          <tr><td>992 mb / 29.29 in Hg</td></tr>
          <tr><td>Maximum Intensity:</td></tr>
          <tr><td>55 kt / 63 mph / 102 kph</td></tr>
        </table>
      ]]></description>
      <Point><coordinates>119.4,21.1</coordinates></Point>
    </Placemark>
    <Placemark>
      <name>1200 UTC NOV 15</name>
      <styleUrl>#ts</styleUrl>
      <description><![CDATA[
        <table>
          <tr><td>TS USAGI (WP272024)</td></tr>
          <tr><td><hr></td></tr>
          <tr><td>1200 UTC NOV 15, 2024</td></tr>
          <tr><td>Storm Location:</td></tr>
          <tr><td><b>21.7 N, 119.5 E</b></td></tr>
          <tr><td>Min Sea Level Pressure:</td></tr>
          <tr><td>999 mb / 29.50 in Hg</td></tr>
          <tr><td>Maximum Intensity:</td></tr>
          <tr><td>40 kt / 46 mph / 74 kph</td></tr>
        </table>
      ]]></description>
      <Point><coordinates>119.5,21.7</coordinates></Point>
    </Placemark>
    <Placemark>
      <name>1800 UTC NOV 15</name>
      <styleUrl>#ts</styleUrl>
      <description><![CDATA[
        <table>
          <tr><td>TS USAGI (WP272024)</td></tr>
          <tr><td><hr></td></tr>
          <tr><td>1800 UTC NOV 15, 2024</td></tr>
          <tr><td>Storm Location:</td></tr>
          <tr><td><b>22.2 N, 119.7 E</b></td></tr>
          <tr><td>Min Sea Level Pressure:</td></tr>
          <tr><td>1001 mb / 29.56 in Hg</td></tr>
          <tr><td>Maximum Intensity:</td></tr>
          <tr><td>35 kt / 40 mph / 65 kph</td></tr>
        </table>
      ]]></description>
      <Point><coordinates>119.7,22.2</coordinates></Point>
    </Placemark>
    <Placemark>
      <name>0000 UTC NOV 16</name>
      <styleUrl>#td</styleUrl>
      <description><![CDATA[
        <table>
          <tr><td>TD USAGI (WP272024)</td></tr>
          <tr><td><hr></td></tr>
          <tr><td>0000 UTC NOV 16, 2024</td></tr>
          <tr><td>Storm Location:</td></tr>
          <tr><td><b>22.8 N, 120.3 E</b></td></tr>
          <tr><td>Min Sea Level Pressure:</td></tr>
          <tr><td>1002 mb / 29.59 in Hg</td></tr>
          <tr><td>Maximum Intensity:</td></tr>
          <tr><td>30 kt / 35 mph / 56 kph</td></tr>
        </table>
      ]]></description>
      <Point><coordinates>120.3,22.8</coordinates></Point>
    </Placemark>
    <Placemark>
      <name>0600 UTC NOV 16</name>
      <styleUrl>#td</styleUrl>
      <description><![CDATA[
        <table>
          <tr><td>TD USAGI (WP272024)</td></tr>
          <tr><td><hr></td></tr>
          <tr><td>0600 UTC NOV 16, 2024</td></tr>
          <tr><td>Storm Location:</td></tr>
          <tr><td><b>22.3 N, 120.5 E</b></td></tr>
          <tr><td>Min Sea Level Pressure:</td></tr>
          <tr><td>1003 mb / 29.62 in Hg</td></tr>
          <tr><td>Maximum Intensity:</td></tr>
          <tr><td>25 kt / 29 mph / 46 kph</td></tr>
        </table>
      ]]></description>
      <Point><coordinates>120.5,22.3</coordinates></Point>
    </Placemark>
    <Placemark>
      <name>1200 UTC NOV 16</name>
      <styleUrl>#db</styleUrl>
      <description><![CDATA[
        <table>
          <tr><td>DB USAGI (WP272024)</td></tr>
          <tr><td><hr></td></tr>
          <tr><td>1200 UTC NOV 16, 2024</td></tr>
          <tr><td>Storm Location:</td></tr>
          <tr><td><b>21.6 N, 120.5 E</b></td></tr>
          <tr><td>Min Sea Level Pressure:</td></tr>
          <tr><td>1004 mb / 29.65 in Hg</td></tr>
          <tr><td>Maximum Intensity:</td></tr>
          <tr><td>20 kt / 23 mph / 37 kph</td></tr>
        </table>
      ]]></description>
      <Point><coordinates>120.5,21.6</coordinates></Point>
    </Placemark>
  </Document>
</kml>
